<?xml version="1.0" encoding="UTF-8"?>
<gpx creator="StravaGPX" version="1.1" xmlns="http://www.topografix.com/GPX/1/1" xmlns:xsi="http://www.w3.org/2001/XMLSchema-instance" xsi:schemaLocation="http://www.topografix.com/GPX/1/1 http://www.topografix.com/GPX/1/1/gpx.xsd">
 <metadata>
  <name>Sunday 22 Mar 2026 - 20k</name>
  <author>
   <name>Majid Nazem 🇦🇺</name>
   <link href="https://www.strava.com/athletes/5612969"/>
  </author>
  <copyright author="OpenStreetMap contributors">
   <year>2020</year>
   <license>https://www.openstreetmap.org/copyright</license>
  </copyright>
  <link href="https://www.strava.com/routes/3469826177112994982"/>
 </metadata>
 <trk>
  <name>Sunday 22 Mar 2026 - 20k</name>
  <link href="https://www.strava.com/routes/3469826177112994982"/>
  <type>running</type>
  <trkseg>
   <trkpt lat="-37.89094" lon="145.31733">
    <ele>179.04</ele>
   </trkpt>
   <trkpt lat="-37.89076" lon="145.31708">
    <ele>180.45000000000002</ele>
   </trkpt>
   <trkpt lat="-37.890730000000005" lon="145.31686000000002">
    <ele>181.87</ele>
   </trkpt>
   <trkpt lat="-37.8909" lon="145.31665">
    <ele>181.46</ele>
   </trkpt>
   <trkpt lat="-37.89099" lon="145.31640000000002">
    <ele>181.66000000000003</ele>
   </trkpt>
   <trkpt lat="-37.89099" lon="145.31613000000002">
    <ele>181.72000000000003</ele>
   </trkpt>
   <trkpt lat="-37.89112" lon="145.31599">
    <ele>180.03000000000003</ele>
   </trkpt>
   <trkpt lat="-37.89112" lon="145.31598000000002">
    <ele>179.94000000000003</ele>
   </trkpt>
   <trkpt lat="-37.89148" lon="145.31548">
    <ele>174.70000000000002</ele>
   </trkpt>
   <trkpt lat="-37.89159" lon="145.3153">
    <ele>173.90000000000003</ele>
   </trkpt>
   <trkpt lat="-37.89166" lon="145.31470000000002">
    <ele>178.03000000000003</ele>
   </trkpt>
   <trkpt lat="-37.8917" lon="145.3142">
    <ele>181.47000000000003</ele>
   </trkpt>
   <trkpt lat="-37.89168" lon="145.31405">
    <ele>182.23</ele>
   </trkpt>
   <trkpt lat="-37.89159" lon="145.31376">
    <ele>184.06</ele>
   </trkpt>
   <trkpt lat="-37.8915" lon="145.31358">
    <ele>186.16000000000003</ele>
   </trkpt>
   <trkpt lat="-37.89132" lon="145.3134">
    <ele>187.29000000000002</ele>
   </trkpt>
   <trkpt lat="-37.89092" lon="145.31309000000002">
    <ele>192.70000000000002</ele>
   </trkpt>
   <trkpt lat="-37.89074" lon="145.31299">
    <ele>193.68</ele>
   </trkpt>
   <trkpt lat="-37.890710000000006" lon="145.31292000000002">
    <ele>194.01000000000002</ele>
   </trkpt>
   <trkpt lat="-37.890710000000006" lon="145.31282000000002">
    <ele>194.08</ele>
   </trkpt>
   <trkpt lat="-37.89072" lon="145.31278">
    <ele>194.08</ele>
   </trkpt>
   <trkpt lat="-37.89101" lon="145.31248000000002">
    <ele>194.86</ele>
   </trkpt>
   <trkpt lat="-37.89105" lon="145.31242">
    <ele>195.36</ele>
   </trkpt>
   <trkpt lat="-37.891180000000006" lon="145.31198">
    <ele>198.39000000000001</ele>
   </trkpt>
   <trkpt lat="-37.89121" lon="145.31161">
    <ele>200.73000000000002</ele>
   </trkpt>
   <trkpt lat="-37.89119" lon="145.31122000000002">
    <ele>203.69</ele>
   </trkpt>
   <trkpt lat="-37.89092" lon="145.31052000000003">
    <ele>214.71</ele>
   </trkpt>
   <trkpt lat="-37.89038" lon="145.30998000000002">
    <ele>227.36</ele>
   </trkpt>
   <trkpt lat="-37.890330000000006" lon="145.30995000000001">
    <ele>228.19000000000003</ele>
   </trkpt>
   <trkpt lat="-37.89027" lon="145.30997000000002">
    <ele>229.72</ele>
   </trkpt>
   <trkpt lat="-37.89025" lon="145.31002">
    <ele>229.72</ele>
   </trkpt>
   <trkpt lat="-37.89027" lon="145.31046">
    <ele>234.40000000000003</ele>
   </trkpt>
   <trkpt lat="-37.89025" lon="145.31066">
    <ele>238.02</ele>
   </trkpt>
   <trkpt lat="-37.89016" lon="145.31092">
    <ele>239.18000000000004</ele>
   </trkpt>
   <trkpt lat="-37.89002" lon="145.31111">
    <ele>243.08</ele>
   </trkpt>
   <trkpt lat="-37.88993" lon="145.31119">
    <ele>244.27</ele>
   </trkpt>
   <trkpt lat="-37.889680000000006" lon="145.31134">
    <ele>247.69000000000003</ele>
   </trkpt>
   <trkpt lat="-37.8896" lon="145.31134">
    <ele>251.58</ele>
   </trkpt>
   <trkpt lat="-37.88958" lon="145.31130000000002">
    <ele>251.58</ele>
   </trkpt>
   <trkpt lat="-37.88955" lon="145.31122000000002">
    <ele>251.58</ele>
   </trkpt>
   <trkpt lat="-37.88958" lon="145.31101">
    <ele>251.58</ele>
   </trkpt>
   <trkpt lat="-37.88958" lon="145.3109">
    <ele>251.58</ele>
   </trkpt>
   <trkpt lat="-37.88951" lon="145.31074">
    <ele>260.67</ele>
   </trkpt>
   <trkpt lat="-37.88931" lon="145.31038">
    <ele>264.8</ele>
   </trkpt>
   <trkpt lat="-37.889210000000006" lon="145.31025000000002">
    <ele>266.25000000000006</ele>
   </trkpt>
   <trkpt lat="-37.88908" lon="145.31016000000002">
    <ele>267.8</ele>
   </trkpt>
   <trkpt lat="-37.88902" lon="145.31014000000002">
    <ele>271.84000000000003</ele>
   </trkpt>
   <trkpt lat="-37.88893" lon="145.31018">
    <ele>271.84000000000003</ele>
   </trkpt>
   <trkpt lat="-37.88868" lon="145.31060000000002">
    <ele>279.23</ele>
   </trkpt>
   <trkpt lat="-37.88859" lon="145.31071">
    <ele>280.78000000000003</ele>
   </trkpt>
   <trkpt lat="-37.888450000000006" lon="145.31074">
    <ele>283.57000000000005</ele>
   </trkpt>
   <trkpt lat="-37.88794" lon="145.31068000000002">
    <ele>296.06000000000006</ele>
   </trkpt>
   <trkpt lat="-37.88779" lon="145.31063">
    <ele>299.4</ele>
   </trkpt>
   <trkpt lat="-37.887330000000006" lon="145.31040000000002">
    <ele>310.99000000000007</ele>
   </trkpt>
   <trkpt lat="-37.88705" lon="145.31019">
    <ele>314.37</ele>
   </trkpt>
   <trkpt lat="-37.88696" lon="145.31015000000002">
    <ele>315.65000000000003</ele>
   </trkpt>
   <trkpt lat="-37.88687" lon="145.31014000000002">
    <ele>316.42</ele>
   </trkpt>
   <trkpt lat="-37.88673" lon="145.31015000000002">
    <ele>317.55</ele>
   </trkpt>
   <trkpt lat="-37.8866" lon="145.3102">
    <ele>318.98</ele>
   </trkpt>
   <trkpt lat="-37.88629" lon="145.31038">
    <ele>324.87000000000006</ele>
   </trkpt>
   <trkpt lat="-37.8862" lon="145.31044">
    <ele>324.87000000000006</ele>
   </trkpt>
   <trkpt lat="-37.88611" lon="145.31055">
    <ele>329.23</ele>
   </trkpt>
   <trkpt lat="-37.88579500178934" lon="145.31120500285434">
    <ele>339.59</ele>
   </trkpt>
   <trkpt lat="-37.88548" lon="145.31186000000002">
    <ele>349.79</ele>
   </trkpt>
   <trkpt lat="-37.88541" lon="145.31207">
    <ele>354.75</ele>
   </trkpt>
   <trkpt lat="-37.8853" lon="145.31255000000002">
    <ele>364.42</ele>
   </trkpt>
   <trkpt lat="-37.885270000000006" lon="145.31266000000002">
    <ele>364.42</ele>
   </trkpt>
   <trkpt lat="-37.88519" lon="145.31273000000002">
    <ele>366.17</ele>
   </trkpt>
   <trkpt lat="-37.88501" lon="145.31279">
    <ele>371.02</ele>
   </trkpt>
   <trkpt lat="-37.88488" lon="145.3128">
    <ele>374.83000000000004</ele>
   </trkpt>
   <trkpt lat="-37.884640000000005" lon="145.31277">
    <ele>378.46000000000004</ele>
   </trkpt>
   <trkpt lat="-37.88461" lon="145.31262">
    <ele>377.90000000000003</ele>
   </trkpt>
   <trkpt lat="-37.88449" lon="145.31237000000002">
    <ele>376.46000000000004</ele>
   </trkpt>
   <trkpt lat="-37.88411" lon="145.31159000000002">
    <ele>369.81</ele>
   </trkpt>
   <trkpt lat="-37.884" lon="145.31125">
    <ele>366.20000000000005</ele>
   </trkpt>
   <trkpt lat="-37.88394" lon="145.31089">
    <ele>363.53000000000003</ele>
   </trkpt>
   <trkpt lat="-37.88391" lon="145.31067000000002">
    <ele>361.68000000000006</ele>
   </trkpt>
   <trkpt lat="-37.88398" lon="145.30967">
    <ele>354.11</ele>
   </trkpt>
   <trkpt lat="-37.88398" lon="145.3095">
    <ele>354.11</ele>
   </trkpt>
   <trkpt lat="-37.883950000000006" lon="145.30926000000002">
    <ele>349.58</ele>
   </trkpt>
   <trkpt lat="-37.883860000000006" lon="145.30907000000002">
    <ele>349.58</ele>
   </trkpt>
   <trkpt lat="-37.88353" lon="145.3086">
    <ele>346.48</ele>
   </trkpt>
   <trkpt lat="-37.88333" lon="145.30835000000002">
    <ele>343.80000000000007</ele>
   </trkpt>
   <trkpt lat="-37.88313" lon="145.30817000000002">
    <ele>341.62</ele>
   </trkpt>
   <trkpt lat="-37.88277" lon="145.30791000000002">
    <ele>337.16</ele>
   </trkpt>
   <trkpt lat="-37.88268" lon="145.30786">
    <ele>336.28000000000003</ele>
   </trkpt>
   <trkpt lat="-37.88232" lon="145.30774000000002">
    <ele>332.35</ele>
   </trkpt>
   <trkpt lat="-37.88208" lon="145.30768">
    <ele>330.51</ele>
   </trkpt>
   <trkpt lat="-37.881800000000005" lon="145.30764000000002">
    <ele>328.83</ele>
   </trkpt>
   <trkpt lat="-37.88152" lon="145.30794">
    <ele>325.59000000000003</ele>
   </trkpt>
   <trkpt lat="-37.88145" lon="145.30807000000001">
    <ele>324.56</ele>
   </trkpt>
   <trkpt lat="-37.881420000000006" lon="145.30819000000002">
    <ele>324.17</ele>
   </trkpt>
   <trkpt lat="-37.881420000000006" lon="145.30818000000002">
    <ele>324.23</ele>
   </trkpt>
   <trkpt lat="-37.88145" lon="145.30807000000001">
    <ele>324.56</ele>
   </trkpt>
   <trkpt lat="-37.88152" lon="145.30794">
    <ele>325.99</ele>
   </trkpt>
   <trkpt lat="-37.88167" lon="145.30778">
    <ele>327.93</ele>
   </trkpt>
   <trkpt lat="-37.88152" lon="145.30794">
    <ele>325.99</ele>
   </trkpt>
   <trkpt lat="-37.88145" lon="145.30807000000001">
    <ele>324.56</ele>
   </trkpt>
   <trkpt lat="-37.88127" lon="145.30875">
    <ele>321.03000000000003</ele>
   </trkpt>
   <trkpt lat="-37.8812" lon="145.30912">
    <ele>318.18</ele>
   </trkpt>
   <trkpt lat="-37.88114" lon="145.30981">
    <ele>310.57</ele>
   </trkpt>
   <trkpt lat="-37.881040000000006" lon="145.31008">
    <ele>309.51</ele>
   </trkpt>
   <trkpt lat="-37.88096" lon="145.31012">
    <ele>309.44000000000005</ele>
   </trkpt>
   <trkpt lat="-37.88089" lon="145.31011">
    <ele>309.37</ele>
   </trkpt>
   <trkpt lat="-37.88082" lon="145.31005000000002">
    <ele>309.07</ele>
   </trkpt>
   <trkpt lat="-37.88035" lon="145.30939">
    <ele>297.28000000000003</ele>
   </trkpt>
   <trkpt lat="-37.87979" lon="145.30893">
    <ele>287.51000000000005</ele>
   </trkpt>
   <trkpt lat="-37.87921" lon="145.30859">
    <ele>281.56</ele>
   </trkpt>
   <trkpt lat="-37.87863" lon="145.30831">
    <ele>270.26</ele>
   </trkpt>
   <trkpt lat="-37.87816" lon="145.30803">
    <ele>263.12</ele>
   </trkpt>
   <trkpt lat="-37.87787" lon="145.30791000000002">
    <ele>259.92</ele>
   </trkpt>
   <trkpt lat="-37.87744" lon="145.30784">
    <ele>255.89000000000001</ele>
   </trkpt>
   <trkpt lat="-37.87729" lon="145.30784">
    <ele>254.02</ele>
   </trkpt>
   <trkpt lat="-37.87711" lon="145.30787">
    <ele>253.08</ele>
   </trkpt>
   <trkpt lat="-37.877120000000005" lon="145.30787">
    <ele>253.13000000000002</ele>
   </trkpt>
   <trkpt lat="-37.87686" lon="145.30793">
    <ele>249.96</ele>
   </trkpt>
   <trkpt lat="-37.876470000000005" lon="145.30795">
    <ele>247.07</ele>
   </trkpt>
   <trkpt lat="-37.876200000000004" lon="145.30781000000002">
    <ele>241.83</ele>
   </trkpt>
   <trkpt lat="-37.87597" lon="145.30773000000002">
    <ele>237.83</ele>
   </trkpt>
   <trkpt lat="-37.87561" lon="145.30773000000002">
    <ele>235.13</ele>
   </trkpt>
   <trkpt lat="-37.87525" lon="145.30781000000002">
    <ele>229.93</ele>
   </trkpt>
   <trkpt lat="-37.87498" lon="145.30769">
    <ele>227.78</ele>
   </trkpt>
   <trkpt lat="-37.87483" lon="145.30766">
    <ele>227.94000000000003</ele>
   </trkpt>
   <trkpt lat="-37.87478" lon="145.3082">
    <ele>235.56</ele>
   </trkpt>
   <trkpt lat="-37.87473" lon="145.30829">
    <ele>237.94</ele>
   </trkpt>
   <trkpt lat="-37.87458" lon="145.30846000000003">
    <ele>241.36</ele>
   </trkpt>
   <trkpt lat="-37.87424" lon="145.30875">
    <ele>250.26000000000002</ele>
   </trkpt>
   <trkpt lat="-37.87411" lon="145.30882000000003">
    <ele>252.49000000000004</ele>
   </trkpt>
   <trkpt lat="-37.87369" lon="145.30894">
    <ele>257.73</ele>
   </trkpt>
   <trkpt lat="-37.87357" lon="145.30935000000002">
    <ele>267.93</ele>
   </trkpt>
   <trkpt lat="-37.87353" lon="145.30943000000002">
    <ele>270.54</ele>
   </trkpt>
   <trkpt lat="-37.87326" lon="145.30966">
    <ele>280.04</ele>
   </trkpt>
   <trkpt lat="-37.87317" lon="145.30980000000002">
    <ele>282.81</ele>
   </trkpt>
   <trkpt lat="-37.87306" lon="145.31023000000002">
    <ele>294.37</ele>
   </trkpt>
   <trkpt lat="-37.87299" lon="145.31035">
    <ele>299.77000000000004</ele>
   </trkpt>
   <trkpt lat="-37.8727" lon="145.31074">
    <ele>315.45</ele>
   </trkpt>
   <trkpt lat="-37.87236" lon="145.31108">
    <ele>328.13000000000005</ele>
   </trkpt>
   <trkpt lat="-37.872130000000006" lon="145.31118">
    <ele>335.59000000000003</ele>
   </trkpt>
   <trkpt lat="-37.87205" lon="145.31123000000002">
    <ele>337.08000000000004</ele>
   </trkpt>
   <trkpt lat="-37.872" lon="145.31129">
    <ele>340.37</ele>
   </trkpt>
   <trkpt lat="-37.871930000000006" lon="145.31158000000002">
    <ele>349.19000000000005</ele>
   </trkpt>
   <trkpt lat="-37.87201" lon="145.31204000000002">
    <ele>360.78000000000003</ele>
   </trkpt>
   <trkpt lat="-37.87191" lon="145.31216">
    <ele>366.59000000000003</ele>
   </trkpt>
   <trkpt lat="-37.87182" lon="145.31232">
    <ele>370.20000000000005</ele>
   </trkpt>
   <trkpt lat="-37.87182" lon="145.31231000000002">
    <ele>369.78000000000003</ele>
   </trkpt>
   <trkpt lat="-37.87174" lon="145.31253">
    <ele>376.82000000000005</ele>
   </trkpt>
   <trkpt lat="-37.87165" lon="145.31262">
    <ele>376.82000000000005</ele>
   </trkpt>
   <trkpt lat="-37.87133" lon="145.3128">
    <ele>387.33</ele>
   </trkpt>
   <trkpt lat="-37.87122" lon="145.31293000000002">
    <ele>390.21000000000004</ele>
   </trkpt>
   <trkpt lat="-37.87088500168487" lon="145.3135600028525">
    <ele>393.35</ele>
   </trkpt>
   <trkpt lat="-37.87055" lon="145.31419000000002">
    <ele>388.25000000000006</ele>
   </trkpt>
   <trkpt lat="-37.87041" lon="145.31411">
    <ele>386.36</ele>
   </trkpt>
   <trkpt lat="-37.870340000000006" lon="145.31408000000002">
    <ele>385.83</ele>
   </trkpt>
   <trkpt lat="-37.87026" lon="145.31409000000002">
    <ele>384.64000000000004</ele>
   </trkpt>
   <trkpt lat="-37.87017" lon="145.31414">
    <ele>382.52000000000004</ele>
   </trkpt>
   <trkpt lat="-37.86997" lon="145.31447">
    <ele>377.39</ele>
   </trkpt>
   <trkpt lat="-37.86988" lon="145.31455000000003">
    <ele>377.39</ele>
   </trkpt>
   <trkpt lat="-37.86972" lon="145.31458">
    <ele>373.93</ele>
   </trkpt>
   <trkpt lat="-37.869020000000006" lon="145.31414">
    <ele>361.3</ele>
   </trkpt>
   <trkpt lat="-37.86898" lon="145.31477">
    <ele>355.28000000000003</ele>
   </trkpt>
   <trkpt lat="-37.869" lon="145.31505">
    <ele>351.69</ele>
   </trkpt>
   <trkpt lat="-37.86896" lon="145.31523">
    <ele>350.88</ele>
   </trkpt>
   <trkpt lat="-37.86889" lon="145.31538">
    <ele>349.67</ele>
   </trkpt>
   <trkpt lat="-37.86871" lon="145.31564">
    <ele>348.85</ele>
   </trkpt>
   <trkpt lat="-37.86842" lon="145.31596000000002">
    <ele>348.06</ele>
   </trkpt>
   <trkpt lat="-37.86811" lon="145.31645">
    <ele>346.36</ele>
   </trkpt>
   <trkpt lat="-37.867920001140405" lon="145.31697000134926">
    <ele>342.96000000000004</ele>
   </trkpt>
   <trkpt lat="-37.86773" lon="145.31749000000002">
    <ele>340.69000000000005</ele>
   </trkpt>
   <trkpt lat="-37.867740000000005" lon="145.31747000000001">
    <ele>340.71</ele>
   </trkpt>
   <trkpt lat="-37.86759" lon="145.31787">
    <ele>339.49</ele>
   </trkpt>
   <trkpt lat="-37.86741" lon="145.31875000000002">
    <ele>336.15</ele>
   </trkpt>
   <trkpt lat="-37.86744" lon="145.31893000000002">
    <ele>334.58000000000004</ele>
   </trkpt>
   <trkpt lat="-37.86762" lon="145.31942">
    <ele>331.1</ele>
   </trkpt>
   <trkpt lat="-37.86782" lon="145.31976">
    <ele>328.89</ele>
   </trkpt>
   <trkpt lat="-37.86786" lon="145.31989000000002">
    <ele>328.67</ele>
   </trkpt>
   <trkpt lat="-37.86786" lon="145.31999000000002">
    <ele>328.66</ele>
   </trkpt>
   <trkpt lat="-37.867720000000006" lon="145.32028000000003">
    <ele>329.25000000000006</ele>
   </trkpt>
   <trkpt lat="-37.86737" lon="145.32079000000002">
    <ele>330.16</ele>
   </trkpt>
   <trkpt lat="-37.86712" lon="145.32127">
    <ele>329.08000000000004</ele>
   </trkpt>
   <trkpt lat="-37.86706" lon="145.32158">
    <ele>326.91</ele>
   </trkpt>
   <trkpt lat="-37.86715" lon="145.32185">
    <ele>324.89</ele>
   </trkpt>
   <trkpt lat="-37.86741" lon="145.32231000000002">
    <ele>321.98</ele>
   </trkpt>
   <trkpt lat="-37.86782500160754" lon="145.32293999634422">
    <ele>318.86</ele>
   </trkpt>
   <trkpt lat="-37.86824" lon="145.32357000000002">
    <ele>316.85</ele>
   </trkpt>
   <trkpt lat="-37.868280000000006" lon="145.32366000000002">
    <ele>316.85</ele>
   </trkpt>
   <trkpt lat="-37.86827" lon="145.32377000000002">
    <ele>316.16</ele>
   </trkpt>
   <trkpt lat="-37.868170000000006" lon="145.32392000000002">
    <ele>315.77000000000004</ele>
   </trkpt>
   <trkpt lat="-37.867715001552334" lon="145.32454000392826">
    <ele>310.69</ele>
   </trkpt>
   <trkpt lat="-37.86726" lon="145.32516">
    <ele>302.52</ele>
   </trkpt>
   <trkpt lat="-37.86717" lon="145.32534">
    <ele>301.72</ele>
   </trkpt>
   <trkpt lat="-37.867180000000005" lon="145.32532">
    <ele>301.89000000000004</ele>
   </trkpt>
   <trkpt lat="-37.86692500096646" lon="145.32581500184827">
    <ele>297.93</ele>
   </trkpt>
   <trkpt lat="-37.866670000000006" lon="145.32631">
    <ele>292.73</ele>
   </trkpt>
   <trkpt lat="-37.866690000000006" lon="145.32631">
    <ele>304.77000000000004</ele>
   </trkpt>
   <trkpt lat="-37.866550000000004" lon="145.32682">
    <ele>304.45</ele>
   </trkpt>
   <trkpt lat="-37.866490000000006" lon="145.32750000000001">
    <ele>303.50000000000006</ele>
   </trkpt>
   <trkpt lat="-37.86639" lon="145.32752000000002">
    <ele>299.83000000000004</ele>
   </trkpt>
   <trkpt lat="-37.866290000000006" lon="145.3272">
    <ele>295.99</ele>
   </trkpt>
   <trkpt lat="-37.8663" lon="145.32718">
    <ele>287.74000000000007</ele>
   </trkpt>
   <trkpt lat="-37.86623" lon="145.32717000000002">
    <ele>287.74000000000007</ele>
   </trkpt>
   <trkpt lat="-37.86616" lon="145.32719">
    <ele>284.04</ele>
   </trkpt>
   <trkpt lat="-37.86596" lon="145.3273">
    <ele>276.43</ele>
   </trkpt>
   <trkpt lat="-37.86589" lon="145.3273">
    <ele>276.43</ele>
   </trkpt>
   <trkpt lat="-37.865610000000004" lon="145.3274">
    <ele>270.47</ele>
   </trkpt>
   <trkpt lat="-37.865" lon="145.32741000000001">
    <ele>250.88000000000005</ele>
   </trkpt>
   <trkpt lat="-37.86491" lon="145.32743000000002">
    <ele>249.06000000000003</ele>
   </trkpt>
   <trkpt lat="-37.86486" lon="145.32749">
    <ele>248.97000000000003</ele>
   </trkpt>
   <trkpt lat="-37.86482" lon="145.32749">
    <ele>248.97000000000003</ele>
   </trkpt>
   <trkpt lat="-37.864810000000006" lon="145.32766">
    <ele>247.14000000000001</ele>
   </trkpt>
   <trkpt lat="-37.86471" lon="145.32788000000002">
    <ele>241.22</ele>
   </trkpt>
   <trkpt lat="-37.86462" lon="145.3279">
    <ele>243.50000000000003</ele>
   </trkpt>
   <trkpt lat="-37.86453" lon="145.3279">
    <ele>247.54</ele>
   </trkpt>
   <trkpt lat="-37.86446" lon="145.32787000000002">
    <ele>248.3</ele>
   </trkpt>
   <trkpt lat="-37.8643" lon="145.32765">
    <ele>247.59000000000003</ele>
   </trkpt>
   <trkpt lat="-37.864180000000005" lon="145.32759000000001">
    <ele>247.09000000000003</ele>
   </trkpt>
   <trkpt lat="-37.86397" lon="145.32753000000002">
    <ele>246.93</ele>
   </trkpt>
   <trkpt lat="-37.86356" lon="145.32760000000002">
    <ele>247.4</ele>
   </trkpt>
   <trkpt lat="-37.86307" lon="145.32762000000002">
    <ele>249.59000000000003</ele>
   </trkpt>
   <trkpt lat="-37.862750000000005" lon="145.32774">
    <ele>250.08</ele>
   </trkpt>
   <trkpt lat="-37.86276" lon="145.32774">
    <ele>250.08</ele>
   </trkpt>
   <trkpt lat="-37.86265" lon="145.32778000000002">
    <ele>249.94000000000003</ele>
   </trkpt>
   <trkpt lat="-37.86222" lon="145.32782">
    <ele>246.97000000000003</ele>
   </trkpt>
   <trkpt lat="-37.861990000000006" lon="145.32794">
    <ele>245.91000000000003</ele>
   </trkpt>
   <trkpt lat="-37.86177" lon="145.32821">
    <ele>245.8</ele>
   </trkpt>
   <trkpt lat="-37.86159" lon="145.32859000000002">
    <ele>245.00000000000003</ele>
   </trkpt>
   <trkpt lat="-37.86148" lon="145.32925">
    <ele>244.27</ele>
   </trkpt>
   <trkpt lat="-37.861450000000005" lon="145.32929000000001">
    <ele>244.31000000000003</ele>
   </trkpt>
   <trkpt lat="-37.86162" lon="145.32949000000002">
    <ele>252.07000000000002</ele>
   </trkpt>
   <trkpt lat="-37.86175" lon="145.32975000000002">
    <ele>256.3</ele>
   </trkpt>
   <trkpt lat="-37.86186" lon="145.33004000000003">
    <ele>259.78000000000003</ele>
   </trkpt>
   <trkpt lat="-37.86189" lon="145.33014">
    <ele>261.27</ele>
   </trkpt>
   <trkpt lat="-37.862" lon="145.33024">
    <ele>264.12</ele>
   </trkpt>
   <trkpt lat="-37.86218" lon="145.33063">
    <ele>271.91</ele>
   </trkpt>
   <trkpt lat="-37.8624" lon="145.33099">
    <ele>283.12</ele>
   </trkpt>
   <trkpt lat="-37.86249" lon="145.33118000000002">
    <ele>286.49</ele>
   </trkpt>
   <trkpt lat="-37.86251" lon="145.33129000000002">
    <ele>287.87</ele>
   </trkpt>
   <trkpt lat="-37.86247" lon="145.33146000000002">
    <ele>290.7</ele>
   </trkpt>
   <trkpt lat="-37.86251" lon="145.33174000000002">
    <ele>297.87</ele>
   </trkpt>
   <trkpt lat="-37.86249" lon="145.33190000000002">
    <ele>300.79</ele>
   </trkpt>
   <trkpt lat="-37.86252" lon="145.33206">
    <ele>304.51</ele>
   </trkpt>
   <trkpt lat="-37.862370000000006" lon="145.33226000000002">
    <ele>304.43</ele>
   </trkpt>
   <trkpt lat="-37.86227" lon="145.33246000000003">
    <ele>304.29</ele>
   </trkpt>
   <trkpt lat="-37.86224" lon="145.33262000000002">
    <ele>304.14000000000004</ele>
   </trkpt>
   <trkpt lat="-37.86224" lon="145.33325000000002">
    <ele>304.18</ele>
   </trkpt>
   <trkpt lat="-37.86227" lon="145.33360000000002">
    <ele>304.54</ele>
   </trkpt>
   <trkpt lat="-37.86229" lon="145.33376">
    <ele>304.54</ele>
   </trkpt>
   <trkpt lat="-37.86242" lon="145.33416000000003">
    <ele>305.31</ele>
   </trkpt>
   <trkpt lat="-37.8628" lon="145.33489">
    <ele>305.59000000000003</ele>
   </trkpt>
   <trkpt lat="-37.86314" lon="145.3357">
    <ele>306.76000000000005</ele>
   </trkpt>
   <trkpt lat="-37.86309" lon="145.33587">
    <ele>307.42</ele>
   </trkpt>
   <trkpt lat="-37.86303" lon="145.33592000000002">
    <ele>307.78</ele>
   </trkpt>
   <trkpt lat="-37.86292" lon="145.33596">
    <ele>307.9</ele>
   </trkpt>
   <trkpt lat="-37.86231" lon="145.33606">
    <ele>304.71000000000004</ele>
   </trkpt>
   <trkpt lat="-37.862080000000006" lon="145.33605">
    <ele>303.94000000000005</ele>
   </trkpt>
   <trkpt lat="-37.86164" lon="145.33602000000002">
    <ele>301.03000000000003</ele>
   </trkpt>
   <trkpt lat="-37.8609" lon="145.33604000000003">
    <ele>302.27000000000004</ele>
   </trkpt>
   <trkpt lat="-37.86065" lon="145.33601000000002">
    <ele>301.75</ele>
   </trkpt>
   <trkpt lat="-37.85996" lon="145.33583000000002">
    <ele>294.36</ele>
   </trkpt>
   <trkpt lat="-37.85965" lon="145.33569">
    <ele>290.76</ele>
   </trkpt>
   <trkpt lat="-37.85931" lon="145.33543">
    <ele>286.02</ele>
   </trkpt>
   <trkpt lat="-37.85888000129839" lon="145.334874996757">
    <ele>280.41</ele>
   </trkpt>
   <trkpt lat="-37.858450000000005" lon="145.33432000000002">
    <ele>276.26</ele>
   </trkpt>
   <trkpt lat="-37.85833" lon="145.33419">
    <ele>274.93</ele>
   </trkpt>
   <trkpt lat="-37.85821" lon="145.33414000000002">
    <ele>273.36</ele>
   </trkpt>
   <trkpt lat="-37.857960000000006" lon="145.33415000000002">
    <ele>271.94</ele>
   </trkpt>
   <trkpt lat="-37.857980000000005" lon="145.33416000000003">
    <ele>271.94</ele>
   </trkpt>
   <trkpt lat="-37.8581" lon="145.33454">
    <ele>277.98</ele>
   </trkpt>
   <trkpt lat="-37.85824" lon="145.33467000000002">
    <ele>280.27000000000004</ele>
   </trkpt>
   <trkpt lat="-37.85826" lon="145.33476000000002">
    <ele>282.67</ele>
   </trkpt>
   <trkpt lat="-37.85826" lon="145.3349">
    <ele>284.32</ele>
   </trkpt>
   <trkpt lat="-37.85828" lon="145.33501">
    <ele>286.22</ele>
   </trkpt>
   <trkpt lat="-37.85848" lon="145.33535">
    <ele>296.49</ele>
   </trkpt>
   <trkpt lat="-37.85862" lon="145.33563">
    <ele>301.35</ele>
   </trkpt>
   <trkpt lat="-37.85864" lon="145.33582">
    <ele>305.63</ele>
   </trkpt>
   <trkpt lat="-37.85866" lon="145.33603000000002">
    <ele>305.42</ele>
   </trkpt>
   <trkpt lat="-37.85889" lon="145.33676">
    <ele>328.0</ele>
   </trkpt>
   <trkpt lat="-37.85909" lon="145.33724">
    <ele>338.64000000000004</ele>
   </trkpt>
   <trkpt lat="-37.85915" lon="145.33746000000002">
    <ele>351.17</ele>
   </trkpt>
   <trkpt lat="-37.85922" lon="145.33785">
    <ele>358.36</ele>
   </trkpt>
   <trkpt lat="-37.85929" lon="145.33801000000003">
    <ele>358.36</ele>
   </trkpt>
   <trkpt lat="-37.859370000000006" lon="145.33810000000003">
    <ele>361.12000000000006</ele>
   </trkpt>
   <trkpt lat="-37.8596" lon="145.3383">
    <ele>372.51</ele>
   </trkpt>
   <trkpt lat="-37.8598" lon="145.33852000000002">
    <ele>379.54</ele>
   </trkpt>
   <trkpt lat="-37.859930000000006" lon="145.33858">
    <ele>381.34000000000003</ele>
   </trkpt>
   <trkpt lat="-37.859930000000006" lon="145.33859">
    <ele>381.37000000000006</ele>
   </trkpt>
   <trkpt lat="-37.8607" lon="145.33880000000002">
    <ele>390.68</ele>
   </trkpt>
   <trkpt lat="-37.86117000006439" lon="145.33901999853143">
    <ele>404.07000000000005</ele>
   </trkpt>
   <trkpt lat="-37.86164" lon="145.33924000000002">
    <ele>415.76</ele>
   </trkpt>
   <trkpt lat="-37.86224000105068" lon="145.3397449958654">
    <ele>427.1</ele>
   </trkpt>
   <trkpt lat="-37.862840000000006" lon="145.34025000000003">
    <ele>439.4</ele>
   </trkpt>
   <trkpt lat="-37.862860000000005" lon="145.34025000000003">
    <ele>439.70000000000005</ele>
   </trkpt>
   <trkpt lat="-37.86318" lon="145.33996000000002">
    <ele>438.51</ele>
   </trkpt>
   <trkpt lat="-37.86354" lon="145.33979000000002">
    <ele>435.49</ele>
   </trkpt>
   <trkpt lat="-37.863780000000006" lon="145.33974">
    <ele>433.48</ele>
   </trkpt>
   <trkpt lat="-37.8641" lon="145.33975">
    <ele>431.00000000000006</ele>
   </trkpt>
   <trkpt lat="-37.8645" lon="145.33989000000003">
    <ele>428.36</ele>
   </trkpt>
   <trkpt lat="-37.86464" lon="145.33988000000002">
    <ele>426.51000000000005</ele>
   </trkpt>
   <trkpt lat="-37.86475" lon="145.33980000000003">
    <ele>424.15000000000003</ele>
   </trkpt>
   <trkpt lat="-37.86486" lon="145.33964">
    <ele>422.33000000000004</ele>
   </trkpt>
   <trkpt lat="-37.86495" lon="145.33935000000002">
    <ele>421.92</ele>
   </trkpt>
   <trkpt lat="-37.86506" lon="145.33889000000002">
    <ele>420.36</ele>
   </trkpt>
   <trkpt lat="-37.86531" lon="145.33833">
    <ele>417.55</ele>
   </trkpt>
   <trkpt lat="-37.8654650012238" lon="145.33779500107892">
    <ele>417.53000000000003</ele>
   </trkpt>
   <trkpt lat="-37.86562" lon="145.33726000000001">
    <ele>417.69000000000005</ele>
   </trkpt>
   <trkpt lat="-37.86583" lon="145.33618">
    <ele>418.87</ele>
   </trkpt>
   <trkpt lat="-37.86585" lon="145.33585000000002">
    <ele>420.01000000000005</ele>
   </trkpt>
   <trkpt lat="-37.86585" lon="145.3356">
    <ele>421.93</ele>
   </trkpt>
   <trkpt lat="-37.86587" lon="145.33555">
    <ele>421.93</ele>
   </trkpt>
   <trkpt lat="-37.86598" lon="145.33559000000002">
    <ele>424.31</ele>
   </trkpt>
   <trkpt lat="-37.86621" lon="145.33622000000003">
    <ele>429.26000000000005</ele>
   </trkpt>
   <trkpt lat="-37.86641" lon="145.33626">
    <ele>430.42</ele>
   </trkpt>
   <trkpt lat="-37.86652" lon="145.33642">
    <ele>430.77000000000004</ele>
   </trkpt>
   <trkpt lat="-37.86656" lon="145.33645">
    <ele>430.77000000000004</ele>
   </trkpt>
   <trkpt lat="-37.86663" lon="145.33656000000002">
    <ele>431.85</ele>
   </trkpt>
   <trkpt lat="-37.86688" lon="145.33713">
    <ele>435.54</ele>
   </trkpt>
   <trkpt lat="-37.86717" lon="145.33795">
    <ele>439.95000000000005</ele>
   </trkpt>
   <trkpt lat="-37.86739" lon="145.33831">
    <ele>442.93000000000006</ele>
   </trkpt>
   <trkpt lat="-37.86755" lon="145.33847">
    <ele>444.00000000000006</ele>
   </trkpt>
   <trkpt lat="-37.86771" lon="145.33857">
    <ele>444.98</ele>
   </trkpt>
   <trkpt lat="-37.86786" lon="145.33862000000002">
    <ele>447.29</ele>
   </trkpt>
   <trkpt lat="-37.86822" lon="145.33868">
    <ele>450.57</ele>
   </trkpt>
   <trkpt lat="-37.86849" lon="145.33881000000002">
    <ele>452.46000000000004</ele>
   </trkpt>
   <trkpt lat="-37.86867" lon="145.33886">
    <ele>453.84000000000003</ele>
   </trkpt>
   <trkpt lat="-37.86891" lon="145.33893">
    <ele>454.63000000000005</ele>
   </trkpt>
   <trkpt lat="-37.86918" lon="145.33896000000001">
    <ele>458.46000000000004</ele>
   </trkpt>
   <trkpt lat="-37.86941" lon="145.33893">
    <ele>460.65000000000003</ele>
   </trkpt>
   <trkpt lat="-37.86954" lon="145.33893">
    <ele>460.99</ele>
   </trkpt>
   <trkpt lat="-37.8701" lon="145.33884">
    <ele>462.45000000000005</ele>
   </trkpt>
   <trkpt lat="-37.87019" lon="145.33884">
    <ele>462.61</ele>
   </trkpt>
   <trkpt lat="-37.87037" lon="145.33894">
    <ele>463.78000000000003</ele>
   </trkpt>
   <trkpt lat="-37.87059" lon="145.33917000000002">
    <ele>464.83</ele>
   </trkpt>
   <trkpt lat="-37.87082" lon="145.33948">
    <ele>467.87000000000006</ele>
   </trkpt>
   <trkpt lat="-37.87109" lon="145.33964">
    <ele>469.31000000000006</ele>
   </trkpt>
   <trkpt lat="-37.87131" lon="145.33968000000002">
    <ele>472.04</ele>
   </trkpt>
   <trkpt lat="-37.87153" lon="145.33975">
    <ele>473.24000000000007</ele>
   </trkpt>
   <trkpt lat="-37.87185" lon="145.33992">
    <ele>476.71000000000004</ele>
   </trkpt>
   <trkpt lat="-37.87214" lon="145.34019">
    <ele>479.11</ele>
   </trkpt>
   <trkpt lat="-37.87241" lon="145.34055">
    <ele>481.51000000000005</ele>
   </trkpt>
   <trkpt lat="-37.87263" lon="145.34077000000002">
    <ele>484.11</ele>
   </trkpt>
   <trkpt lat="-37.87306" lon="145.34097">
    <ele>486.67</ele>
   </trkpt>
   <trkpt lat="-37.87375" lon="145.34154">
    <ele>492.2900000000001</ele>
   </trkpt>
   <trkpt lat="-37.87406" lon="145.34185000000002">
    <ele>495.56000000000006</ele>
   </trkpt>
   <trkpt lat="-37.8744" lon="145.34218">
    <ele>496.36</ele>
   </trkpt>
   <trkpt lat="-37.87489" lon="145.34271">
    <ele>500.5400000000001</ele>
   </trkpt>
   <trkpt lat="-37.87505" lon="145.34289">
    <ele>502.27</ele>
   </trkpt>
   <trkpt lat="-37.8751" lon="145.34298">
    <ele>502.07</ele>
   </trkpt>
   <trkpt lat="-37.875350000000005" lon="145.3428">
    <ele>502.44</ele>
   </trkpt>
   <trkpt lat="-37.875370000000004" lon="145.34295">
    <ele>502.86000000000007</ele>
   </trkpt>
   <trkpt lat="-37.875510000000006" lon="145.34301000000002">
    <ele>504.53999999999996</ele>
   </trkpt>
   <trkpt lat="-37.8755" lon="145.34335000000002">
    <ele>508.65000000000003</ele>
   </trkpt>
   <trkpt lat="-37.87545" lon="145.3436">
    <ele>510.93</ele>
   </trkpt>
   <trkpt lat="-37.875510000000006" lon="145.34384">
    <ele>511.87000000000006</ele>
   </trkpt>
   <trkpt lat="-37.87556" lon="145.34399000000002">
    <ele>513.1300000000001</ele>
   </trkpt>
   <trkpt lat="-37.875690000000006" lon="145.34416000000002">
    <ele>513.38</ele>
   </trkpt>
   <trkpt lat="-37.8759" lon="145.34467">
    <ele>515.6</ele>
   </trkpt>
   <trkpt lat="-37.87599" lon="145.34493">
    <ele>517.27</ele>
   </trkpt>
   <trkpt lat="-37.87599" lon="145.3454">
    <ele>518.61</ele>
   </trkpt>
   <trkpt lat="-37.87603" lon="145.34573">
    <ele>519.0400000000001</ele>
   </trkpt>
   <trkpt lat="-37.87603" lon="145.34592">
    <ele>519.05</ele>
   </trkpt>
   <trkpt lat="-37.87615" lon="145.34678000000002">
    <ele>517.02</ele>
   </trkpt>
   <trkpt lat="-37.87621" lon="145.34698">
    <ele>515.14</ele>
   </trkpt>
   <trkpt lat="-37.8763" lon="145.34708">
    <ele>514.4300000000001</ele>
   </trkpt>
   <trkpt lat="-37.87648" lon="145.34716">
    <ele>514.09</ele>
   </trkpt>
   <trkpt lat="-37.8767" lon="145.34722000000002">
    <ele>514.42</ele>
   </trkpt>
   <trkpt lat="-37.87726" lon="145.34721000000002">
    <ele>514.21</ele>
   </trkpt>
   <trkpt lat="-37.87758" lon="145.34729000000002">
    <ele>513.81</ele>
   </trkpt>
   <trkpt lat="-37.87776" lon="145.34745">
    <ele>512.75</ele>
   </trkpt>
   <trkpt lat="-37.87794" lon="145.34774000000002">
    <ele>511.09000000000003</ele>
   </trkpt>
   <trkpt lat="-37.878040000000006" lon="145.34804000000003">
    <ele>508.8</ele>
   </trkpt>
   <trkpt lat="-37.87825" lon="145.34847000000002">
    <ele>506.49</ele>
   </trkpt>
   <trkpt lat="-37.87847" lon="145.34895">
    <ele>502.81000000000006</ele>
   </trkpt>
   <trkpt lat="-37.87872" lon="145.34991000000002">
    <ele>500.8</ele>
   </trkpt>
   <trkpt lat="-37.87876" lon="145.35029">
    <ele>499.53000000000003</ele>
   </trkpt>
   <trkpt lat="-37.87859" lon="145.35132000000002">
    <ele>495.25</ele>
   </trkpt>
   <trkpt lat="-37.87841" lon="145.3519">
    <ele>493.39000000000004</ele>
   </trkpt>
   <trkpt lat="-37.87832" lon="145.35207000000003">
    <ele>493.06000000000006</ele>
   </trkpt>
   <trkpt lat="-37.87827" lon="145.35227">
    <ele>492.44000000000005</ele>
   </trkpt>
   <trkpt lat="-37.87816" lon="145.35258000000002">
    <ele>490.56000000000006</ele>
   </trkpt>
   <trkpt lat="-37.87782" lon="145.35314000000002">
    <ele>488.73</ele>
   </trkpt>
   <trkpt lat="-37.87773" lon="145.35335">
    <ele>488.24000000000007</ele>
   </trkpt>
   <trkpt lat="-37.877230000000004" lon="145.35415">
    <ele>483.39000000000004</ele>
   </trkpt>
   <trkpt lat="-37.877370000000006" lon="145.35409">
    <ele>488.28000000000003</ele>
   </trkpt>
   <trkpt lat="-37.87771" lon="145.35379">
    <ele>489.1</ele>
   </trkpt>
   <trkpt lat="-37.878130000000006" lon="145.35348000000002">
    <ele>491.16</ele>
   </trkpt>
   <trkpt lat="-37.87847" lon="145.35309">
    <ele>492.78000000000003</ele>
   </trkpt>
   <trkpt lat="-37.87859" lon="145.35291">
    <ele>492.78000000000003</ele>
   </trkpt>
   <trkpt lat="-37.87894" lon="145.35199">
    <ele>496.07000000000005</ele>
   </trkpt>
   <trkpt lat="-37.87908" lon="145.35178000000002">
    <ele>496.57000000000005</ele>
   </trkpt>
   <trkpt lat="-37.87946" lon="145.35142000000002">
    <ele>498.08</ele>
   </trkpt>
   <trkpt lat="-37.87961" lon="145.3514">
    <ele>498.2900000000001</ele>
   </trkpt>
   <trkpt lat="-37.87993" lon="145.35151000000002">
    <ele>498.37</ele>
   </trkpt>
   <trkpt lat="-37.88011" lon="145.35161000000002">
    <ele>498.57</ele>
   </trkpt>
   <trkpt lat="-37.880410000000005" lon="145.35182">
    <ele>499.43</ele>
   </trkpt>
   <trkpt lat="-37.8804" lon="145.35182">
    <ele>499.43</ele>
   </trkpt>
   <trkpt lat="-37.88056" lon="145.35199">
    <ele>499.93</ele>
   </trkpt>
   <trkpt lat="-37.88103" lon="145.35239">
    <ele>499.97</ele>
   </trkpt>
   <trkpt lat="-37.88125" lon="145.35248">
    <ele>499.47</ele>
   </trkpt>
   <trkpt lat="-37.88152" lon="145.35244">
    <ele>499.44000000000005</ele>
   </trkpt>
   <trkpt lat="-37.882090000547386" lon="145.3520850027386">
    <ele>497.82000000000005</ele>
   </trkpt>
   <trkpt lat="-37.88266" lon="145.35173">
    <ele>493.1</ele>
   </trkpt>
   <trkpt lat="-37.882920000000006" lon="145.35153000000003">
    <ele>490.88000000000005</ele>
   </trkpt>
   <trkpt lat="-37.88324" lon="145.3513">
    <ele>487.11</ele>
   </trkpt>
   <trkpt lat="-37.8834" lon="145.35126000000002">
    <ele>485.13000000000005</ele>
   </trkpt>
   <trkpt lat="-37.88347" lon="145.35125000000002">
    <ele>484.31</ele>
   </trkpt>
   <trkpt lat="-37.883790000000005" lon="145.35131">
    <ele>475.35</ele>
   </trkpt>
   <trkpt lat="-37.88402" lon="145.3512">
    <ele>473.04</ele>
   </trkpt>
   <trkpt lat="-37.88427" lon="145.35105000000001">
    <ele>472.08000000000004</ele>
   </trkpt>
   <trkpt lat="-37.88443" lon="145.35102">
    <ele>471.04</ele>
   </trkpt>
   <trkpt lat="-37.88477" lon="145.35099000000002">
    <ele>469.72</ele>
   </trkpt>
   <trkpt lat="-37.88532" lon="145.3514">
    <ele>470.33000000000004</ele>
   </trkpt>
   <trkpt lat="-37.88552" lon="145.35153000000003">
    <ele>469.46000000000004</ele>
   </trkpt>
   <trkpt lat="-37.88584" lon="145.35157">
    <ele>466.53000000000003</ele>
   </trkpt>
   <trkpt lat="-37.88617" lon="145.35155">
    <ele>463.70000000000005</ele>
   </trkpt>
   <trkpt lat="-37.886410000000005" lon="145.35162000000003">
    <ele>463.06</ele>
   </trkpt>
   <trkpt lat="-37.88687" lon="145.35166">
    <ele>462.11</ele>
   </trkpt>
   <trkpt lat="-37.88736" lon="145.35174">
    <ele>455.54</ele>
   </trkpt>
   <trkpt lat="-37.88783" lon="145.35185">
    <ele>449.1</ele>
   </trkpt>
   <trkpt lat="-37.88812" lon="145.35205000000002">
    <ele>445.87000000000006</ele>
   </trkpt>
   <trkpt lat="-37.88841" lon="145.35235">
    <ele>443.87000000000006</ele>
   </trkpt>
   <trkpt lat="-37.88882" lon="145.35269000000002">
    <ele>440.29</ele>
   </trkpt>
   <trkpt lat="-37.88915" lon="145.35287000000002">
    <ele>436.37</ele>
   </trkpt>
   <trkpt lat="-37.88935" lon="145.35294000000002">
    <ele>434.26000000000005</ele>
   </trkpt>
   <trkpt lat="-37.88985" lon="145.35299">
    <ele>429.7300000000001</ele>
   </trkpt>
   <trkpt lat="-37.89052" lon="145.3531">
    <ele>423.65000000000003</ele>
   </trkpt>
   <trkpt lat="-37.890730000000005" lon="145.35311000000002">
    <ele>422.52000000000004</ele>
   </trkpt>
   <trkpt lat="-37.8909" lon="145.35308">
    <ele>421.63000000000005</ele>
   </trkpt>
   <trkpt lat="-37.89101" lon="145.35302000000001">
    <ele>420.94000000000005</ele>
   </trkpt>
   <trkpt lat="-37.89128" lon="145.35273">
    <ele>418.7</ele>
   </trkpt>
   <trkpt lat="-37.89134" lon="145.35243">
    <ele>415.43</ele>
   </trkpt>
   <trkpt lat="-37.89139" lon="145.35214000000002">
    <ele>413.52000000000004</ele>
   </trkpt>
   <trkpt lat="-37.89137" lon="145.35187000000002">
    <ele>410.2</ele>
   </trkpt>
   <trkpt lat="-37.89120000210858" lon="145.35115999826206">
    <ele>407.64000000000004</ele>
   </trkpt>
   <trkpt lat="-37.89103" lon="145.35045000000002">
    <ele>401.76</ele>
   </trkpt>
   <trkpt lat="-37.89067" lon="145.34957">
    <ele>395.84000000000003</ele>
   </trkpt>
   <trkpt lat="-37.890620000000006" lon="145.34932">
    <ele>394.13000000000005</ele>
   </trkpt>
   <trkpt lat="-37.89054" lon="145.34882000000002">
    <ele>391.17</ele>
   </trkpt>
   <trkpt lat="-37.89054" lon="145.34848000000002">
    <ele>388.3</ele>
   </trkpt>
   <trkpt lat="-37.89052" lon="145.34830000000002">
    <ele>385.77000000000004</ele>
   </trkpt>
   <trkpt lat="-37.89043" lon="145.34805">
    <ele>383.20000000000005</ele>
   </trkpt>
   <trkpt lat="-37.89052" lon="145.34785000000002">
    <ele>383.20000000000005</ele>
   </trkpt>
   <trkpt lat="-37.890800000000006" lon="145.34763">
    <ele>379.25</ele>
   </trkpt>
   <trkpt lat="-37.89126" lon="145.34735">
    <ele>374.53000000000003</ele>
   </trkpt>
   <trkpt lat="-37.891805000721654" lon="145.34696000283103">
    <ele>368.32000000000005</ele>
   </trkpt>
   <trkpt lat="-37.89235" lon="145.34657">
    <ele>362.13</ele>
   </trkpt>
   <trkpt lat="-37.892770000000006" lon="145.34666">
    <ele>355.45000000000005</ele>
   </trkpt>
   <trkpt lat="-37.89316" lon="145.34688">
    <ele>349.37</ele>
   </trkpt>
   <trkpt lat="-37.89345" lon="145.34701">
    <ele>347.14</ele>
   </trkpt>
   <trkpt lat="-37.89367" lon="145.34722000000002">
    <ele>345.91</ele>
   </trkpt>
   <trkpt lat="-37.89392" lon="145.34734">
    <ele>345.7</ele>
   </trkpt>
   <trkpt lat="-37.89399" lon="145.34735">
    <ele>345.51000000000005</ele>
   </trkpt>
   <trkpt lat="-37.894670000000005" lon="145.34678000000002">
    <ele>329.17</ele>
   </trkpt>
   <trkpt lat="-37.89504" lon="145.34642000000002">
    <ele>319.56</ele>
   </trkpt>
   <trkpt lat="-37.89511" lon="145.3463">
    <ele>318.21999999999997</ele>
   </trkpt>
   <trkpt lat="-37.895100000000006" lon="145.3463">
    <ele>315.32000000000005</ele>
   </trkpt>
   <trkpt lat="-37.89553500055649" lon="145.3459150023375">
    <ele>307.81</ele>
   </trkpt>
   <trkpt lat="-37.895970000000005" lon="145.34553000000002">
    <ele>300.06000000000006</ele>
   </trkpt>
   <trkpt lat="-37.89616" lon="145.34542000000002">
    <ele>297.57</ele>
   </trkpt>
   <trkpt lat="-37.89625" lon="145.34538">
    <ele>292.34000000000003</ele>
   </trkpt>
   <trkpt lat="-37.89683" lon="145.3453">
    <ele>284.05</ele>
   </trkpt>
   <trkpt lat="-37.89688" lon="145.3453">
    <ele>282.89000000000004</ele>
   </trkpt>
   <trkpt lat="-37.89694" lon="145.34536">
    <ele>282.89000000000004</ele>
   </trkpt>
   <trkpt lat="-37.89699" lon="145.34545">
    <ele>281.98</ele>
   </trkpt>
   <trkpt lat="-37.89705" lon="145.34578000000002">
    <ele>278.99</ele>
   </trkpt>
   <trkpt lat="-37.8971" lon="145.34587000000002">
    <ele>276.68</ele>
   </trkpt>
   <trkpt lat="-37.89716000000001" lon="145.34593">
    <ele>275.18</ele>
   </trkpt>
   <trkpt lat="-37.89725" lon="145.34596000000002">
    <ele>273.1</ele>
   </trkpt>
   <trkpt lat="-37.89734" lon="145.34595000000002">
    <ele>273.1</ele>
   </trkpt>
   <trkpt lat="-37.89748" lon="145.34586000000002">
    <ele>270.90000000000003</ele>
   </trkpt>
   <trkpt lat="-37.89759" lon="145.34573">
    <ele>269.45000000000005</ele>
   </trkpt>
   <trkpt lat="-37.8977" lon="145.34528">
    <ele>266.76</ele>
   </trkpt>
   <trkpt lat="-37.897740000000006" lon="145.34486">
    <ele>263.33</ele>
   </trkpt>
   <trkpt lat="-37.897740000000006" lon="145.34485">
    <ele>263.3</ele>
   </trkpt>
   <trkpt lat="-37.89775" lon="145.34472000000002">
    <ele>262.24</ele>
   </trkpt>
   <trkpt lat="-37.89773" lon="145.34448">
    <ele>258.58000000000004</ele>
   </trkpt>
   <trkpt lat="-37.898010000000006" lon="145.34448">
    <ele>252.92000000000002</ele>
   </trkpt>
   <trkpt lat="-37.89778000387729" lon="145.34352499709675">
    <ele>247.23000000000002</ele>
   </trkpt>
   <trkpt lat="-37.89755" lon="145.34257000000002">
    <ele>246.36</ele>
   </trkpt>
   <trkpt lat="-37.89739500213776" lon="145.34186999881996">
    <ele>244.39000000000001</ele>
   </trkpt>
   <trkpt lat="-37.897240000000004" lon="145.34117">
    <ele>244.54</ele>
   </trkpt>
   <trkpt lat="-37.89685" lon="145.34120000000001">
    <ele>247.03000000000003</ele>
   </trkpt>
   <trkpt lat="-37.89681" lon="145.34119">
    <ele>247.03000000000003</ele>
   </trkpt>
   <trkpt lat="-37.89676" lon="145.34115">
    <ele>247.03000000000003</ele>
   </trkpt>
   <trkpt lat="-37.8967" lon="145.34093000000001">
    <ele>248.29</ele>
   </trkpt>
   <trkpt lat="-37.89658" lon="145.34044">
    <ele>251.15000000000003</ele>
   </trkpt>
   <trkpt lat="-37.89658" lon="145.34031000000002">
    <ele>253.0</ele>
   </trkpt>
   <trkpt lat="-37.89665" lon="145.34015000000002">
    <ele>254.07000000000002</ele>
   </trkpt>
   <trkpt lat="-37.89685" lon="145.34004000000002">
    <ele>254.64000000000001</ele>
   </trkpt>
   <trkpt lat="-37.89721" lon="145.33989000000003">
    <ele>256.46000000000004</ele>
   </trkpt>
   <trkpt lat="-37.8975" lon="145.33979000000002">
    <ele>259.64000000000004</ele>
   </trkpt>
   <trkpt lat="-37.897470000000006" lon="145.33973">
    <ele>259.64000000000004</ele>
   </trkpt>
   <trkpt lat="-37.89719" lon="145.33964">
    <ele>262.46000000000004</ele>
   </trkpt>
   <trkpt lat="-37.89687" lon="145.33957">
    <ele>267.12</ele>
   </trkpt>
   <trkpt lat="-37.89663" lon="145.33955">
    <ele>268.02000000000004</ele>
   </trkpt>
   <trkpt lat="-37.89598" lon="145.33959000000002">
    <ele>274.13000000000005</ele>
   </trkpt>
   <trkpt lat="-37.89574" lon="145.33956">
    <ele>277.7</ele>
   </trkpt>
   <trkpt lat="-37.89633000107291" lon="145.3390400042304">
    <ele>285.6</ele>
   </trkpt>
   <trkpt lat="-37.89692" lon="145.33852000000002">
    <ele>291.2</ele>
   </trkpt>
   <trkpt lat="-37.89692" lon="145.33851">
    <ele>291.21000000000004</ele>
   </trkpt>
   <trkpt lat="-37.897200000000005" lon="145.33827000000002">
    <ele>292.18000000000006</ele>
   </trkpt>
   <trkpt lat="-37.896635000126516" lon="145.33831500033602">
    <ele>293.53000000000003</ele>
   </trkpt>
   <trkpt lat="-37.89607" lon="145.33836000000002">
    <ele>294.41</ele>
   </trkpt>
   <trkpt lat="-37.89542" lon="145.33843000000002">
    <ele>296.48</ele>
   </trkpt>
   <trkpt lat="-37.89524667192404" lon="145.33763999617804">
    <ele>286.02</ele>
   </trkpt>
   <trkpt lat="-37.895073338568395" lon="145.33684999607638">
    <ele>277.02000000000004</ele>
   </trkpt>
   <trkpt lat="-37.8949" lon="145.33606">
    <ele>253.72</ele>
   </trkpt>
   <trkpt lat="-37.89488" lon="145.33594000000002">
    <ele>252.02</ele>
   </trkpt>
   <trkpt lat="-37.894890000000004" lon="145.33581">
    <ele>250.37000000000003</ele>
   </trkpt>
   <trkpt lat="-37.89457" lon="145.33536">
    <ele>244.50000000000003</ele>
   </trkpt>
   <trkpt lat="-37.894330000000004" lon="145.33485000000002">
    <ele>245.26000000000002</ele>
   </trkpt>
   <trkpt lat="-37.894235002366074" lon="145.33409999892805">
    <ele>241.98000000000002</ele>
   </trkpt>
   <trkpt lat="-37.89414" lon="145.33335000000002">
    <ele>241.07</ele>
   </trkpt>
   <trkpt lat="-37.8941" lon="145.33280000000002">
    <ele>245.82</ele>
   </trkpt>
   <trkpt lat="-37.894070000000006" lon="145.33258">
    <ele>248.9</ele>
   </trkpt>
   <trkpt lat="-37.89399" lon="145.33176">
    <ele>267.88</ele>
   </trkpt>
   <trkpt lat="-37.89396" lon="145.33088">
    <ele>299.11</ele>
   </trkpt>
   <trkpt lat="-37.89391500137277" lon="145.33030999963296">
    <ele>307.32000000000005</ele>
   </trkpt>
   <trkpt lat="-37.89387" lon="145.32974000000002">
    <ele>321.26000000000005</ele>
   </trkpt>
   <trkpt lat="-37.89392" lon="145.32936">
    <ele>327.89</ele>
   </trkpt>
   <trkpt lat="-37.89401" lon="145.32906">
    <ele>335.32</ele>
   </trkpt>
   <trkpt lat="-37.89405" lon="145.32898">
    <ele>337.06</ele>
   </trkpt>
   <trkpt lat="-37.89408" lon="145.32879">
    <ele>339.06</ele>
   </trkpt>
   <trkpt lat="-37.893980000000006" lon="145.32856">
    <ele>339.65</ele>
   </trkpt>
   <trkpt lat="-37.89358" lon="145.32855">
    <ele>338.85</ele>
   </trkpt>
   <trkpt lat="-37.89338" lon="145.32843000000003">
    <ele>338.65</ele>
   </trkpt>
   <trkpt lat="-37.89332" lon="145.32840000000002">
    <ele>338.65</ele>
   </trkpt>
   <trkpt lat="-37.89293" lon="145.32827">
    <ele>338.51000000000005</ele>
   </trkpt>
   <trkpt lat="-37.8926" lon="145.32804000000002">
    <ele>341.19000000000005</ele>
   </trkpt>
   <trkpt lat="-37.89258" lon="145.32797000000002">
    <ele>341.95000000000005</ele>
   </trkpt>
   <trkpt lat="-37.89237" lon="145.32783">
    <ele>344.0</ele>
   </trkpt>
   <trkpt lat="-37.89218" lon="145.32775">
    <ele>345.68000000000006</ele>
   </trkpt>
   <trkpt lat="-37.89213" lon="145.32768000000002">
    <ele>347.42</ele>
   </trkpt>
   <trkpt lat="-37.89184" lon="145.32737">
    <ele>356.24000000000007</ele>
   </trkpt>
   <trkpt lat="-37.89168" lon="145.32727">
    <ele>359.34000000000003</ele>
   </trkpt>
   <trkpt lat="-37.89143" lon="145.32718">
    <ele>363.35</ele>
   </trkpt>
   <trkpt lat="-37.8911" lon="145.3271">
    <ele>367.12000000000006</ele>
   </trkpt>
   <trkpt lat="-37.89085" lon="145.32713">
    <ele>374.50000000000006</ele>
   </trkpt>
   <trkpt lat="-37.89052" lon="145.327">
    <ele>377.15000000000003</ele>
   </trkpt>
   <trkpt lat="-37.890330000000006" lon="145.32711">
    <ele>381.29</ele>
   </trkpt>
   <trkpt lat="-37.89025" lon="145.32712">
    <ele>381.8</ele>
   </trkpt>
   <trkpt lat="-37.890130000000006" lon="145.32706000000002">
    <ele>383.16</ele>
   </trkpt>
   <trkpt lat="-37.89011" lon="145.32706000000002">
    <ele>383.19</ele>
   </trkpt>
   <trkpt lat="-37.88969" lon="145.32715000000002">
    <ele>387.23</ele>
   </trkpt>
   <trkpt lat="-37.88944" lon="145.32715000000002">
    <ele>390.66</ele>
   </trkpt>
   <trkpt lat="-37.88904" lon="145.32707000000002">
    <ele>396.53000000000003</ele>
   </trkpt>
   <trkpt lat="-37.88873" lon="145.32696">
    <ele>398.27</ele>
   </trkpt>
   <trkpt lat="-37.88837" lon="145.32678">
    <ele>400.19000000000005</ele>
   </trkpt>
   <trkpt lat="-37.88828" lon="145.32675">
    <ele>400.35</ele>
   </trkpt>
   <trkpt lat="-37.88763" lon="145.32669">
    <ele>400.67</ele>
   </trkpt>
   <trkpt lat="-37.88754" lon="145.32671000000002">
    <ele>400.33</ele>
   </trkpt>
   <trkpt lat="-37.88736" lon="145.32690000000002">
    <ele>397.39</ele>
   </trkpt>
   <trkpt lat="-37.88729" lon="145.32693">
    <ele>396.41</ele>
   </trkpt>
   <trkpt lat="-37.8873" lon="145.32693">
    <ele>396.46000000000004</ele>
   </trkpt>
   <trkpt lat="-37.88725" lon="145.32695">
    <ele>395.78000000000003</ele>
   </trkpt>
   <trkpt lat="-37.88714" lon="145.32724000000002">
    <ele>390.48</ele>
   </trkpt>
   <trkpt lat="-37.88705" lon="145.32759000000001">
    <ele>382.97</ele>
   </trkpt>
   <trkpt lat="-37.886970000000005" lon="145.32777000000002">
    <ele>382.97</ele>
   </trkpt>
   <trkpt lat="-37.88655" lon="145.32825000000003">
    <ele>380.92</ele>
   </trkpt>
   <trkpt lat="-37.886390000000006" lon="145.32833000000002">
    <ele>380.87000000000006</ele>
   </trkpt>
   <trkpt lat="-37.88638" lon="145.32786000000002">
    <ele>378.08000000000004</ele>
   </trkpt>
   <trkpt lat="-37.88624" lon="145.32771000000002">
    <ele>377.64000000000004</ele>
   </trkpt>
   <trkpt lat="-37.8862" lon="145.3274">
    <ele>376.68</ele>
   </trkpt>
   <trkpt lat="-37.886190000000006" lon="145.32696">
    <ele>376.78</ele>
   </trkpt>
   <trkpt lat="-37.88608" lon="145.32707000000002">
    <ele>375.19</ele>
   </trkpt>
   <trkpt lat="-37.8857" lon="145.3273">
    <ele>371.1</ele>
   </trkpt>
   <trkpt lat="-37.88559" lon="145.32723000000001">
    <ele>369.9</ele>
   </trkpt>
   <trkpt lat="-37.88555" lon="145.32716000000002">
    <ele>368.98</ele>
   </trkpt>
   <trkpt lat="-37.88546" lon="145.32689000000002">
    <ele>366.09000000000003</ele>
   </trkpt>
   <trkpt lat="-37.88539" lon="145.32682">
    <ele>365.04</ele>
   </trkpt>
   <trkpt lat="-37.88532" lon="145.32677">
    <ele>363.66</ele>
   </trkpt>
   <trkpt lat="-37.88517" lon="145.32679000000002">
    <ele>361.7</ele>
   </trkpt>
   <trkpt lat="-37.8851" lon="145.32674">
    <ele>361.7</ele>
   </trkpt>
   <trkpt lat="-37.88503" lon="145.32657">
    <ele>360.31</ele>
   </trkpt>
   <trkpt lat="-37.88501" lon="145.32641">
    <ele>359.19</ele>
   </trkpt>
   <trkpt lat="-37.88481" lon="145.32615">
    <ele>355.34000000000003</ele>
   </trkpt>
   <trkpt lat="-37.88472" lon="145.32611">
    <ele>353.96000000000004</ele>
   </trkpt>
   <trkpt lat="-37.8847" lon="145.32607000000002">
    <ele>353.96000000000004</ele>
   </trkpt>
   <trkpt lat="-37.88467" lon="145.32594">
    <ele>353.04</ele>
   </trkpt>
   <trkpt lat="-37.88472" lon="145.32581000000002">
    <ele>352.22</ele>
   </trkpt>
   <trkpt lat="-37.88483" lon="145.32566">
    <ele>350.39000000000004</ele>
   </trkpt>
   <trkpt lat="-37.8849" lon="145.32534">
    <ele>346.54</ele>
   </trkpt>
   <trkpt lat="-37.88494" lon="145.32504">
    <ele>341.51000000000005</ele>
   </trkpt>
   <trkpt lat="-37.88494" lon="145.32475000000002">
    <ele>337.79</ele>
   </trkpt>
   <trkpt lat="-37.8849" lon="145.32459">
    <ele>335.87</ele>
   </trkpt>
   <trkpt lat="-37.88481" lon="145.32436">
    <ele>333.63000000000005</ele>
   </trkpt>
   <trkpt lat="-37.88481" lon="145.32417">
    <ele>331.34000000000003</ele>
   </trkpt>
   <trkpt lat="-37.88483" lon="145.32404000000002">
    <ele>329.18</ele>
   </trkpt>
   <trkpt lat="-37.88481" lon="145.32355">
    <ele>318.07</ele>
   </trkpt>
   <trkpt lat="-37.8849" lon="145.32336">
    <ele>315.27000000000004</ele>
   </trkpt>
   <trkpt lat="-37.88488" lon="145.32315">
    <ele>313.8</ele>
   </trkpt>
   <trkpt lat="-37.88479" lon="145.32282">
    <ele>309.09000000000003</ele>
   </trkpt>
   <trkpt lat="-37.88465" lon="145.32261000000003">
    <ele>304.92</ele>
   </trkpt>
   <trkpt lat="-37.884570000000004" lon="145.32260000000002">
    <ele>304.91</ele>
   </trkpt>
   <trkpt lat="-37.88447" lon="145.32227">
    <ele>302.68</ele>
   </trkpt>
   <trkpt lat="-37.88443" lon="145.32186000000002">
    <ele>299.27000000000004</ele>
   </trkpt>
   <trkpt lat="-37.88432" lon="145.32141000000001">
    <ele>292.06000000000006</ele>
   </trkpt>
   <trkpt lat="-37.88423" lon="145.32127">
    <ele>290.3</ele>
   </trkpt>
   <trkpt lat="-37.88416" lon="145.3211">
    <ele>289.08</ele>
   </trkpt>
   <trkpt lat="-37.88416" lon="145.32099000000002">
    <ele>286.58</ele>
   </trkpt>
   <trkpt lat="-37.88425" lon="145.32069">
    <ele>284.31</ele>
   </trkpt>
   <trkpt lat="-37.88429" lon="145.32048">
    <ele>282.24000000000007</ele>
   </trkpt>
   <trkpt lat="-37.88425" lon="145.3202">
    <ele>279.43</ele>
   </trkpt>
   <trkpt lat="-37.88416" lon="145.31998000000002">
    <ele>277.81</ele>
   </trkpt>
   <trkpt lat="-37.88416" lon="145.31972000000002">
    <ele>274.44</ele>
   </trkpt>
   <trkpt lat="-37.88409" lon="145.31915">
    <ele>269.08000000000004</ele>
   </trkpt>
   <trkpt lat="-37.884" lon="145.31884000000002">
    <ele>266.57000000000005</ele>
   </trkpt>
   <trkpt lat="-37.88378" lon="145.31852">
    <ele>263.98</ele>
   </trkpt>
   <trkpt lat="-37.88373" lon="145.31835">
    <ele>262.02000000000004</ele>
   </trkpt>
   <trkpt lat="-37.88396" lon="145.31833">
    <ele>257.85</ele>
   </trkpt>
   <trkpt lat="-37.88429" lon="145.31839000000002">
    <ele>254.45000000000002</ele>
   </trkpt>
   <trkpt lat="-37.88479" lon="145.31835">
    <ele>244.86</ele>
   </trkpt>
   <trkpt lat="-37.88528" lon="145.31820000000002">
    <ele>237.13</ele>
   </trkpt>
   <trkpt lat="-37.88534000000001" lon="145.31814">
    <ele>236.35000000000002</ele>
   </trkpt>
   <trkpt lat="-37.88528" lon="145.31820000000002">
    <ele>237.13</ele>
   </trkpt>
   <trkpt lat="-37.88537" lon="145.31811000000002">
    <ele>236.40000000000003</ele>
   </trkpt>
   <trkpt lat="-37.88546" lon="145.31806">
    <ele>235.15000000000003</ele>
   </trkpt>
   <trkpt lat="-37.88553" lon="145.31806">
    <ele>235.0</ele>
   </trkpt>
   <trkpt lat="-37.885740000000006" lon="145.31805">
    <ele>232.4</ele>
   </trkpt>
   <trkpt lat="-37.885830000000006" lon="145.31797">
    <ele>231.27000000000004</ele>
   </trkpt>
   <trkpt lat="-37.88611" lon="145.31784000000002">
    <ele>229.39000000000001</ele>
   </trkpt>
   <trkpt lat="-37.88667" lon="145.31742">
    <ele>227.94000000000003</ele>
   </trkpt>
   <trkpt lat="-37.886880000000005" lon="145.31755">
    <ele>225.13000000000002</ele>
   </trkpt>
   <trkpt lat="-37.88712" lon="145.31764">
    <ele>220.62</ele>
   </trkpt>
   <trkpt lat="-37.88761" lon="145.31761">
    <ele>213.79</ele>
   </trkpt>
   <trkpt lat="-37.88772" lon="145.31759000000002">
    <ele>212.13</ele>
   </trkpt>
   <trkpt lat="-37.88781" lon="145.31755">
    <ele>210.61</ele>
   </trkpt>
   <trkpt lat="-37.88787000000001" lon="145.31756000000001">
    <ele>210.61</ele>
   </trkpt>
   <trkpt lat="-37.88808" lon="145.31744">
    <ele>208.27</ele>
   </trkpt>
   <trkpt lat="-37.888270000000006" lon="145.31747000000001">
    <ele>206.8</ele>
   </trkpt>
   <trkpt lat="-37.88828" lon="145.31748000000002">
    <ele>206.8</ele>
   </trkpt>
   <trkpt lat="-37.88839" lon="145.31750000000002">
    <ele>204.59</ele>
   </trkpt>
   <trkpt lat="-37.88846" lon="145.31753">
    <ele>204.59</ele>
   </trkpt>
   <trkpt lat="-37.88866" lon="145.31772">
    <ele>201.53</ele>
   </trkpt>
   <trkpt lat="-37.888830000000006" lon="145.31773">
    <ele>200.57000000000002</ele>
   </trkpt>
   <trkpt lat="-37.8889" lon="145.31777000000002">
    <ele>198.34</ele>
   </trkpt>
   <trkpt lat="-37.88893" lon="145.31777000000002">
    <ele>198.34</ele>
   </trkpt>
   <trkpt lat="-37.88895" lon="145.31774000000001">
    <ele>198.34</ele>
   </trkpt>
   <trkpt lat="-37.88931" lon="145.31776000000002">
    <ele>195.33</ele>
   </trkpt>
   <trkpt lat="-37.889410000000005" lon="145.31771">
    <ele>193.84</ele>
   </trkpt>
   <trkpt lat="-37.88967" lon="145.31767000000002">
    <ele>191.47000000000003</ele>
   </trkpt>
   <trkpt lat="-37.889810000000004" lon="145.31752">
    <ele>189.58</ele>
   </trkpt>
   <trkpt lat="-37.890280000000004" lon="145.31739000000002">
    <ele>185.73</ele>
   </trkpt>
   <trkpt lat="-37.8904" lon="145.31744">
    <ele>184.98</ele>
   </trkpt>
   <trkpt lat="-37.8905" lon="145.31752">
    <ele>184.17000000000002</ele>
   </trkpt>
   <trkpt lat="-37.89058" lon="145.31753">
    <ele>183.29</ele>
   </trkpt>
   <trkpt lat="-37.89067" lon="145.31745">
    <ele>181.31000000000003</ele>
   </trkpt>
   <trkpt lat="-37.89072" lon="145.31744">
    <ele>181.31000000000003</ele>
   </trkpt>
  </trkseg>
 </trk>
</gpx>
