<?xml version="1.0" encoding="UTF-8"?>
<gpx creator="StravaGPX" version="1.1" xmlns="http://www.topografix.com/GPX/1/1" xmlns:xsi="http://www.w3.org/2001/XMLSchema-instance" xsi:schemaLocation="http://www.topografix.com/GPX/1/1 http://www.topografix.com/GPX/1/1/gpx.xsd">
 <metadata>
  <name>2025-01-29</name>
  <author>
   <name>Luke Visser</name>
   <link href="https://www.strava.com/athletes/6647327"/>
  </author>
  <copyright author="OpenStreetMap contributors">
   <year>2020</year>
   <license>https://www.openstreetmap.org/copyright</license>
  </copyright>
  <link href="https://www.strava.com/routes/3451001996319465100"/>
 </metadata>
 <trk>
  <name>2025-01-29</name>
  <link href="https://www.strava.com/routes/3451001996319465100"/>
  <type>running</type>
  <trkseg>
   <trkpt lat="-37.887350000000005" lon="145.37013000000002">
    <ele>364.33000000000004</ele>
   </trkpt>
   <trkpt lat="-37.88729" lon="145.37024000000002">
    <ele>364.56000000000006</ele>
   </trkpt>
   <trkpt lat="-37.886860000000006" lon="145.37055">
    <ele>367.26000000000005</ele>
   </trkpt>
   <trkpt lat="-37.88689" lon="145.37066000000002">
    <ele>370.73</ele>
   </trkpt>
   <trkpt lat="-37.88694" lon="145.37120000000002">
    <ele>371.58000000000004</ele>
   </trkpt>
   <trkpt lat="-37.88698" lon="145.37135">
    <ele>371.94000000000005</ele>
   </trkpt>
   <trkpt lat="-37.88705" lon="145.37147000000002">
    <ele>372.00000000000006</ele>
   </trkpt>
   <trkpt lat="-37.887425000479915" lon="145.37178999841026">
    <ele>369.87</ele>
   </trkpt>
   <trkpt lat="-37.887800000000006" lon="145.37211000000002">
    <ele>366.13</ele>
   </trkpt>
   <trkpt lat="-37.88841000078449" lon="145.37258499593258">
    <ele>361.24</ele>
   </trkpt>
   <trkpt lat="-37.88902" lon="145.37306">
    <ele>355.42</ele>
   </trkpt>
   <trkpt lat="-37.88950000069874" lon="145.37347499726883">
    <ele>352.51000000000005</ele>
   </trkpt>
   <trkpt lat="-37.88998" lon="145.37389000000002">
    <ele>347.27000000000004</ele>
   </trkpt>
   <trkpt lat="-37.89007" lon="145.37402">
    <ele>346.77000000000004</ele>
   </trkpt>
   <trkpt lat="-37.89011" lon="145.37428">
    <ele>345.89000000000004</ele>
   </trkpt>
   <trkpt lat="-37.89009" lon="145.37448">
    <ele>344.33000000000004</ele>
   </trkpt>
   <trkpt lat="-37.89" lon="145.37468">
    <ele>343.85</ele>
   </trkpt>
   <trkpt lat="-37.88993" lon="145.37490000000003">
    <ele>343.43</ele>
   </trkpt>
   <trkpt lat="-37.88996" lon="145.37504">
    <ele>343.88</ele>
   </trkpt>
   <trkpt lat="-37.89007" lon="145.37515000000002">
    <ele>344.90000000000003</ele>
   </trkpt>
   <trkpt lat="-37.89025" lon="145.37519">
    <ele>345.6</ele>
   </trkpt>
   <trkpt lat="-37.89052" lon="145.37509">
    <ele>345.01000000000005</ele>
   </trkpt>
   <trkpt lat="-37.89079" lon="145.37492">
    <ele>344.63000000000005</ele>
   </trkpt>
   <trkpt lat="-37.89112" lon="145.37477">
    <ele>341.08000000000004</ele>
   </trkpt>
   <trkpt lat="-37.891180000000006" lon="145.37476">
    <ele>340.11</ele>
   </trkpt>
   <trkpt lat="-37.89137" lon="145.37478000000002">
    <ele>337.54</ele>
   </trkpt>
   <trkpt lat="-37.89148" lon="145.37473">
    <ele>337.07000000000005</ele>
   </trkpt>
   <trkpt lat="-37.89157" lon="145.37466">
    <ele>336.18</ele>
   </trkpt>
   <trkpt lat="-37.89159" lon="145.37459">
    <ele>336.16</ele>
   </trkpt>
   <trkpt lat="-37.89159" lon="145.37401">
    <ele>340.94</ele>
   </trkpt>
   <trkpt lat="-37.89161" lon="145.37392">
    <ele>340.94</ele>
   </trkpt>
   <trkpt lat="-37.89166" lon="145.37383">
    <ele>342.39000000000004</ele>
   </trkpt>
   <trkpt lat="-37.89175" lon="145.37377">
    <ele>343.42</ele>
   </trkpt>
   <trkpt lat="-37.89193" lon="145.37368">
    <ele>344.53</ele>
   </trkpt>
   <trkpt lat="-37.89213" lon="145.37365">
    <ele>347.58000000000004</ele>
   </trkpt>
   <trkpt lat="-37.8924" lon="145.37368">
    <ele>351.43</ele>
   </trkpt>
   <trkpt lat="-37.89284" lon="145.37382000000002">
    <ele>356.71000000000004</ele>
   </trkpt>
   <trkpt lat="-37.89331" lon="145.37409000000002">
    <ele>361.12000000000006</ele>
   </trkpt>
   <trkpt lat="-37.89349" lon="145.37424000000001">
    <ele>363.59000000000003</ele>
   </trkpt>
   <trkpt lat="-37.89383" lon="145.37475">
    <ele>370.91</ele>
   </trkpt>
   <trkpt lat="-37.89392" lon="145.37482">
    <ele>372.24</ele>
   </trkpt>
   <trkpt lat="-37.894000000000005" lon="145.37485">
    <ele>372.78000000000003</ele>
   </trkpt>
   <trkpt lat="-37.893930000000005" lon="145.37482">
    <ele>371.91</ele>
   </trkpt>
   <trkpt lat="-37.89423" lon="145.37495">
    <ele>377.68</ele>
   </trkpt>
   <trkpt lat="-37.89437" lon="145.37505000000002">
    <ele>379.20000000000005</ele>
   </trkpt>
   <trkpt lat="-37.894560000000006" lon="145.37512">
    <ele>379.20000000000005</ele>
   </trkpt>
   <trkpt lat="-37.89479" lon="145.37516000000002">
    <ele>387.87000000000006</ele>
   </trkpt>
   <trkpt lat="-37.89513" lon="145.37514000000002">
    <ele>391.91</ele>
   </trkpt>
   <trkpt lat="-37.89549" lon="145.37521">
    <ele>396.3</ele>
   </trkpt>
   <trkpt lat="-37.8958" lon="145.37517000000003">
    <ele>398.11</ele>
   </trkpt>
   <trkpt lat="-37.896080000000005" lon="145.37524000000002">
    <ele>398.61</ele>
   </trkpt>
   <trkpt lat="-37.89636" lon="145.37518">
    <ele>398.89</ele>
   </trkpt>
   <trkpt lat="-37.89658" lon="145.37518">
    <ele>398.79</ele>
   </trkpt>
   <trkpt lat="-37.89676" lon="145.37524000000002">
    <ele>398.86</ele>
   </trkpt>
   <trkpt lat="-37.89701" lon="145.37541000000002">
    <ele>399.01000000000005</ele>
   </trkpt>
   <trkpt lat="-37.89723" lon="145.37565">
    <ele>399.45000000000005</ele>
   </trkpt>
   <trkpt lat="-37.89734" lon="145.37586000000002">
    <ele>399.94</ele>
   </trkpt>
   <trkpt lat="-37.897540000000006" lon="145.37663">
    <ele>399.08000000000004</ele>
   </trkpt>
   <trkpt lat="-37.89772" lon="145.37738000000002">
    <ele>396.55</ele>
   </trkpt>
   <trkpt lat="-37.89781" lon="145.3779">
    <ele>396.18</ele>
   </trkpt>
   <trkpt lat="-37.8979" lon="145.37899000000002">
    <ele>399.55</ele>
   </trkpt>
   <trkpt lat="-37.897920000000006" lon="145.37907">
    <ele>399.45000000000005</ele>
   </trkpt>
   <trkpt lat="-37.897980000000004" lon="145.37919000000002">
    <ele>398.17</ele>
   </trkpt>
   <trkpt lat="-37.89822" lon="145.37928000000002">
    <ele>398.49</ele>
   </trkpt>
   <trkpt lat="-37.8984" lon="145.3794">
    <ele>397.89</ele>
   </trkpt>
   <trkpt lat="-37.899115000498796" lon="145.37975999647793">
    <ele>391.66</ele>
   </trkpt>
   <trkpt lat="-37.89983" lon="145.38012">
    <ele>382.55000000000007</ele>
   </trkpt>
   <trkpt lat="-37.90025" lon="145.38027000000002">
    <ele>380.12</ele>
   </trkpt>
   <trkpt lat="-37.90095" lon="145.38066">
    <ele>375.1</ele>
   </trkpt>
   <trkpt lat="-37.90166" lon="145.38102">
    <ele>370.93</ele>
   </trkpt>
   <trkpt lat="-37.9022" lon="145.38132000000002">
    <ele>370.11000000000007</ele>
   </trkpt>
   <trkpt lat="-37.90243" lon="145.38138">
    <ele>369.83000000000004</ele>
   </trkpt>
   <trkpt lat="-37.9026" lon="145.38141000000002">
    <ele>369.19</ele>
   </trkpt>
   <trkpt lat="-37.90278" lon="145.38134000000002">
    <ele>367.59000000000003</ele>
   </trkpt>
   <trkpt lat="-37.90285" lon="145.38128">
    <ele>366.49</ele>
   </trkpt>
   <trkpt lat="-37.902860000000004" lon="145.38127">
    <ele>366.49</ele>
   </trkpt>
   <trkpt lat="-37.90307" lon="145.38094">
    <ele>360.07000000000005</ele>
   </trkpt>
   <trkpt lat="-37.90325" lon="145.38043000000002">
    <ele>349.57000000000005</ele>
   </trkpt>
   <trkpt lat="-37.90339" lon="145.38022">
    <ele>344.86000000000007</ele>
   </trkpt>
   <trkpt lat="-37.90368" lon="145.37987">
    <ele>336.46000000000004</ele>
   </trkpt>
   <trkpt lat="-37.90404" lon="145.37937000000002">
    <ele>324.93000000000006</ele>
   </trkpt>
   <trkpt lat="-37.904320000859784" lon="145.3788850020797">
    <ele>316.18</ele>
   </trkpt>
   <trkpt lat="-37.9046" lon="145.3784">
    <ele>306.8</ele>
   </trkpt>
   <trkpt lat="-37.90475" lon="145.37804">
    <ele>294.76</ele>
   </trkpt>
   <trkpt lat="-37.904970000000006" lon="145.37744">
    <ele>285.90000000000003</ele>
   </trkpt>
   <trkpt lat="-37.90523000176999" lon="145.3768050020867">
    <ele>274.68</ele>
   </trkpt>
   <trkpt lat="-37.90549" lon="145.37617">
    <ele>271.96000000000004</ele>
   </trkpt>
   <trkpt lat="-37.905910000000006" lon="145.37546">
    <ele>268.24</ele>
   </trkpt>
   <trkpt lat="-37.90643" lon="145.37461000000002">
    <ele>259.15000000000003</ele>
   </trkpt>
   <trkpt lat="-37.9069" lon="145.37378">
    <ele>249.27</ele>
   </trkpt>
   <trkpt lat="-37.90699" lon="145.37323">
    <ele>242.08</ele>
   </trkpt>
   <trkpt lat="-37.90713" lon="145.37262">
    <ele>232.22</ele>
   </trkpt>
   <trkpt lat="-37.90713" lon="145.37253">
    <ele>231.4</ele>
   </trkpt>
   <trkpt lat="-37.90701" lon="145.37227000000001">
    <ele>228.48000000000002</ele>
   </trkpt>
   <trkpt lat="-37.90672" lon="145.37188">
    <ele>222.82000000000002</ele>
   </trkpt>
   <trkpt lat="-37.90639" lon="145.37087000000002">
    <ele>224.79000000000002</ele>
   </trkpt>
   <trkpt lat="-37.90628" lon="145.37043">
    <ele>227.38000000000002</ele>
   </trkpt>
   <trkpt lat="-37.9063" lon="145.37003">
    <ele>228.86</ele>
   </trkpt>
   <trkpt lat="-37.90634" lon="145.36982">
    <ele>228.80000000000004</ele>
   </trkpt>
   <trkpt lat="-37.9065" lon="145.36961000000002">
    <ele>228.52</ele>
   </trkpt>
   <trkpt lat="-37.9067" lon="145.36924000000002">
    <ele>228.9</ele>
   </trkpt>
   <trkpt lat="-37.90677" lon="145.36897000000002">
    <ele>228.9</ele>
   </trkpt>
   <trkpt lat="-37.90677" lon="145.36884">
    <ele>228.9</ele>
   </trkpt>
   <trkpt lat="-37.90668" lon="145.36825000000002">
    <ele>229.48000000000002</ele>
   </trkpt>
   <trkpt lat="-37.90675" lon="145.36773000000002">
    <ele>226.63000000000002</ele>
   </trkpt>
   <trkpt lat="-37.90663" lon="145.36713">
    <ele>224.75</ele>
   </trkpt>
   <trkpt lat="-37.90661" lon="145.36685">
    <ele>227.01000000000002</ele>
   </trkpt>
   <trkpt lat="-37.90657" lon="145.36668">
    <ele>228.89000000000001</ele>
   </trkpt>
   <trkpt lat="-37.90663" lon="145.36637000000002">
    <ele>236.99</ele>
   </trkpt>
   <trkpt lat="-37.90646" lon="145.36564">
    <ele>257.3</ele>
   </trkpt>
   <trkpt lat="-37.90623" lon="145.36459000000002">
    <ele>277.48</ele>
   </trkpt>
   <trkpt lat="-37.906150000000004" lon="145.36395000000002">
    <ele>287.72</ele>
   </trkpt>
   <trkpt lat="-37.90614" lon="145.36394">
    <ele>287.72</ele>
   </trkpt>
   <trkpt lat="-37.906060000000004" lon="145.36378000000002">
    <ele>290.17</ele>
   </trkpt>
   <trkpt lat="-37.905770000000004" lon="145.36347">
    <ele>294.99</ele>
   </trkpt>
   <trkpt lat="-37.90565" lon="145.3634">
    <ele>296.42</ele>
   </trkpt>
   <trkpt lat="-37.90545" lon="145.36334000000002">
    <ele>299.91</ele>
   </trkpt>
   <trkpt lat="-37.905350000000006" lon="145.36324000000002">
    <ele>299.91</ele>
   </trkpt>
   <trkpt lat="-37.90522" lon="145.36309">
    <ele>306.72</ele>
   </trkpt>
   <trkpt lat="-37.9046" lon="145.36269000000001">
    <ele>314.51</ele>
   </trkpt>
   <trkpt lat="-37.90442" lon="145.36266">
    <ele>316.38000000000005</ele>
   </trkpt>
   <trkpt lat="-37.90417" lon="145.36270000000002">
    <ele>317.89</ele>
   </trkpt>
   <trkpt lat="-37.90366" lon="145.36271000000002">
    <ele>322.07</ele>
   </trkpt>
   <trkpt lat="-37.90307" lon="145.36296000000002">
    <ele>327.1</ele>
   </trkpt>
   <trkpt lat="-37.90283" lon="145.36315000000002">
    <ele>329.94</ele>
   </trkpt>
   <trkpt lat="-37.90263" lon="145.36328">
    <ele>332.61</ele>
   </trkpt>
   <trkpt lat="-37.90216" lon="145.36339">
    <ele>339.46000000000004</ele>
   </trkpt>
   <trkpt lat="-37.90189" lon="145.36350000000002">
    <ele>341.5</ele>
   </trkpt>
   <trkpt lat="-37.901450000000004" lon="145.36383">
    <ele>346.92</ele>
   </trkpt>
   <trkpt lat="-37.90124" lon="145.36343000000002">
    <ele>345.86</ele>
   </trkpt>
   <trkpt lat="-37.901050001985745" lon="145.36273999811638">
    <ele>340.68</ele>
   </trkpt>
   <trkpt lat="-37.90086" lon="145.36205">
    <ele>334.54</ele>
   </trkpt>
   <trkpt lat="-37.900830000000006" lon="145.36186">
    <ele>333.37</ele>
   </trkpt>
   <trkpt lat="-37.90077" lon="145.36145000000002">
    <ele>334.03000000000003</ele>
   </trkpt>
   <trkpt lat="-37.90059" lon="145.36069">
    <ele>338.40000000000003</ele>
   </trkpt>
   <trkpt lat="-37.90057" lon="145.36046000000002">
    <ele>338.03000000000003</ele>
   </trkpt>
   <trkpt lat="-37.9005" lon="145.36012000000002">
    <ele>334.79</ele>
   </trkpt>
   <trkpt lat="-37.9003" lon="145.35946">
    <ele>316.54</ele>
   </trkpt>
   <trkpt lat="-37.9001" lon="145.35860000000002">
    <ele>302.00000000000006</ele>
   </trkpt>
   <trkpt lat="-37.9001" lon="145.35835">
    <ele>298.24</ele>
   </trkpt>
   <trkpt lat="-37.900000000000006" lon="145.35778000000002">
    <ele>284.75</ele>
   </trkpt>
   <trkpt lat="-37.89992" lon="145.35763">
    <ele>275.88</ele>
   </trkpt>
   <trkpt lat="-37.89992" lon="145.35755">
    <ele>275.88</ele>
   </trkpt>
   <trkpt lat="-37.900000000000006" lon="145.35732000000002">
    <ele>269.57000000000005</ele>
   </trkpt>
   <trkpt lat="-37.900000000000006" lon="145.35713">
    <ele>265.5</ele>
   </trkpt>
   <trkpt lat="-37.89996" lon="145.35696000000002">
    <ele>256.61</ele>
   </trkpt>
   <trkpt lat="-37.89985" lon="145.35690000000002">
    <ele>256.58000000000004</ele>
   </trkpt>
   <trkpt lat="-37.89994" lon="145.35687000000001">
    <ele>256.58000000000004</ele>
   </trkpt>
   <trkpt lat="-37.90001" lon="145.35687000000001">
    <ele>266.69000000000005</ele>
   </trkpt>
   <trkpt lat="-37.9001" lon="145.35691">
    <ele>266.69000000000005</ele>
   </trkpt>
   <trkpt lat="-37.90014" lon="145.35665">
    <ele>266.69000000000005</ele>
   </trkpt>
   <trkpt lat="-37.89976" lon="145.35625000000002">
    <ele>268.82</ele>
   </trkpt>
   <trkpt lat="-37.89976" lon="145.35626000000002">
    <ele>268.82</ele>
   </trkpt>
   <trkpt lat="-37.899730000000005" lon="145.35632">
    <ele>269.15</ele>
   </trkpt>
   <trkpt lat="-37.89967" lon="145.35628">
    <ele>270.56</ele>
   </trkpt>
   <trkpt lat="-37.89958" lon="145.35626000000002">
    <ele>270.56</ele>
   </trkpt>
   <trkpt lat="-37.89932" lon="145.35603">
    <ele>273.76</ele>
   </trkpt>
   <trkpt lat="-37.89934" lon="145.35593">
    <ele>274.43</ele>
   </trkpt>
   <trkpt lat="-37.899170000000005" lon="145.35578">
    <ele>274.89000000000004</ele>
   </trkpt>
   <trkpt lat="-37.89898" lon="145.3557">
    <ele>276.48</ele>
   </trkpt>
   <trkpt lat="-37.89873" lon="145.35563000000002">
    <ele>279.11</ele>
   </trkpt>
   <trkpt lat="-37.8984" lon="145.35568">
    <ele>283.33000000000004</ele>
   </trkpt>
   <trkpt lat="-37.89819" lon="145.35568">
    <ele>284.92</ele>
   </trkpt>
   <trkpt lat="-37.89804" lon="145.35571000000002">
    <ele>285.75</ele>
   </trkpt>
   <trkpt lat="-37.89795" lon="145.35578">
    <ele>285.75</ele>
   </trkpt>
   <trkpt lat="-37.89748" lon="145.35624">
    <ele>292.86</ele>
   </trkpt>
   <trkpt lat="-37.89728" lon="145.35668">
    <ele>295.27000000000004</ele>
   </trkpt>
   <trkpt lat="-37.89676" lon="145.35695">
    <ele>301.22</ele>
   </trkpt>
   <trkpt lat="-37.8967" lon="145.357">
    <ele>302.14</ele>
   </trkpt>
   <trkpt lat="-37.89654" lon="145.35726000000003">
    <ele>302.72</ele>
   </trkpt>
   <trkpt lat="-37.89629" lon="145.35743000000002">
    <ele>305.11</ele>
   </trkpt>
   <trkpt lat="-37.89616" lon="145.35745">
    <ele>306.1</ele>
   </trkpt>
   <trkpt lat="-37.89598" lon="145.35736">
    <ele>306.98</ele>
   </trkpt>
   <trkpt lat="-37.89558" lon="145.35738">
    <ele>310.86</ele>
   </trkpt>
   <trkpt lat="-37.89531" lon="145.35732000000002">
    <ele>313.41</ele>
   </trkpt>
   <trkpt lat="-37.89522" lon="145.35726000000003">
    <ele>314.26000000000005</ele>
   </trkpt>
   <trkpt lat="-37.89504" lon="145.35737">
    <ele>315.76000000000005</ele>
   </trkpt>
   <trkpt lat="-37.89488" lon="145.35737">
    <ele>317.95</ele>
   </trkpt>
   <trkpt lat="-37.89457" lon="145.35724000000002">
    <ele>322.35</ele>
   </trkpt>
   <trkpt lat="-37.89434" lon="145.35721">
    <ele>328.89</ele>
   </trkpt>
   <trkpt lat="-37.89408" lon="145.35721">
    <ele>332.21</ele>
   </trkpt>
   <trkpt lat="-37.89372" lon="145.35718">
    <ele>337.72</ele>
   </trkpt>
   <trkpt lat="-37.8935" lon="145.35722">
    <ele>339.99</ele>
   </trkpt>
   <trkpt lat="-37.89349" lon="145.35722">
    <ele>339.99</ele>
   </trkpt>
   <trkpt lat="-37.89329" lon="145.35727">
    <ele>341.77000000000004</ele>
   </trkpt>
   <trkpt lat="-37.89316" lon="145.35723000000002">
    <ele>342.40000000000003</ele>
   </trkpt>
   <trkpt lat="-37.89298" lon="145.35709">
    <ele>344.30000000000007</ele>
   </trkpt>
   <trkpt lat="-37.89287" lon="145.35705000000002">
    <ele>345.31</ele>
   </trkpt>
   <trkpt lat="-37.89273" lon="145.35704">
    <ele>345.87</ele>
   </trkpt>
   <trkpt lat="-37.89258" lon="145.35709">
    <ele>349.31</ele>
   </trkpt>
   <trkpt lat="-37.89246" lon="145.35709">
    <ele>352.26</ele>
   </trkpt>
   <trkpt lat="-37.89195" lon="145.35690000000002">
    <ele>361.14</ele>
   </trkpt>
   <trkpt lat="-37.89186" lon="145.35682">
    <ele>361.97</ele>
   </trkpt>
   <trkpt lat="-37.891740000000006" lon="145.35659">
    <ele>364.82000000000005</ele>
   </trkpt>
   <trkpt lat="-37.891200000000005" lon="145.35612">
    <ele>374.15000000000003</ele>
   </trkpt>
   <trkpt lat="-37.89049" lon="145.35545000000002">
    <ele>382.73</ele>
   </trkpt>
   <trkpt lat="-37.89034" lon="145.35532">
    <ele>384.40000000000003</ele>
   </trkpt>
   <trkpt lat="-37.89014" lon="145.35523">
    <ele>387.31000000000006</ele>
   </trkpt>
   <trkpt lat="-37.889880000000005" lon="145.35507">
    <ele>390.73</ele>
   </trkpt>
   <trkpt lat="-37.88985" lon="145.35506">
    <ele>390.73</ele>
   </trkpt>
   <trkpt lat="-37.88964" lon="145.35511000000002">
    <ele>396.95</ele>
   </trkpt>
   <trkpt lat="-37.88958" lon="145.35502000000002">
    <ele>398.13000000000005</ele>
   </trkpt>
   <trkpt lat="-37.88922" lon="145.35487">
    <ele>401.56</ele>
   </trkpt>
   <trkpt lat="-37.88915" lon="145.35486">
    <ele>401.93</ele>
   </trkpt>
   <trkpt lat="-37.88893" lon="145.35489">
    <ele>403.75000000000006</ele>
   </trkpt>
   <trkpt lat="-37.888630000000006" lon="145.35499000000002">
    <ele>409.68000000000006</ele>
   </trkpt>
   <trkpt lat="-37.888600000000004" lon="145.35502000000002">
    <ele>411.01000000000005</ele>
   </trkpt>
   <trkpt lat="-37.88855" lon="145.35496">
    <ele>411.73</ele>
   </trkpt>
   <trkpt lat="-37.88857" lon="145.35492000000002">
    <ele>413.19000000000005</ele>
   </trkpt>
   <trkpt lat="-37.88848" lon="145.35468">
    <ele>415.73</ele>
   </trkpt>
   <trkpt lat="-37.88828" lon="145.35435">
    <ele>422.49</ele>
   </trkpt>
   <trkpt lat="-37.8881" lon="145.35416">
    <ele>427.01000000000005</ele>
   </trkpt>
   <trkpt lat="-37.88792" lon="145.35378">
    <ele>431.47</ele>
   </trkpt>
   <trkpt lat="-37.88781" lon="145.35358000000002">
    <ele>436.01</ele>
   </trkpt>
   <trkpt lat="-37.88772" lon="145.35336">
    <ele>439.24</ele>
   </trkpt>
   <trkpt lat="-37.88765" lon="145.35301">
    <ele>442.16</ele>
   </trkpt>
   <trkpt lat="-37.88745" lon="145.35251000000002">
    <ele>451.08000000000004</ele>
   </trkpt>
   <trkpt lat="-37.887240000000006" lon="145.35214000000002">
    <ele>457.29</ele>
   </trkpt>
   <trkpt lat="-37.88698" lon="145.35202">
    <ele>462.88</ele>
   </trkpt>
   <trkpt lat="-37.88678" lon="145.35202">
    <ele>464.85</ele>
   </trkpt>
   <trkpt lat="-37.88662" lon="145.352">
    <ele>466.25000000000006</ele>
   </trkpt>
   <trkpt lat="-37.88626" lon="145.35184">
    <ele>468.43</ele>
   </trkpt>
   <trkpt lat="-37.88615" lon="145.35176">
    <ele>468.90000000000003</ele>
   </trkpt>
   <trkpt lat="-37.886030000000005" lon="145.35156">
    <ele>465.58000000000004</ele>
   </trkpt>
   <trkpt lat="-37.88584" lon="145.35157">
    <ele>466.53000000000003</ele>
   </trkpt>
   <trkpt lat="-37.88552" lon="145.35153000000003">
    <ele>469.46000000000004</ele>
   </trkpt>
   <trkpt lat="-37.8853" lon="145.3514">
    <ele>470.40000000000003</ele>
   </trkpt>
   <trkpt lat="-37.88477" lon="145.35099000000002">
    <ele>469.72</ele>
   </trkpt>
   <trkpt lat="-37.88443" lon="145.35102">
    <ele>471.04</ele>
   </trkpt>
   <trkpt lat="-37.88427" lon="145.35105000000001">
    <ele>472.08000000000004</ele>
   </trkpt>
   <trkpt lat="-37.88402" lon="145.3512">
    <ele>474.4200000000001</ele>
   </trkpt>
   <trkpt lat="-37.883790000000005" lon="145.35131">
    <ele>475.35</ele>
   </trkpt>
   <trkpt lat="-37.88347" lon="145.35125000000002">
    <ele>484.31</ele>
   </trkpt>
   <trkpt lat="-37.8834" lon="145.35126000000002">
    <ele>485.13000000000005</ele>
   </trkpt>
   <trkpt lat="-37.88324" lon="145.3513">
    <ele>487.11</ele>
   </trkpt>
   <trkpt lat="-37.882920000000006" lon="145.35153000000003">
    <ele>490.88000000000005</ele>
   </trkpt>
   <trkpt lat="-37.88266" lon="145.35173">
    <ele>493.1</ele>
   </trkpt>
   <trkpt lat="-37.88206" lon="145.3521">
    <ele>498.00000000000006</ele>
   </trkpt>
   <trkpt lat="-37.882070000000006" lon="145.35209">
    <ele>497.96</ele>
   </trkpt>
   <trkpt lat="-37.88152" lon="145.35244">
    <ele>499.44000000000005</ele>
   </trkpt>
   <trkpt lat="-37.88125" lon="145.35248">
    <ele>499.47</ele>
   </trkpt>
   <trkpt lat="-37.88103" lon="145.35239">
    <ele>499.97</ele>
   </trkpt>
   <trkpt lat="-37.88056" lon="145.35199">
    <ele>499.78000000000003</ele>
   </trkpt>
   <trkpt lat="-37.88042" lon="145.35184">
    <ele>499.6</ele>
   </trkpt>
   <trkpt lat="-37.88011" lon="145.35161000000002">
    <ele>498.57</ele>
   </trkpt>
   <trkpt lat="-37.87993" lon="145.35151000000002">
    <ele>498.37</ele>
   </trkpt>
   <trkpt lat="-37.87961" lon="145.3514">
    <ele>498.2900000000001</ele>
   </trkpt>
   <trkpt lat="-37.87946" lon="145.35142000000002">
    <ele>498.08</ele>
   </trkpt>
   <trkpt lat="-37.87908" lon="145.35178000000002">
    <ele>496.57000000000005</ele>
   </trkpt>
   <trkpt lat="-37.87894" lon="145.35199">
    <ele>496.07000000000005</ele>
   </trkpt>
   <trkpt lat="-37.87859" lon="145.35291">
    <ele>492.78000000000003</ele>
   </trkpt>
   <trkpt lat="-37.87847" lon="145.35309">
    <ele>492.78000000000003</ele>
   </trkpt>
   <trkpt lat="-37.878130000000006" lon="145.35348000000002">
    <ele>491.16</ele>
   </trkpt>
   <trkpt lat="-37.87771" lon="145.35379">
    <ele>489.1</ele>
   </trkpt>
   <trkpt lat="-37.877370000000006" lon="145.35409">
    <ele>488.28000000000003</ele>
   </trkpt>
   <trkpt lat="-37.877230000000004" lon="145.35415">
    <ele>483.39000000000004</ele>
   </trkpt>
   <trkpt lat="-37.87702" lon="145.35441">
    <ele>482.49</ele>
   </trkpt>
   <trkpt lat="-37.87684" lon="145.35466000000002">
    <ele>479.86000000000007</ele>
   </trkpt>
   <trkpt lat="-37.8767" lon="145.35494">
    <ele>477.31</ele>
   </trkpt>
   <trkpt lat="-37.87666" lon="145.35511000000002">
    <ele>476.07000000000005</ele>
   </trkpt>
   <trkpt lat="-37.87666" lon="145.35527000000002">
    <ele>473.24000000000007</ele>
   </trkpt>
   <trkpt lat="-37.87673" lon="145.35552">
    <ele>470.56</ele>
   </trkpt>
   <trkpt lat="-37.87691000121973" lon="145.35604999879845">
    <ele>472.21000000000004</ele>
   </trkpt>
   <trkpt lat="-37.87709" lon="145.35658">
    <ele>475.66</ele>
   </trkpt>
   <trkpt lat="-37.87729500116891" lon="145.35711499840252">
    <ele>477.52000000000004</ele>
   </trkpt>
   <trkpt lat="-37.877500000000005" lon="145.35765">
    <ele>479.72</ele>
   </trkpt>
   <trkpt lat="-37.8778" lon="145.35791">
    <ele>481.17</ele>
   </trkpt>
   <trkpt lat="-37.87798" lon="145.35797000000002">
    <ele>481.61</ele>
   </trkpt>
   <trkpt lat="-37.87818" lon="145.35801">
    <ele>482.40000000000003</ele>
   </trkpt>
   <trkpt lat="-37.878600000000006" lon="145.35829">
    <ele>483.95000000000005</ele>
   </trkpt>
   <trkpt lat="-37.87876" lon="145.35838">
    <ele>483.82</ele>
   </trkpt>
   <trkpt lat="-37.87919" lon="145.35846">
    <ele>481.46000000000004</ele>
   </trkpt>
   <trkpt lat="-37.87975" lon="145.35876000000002">
    <ele>479.48</ele>
   </trkpt>
   <trkpt lat="-37.87991" lon="145.35891">
    <ele>479.75000000000006</ele>
   </trkpt>
   <trkpt lat="-37.88006" lon="145.35903000000002">
    <ele>480.42</ele>
   </trkpt>
   <trkpt lat="-37.8802" lon="145.35908">
    <ele>480.54</ele>
   </trkpt>
   <trkpt lat="-37.88033" lon="145.3591">
    <ele>480.45000000000005</ele>
   </trkpt>
   <trkpt lat="-37.88062" lon="145.35906">
    <ele>479.91</ele>
   </trkpt>
   <trkpt lat="-37.880680000000005" lon="145.35916">
    <ele>477.67</ele>
   </trkpt>
   <trkpt lat="-37.88082" lon="145.35912000000002">
    <ele>478.19000000000005</ele>
   </trkpt>
   <trkpt lat="-37.8811" lon="145.35928">
    <ele>480.15000000000003</ele>
   </trkpt>
   <trkpt lat="-37.88116" lon="145.35941000000003">
    <ele>482.32</ele>
   </trkpt>
   <trkpt lat="-37.88112" lon="145.35963">
    <ele>483.15000000000003</ele>
   </trkpt>
   <trkpt lat="-37.88163" lon="145.35975000000002">
    <ele>483.18000000000006</ele>
   </trkpt>
   <trkpt lat="-37.88208" lon="145.35974000000002">
    <ele>483.42</ele>
   </trkpt>
   <trkpt lat="-37.882490000000004" lon="145.35981">
    <ele>484.09000000000003</ele>
   </trkpt>
   <trkpt lat="-37.88297" lon="145.35958000000002">
    <ele>488.16</ele>
   </trkpt>
   <trkpt lat="-37.88347" lon="145.35923000000003">
    <ele>494.37</ele>
   </trkpt>
   <trkpt lat="-37.88371" lon="145.35887000000002">
    <ele>497.41</ele>
   </trkpt>
   <trkpt lat="-37.88391" lon="145.35863">
    <ele>501.0300000000001</ele>
   </trkpt>
   <trkpt lat="-37.88407" lon="145.35852">
    <ele>502.33000000000004</ele>
   </trkpt>
   <trkpt lat="-37.88441" lon="145.35840000000002">
    <ele>503.82000000000005</ele>
   </trkpt>
   <trkpt lat="-37.88456" lon="145.35838">
    <ele>504.44</ele>
   </trkpt>
   <trkpt lat="-37.88476" lon="145.35842000000002">
    <ele>504.44</ele>
   </trkpt>
   <trkpt lat="-37.88532" lon="145.35860000000002">
    <ele>507.99000000000007</ele>
   </trkpt>
   <trkpt lat="-37.885450000000006" lon="145.35868000000002">
    <ele>507.99000000000007</ele>
   </trkpt>
   <trkpt lat="-37.8858" lon="145.35913000000002">
    <ele>511.87000000000006</ele>
   </trkpt>
   <trkpt lat="-37.88591" lon="145.35922000000002">
    <ele>512.08</ele>
   </trkpt>
   <trkpt lat="-37.885960000000004" lon="145.35934">
    <ele>512.1800000000001</ele>
   </trkpt>
   <trkpt lat="-37.88595" lon="145.35932000000003">
    <ele>512.1800000000001</ele>
   </trkpt>
   <trkpt lat="-37.88598" lon="145.35957000000002">
    <ele>512.12</ele>
   </trkpt>
   <trkpt lat="-37.88573" lon="145.36033">
    <ele>510.16</ele>
   </trkpt>
   <trkpt lat="-37.88568" lon="145.36059">
    <ele>508.72</ele>
   </trkpt>
   <trkpt lat="-37.88562" lon="145.36079">
    <ele>506.72</ele>
   </trkpt>
   <trkpt lat="-37.88555" lon="145.36136000000002">
    <ele>502.81000000000006</ele>
   </trkpt>
   <trkpt lat="-37.88541" lon="145.36164000000002">
    <ele>500.78</ele>
   </trkpt>
   <trkpt lat="-37.8853" lon="145.36199000000002">
    <ele>499.27000000000004</ele>
   </trkpt>
   <trkpt lat="-37.88526" lon="145.36229">
    <ele>497.2300000000001</ele>
   </trkpt>
   <trkpt lat="-37.88514" lon="145.36251000000001">
    <ele>495.49</ele>
   </trkpt>
   <trkpt lat="-37.8849" lon="145.36279000000002">
    <ele>491.17</ele>
   </trkpt>
   <trkpt lat="-37.88479" lon="145.36302">
    <ele>487.93</ele>
   </trkpt>
   <trkpt lat="-37.88474" lon="145.36315000000002">
    <ele>483.30000000000007</ele>
   </trkpt>
   <trkpt lat="-37.88472" lon="145.36334000000002">
    <ele>481.66</ele>
   </trkpt>
   <trkpt lat="-37.8847" lon="145.36339">
    <ele>480.95000000000005</ele>
   </trkpt>
   <trkpt lat="-37.88456" lon="145.3634">
    <ele>478.66</ele>
   </trkpt>
   <trkpt lat="-37.88449" lon="145.36339">
    <ele>478.02000000000004</ele>
   </trkpt>
   <trkpt lat="-37.88443" lon="145.36341000000002">
    <ele>476.35</ele>
   </trkpt>
   <trkpt lat="-37.884420000000006" lon="145.36347">
    <ele>475.34000000000003</ele>
   </trkpt>
   <trkpt lat="-37.88445" lon="145.36369000000002">
    <ele>471.08000000000004</ele>
   </trkpt>
   <trkpt lat="-37.88463" lon="145.36419">
    <ele>462.57000000000005</ele>
   </trkpt>
   <trkpt lat="-37.88476" lon="145.36443">
    <ele>459.0400000000001</ele>
   </trkpt>
   <trkpt lat="-37.88479" lon="145.36451000000002">
    <ele>457.23</ele>
   </trkpt>
   <trkpt lat="-37.88476" lon="145.36459000000002">
    <ele>454.11</ele>
   </trkpt>
   <trkpt lat="-37.88483" lon="145.36484000000002">
    <ele>451.44000000000005</ele>
   </trkpt>
   <trkpt lat="-37.88494" lon="145.36503000000002">
    <ele>449.85</ele>
   </trkpt>
   <trkpt lat="-37.88499" lon="145.36505000000002">
    <ele>449.66</ele>
   </trkpt>
   <trkpt lat="-37.88517" lon="145.36524">
    <ele>447.63</ele>
   </trkpt>
   <trkpt lat="-37.88519" lon="145.36531000000002">
    <ele>446.77000000000004</ele>
   </trkpt>
   <trkpt lat="-37.885360000000006" lon="145.36547000000002">
    <ele>442.85</ele>
   </trkpt>
   <trkpt lat="-37.88539" lon="145.36557000000002">
    <ele>440.01</ele>
   </trkpt>
   <trkpt lat="-37.88546" lon="145.36561">
    <ele>440.01</ele>
   </trkpt>
   <trkpt lat="-37.88548" lon="145.36577">
    <ele>436.49</ele>
   </trkpt>
   <trkpt lat="-37.88546" lon="145.36592000000002">
    <ele>433.27000000000004</ele>
   </trkpt>
   <trkpt lat="-37.885270000000006" lon="145.36607">
    <ele>427.7900000000001</ele>
   </trkpt>
   <trkpt lat="-37.884980000000006" lon="145.36612000000002">
    <ele>424.08</ele>
   </trkpt>
   <trkpt lat="-37.88474" lon="145.36611000000002">
    <ele>420.16</ele>
   </trkpt>
   <trkpt lat="-37.88463" lon="145.36617">
    <ele>418.30000000000007</ele>
   </trkpt>
   <trkpt lat="-37.88458" lon="145.36623">
    <ele>416.18000000000006</ele>
   </trkpt>
   <trkpt lat="-37.88461" lon="145.36635">
    <ele>416.18000000000006</ele>
   </trkpt>
   <trkpt lat="-37.88465" lon="145.36642">
    <ele>416.18000000000006</ele>
   </trkpt>
   <trkpt lat="-37.88465" lon="145.36651">
    <ele>406.03000000000003</ele>
   </trkpt>
   <trkpt lat="-37.8847" lon="145.36657000000002">
    <ele>406.03000000000003</ele>
   </trkpt>
   <trkpt lat="-37.8847" lon="145.36672000000002">
    <ele>406.03000000000003</ele>
   </trkpt>
   <trkpt lat="-37.88481" lon="145.36709000000002">
    <ele>397.87000000000006</ele>
   </trkpt>
   <trkpt lat="-37.88481" lon="145.36710000000002">
    <ele>397.87000000000006</ele>
   </trkpt>
   <trkpt lat="-37.88499" lon="145.36737000000002">
    <ele>391.76000000000005</ele>
   </trkpt>
   <trkpt lat="-37.88517" lon="145.36757">
    <ele>387.28000000000003</ele>
   </trkpt>
   <trkpt lat="-37.8855" lon="145.36785">
    <ele>379.39</ele>
   </trkpt>
   <trkpt lat="-37.88564" lon="145.36801">
    <ele>373.50000000000006</ele>
   </trkpt>
   <trkpt lat="-37.88602" lon="145.36834000000002">
    <ele>363.32000000000005</ele>
   </trkpt>
   <trkpt lat="-37.886100000000006" lon="145.36837">
    <ele>361.26</ele>
   </trkpt>
   <trkpt lat="-37.88611" lon="145.36851000000001">
    <ele>361.16</ele>
   </trkpt>
   <trkpt lat="-37.88642" lon="145.36872000000002">
    <ele>363.62000000000006</ele>
   </trkpt>
   <trkpt lat="-37.88667" lon="145.36906000000002">
    <ele>366.93</ele>
   </trkpt>
   <trkpt lat="-37.88736" lon="145.36978000000002">
    <ele>352.05</ele>
   </trkpt>
   <trkpt lat="-37.88743" lon="145.36973">
    <ele>351.69</ele>
   </trkpt>
   <trkpt lat="-37.88749" lon="145.36999">
    <ele>361.2</ele>
   </trkpt>
   <trkpt lat="-37.887550000000005" lon="145.36996000000002">
    <ele>361.00000000000006</ele>
   </trkpt>
   <trkpt lat="-37.88754" lon="145.3699">
    <ele>360.97</ele>
   </trkpt>
   <trkpt lat="-37.887660000000004" lon="145.36972">
    <ele>360.6</ele>
   </trkpt>
  </trkseg>
 </trk>
</gpx>
