<?xml version="1.0" encoding="UTF-8"?>
<gpx creator="StravaGPX" version="1.1" xmlns="http://www.topografix.com/GPX/1/1" xmlns:xsi="http://www.w3.org/2001/XMLSchema-instance" xsi:schemaLocation="http://www.topografix.com/GPX/1/1 http://www.topografix.com/GPX/1/1/gpx.xsd">
 <metadata>
  <name>DTR 8k - Sunday 30th November</name>
  <author>
   <name>DTR  Runleaders</name>
   <link href="https://www.strava.com/athletes/194056408"/>
  </author>
  <copyright author="OpenStreetMap contributors">
   <year>2020</year>
   <license>https://www.openstreetmap.org/copyright</license>
  </copyright>
  <link href="https://www.strava.com/routes/3428701725610608982"/>
 </metadata>
 <trk>
  <name>DTR 8k - Sunday 30th November</name>
  <link href="https://www.strava.com/routes/3428701725610608982"/>
  <type>running</type>
  <trkseg>
   <trkpt lat="-37.85215" lon="145.3683">
    <ele>570.1</ele>
   </trkpt>
   <trkpt lat="-37.85228" lon="145.36824000000001">
    <ele>571.01</ele>
   </trkpt>
   <trkpt lat="-37.85264" lon="145.36819">
    <ele>574.95</ele>
   </trkpt>
   <trkpt lat="-37.85295" lon="145.36823">
    <ele>578.52</ele>
   </trkpt>
   <trkpt lat="-37.85314" lon="145.36833000000001">
    <ele>578.43</ele>
   </trkpt>
   <trkpt lat="-37.853660000000005" lon="145.36857">
    <ele>578.96</ele>
   </trkpt>
   <trkpt lat="-37.85409000000001" lon="145.36882">
    <ele>576.21</ele>
   </trkpt>
   <trkpt lat="-37.85441" lon="145.36911">
    <ele>572.46</ele>
   </trkpt>
   <trkpt lat="-37.85421" lon="145.36937">
    <ele>573.08</ele>
   </trkpt>
   <trkpt lat="-37.85419" lon="145.36952000000002">
    <ele>573.08</ele>
   </trkpt>
   <trkpt lat="-37.85410500503596" lon="145.37061000109864">
    <ele>576.5400000000001</ele>
   </trkpt>
   <trkpt lat="-37.854020000000006" lon="145.3717">
    <ele>579.2</ele>
   </trkpt>
   <trkpt lat="-37.853910000000006" lon="145.37178">
    <ele>578.89</ele>
   </trkpt>
   <trkpt lat="-37.85385" lon="145.37194000000002">
    <ele>578.4100000000001</ele>
   </trkpt>
   <trkpt lat="-37.853840000000005" lon="145.37207">
    <ele>578.21</ele>
   </trkpt>
   <trkpt lat="-37.854020000000006" lon="145.37249">
    <ele>578.8100000000001</ele>
   </trkpt>
   <trkpt lat="-37.85407" lon="145.37289">
    <ele>578.67</ele>
   </trkpt>
   <trkpt lat="-37.854060000000004" lon="145.37289">
    <ele>578.6800000000001</ele>
   </trkpt>
   <trkpt lat="-37.8541" lon="145.37316">
    <ele>578.67</ele>
   </trkpt>
   <trkpt lat="-37.854240000000004" lon="145.37345000000002">
    <ele>578.9300000000001</ele>
   </trkpt>
   <trkpt lat="-37.85454" lon="145.37361">
    <ele>578.5300000000001</ele>
   </trkpt>
   <trkpt lat="-37.85472" lon="145.37377">
    <ele>578.1800000000001</ele>
   </trkpt>
   <trkpt lat="-37.854850000000006" lon="145.37398000000002">
    <ele>578.5</ele>
   </trkpt>
   <trkpt lat="-37.854850000000006" lon="145.37397">
    <ele>577.85</ele>
   </trkpt>
   <trkpt lat="-37.85550000112369" lon="145.3744599957612">
    <ele>578.33</ele>
   </trkpt>
   <trkpt lat="-37.85615000000001" lon="145.37495">
    <ele>577.97</ele>
   </trkpt>
   <trkpt lat="-37.85622" lon="145.37490000000003">
    <ele>573.91</ele>
   </trkpt>
   <trkpt lat="-37.85604" lon="145.37508000000003">
    <ele>572.1500000000001</ele>
   </trkpt>
   <trkpt lat="-37.85571" lon="145.37552000000002">
    <ele>569.1400000000001</ele>
   </trkpt>
   <trkpt lat="-37.85533" lon="145.37614000000002">
    <ele>562.3900000000001</ele>
   </trkpt>
   <trkpt lat="-37.85501" lon="145.37684000000002">
    <ele>551.76</ele>
   </trkpt>
   <trkpt lat="-37.85468" lon="145.37728">
    <ele>544.79</ele>
   </trkpt>
   <trkpt lat="-37.85423" lon="145.37801000000002">
    <ele>531.2300000000001</ele>
   </trkpt>
   <trkpt lat="-37.854240000000004" lon="145.37800000000001">
    <ele>531.6</ele>
   </trkpt>
   <trkpt lat="-37.85387" lon="145.37866000000002">
    <ele>520.6800000000001</ele>
   </trkpt>
   <trkpt lat="-37.85351" lon="145.37909000000002">
    <ele>513.47</ele>
   </trkpt>
   <trkpt lat="-37.853350000000006" lon="145.37931">
    <ele>511.53000000000003</ele>
   </trkpt>
   <trkpt lat="-37.85349" lon="145.3795">
    <ele>507.26000000000005</ele>
   </trkpt>
   <trkpt lat="-37.85383" lon="145.37978">
    <ele>497.42</ele>
   </trkpt>
   <trkpt lat="-37.85412" lon="145.37995">
    <ele>491.28000000000003</ele>
   </trkpt>
   <trkpt lat="-37.85434" lon="145.38005">
    <ele>486.39000000000004</ele>
   </trkpt>
   <trkpt lat="-37.85479" lon="145.38022">
    <ele>479.76</ele>
   </trkpt>
   <trkpt lat="-37.8552150001196" lon="145.38042999875628">
    <ele>473.96000000000004</ele>
   </trkpt>
   <trkpt lat="-37.85564" lon="145.38064">
    <ele>468.0</ele>
   </trkpt>
   <trkpt lat="-37.85575" lon="145.38047">
    <ele>470.9200000000001</ele>
   </trkpt>
   <trkpt lat="-37.85609" lon="145.38024000000001">
    <ele>473.89000000000004</ele>
   </trkpt>
   <trkpt lat="-37.85636" lon="145.37995">
    <ele>476.87</ele>
   </trkpt>
   <trkpt lat="-37.85642" lon="145.3796">
    <ele>482.62000000000006</ele>
   </trkpt>
   <trkpt lat="-37.85642" lon="145.37909000000002">
    <ele>485.52000000000004</ele>
   </trkpt>
   <trkpt lat="-37.85647" lon="145.37894">
    <ele>486.26</ele>
   </trkpt>
   <trkpt lat="-37.85656" lon="145.37885">
    <ele>486.44000000000005</ele>
   </trkpt>
   <trkpt lat="-37.8568" lon="145.37876">
    <ele>488.96000000000004</ele>
   </trkpt>
   <trkpt lat="-37.85687" lon="145.37876">
    <ele>489.63000000000005</ele>
   </trkpt>
   <trkpt lat="-37.85696" lon="145.37908000000002">
    <ele>486.4100000000001</ele>
   </trkpt>
   <trkpt lat="-37.85705" lon="145.37922">
    <ele>485.97</ele>
   </trkpt>
   <trkpt lat="-37.85714" lon="145.37929000000003">
    <ele>484.36</ele>
   </trkpt>
   <trkpt lat="-37.85716" lon="145.37935000000002">
    <ele>483.81</ele>
   </trkpt>
   <trkpt lat="-37.85716" lon="145.37951">
    <ele>481.48</ele>
   </trkpt>
   <trkpt lat="-37.85712" lon="145.37968">
    <ele>477.35</ele>
   </trkpt>
   <trkpt lat="-37.85714" lon="145.37985">
    <ele>475.77000000000004</ele>
   </trkpt>
   <trkpt lat="-37.85714" lon="145.37983">
    <ele>475.64000000000004</ele>
   </trkpt>
   <trkpt lat="-37.85712" lon="145.38000000000002">
    <ele>470.73</ele>
   </trkpt>
   <trkpt lat="-37.85718" lon="145.38007000000002">
    <ele>470.73</ele>
   </trkpt>
   <trkpt lat="-37.85716" lon="145.38037">
    <ele>465.39000000000004</ele>
   </trkpt>
   <trkpt lat="-37.85721" lon="145.38045000000002">
    <ele>461.89</ele>
   </trkpt>
   <trkpt lat="-37.85727" lon="145.38083">
    <ele>455.59000000000003</ele>
   </trkpt>
   <trkpt lat="-37.85736" lon="145.38147">
    <ele>446.47</ele>
   </trkpt>
   <trkpt lat="-37.85732" lon="145.38158">
    <ele>444.97</ele>
   </trkpt>
   <trkpt lat="-37.857290000000006" lon="145.38182">
    <ele>438.56000000000006</ele>
   </trkpt>
   <trkpt lat="-37.85736" lon="145.38193">
    <ele>438.56000000000006</ele>
   </trkpt>
   <trkpt lat="-37.857440000000004" lon="145.38230000000001">
    <ele>438.19</ele>
   </trkpt>
   <trkpt lat="-37.85707" lon="145.38234">
    <ele>429.7300000000001</ele>
   </trkpt>
   <trkpt lat="-37.85674" lon="145.38225">
    <ele>423.18000000000006</ele>
   </trkpt>
   <trkpt lat="-37.85665" lon="145.38232000000002">
    <ele>419.86</ele>
   </trkpt>
   <trkpt lat="-37.8566" lon="145.38243">
    <ele>417.82</ele>
   </trkpt>
   <trkpt lat="-37.85667" lon="145.38279">
    <ele>412.64</ele>
   </trkpt>
   <trkpt lat="-37.85663" lon="145.38306">
    <ele>410.0</ele>
   </trkpt>
   <trkpt lat="-37.85654" lon="145.38322000000002">
    <ele>408.62</ele>
   </trkpt>
   <trkpt lat="-37.85638" lon="145.38374000000002">
    <ele>410.7</ele>
   </trkpt>
   <trkpt lat="-37.85636" lon="145.38430000000002">
    <ele>414.63000000000005</ele>
   </trkpt>
   <trkpt lat="-37.85636" lon="145.38429000000002">
    <ele>414.71000000000004</ele>
   </trkpt>
   <trkpt lat="-37.85636" lon="145.38443">
    <ele>415.64</ele>
   </trkpt>
   <trkpt lat="-37.85642" lon="145.38466000000003">
    <ele>417.72</ele>
   </trkpt>
   <trkpt lat="-37.85651" lon="145.38478">
    <ele>420.24000000000007</ele>
   </trkpt>
   <trkpt lat="-37.85705" lon="145.38525">
    <ele>424.73</ele>
   </trkpt>
   <trkpt lat="-37.85712" lon="145.38534">
    <ele>425.50000000000006</ele>
   </trkpt>
   <trkpt lat="-37.85712" lon="145.38546000000002">
    <ele>425.74</ele>
   </trkpt>
   <trkpt lat="-37.85694" lon="145.38588000000001">
    <ele>430.48</ele>
   </trkpt>
   <trkpt lat="-37.85667" lon="145.38628">
    <ele>433.32000000000005</ele>
   </trkpt>
   <trkpt lat="-37.85656" lon="145.38636000000002">
    <ele>432.92</ele>
   </trkpt>
   <trkpt lat="-37.85645" lon="145.38638">
    <ele>432.21000000000004</ele>
   </trkpt>
   <trkpt lat="-37.85618" lon="145.38636000000002">
    <ele>428.36</ele>
   </trkpt>
   <trkpt lat="-37.85604" lon="145.38625000000002">
    <ele>425.18000000000006</ele>
   </trkpt>
   <trkpt lat="-37.856" lon="145.38617000000002">
    <ele>424.37</ele>
   </trkpt>
   <trkpt lat="-37.85586" lon="145.38612">
    <ele>422.78000000000003</ele>
   </trkpt>
   <trkpt lat="-37.85575" lon="145.38613">
    <ele>422.54</ele>
   </trkpt>
   <trkpt lat="-37.855610000000006" lon="145.3861">
    <ele>422.58</ele>
   </trkpt>
   <trkpt lat="-37.85501" lon="145.38577">
    <ele>414.35</ele>
   </trkpt>
   <trkpt lat="-37.854490000000006" lon="145.38562000000002">
    <ele>404.32</ele>
   </trkpt>
   <trkpt lat="-37.85396" lon="145.38551">
    <ele>392.34000000000003</ele>
   </trkpt>
   <trkpt lat="-37.85309" lon="145.38565">
    <ele>376.05000000000007</ele>
   </trkpt>
   <trkpt lat="-37.85275" lon="145.38578">
    <ele>369.26000000000005</ele>
   </trkpt>
   <trkpt lat="-37.85233" lon="145.38585">
    <ele>360.83000000000004</ele>
   </trkpt>
   <trkpt lat="-37.8519" lon="145.38586">
    <ele>353.18000000000006</ele>
   </trkpt>
   <trkpt lat="-37.85175" lon="145.38581000000002">
    <ele>352.59000000000003</ele>
   </trkpt>
   <trkpt lat="-37.85116" lon="145.38566">
    <ele>343.62</ele>
   </trkpt>
   <trkpt lat="-37.850460000000005" lon="145.38531">
    <ele>331.13000000000005</ele>
   </trkpt>
   <trkpt lat="-37.84995" lon="145.38541">
    <ele>325.28000000000003</ele>
   </trkpt>
   <trkpt lat="-37.849500000000006" lon="145.38575">
    <ele>319.04</ele>
   </trkpt>
   <trkpt lat="-37.8498" lon="145.38495">
    <ele>315.78</ele>
   </trkpt>
   <trkpt lat="-37.84962" lon="145.38474000000002">
    <ele>314.15000000000003</ele>
   </trkpt>
   <trkpt lat="-37.84946" lon="145.38481000000002">
    <ele>313.37</ele>
   </trkpt>
   <trkpt lat="-37.84924" lon="145.38505">
    <ele>310.09000000000003</ele>
   </trkpt>
   <trkpt lat="-37.84908" lon="145.38527000000002">
    <ele>307.61000000000007</ele>
   </trkpt>
   <trkpt lat="-37.84886" lon="145.3855">
    <ele>306.03000000000003</ele>
   </trkpt>
   <trkpt lat="-37.84841" lon="145.38582000000002">
    <ele>301.54</ele>
   </trkpt>
   <trkpt lat="-37.84821" lon="145.38600000000002">
    <ele>298.51</ele>
   </trkpt>
   <trkpt lat="-37.84803" lon="145.38611">
    <ele>296.98</ele>
   </trkpt>
   <trkpt lat="-37.84774" lon="145.38622">
    <ele>295.56000000000006</ele>
   </trkpt>
   <trkpt lat="-37.84749" lon="145.38625000000002">
    <ele>294.78999999999996</ele>
   </trkpt>
   <trkpt lat="-37.84727" lon="145.38623">
    <ele>294.99</ele>
   </trkpt>
   <trkpt lat="-37.84695" lon="145.38593">
    <ele>297.26</ele>
   </trkpt>
   <trkpt lat="-37.84655" lon="145.38557">
    <ele>302.29</ele>
   </trkpt>
   <trkpt lat="-37.84628" lon="145.3854">
    <ele>304.79</ele>
   </trkpt>
   <trkpt lat="-37.84601" lon="145.38532">
    <ele>308.50000000000006</ele>
   </trkpt>
   <trkpt lat="-37.84568" lon="145.38528000000002">
    <ele>314.75</ele>
   </trkpt>
   <trkpt lat="-37.84521" lon="145.38525">
    <ele>319.77</ele>
   </trkpt>
   <trkpt lat="-37.8451" lon="145.38520000000003">
    <ele>320.44</ele>
   </trkpt>
   <trkpt lat="-37.84512" lon="145.38515">
    <ele>320.44</ele>
   </trkpt>
   <trkpt lat="-37.845040000000004" lon="145.38504">
    <ele>320.65999999999997</ele>
   </trkpt>
   <trkpt lat="-37.84528" lon="145.38482000000002">
    <ele>322.18</ele>
   </trkpt>
   <trkpt lat="-37.84534" lon="145.3845">
    <ele>325.64000000000004</ele>
   </trkpt>
   <trkpt lat="-37.84539" lon="145.38446000000002">
    <ele>326.89</ele>
   </trkpt>
   <trkpt lat="-37.84548" lon="145.38412000000002">
    <ele>330.36</ele>
   </trkpt>
   <trkpt lat="-37.84548" lon="145.38393000000002">
    <ele>333.46000000000004</ele>
   </trkpt>
   <trkpt lat="-37.84554" lon="145.38366000000002">
    <ele>336.95000000000005</ele>
   </trkpt>
   <trkpt lat="-37.84554" lon="145.38338000000002">
    <ele>342.52000000000004</ele>
   </trkpt>
   <trkpt lat="-37.84548" lon="145.38314000000003">
    <ele>345.05</ele>
   </trkpt>
   <trkpt lat="-37.84543" lon="145.3828">
    <ele>348.11</ele>
   </trkpt>
   <trkpt lat="-37.84539" lon="145.38249000000002">
    <ele>351.35</ele>
   </trkpt>
   <trkpt lat="-37.84532" lon="145.38224000000002">
    <ele>352.76</ele>
   </trkpt>
   <trkpt lat="-37.84521" lon="145.38202">
    <ele>354.06000000000006</ele>
   </trkpt>
   <trkpt lat="-37.84501" lon="145.38152000000002">
    <ele>358.65000000000003</ele>
   </trkpt>
   <trkpt lat="-37.84472500136598" lon="145.38095999791466">
    <ele>362.94000000000005</ele>
   </trkpt>
   <trkpt lat="-37.844440000000006" lon="145.3804">
    <ele>365.62000000000006</ele>
   </trkpt>
   <trkpt lat="-37.84431" lon="145.38042000000002">
    <ele>362.65000000000003</ele>
   </trkpt>
   <trkpt lat="-37.84396" lon="145.38022">
    <ele>357.29</ele>
   </trkpt>
   <trkpt lat="-37.84315" lon="145.37983">
    <ele>344.49</ele>
   </trkpt>
   <trkpt lat="-37.84297" lon="145.37982000000002">
    <ele>341.65</ele>
   </trkpt>
   <trkpt lat="-37.84277" lon="145.37985">
    <ele>339.32</ele>
   </trkpt>
   <trkpt lat="-37.84257" lon="145.37998000000002">
    <ele>334.85</ele>
   </trkpt>
   <trkpt lat="-37.8425" lon="145.38008000000002">
    <ele>333.32</ele>
   </trkpt>
   <trkpt lat="-37.842380000000006" lon="145.38016000000002">
    <ele>330.40000000000003</ele>
   </trkpt>
   <trkpt lat="-37.84223" lon="145.38017000000002">
    <ele>327.14000000000004</ele>
   </trkpt>
   <trkpt lat="-37.84205" lon="145.38012">
    <ele>324.90000000000003</ele>
   </trkpt>
   <trkpt lat="-37.84201" lon="145.38002">
    <ele>324.90000000000003</ele>
   </trkpt>
   <trkpt lat="-37.84185" lon="145.37971000000002">
    <ele>325.70000000000005</ele>
   </trkpt>
   <trkpt lat="-37.84154" lon="145.37922">
    <ele>328.37000000000006</ele>
   </trkpt>
   <trkpt lat="-37.84122" lon="145.37847000000002">
    <ele>330.04</ele>
   </trkpt>
   <trkpt lat="-37.84103" lon="145.37786">
    <ele>333.12</ele>
   </trkpt>
   <trkpt lat="-37.840990000000005" lon="145.37779">
    <ele>333.16</ele>
   </trkpt>
   <trkpt lat="-37.840970000000006" lon="145.37764">
    <ele>334.19000000000005</ele>
   </trkpt>
   <trkpt lat="-37.84089" lon="145.37754">
    <ele>335.57000000000005</ele>
   </trkpt>
   <trkpt lat="-37.84046" lon="145.37711000000002">
    <ele>343.31</ele>
   </trkpt>
   <trkpt lat="-37.84024" lon="145.37681">
    <ele>350.83000000000004</ele>
   </trkpt>
   <trkpt lat="-37.83999500117897" lon="145.37628499828548">
    <ele>355.12000000000006</ele>
   </trkpt>
   <trkpt lat="-37.83975" lon="145.37576">
    <ele>361.90000000000003</ele>
   </trkpt>
   <trkpt lat="-37.83948000276182" lon="145.37494999699896">
    <ele>371.04</ele>
   </trkpt>
   <trkpt lat="-37.83921" lon="145.37414">
    <ele>378.81</ele>
   </trkpt>
   <trkpt lat="-37.8391" lon="145.37399000000002">
    <ele>379.45</ele>
   </trkpt>
   <trkpt lat="-37.838750000000005" lon="145.3737">
    <ele>380.26000000000005</ele>
   </trkpt>
   <trkpt lat="-37.83858" lon="145.37359">
    <ele>380.40000000000003</ele>
   </trkpt>
   <trkpt lat="-37.83847" lon="145.37354000000002">
    <ele>381.20000000000005</ele>
   </trkpt>
   <trkpt lat="-37.83822" lon="145.37348">
    <ele>384.19</ele>
   </trkpt>
   <trkpt lat="-37.83805" lon="145.37351">
    <ele>390.16</ele>
   </trkpt>
   <trkpt lat="-37.83791" lon="145.37358">
    <ele>393.34000000000003</ele>
   </trkpt>
   <trkpt lat="-37.83784" lon="145.37368">
    <ele>395.40000000000003</ele>
   </trkpt>
   <trkpt lat="-37.83764" lon="145.37427000000002">
    <ele>404.78000000000003</ele>
   </trkpt>
   <trkpt lat="-37.83746" lon="145.37449">
    <ele>406.90000000000003</ele>
   </trkpt>
   <trkpt lat="-37.83735" lon="145.37466">
    <ele>407.28000000000003</ele>
   </trkpt>
   <trkpt lat="-37.83719" lon="145.37407000000002">
    <ele>408.84000000000003</ele>
   </trkpt>
   <trkpt lat="-37.83719" lon="145.37388">
    <ele>409.26</ele>
   </trkpt>
   <trkpt lat="-37.83708" lon="145.37331">
    <ele>413.23</ele>
   </trkpt>
   <trkpt lat="-37.83699" lon="145.37235">
    <ele>423.21000000000004</ele>
   </trkpt>
   <trkpt lat="-37.837030000000006" lon="145.3719">
    <ele>427.08</ele>
   </trkpt>
   <trkpt lat="-37.83699" lon="145.37133">
    <ele>430.38000000000005</ele>
   </trkpt>
   <trkpt lat="-37.837030000000006" lon="145.37094000000002">
    <ele>432.49</ele>
   </trkpt>
   <trkpt lat="-37.83701000000001" lon="145.37063">
    <ele>434.2300000000001</ele>
   </trkpt>
   <trkpt lat="-37.83737" lon="145.37053">
    <ele>433.83000000000004</ele>
   </trkpt>
   <trkpt lat="-37.83769" lon="145.37040000000002">
    <ele>430.38000000000005</ele>
   </trkpt>
   <trkpt lat="-37.83798" lon="145.37023000000002">
    <ele>430.52</ele>
   </trkpt>
   <trkpt lat="-37.83849" lon="145.36997000000002">
    <ele>436.43</ele>
   </trkpt>
   <trkpt lat="-37.83869" lon="145.36991">
    <ele>440.3</ele>
   </trkpt>
   <trkpt lat="-37.83885" lon="145.3698">
    <ele>442.27000000000004</ele>
   </trkpt>
   <trkpt lat="-37.8391" lon="145.36968000000002">
    <ele>445.38000000000005</ele>
   </trkpt>
   <trkpt lat="-37.839560000000006" lon="145.36941000000002">
    <ele>454.52000000000004</ele>
   </trkpt>
   <trkpt lat="-37.83975" lon="145.36926000000003">
    <ele>455.98</ele>
   </trkpt>
   <trkpt lat="-37.839940000000006" lon="145.36906000000002">
    <ele>460.48</ele>
   </trkpt>
   <trkpt lat="-37.83999" lon="145.36903">
    <ele>461.03000000000003</ele>
   </trkpt>
   <trkpt lat="-37.84022" lon="145.36902">
    <ele>463.3</ele>
   </trkpt>
   <trkpt lat="-37.84057" lon="145.36894">
    <ele>468.94</ele>
   </trkpt>
   <trkpt lat="-37.84087" lon="145.36892">
    <ele>472.16</ele>
   </trkpt>
   <trkpt lat="-37.840970000000006" lon="145.36842000000001">
    <ele>474.70000000000005</ele>
   </trkpt>
   <trkpt lat="-37.84096" lon="145.36811">
    <ele>476.02000000000004</ele>
   </trkpt>
   <trkpt lat="-37.84169" lon="145.36817000000002">
    <ele>485.00000000000006</ele>
   </trkpt>
   <trkpt lat="-37.84181" lon="145.36819">
    <ele>486.05</ele>
   </trkpt>
   <trkpt lat="-37.84223" lon="145.36838">
    <ele>491.91</ele>
   </trkpt>
   <trkpt lat="-37.84237" lon="145.36848">
    <ele>493.37</ele>
   </trkpt>
   <trkpt lat="-37.842790000733565" lon="145.36889499764203">
    <ele>500.43</ele>
   </trkpt>
   <trkpt lat="-37.843210000000006" lon="145.36931">
    <ele>505.3500000000001</ele>
   </trkpt>
   <trkpt lat="-37.84362" lon="145.36972">
    <ele>512.54</ele>
   </trkpt>
   <trkpt lat="-37.8438" lon="145.37016">
    <ele>516.71</ele>
   </trkpt>
   <trkpt lat="-37.84429" lon="145.37084000000002">
    <ele>520.5200000000001</ele>
   </trkpt>
   <trkpt lat="-37.84436" lon="145.37089">
    <ele>520.84</ele>
   </trkpt>
   <trkpt lat="-37.84447" lon="145.37095000000002">
    <ele>521.03</ele>
   </trkpt>
   <trkpt lat="-37.84518500013734" lon="145.37115499800083">
    <ele>521.45</ele>
   </trkpt>
   <trkpt lat="-37.8459" lon="145.37136">
    <ele>522.24</ele>
   </trkpt>
   <trkpt lat="-37.84639000034853" lon="145.37145499942892">
    <ele>522.84</ele>
   </trkpt>
   <trkpt lat="-37.846880000000006" lon="145.37155">
    <ele>523.94</ele>
   </trkpt>
   <trkpt lat="-37.84756000008286" lon="145.37166666450938">
    <ele>526.6200000000001</ele>
   </trkpt>
   <trkpt lat="-37.84824000005061" lon="145.3717833311705">
    <ele>531.0100000000001</ele>
   </trkpt>
   <trkpt lat="-37.84892" lon="145.3719">
    <ele>539.22</ele>
   </trkpt>
   <trkpt lat="-37.84904" lon="145.37184000000002">
    <ele>540.0200000000001</ele>
   </trkpt>
   <trkpt lat="-37.84915" lon="145.37173">
    <ele>540.83</ele>
   </trkpt>
   <trkpt lat="-37.849430001263556" lon="145.37117500218451">
    <ele>541.5500000000001</ele>
   </trkpt>
   <trkpt lat="-37.84971" lon="145.37062">
    <ele>542.5699999999999</ele>
   </trkpt>
   <trkpt lat="-37.84984" lon="145.37028">
    <ele>544.1100000000001</ele>
   </trkpt>
   <trkpt lat="-37.85004" lon="145.37006000000002">
    <ele>546.2600000000001</ele>
   </trkpt>
   <trkpt lat="-37.85038" lon="145.37003">
    <ele>549.8100000000001</ele>
   </trkpt>
   <trkpt lat="-37.850640000000006" lon="145.36993">
    <ele>552.0</ele>
   </trkpt>
   <trkpt lat="-37.85083" lon="145.3698">
    <ele>553.4100000000001</ele>
   </trkpt>
   <trkpt lat="-37.851060000000004" lon="145.36953000000003">
    <ele>557.76</ele>
   </trkpt>
   <trkpt lat="-37.85107" lon="145.36953000000003">
    <ele>557.8700000000001</ele>
   </trkpt>
   <trkpt lat="-37.85141500097553" lon="145.36906000214273">
    <ele>562.7800000000001</ele>
   </trkpt>
   <trkpt lat="-37.851760000000006" lon="145.36859">
    <ele>565.6600000000001</ele>
   </trkpt>
   <trkpt lat="-37.851940000000006" lon="145.36843000000002">
    <ele>567.98</ele>
   </trkpt>
  </trkseg>
 </trk>
</gpx>
