<?xml version="1.0" encoding="UTF-8"?>
<gpx creator="StravaGPX" version="1.1" xmlns="http://www.topografix.com/GPX/1/1" xmlns:xsi="http://www.w3.org/2001/XMLSchema-instance" xsi:schemaLocation="http://www.topografix.com/GPX/1/1 http://www.topografix.com/GPX/1/1/gpx.xsd">
 <metadata>
  <name>DTR 20k - Sunday 30th November</name>
  <author>
   <name>DTR  Runleaders</name>
   <link href="https://www.strava.com/athletes/194056408"/>
  </author>
  <copyright author="OpenStreetMap contributors">
   <year>2020</year>
   <license>https://www.openstreetmap.org/copyright</license>
  </copyright>
  <link href="https://www.strava.com/routes/3428702148306979996"/>
 </metadata>
 <trk>
  <name>DTR 20k - Sunday 30th November</name>
  <link href="https://www.strava.com/routes/3428702148306979996"/>
  <type>running</type>
  <trkseg>
   <trkpt lat="-37.852450000000005" lon="145.36822">
    <ele>573.67</ele>
   </trkpt>
   <trkpt lat="-37.85264" lon="145.36819">
    <ele>574.95</ele>
   </trkpt>
   <trkpt lat="-37.85295" lon="145.36823">
    <ele>578.52</ele>
   </trkpt>
   <trkpt lat="-37.85314" lon="145.36833000000001">
    <ele>578.43</ele>
   </trkpt>
   <trkpt lat="-37.853660000000005" lon="145.36857">
    <ele>578.96</ele>
   </trkpt>
   <trkpt lat="-37.85409000000001" lon="145.36882">
    <ele>576.21</ele>
   </trkpt>
   <trkpt lat="-37.85441" lon="145.36911">
    <ele>572.46</ele>
   </trkpt>
   <trkpt lat="-37.85421" lon="145.36937">
    <ele>573.08</ele>
   </trkpt>
   <trkpt lat="-37.85419" lon="145.36952000000002">
    <ele>573.08</ele>
   </trkpt>
   <trkpt lat="-37.85410500503596" lon="145.37061000109864">
    <ele>576.5400000000001</ele>
   </trkpt>
   <trkpt lat="-37.854020000000006" lon="145.3717">
    <ele>579.2</ele>
   </trkpt>
   <trkpt lat="-37.853910000000006" lon="145.37178">
    <ele>578.89</ele>
   </trkpt>
   <trkpt lat="-37.85389" lon="145.37181">
    <ele>578.89</ele>
   </trkpt>
   <trkpt lat="-37.85385" lon="145.37194000000002">
    <ele>578.4100000000001</ele>
   </trkpt>
   <trkpt lat="-37.853840000000005" lon="145.37207">
    <ele>578.21</ele>
   </trkpt>
   <trkpt lat="-37.854020000000006" lon="145.37249">
    <ele>578.8100000000001</ele>
   </trkpt>
   <trkpt lat="-37.85408" lon="145.37302000000003">
    <ele>578.64</ele>
   </trkpt>
   <trkpt lat="-37.8541" lon="145.37316">
    <ele>578.67</ele>
   </trkpt>
   <trkpt lat="-37.854240000000004" lon="145.37345000000002">
    <ele>578.9300000000001</ele>
   </trkpt>
   <trkpt lat="-37.85454" lon="145.37361">
    <ele>578.5300000000001</ele>
   </trkpt>
   <trkpt lat="-37.85472" lon="145.37377">
    <ele>578.1800000000001</ele>
   </trkpt>
   <trkpt lat="-37.855250000000005" lon="145.37431">
    <ele>578.37</ele>
   </trkpt>
   <trkpt lat="-37.85571" lon="145.37473">
    <ele>577.04</ele>
   </trkpt>
   <trkpt lat="-37.856210000000004" lon="145.37484">
    <ele>577.7500000000001</ele>
   </trkpt>
   <trkpt lat="-37.85622" lon="145.37490000000003">
    <ele>573.91</ele>
   </trkpt>
   <trkpt lat="-37.85604" lon="145.37508000000003">
    <ele>572.1500000000001</ele>
   </trkpt>
   <trkpt lat="-37.85571" lon="145.37552000000002">
    <ele>569.1400000000001</ele>
   </trkpt>
   <trkpt lat="-37.85533" lon="145.37614000000002">
    <ele>562.3900000000001</ele>
   </trkpt>
   <trkpt lat="-37.85501" lon="145.37684000000002">
    <ele>551.76</ele>
   </trkpt>
   <trkpt lat="-37.85468" lon="145.37728">
    <ele>544.79</ele>
   </trkpt>
   <trkpt lat="-37.85427" lon="145.37793000000002">
    <ele>532.0</ele>
   </trkpt>
   <trkpt lat="-37.8541" lon="145.37825">
    <ele>526.87</ele>
   </trkpt>
   <trkpt lat="-37.8541" lon="145.37824">
    <ele>527.07</ele>
   </trkpt>
   <trkpt lat="-37.85387" lon="145.37866000000002">
    <ele>520.6800000000001</ele>
   </trkpt>
   <trkpt lat="-37.85351" lon="145.37909000000002">
    <ele>513.47</ele>
   </trkpt>
   <trkpt lat="-37.853350000000006" lon="145.37931">
    <ele>511.53000000000003</ele>
   </trkpt>
   <trkpt lat="-37.85349" lon="145.3795">
    <ele>507.26000000000005</ele>
   </trkpt>
   <trkpt lat="-37.85383" lon="145.37978">
    <ele>497.42</ele>
   </trkpt>
   <trkpt lat="-37.85412" lon="145.37995">
    <ele>491.28000000000003</ele>
   </trkpt>
   <trkpt lat="-37.85434" lon="145.38005">
    <ele>486.39000000000004</ele>
   </trkpt>
   <trkpt lat="-37.85479" lon="145.38022">
    <ele>479.76</ele>
   </trkpt>
   <trkpt lat="-37.8552150001196" lon="145.38042999875628">
    <ele>473.96000000000004</ele>
   </trkpt>
   <trkpt lat="-37.85564" lon="145.38064">
    <ele>468.0</ele>
   </trkpt>
   <trkpt lat="-37.85575" lon="145.38047">
    <ele>470.9200000000001</ele>
   </trkpt>
   <trkpt lat="-37.85609" lon="145.38024000000001">
    <ele>473.75000000000006</ele>
   </trkpt>
   <trkpt lat="-37.856100000000005" lon="145.38023">
    <ele>473.82</ele>
   </trkpt>
   <trkpt lat="-37.85636" lon="145.37995">
    <ele>476.87</ele>
   </trkpt>
   <trkpt lat="-37.85642" lon="145.3796">
    <ele>481.47</ele>
   </trkpt>
   <trkpt lat="-37.85642" lon="145.37909000000002">
    <ele>485.52000000000004</ele>
   </trkpt>
   <trkpt lat="-37.85647" lon="145.37894">
    <ele>486.26</ele>
   </trkpt>
   <trkpt lat="-37.85656" lon="145.37885">
    <ele>486.44000000000005</ele>
   </trkpt>
   <trkpt lat="-37.8568" lon="145.37876">
    <ele>488.34000000000003</ele>
   </trkpt>
   <trkpt lat="-37.85687" lon="145.37876">
    <ele>489.63000000000005</ele>
   </trkpt>
   <trkpt lat="-37.85696" lon="145.37908000000002">
    <ele>486.4100000000001</ele>
   </trkpt>
   <trkpt lat="-37.85705" lon="145.37922">
    <ele>485.97</ele>
   </trkpt>
   <trkpt lat="-37.85714" lon="145.37929000000003">
    <ele>484.36</ele>
   </trkpt>
   <trkpt lat="-37.85716" lon="145.37935000000002">
    <ele>483.81</ele>
   </trkpt>
   <trkpt lat="-37.85716" lon="145.37951">
    <ele>481.48</ele>
   </trkpt>
   <trkpt lat="-37.85712" lon="145.37968">
    <ele>477.35</ele>
   </trkpt>
   <trkpt lat="-37.85714" lon="145.37983">
    <ele>475.18000000000006</ele>
   </trkpt>
   <trkpt lat="-37.85712" lon="145.38000000000002">
    <ele>470.73</ele>
   </trkpt>
   <trkpt lat="-37.85718" lon="145.38007000000002">
    <ele>470.73</ele>
   </trkpt>
   <trkpt lat="-37.85716" lon="145.38037">
    <ele>465.39000000000004</ele>
   </trkpt>
   <trkpt lat="-37.85721" lon="145.38045000000002">
    <ele>461.89</ele>
   </trkpt>
   <trkpt lat="-37.85732" lon="145.38115000000002">
    <ele>450.22</ele>
   </trkpt>
   <trkpt lat="-37.85736" lon="145.38147">
    <ele>446.47</ele>
   </trkpt>
   <trkpt lat="-37.85732" lon="145.38158">
    <ele>444.97</ele>
   </trkpt>
   <trkpt lat="-37.857290000000006" lon="145.38182">
    <ele>438.56000000000006</ele>
   </trkpt>
   <trkpt lat="-37.85736" lon="145.38193">
    <ele>438.56000000000006</ele>
   </trkpt>
   <trkpt lat="-37.857440000000004" lon="145.38230000000001">
    <ele>438.99000000000007</ele>
   </trkpt>
   <trkpt lat="-37.85707" lon="145.38234">
    <ele>429.7300000000001</ele>
   </trkpt>
   <trkpt lat="-37.85674" lon="145.38225">
    <ele>423.18000000000006</ele>
   </trkpt>
   <trkpt lat="-37.85665" lon="145.38232000000002">
    <ele>419.86</ele>
   </trkpt>
   <trkpt lat="-37.8566" lon="145.38243">
    <ele>417.82</ele>
   </trkpt>
   <trkpt lat="-37.85667" lon="145.38279">
    <ele>412.64</ele>
   </trkpt>
   <trkpt lat="-37.85663" lon="145.38306">
    <ele>410.0</ele>
   </trkpt>
   <trkpt lat="-37.85654" lon="145.38322000000002">
    <ele>408.62</ele>
   </trkpt>
   <trkpt lat="-37.85638" lon="145.38374000000002">
    <ele>410.26</ele>
   </trkpt>
   <trkpt lat="-37.85636" lon="145.38406">
    <ele>413.15000000000003</ele>
   </trkpt>
   <trkpt lat="-37.85636" lon="145.38443">
    <ele>416.1</ele>
   </trkpt>
   <trkpt lat="-37.85642" lon="145.38466000000003">
    <ele>417.72</ele>
   </trkpt>
   <trkpt lat="-37.85651" lon="145.38478">
    <ele>420.24000000000007</ele>
   </trkpt>
   <trkpt lat="-37.85678" lon="145.38501000000002">
    <ele>423.27000000000004</ele>
   </trkpt>
   <trkpt lat="-37.85705" lon="145.38525">
    <ele>424.73</ele>
   </trkpt>
   <trkpt lat="-37.85712" lon="145.38534">
    <ele>425.50000000000006</ele>
   </trkpt>
   <trkpt lat="-37.85712" lon="145.38546000000002">
    <ele>425.74</ele>
   </trkpt>
   <trkpt lat="-37.85694" lon="145.38588000000001">
    <ele>430.48</ele>
   </trkpt>
   <trkpt lat="-37.85667" lon="145.38628">
    <ele>433.32000000000005</ele>
   </trkpt>
   <trkpt lat="-37.85656" lon="145.38636000000002">
    <ele>432.92</ele>
   </trkpt>
   <trkpt lat="-37.85645" lon="145.38638">
    <ele>432.21000000000004</ele>
   </trkpt>
   <trkpt lat="-37.85618" lon="145.38636000000002">
    <ele>428.36</ele>
   </trkpt>
   <trkpt lat="-37.85604" lon="145.38625000000002">
    <ele>426.88000000000005</ele>
   </trkpt>
   <trkpt lat="-37.856" lon="145.38617000000002">
    <ele>424.37</ele>
   </trkpt>
   <trkpt lat="-37.85586" lon="145.38612">
    <ele>422.78000000000003</ele>
   </trkpt>
   <trkpt lat="-37.85575" lon="145.38613">
    <ele>422.54</ele>
   </trkpt>
   <trkpt lat="-37.855610000000006" lon="145.3861">
    <ele>422.83000000000004</ele>
   </trkpt>
   <trkpt lat="-37.85501" lon="145.38577">
    <ele>415.19000000000005</ele>
   </trkpt>
   <trkpt lat="-37.854490000000006" lon="145.38562000000002">
    <ele>404.32</ele>
   </trkpt>
   <trkpt lat="-37.85396" lon="145.38551">
    <ele>392.34000000000003</ele>
   </trkpt>
   <trkpt lat="-37.85313" lon="145.38564000000002">
    <ele>375.54</ele>
   </trkpt>
   <trkpt lat="-37.85314" lon="145.38564000000002">
    <ele>375.70000000000005</ele>
   </trkpt>
   <trkpt lat="-37.85275" lon="145.38578">
    <ele>369.26000000000005</ele>
   </trkpt>
   <trkpt lat="-37.85233" lon="145.38585">
    <ele>360.83000000000004</ele>
   </trkpt>
   <trkpt lat="-37.8519" lon="145.38586">
    <ele>353.18000000000006</ele>
   </trkpt>
   <trkpt lat="-37.85116" lon="145.38566">
    <ele>343.62</ele>
   </trkpt>
   <trkpt lat="-37.850460000000005" lon="145.38531">
    <ele>331.13000000000005</ele>
   </trkpt>
   <trkpt lat="-37.84995" lon="145.38541">
    <ele>324.18</ele>
   </trkpt>
   <trkpt lat="-37.849500000000006" lon="145.38575">
    <ele>319.04</ele>
   </trkpt>
   <trkpt lat="-37.84904" lon="145.38596">
    <ele>312.27000000000004</ele>
   </trkpt>
   <trkpt lat="-37.84854" lon="145.38608000000002">
    <ele>306.32000000000005</ele>
   </trkpt>
   <trkpt lat="-37.84834" lon="145.38619">
    <ele>304.35</ele>
   </trkpt>
   <trkpt lat="-37.84812" lon="145.38636000000002">
    <ele>301.71000000000004</ele>
   </trkpt>
   <trkpt lat="-37.84751" lon="145.38669000000002">
    <ele>294.71000000000004</ele>
   </trkpt>
   <trkpt lat="-37.847390000000004" lon="145.38678000000002">
    <ele>293.94000000000005</ele>
   </trkpt>
   <trkpt lat="-37.847390000000004" lon="145.38677">
    <ele>294.11</ele>
   </trkpt>
   <trkpt lat="-37.8472" lon="145.38689000000002">
    <ele>292.88</ele>
   </trkpt>
   <trkpt lat="-37.84691" lon="145.38723000000002">
    <ele>288.81</ele>
   </trkpt>
   <trkpt lat="-37.84671" lon="145.38737">
    <ele>287.36</ele>
   </trkpt>
   <trkpt lat="-37.84651" lon="145.38742000000002">
    <ele>286.77000000000004</ele>
   </trkpt>
   <trkpt lat="-37.84628" lon="145.38743000000002">
    <ele>286.42</ele>
   </trkpt>
   <trkpt lat="-37.84613" lon="145.38748">
    <ele>286.02</ele>
   </trkpt>
   <trkpt lat="-37.84577" lon="145.38776000000001">
    <ele>283.77000000000004</ele>
   </trkpt>
   <trkpt lat="-37.84557" lon="145.388">
    <ele>282.35</ele>
   </trkpt>
   <trkpt lat="-37.84539" lon="145.38825">
    <ele>282.03</ele>
   </trkpt>
   <trkpt lat="-37.84523" lon="145.38868000000002">
    <ele>282.46000000000004</ele>
   </trkpt>
   <trkpt lat="-37.84487" lon="145.38931000000002">
    <ele>282.87</ele>
   </trkpt>
   <trkpt lat="-37.84478" lon="145.38966000000002">
    <ele>283.53</ele>
   </trkpt>
   <trkpt lat="-37.84474" lon="145.39010000000002">
    <ele>284.85</ele>
   </trkpt>
   <trkpt lat="-37.84463000167539" lon="145.39072500079666">
    <ele>288.38</ele>
   </trkpt>
   <trkpt lat="-37.84452" lon="145.39135000000002">
    <ele>290.37</ele>
   </trkpt>
   <trkpt lat="-37.84416" lon="145.39055000000002">
    <ele>280.56</ele>
   </trkpt>
   <trkpt lat="-37.84416" lon="145.39043">
    <ele>280.03</ele>
   </trkpt>
   <trkpt lat="-37.844260000000006" lon="145.39003000000002">
    <ele>277.41</ele>
   </trkpt>
   <trkpt lat="-37.844240000000006" lon="145.38992000000002">
    <ele>276.19000000000005</ele>
   </trkpt>
   <trkpt lat="-37.8442" lon="145.38957000000002">
    <ele>273.03</ele>
   </trkpt>
   <trkpt lat="-37.84427" lon="145.38914000000003">
    <ele>270.45000000000005</ele>
   </trkpt>
   <trkpt lat="-37.84427" lon="145.38897">
    <ele>270.63000000000005</ele>
   </trkpt>
   <trkpt lat="-37.844210000000004" lon="145.38883">
    <ele>272.29</ele>
   </trkpt>
   <trkpt lat="-37.844100000000005" lon="145.38879">
    <ele>273.87</ele>
   </trkpt>
   <trkpt lat="-37.84393" lon="145.38879">
    <ele>275.86000000000007</ele>
   </trkpt>
   <trkpt lat="-37.84375" lon="145.38884000000002">
    <ele>276.13000000000005</ele>
   </trkpt>
   <trkpt lat="-37.84351" lon="145.38905000000003">
    <ele>275.0</ele>
   </trkpt>
   <trkpt lat="-37.843320000000006" lon="145.38902000000002">
    <ele>276.28000000000003</ele>
   </trkpt>
   <trkpt lat="-37.84315" lon="145.38891">
    <ele>278.55</ele>
   </trkpt>
   <trkpt lat="-37.8431" lon="145.38876000000002">
    <ele>281.59</ele>
   </trkpt>
   <trkpt lat="-37.84306" lon="145.38855">
    <ele>283.76</ele>
   </trkpt>
   <trkpt lat="-37.842830000000006" lon="145.38816">
    <ele>286.64</ele>
   </trkpt>
   <trkpt lat="-37.84243" lon="145.38848000000002">
    <ele>282.12</ele>
   </trkpt>
   <trkpt lat="-37.84237" lon="145.38848000000002">
    <ele>282.12</ele>
   </trkpt>
   <trkpt lat="-37.84237" lon="145.38825">
    <ele>281.32</ele>
   </trkpt>
   <trkpt lat="-37.842470000000006" lon="145.38771">
    <ele>279.26</ele>
   </trkpt>
   <trkpt lat="-37.84261" lon="145.38726">
    <ele>278.58000000000004</ele>
   </trkpt>
   <trkpt lat="-37.842670000000005" lon="145.38683">
    <ele>278.05</ele>
   </trkpt>
   <trkpt lat="-37.842670000000005" lon="145.38682">
    <ele>278.02000000000004</ele>
   </trkpt>
   <trkpt lat="-37.8427" lon="145.38637">
    <ele>277.81</ele>
   </trkpt>
   <trkpt lat="-37.84277" lon="145.38612">
    <ele>278.31</ele>
   </trkpt>
   <trkpt lat="-37.84286" lon="145.38585">
    <ele>278.67</ele>
   </trkpt>
   <trkpt lat="-37.84299" lon="145.38529">
    <ele>280.64</ele>
   </trkpt>
   <trkpt lat="-37.84304" lon="145.38501000000002">
    <ele>281.62</ele>
   </trkpt>
   <trkpt lat="-37.84299" lon="145.38485">
    <ele>281.90000000000003</ele>
   </trkpt>
   <trkpt lat="-37.84292000000001" lon="145.38473000000002">
    <ele>282.1</ele>
   </trkpt>
   <trkpt lat="-37.84297" lon="145.38451">
    <ele>283.55</ele>
   </trkpt>
   <trkpt lat="-37.84295" lon="145.38430000000002">
    <ele>286.83000000000004</ele>
   </trkpt>
   <trkpt lat="-37.84286" lon="145.38411000000002">
    <ele>288.37</ele>
   </trkpt>
   <trkpt lat="-37.84281" lon="145.38376000000002">
    <ele>291.55</ele>
   </trkpt>
   <trkpt lat="-37.84281" lon="145.38304000000002">
    <ele>296.25</ele>
   </trkpt>
   <trkpt lat="-37.84279" lon="145.38266000000002">
    <ele>300.82000000000005</ele>
   </trkpt>
   <trkpt lat="-37.84272" lon="145.38237">
    <ele>304.12</ele>
   </trkpt>
   <trkpt lat="-37.84263" lon="145.38217">
    <ele>306.53000000000003</ele>
   </trkpt>
   <trkpt lat="-37.84248" lon="145.38167">
    <ele>310.59000000000003</ele>
   </trkpt>
   <trkpt lat="-37.84248" lon="145.38133000000002">
    <ele>312.11</ele>
   </trkpt>
   <trkpt lat="-37.84243" lon="145.38109">
    <ele>318.47</ele>
   </trkpt>
   <trkpt lat="-37.8423" lon="145.38066">
    <ele>319.99000000000007</ele>
   </trkpt>
   <trkpt lat="-37.84205" lon="145.38012">
    <ele>324.90000000000003</ele>
   </trkpt>
   <trkpt lat="-37.84201" lon="145.38002">
    <ele>324.90000000000003</ele>
   </trkpt>
   <trkpt lat="-37.84185" lon="145.37971000000002">
    <ele>325.70000000000005</ele>
   </trkpt>
   <trkpt lat="-37.84154" lon="145.37922">
    <ele>328.37000000000006</ele>
   </trkpt>
   <trkpt lat="-37.84122" lon="145.37847000000002">
    <ele>330.04</ele>
   </trkpt>
   <trkpt lat="-37.84103" lon="145.37786">
    <ele>333.12</ele>
   </trkpt>
   <trkpt lat="-37.840990000000005" lon="145.37779">
    <ele>333.16</ele>
   </trkpt>
   <trkpt lat="-37.840970000000006" lon="145.37764">
    <ele>334.19000000000005</ele>
   </trkpt>
   <trkpt lat="-37.84089" lon="145.37754">
    <ele>335.57000000000005</ele>
   </trkpt>
   <trkpt lat="-37.84046" lon="145.37711000000002">
    <ele>343.31</ele>
   </trkpt>
   <trkpt lat="-37.84035" lon="145.37695000000002">
    <ele>346.21000000000004</ele>
   </trkpt>
   <trkpt lat="-37.84024" lon="145.37681">
    <ele>350.83000000000004</ele>
   </trkpt>
   <trkpt lat="-37.83999500117897" lon="145.37628499828548">
    <ele>355.12000000000006</ele>
   </trkpt>
   <trkpt lat="-37.83975" lon="145.37576">
    <ele>361.90000000000003</ele>
   </trkpt>
   <trkpt lat="-37.83948000276182" lon="145.37494999699896">
    <ele>371.04</ele>
   </trkpt>
   <trkpt lat="-37.83921" lon="145.37414">
    <ele>378.51</ele>
   </trkpt>
   <trkpt lat="-37.8391" lon="145.37399000000002">
    <ele>379.45</ele>
   </trkpt>
   <trkpt lat="-37.83883" lon="145.37376">
    <ele>380.22</ele>
   </trkpt>
   <trkpt lat="-37.83858" lon="145.37359">
    <ele>380.40000000000003</ele>
   </trkpt>
   <trkpt lat="-37.83847" lon="145.37354000000002">
    <ele>381.20000000000005</ele>
   </trkpt>
   <trkpt lat="-37.83822" lon="145.37348">
    <ele>384.19</ele>
   </trkpt>
   <trkpt lat="-37.83805" lon="145.37351">
    <ele>390.16</ele>
   </trkpt>
   <trkpt lat="-37.83791" lon="145.37358">
    <ele>393.34000000000003</ele>
   </trkpt>
   <trkpt lat="-37.83784" lon="145.37368">
    <ele>395.40000000000003</ele>
   </trkpt>
   <trkpt lat="-37.83764" lon="145.37427000000002">
    <ele>404.78000000000003</ele>
   </trkpt>
   <trkpt lat="-37.83746" lon="145.37449">
    <ele>406.90000000000003</ele>
   </trkpt>
   <trkpt lat="-37.83735" lon="145.37466">
    <ele>407.28000000000003</ele>
   </trkpt>
   <trkpt lat="-37.83719" lon="145.37407000000002">
    <ele>408.84000000000003</ele>
   </trkpt>
   <trkpt lat="-37.83719" lon="145.37388">
    <ele>409.26</ele>
   </trkpt>
   <trkpt lat="-37.83708" lon="145.37331">
    <ele>413.23</ele>
   </trkpt>
   <trkpt lat="-37.83699" lon="145.37235">
    <ele>423.21000000000004</ele>
   </trkpt>
   <trkpt lat="-37.837030000000006" lon="145.3719">
    <ele>427.08</ele>
   </trkpt>
   <trkpt lat="-37.83699" lon="145.37133">
    <ele>430.38000000000005</ele>
   </trkpt>
   <trkpt lat="-37.837030000000006" lon="145.37094000000002">
    <ele>432.49</ele>
   </trkpt>
   <trkpt lat="-37.83701000000001" lon="145.37063">
    <ele>434.2300000000001</ele>
   </trkpt>
   <trkpt lat="-37.83706" lon="145.3701">
    <ele>437.84000000000003</ele>
   </trkpt>
   <trkpt lat="-37.83710000000001" lon="145.36998">
    <ele>438.91</ele>
   </trkpt>
   <trkpt lat="-37.83711" lon="145.36996000000002">
    <ele>439.21000000000004</ele>
   </trkpt>
   <trkpt lat="-37.83719" lon="145.36971">
    <ele>442.47</ele>
   </trkpt>
   <trkpt lat="-37.83719" lon="145.36952000000002">
    <ele>443.97</ele>
   </trkpt>
   <trkpt lat="-37.83708" lon="145.36950000000002">
    <ele>443.6</ele>
   </trkpt>
   <trkpt lat="-37.8369" lon="145.36938">
    <ele>442.15000000000003</ele>
   </trkpt>
   <trkpt lat="-37.8367" lon="145.36918">
    <ele>441.00000000000006</ele>
   </trkpt>
   <trkpt lat="-37.83628" lon="145.36864">
    <ele>436.20000000000005</ele>
   </trkpt>
   <trkpt lat="-37.83583" lon="145.36804">
    <ele>430.22</ele>
   </trkpt>
   <trkpt lat="-37.83554" lon="145.36737000000002">
    <ele>426.04</ele>
   </trkpt>
   <trkpt lat="-37.83545" lon="145.36728000000002">
    <ele>425.62000000000006</ele>
   </trkpt>
   <trkpt lat="-37.83536" lon="145.36729000000003">
    <ele>425.42</ele>
   </trkpt>
   <trkpt lat="-37.83527" lon="145.36734">
    <ele>425.58</ele>
   </trkpt>
   <trkpt lat="-37.835190000000004" lon="145.36743">
    <ele>425.93</ele>
   </trkpt>
   <trkpt lat="-37.83509" lon="145.3673">
    <ele>427.02</ele>
   </trkpt>
   <trkpt lat="-37.83482" lon="145.36722">
    <ele>431.68</ele>
   </trkpt>
   <trkpt lat="-37.83469" lon="145.36711000000003">
    <ele>432.78000000000003</ele>
   </trkpt>
   <trkpt lat="-37.8344" lon="145.36679">
    <ele>438.89000000000004</ele>
   </trkpt>
   <trkpt lat="-37.83431" lon="145.36658">
    <ele>441.71000000000004</ele>
   </trkpt>
   <trkpt lat="-37.83419" lon="145.36644">
    <ele>443.97</ele>
   </trkpt>
   <trkpt lat="-37.8337" lon="145.36607">
    <ele>450.28000000000003</ele>
   </trkpt>
   <trkpt lat="-37.83341" lon="145.3658">
    <ele>453.46000000000004</ele>
   </trkpt>
   <trkpt lat="-37.833090000000006" lon="145.36562">
    <ele>458.27</ele>
   </trkpt>
   <trkpt lat="-37.83276" lon="145.3656">
    <ele>463.97</ele>
   </trkpt>
   <trkpt lat="-37.832710000000006" lon="145.36564">
    <ele>464.49</ele>
   </trkpt>
   <trkpt lat="-37.83252" lon="145.36566000000002">
    <ele>465.9200000000001</ele>
   </trkpt>
   <trkpt lat="-37.8324" lon="145.36562">
    <ele>467.99</ele>
   </trkpt>
   <trkpt lat="-37.83207" lon="145.36518">
    <ele>477.22</ele>
   </trkpt>
   <trkpt lat="-37.83196" lon="145.36511000000002">
    <ele>477.93</ele>
   </trkpt>
   <trkpt lat="-37.83164" lon="145.365">
    <ele>481.71000000000004</ele>
   </trkpt>
   <trkpt lat="-37.83151" lon="145.36502000000002">
    <ele>482.48</ele>
   </trkpt>
   <trkpt lat="-37.83144" lon="145.36499">
    <ele>482.93</ele>
   </trkpt>
   <trkpt lat="-37.83124" lon="145.36485000000002">
    <ele>485.99</ele>
   </trkpt>
   <trkpt lat="-37.83113" lon="145.36483">
    <ele>486.67</ele>
   </trkpt>
   <trkpt lat="-37.83059" lon="145.36461">
    <ele>486.96000000000004</ele>
   </trkpt>
   <trkpt lat="-37.8305" lon="145.36453">
    <ele>487.04</ele>
   </trkpt>
   <trkpt lat="-37.83034" lon="145.36452">
    <ele>487.06000000000006</ele>
   </trkpt>
   <trkpt lat="-37.830180000000006" lon="145.36430000000001">
    <ele>488.08</ele>
   </trkpt>
   <trkpt lat="-37.82967" lon="145.3639">
    <ele>490.17</ele>
   </trkpt>
   <trkpt lat="-37.82945" lon="145.36360000000002">
    <ele>492.28000000000003</ele>
   </trkpt>
   <trkpt lat="-37.828860000000006" lon="145.36302">
    <ele>493.70000000000005</ele>
   </trkpt>
   <trkpt lat="-37.8286" lon="145.36275">
    <ele>493.65000000000003</ele>
   </trkpt>
   <trkpt lat="-37.82842" lon="145.36245000000002">
    <ele>494.11</ele>
   </trkpt>
   <trkpt lat="-37.8284" lon="145.36231">
    <ele>495.22</ele>
   </trkpt>
   <trkpt lat="-37.82842" lon="145.3622">
    <ele>495.06000000000006</ele>
   </trkpt>
   <trkpt lat="-37.82842" lon="145.3621">
    <ele>494.92</ele>
   </trkpt>
   <trkpt lat="-37.828410000000005" lon="145.3621">
    <ele>494.89000000000004</ele>
   </trkpt>
   <trkpt lat="-37.8284" lon="145.36201">
    <ele>494.63</ele>
   </trkpt>
   <trkpt lat="-37.82831" lon="145.36178">
    <ele>494.38000000000005</ele>
   </trkpt>
   <trkpt lat="-37.82824" lon="145.36177">
    <ele>494.43</ele>
   </trkpt>
   <trkpt lat="-37.828210000000006" lon="145.3615">
    <ele>494.95000000000005</ele>
   </trkpt>
   <trkpt lat="-37.82826" lon="145.36134">
    <ele>495.90000000000003</ele>
   </trkpt>
   <trkpt lat="-37.82824" lon="145.36102000000002">
    <ele>500.45000000000005</ele>
   </trkpt>
   <trkpt lat="-37.82831" lon="145.36064000000002">
    <ele>504.28000000000003</ele>
   </trkpt>
   <trkpt lat="-37.82831" lon="145.36051">
    <ele>506.76</ele>
   </trkpt>
   <trkpt lat="-37.828300000000006" lon="145.36042">
    <ele>507.72</ele>
   </trkpt>
   <trkpt lat="-37.828210000000006" lon="145.36031">
    <ele>510.83</ele>
   </trkpt>
   <trkpt lat="-37.82804" lon="145.36018">
    <ele>515.5500000000001</ele>
   </trkpt>
   <trkpt lat="-37.82788" lon="145.35998">
    <ele>510.18000000000006</ele>
   </trkpt>
   <trkpt lat="-37.828030000000005" lon="145.35981">
    <ele>510.11000000000007</ele>
   </trkpt>
   <trkpt lat="-37.82802" lon="145.35974000000002">
    <ele>511.68</ele>
   </trkpt>
   <trkpt lat="-37.82797" lon="145.35967000000002">
    <ele>515.19</ele>
   </trkpt>
   <trkpt lat="-37.82786" lon="145.3596">
    <ele>523.1</ele>
   </trkpt>
   <trkpt lat="-37.82772000000001" lon="145.35955">
    <ele>526.85</ele>
   </trkpt>
   <trkpt lat="-37.82728" lon="145.35929000000002">
    <ele>532.78</ele>
   </trkpt>
   <trkpt lat="-37.827180000000006" lon="145.35917">
    <ele>534.61</ele>
   </trkpt>
   <trkpt lat="-37.82705" lon="145.35911000000002">
    <ele>535.75</ele>
   </trkpt>
   <trkpt lat="-37.82694" lon="145.35909">
    <ele>536.6800000000001</ele>
   </trkpt>
   <trkpt lat="-37.82687" lon="145.35904000000002">
    <ele>537.9300000000001</ele>
   </trkpt>
   <trkpt lat="-37.82681" lon="145.35894000000002">
    <ele>538.6700000000001</ele>
   </trkpt>
   <trkpt lat="-37.82678000000001" lon="145.35874">
    <ele>542.63</ele>
   </trkpt>
   <trkpt lat="-37.82667" lon="145.35872">
    <ele>543.62</ele>
   </trkpt>
   <trkpt lat="-37.82645" lon="145.35860000000002">
    <ele>545.6800000000001</ele>
   </trkpt>
   <trkpt lat="-37.82614" lon="145.35836">
    <ele>549.1700000000001</ele>
   </trkpt>
   <trkpt lat="-37.82587" lon="145.35828">
    <ele>550.84</ele>
   </trkpt>
   <trkpt lat="-37.82567" lon="145.35817">
    <ele>553.06</ele>
   </trkpt>
   <trkpt lat="-37.82555" lon="145.35802">
    <ele>555.1</ele>
   </trkpt>
   <trkpt lat="-37.82549" lon="145.35781">
    <ele>558.9900000000001</ele>
   </trkpt>
   <trkpt lat="-37.82531" lon="145.35758">
    <ele>552.79</ele>
   </trkpt>
   <trkpt lat="-37.825250000000004" lon="145.35765">
    <ele>555.91</ele>
   </trkpt>
   <trkpt lat="-37.82524" lon="145.35717000000002">
    <ele>564.55</ele>
   </trkpt>
   <trkpt lat="-37.82526" lon="145.35688000000002">
    <ele>564.55</ele>
   </trkpt>
   <trkpt lat="-37.82536" lon="145.35629">
    <ele>568.86</ele>
   </trkpt>
   <trkpt lat="-37.825320000000005" lon="145.35603">
    <ele>570.37</ele>
   </trkpt>
   <trkpt lat="-37.82529" lon="145.35569">
    <ele>572.07</ele>
   </trkpt>
   <trkpt lat="-37.82529" lon="145.35529000000002">
    <ele>572.8000000000001</ele>
   </trkpt>
   <trkpt lat="-37.82531" lon="145.35505">
    <ele>573.4100000000001</ele>
   </trkpt>
   <trkpt lat="-37.82535" lon="145.35486">
    <ele>574.1800000000001</ele>
   </trkpt>
   <trkpt lat="-37.825480000000006" lon="145.35402000000002">
    <ele>580.94</ele>
   </trkpt>
   <trkpt lat="-37.825480000000006" lon="145.354">
    <ele>581.11</ele>
   </trkpt>
   <trkpt lat="-37.82555" lon="145.35337">
    <ele>585.53</ele>
   </trkpt>
   <trkpt lat="-37.82547" lon="145.35287000000002">
    <ele>585.6600000000001</ele>
   </trkpt>
   <trkpt lat="-37.82475" lon="145.35263">
    <ele>551.18</ele>
   </trkpt>
   <trkpt lat="-37.82455" lon="145.35246">
    <ele>539.39</ele>
   </trkpt>
   <trkpt lat="-37.82439" lon="145.35239">
    <ele>535.74</ele>
   </trkpt>
   <trkpt lat="-37.82399" lon="145.35247">
    <ele>517.83</ele>
   </trkpt>
   <trkpt lat="-37.82383" lon="145.35227">
    <ele>510.09000000000003</ele>
   </trkpt>
   <trkpt lat="-37.82372" lon="145.35218">
    <ele>503.06000000000006</ele>
   </trkpt>
   <trkpt lat="-37.82363" lon="145.35215000000002">
    <ele>501.4200000000001</ele>
   </trkpt>
   <trkpt lat="-37.82352" lon="145.35215000000002">
    <ele>496.74</ele>
   </trkpt>
   <trkpt lat="-37.82336" lon="145.3521">
    <ele>493.54</ele>
   </trkpt>
   <trkpt lat="-37.82323" lon="145.35186000000002">
    <ele>481.73</ele>
   </trkpt>
   <trkpt lat="-37.82305" lon="145.35166">
    <ele>470.76</ele>
   </trkpt>
   <trkpt lat="-37.822950000000006" lon="145.35162000000003">
    <ele>467.21</ele>
   </trkpt>
   <trkpt lat="-37.822860000000006" lon="145.35153000000003">
    <ele>463.82000000000005</ele>
   </trkpt>
   <trkpt lat="-37.82276" lon="145.35129">
    <ele>460.67</ele>
   </trkpt>
   <trkpt lat="-37.822590000000005" lon="145.35107000000002">
    <ele>449.24</ele>
   </trkpt>
   <trkpt lat="-37.823" lon="145.35069000000001">
    <ele>447.57</ele>
   </trkpt>
   <trkpt lat="-37.82343" lon="145.35046">
    <ele>444.58000000000004</ele>
   </trkpt>
   <trkpt lat="-37.8237" lon="145.35025000000002">
    <ele>443.19</ele>
   </trkpt>
   <trkpt lat="-37.82372" lon="145.35018000000002">
    <ele>442.45</ele>
   </trkpt>
   <trkpt lat="-37.82372" lon="145.35017000000002">
    <ele>442.37</ele>
   </trkpt>
   <trkpt lat="-37.82388500178236" lon="145.34952000146748">
    <ele>429.1</ele>
   </trkpt>
   <trkpt lat="-37.82405" lon="145.34887">
    <ele>423.32</ele>
   </trkpt>
   <trkpt lat="-37.82455500267554" lon="145.348075005434">
    <ele>415.96000000000004</ele>
   </trkpt>
   <trkpt lat="-37.82506" lon="145.34728">
    <ele>395.18</ele>
   </trkpt>
   <trkpt lat="-37.82531" lon="145.34704000000002">
    <ele>385.89</ele>
   </trkpt>
   <trkpt lat="-37.82569" lon="145.34635">
    <ele>369.86</ele>
   </trkpt>
   <trkpt lat="-37.82627" lon="145.34583">
    <ele>363.99</ele>
   </trkpt>
   <trkpt lat="-37.82656" lon="145.34569000000002">
    <ele>356.82</ele>
   </trkpt>
   <trkpt lat="-37.826800000000006" lon="145.34566">
    <ele>351.78000000000003</ele>
   </trkpt>
   <trkpt lat="-37.82755" lon="145.34513">
    <ele>340.63000000000005</ele>
   </trkpt>
   <trkpt lat="-37.82797" lon="145.34504">
    <ele>338.87</ele>
   </trkpt>
   <trkpt lat="-37.82844" lon="145.34486">
    <ele>340.41</ele>
   </trkpt>
   <trkpt lat="-37.82862" lon="145.34468">
    <ele>338.41</ele>
   </trkpt>
   <trkpt lat="-37.82891" lon="145.3443">
    <ele>329.08000000000004</ele>
   </trkpt>
   <trkpt lat="-37.82912" lon="145.34417000000002">
    <ele>324.15000000000003</ele>
   </trkpt>
   <trkpt lat="-37.82929" lon="145.34414">
    <ele>322.76000000000005</ele>
   </trkpt>
   <trkpt lat="-37.829620000000006" lon="145.34424">
    <ele>326.74</ele>
   </trkpt>
   <trkpt lat="-37.829930000000004" lon="145.34408000000002">
    <ele>329.88</ele>
   </trkpt>
   <trkpt lat="-37.830290000000005" lon="145.34410000000003">
    <ele>335.46000000000004</ele>
   </trkpt>
   <trkpt lat="-37.83034" lon="145.34411">
    <ele>335.93</ele>
   </trkpt>
   <trkpt lat="-37.83095" lon="145.34385">
    <ele>333.81000000000006</ele>
   </trkpt>
   <trkpt lat="-37.83113" lon="145.34359">
    <ele>333.43</ele>
   </trkpt>
   <trkpt lat="-37.83124" lon="145.34334">
    <ele>332.37000000000006</ele>
   </trkpt>
   <trkpt lat="-37.83144" lon="145.34259">
    <ele>331.24</ele>
   </trkpt>
   <trkpt lat="-37.83153" lon="145.3424">
    <ele>330.71</ele>
   </trkpt>
   <trkpt lat="-37.83164" lon="145.34225">
    <ele>330.67</ele>
   </trkpt>
   <trkpt lat="-37.83178" lon="145.34217">
    <ele>331.0</ele>
   </trkpt>
   <trkpt lat="-37.832330000000006" lon="145.34193000000002">
    <ele>329.09000000000003</ele>
   </trkpt>
   <trkpt lat="-37.8327" lon="145.34184000000002">
    <ele>326.34000000000003</ele>
   </trkpt>
   <trkpt lat="-37.83301" lon="145.34152">
    <ele>329.3</ele>
   </trkpt>
   <trkpt lat="-37.83323" lon="145.34098">
    <ele>329.36</ele>
   </trkpt>
   <trkpt lat="-37.83337" lon="145.34082">
    <ele>330.51</ele>
   </trkpt>
   <trkpt lat="-37.83357" lon="145.34077000000002">
    <ele>333.81000000000006</ele>
   </trkpt>
   <trkpt lat="-37.83397" lon="145.34079">
    <ele>343.89000000000004</ele>
   </trkpt>
   <trkpt lat="-37.83415" lon="145.34074">
    <ele>347.56</ele>
   </trkpt>
   <trkpt lat="-37.83442" lon="145.34049000000002">
    <ele>342.52000000000004</ele>
   </trkpt>
   <trkpt lat="-37.83475" lon="145.34023000000002">
    <ele>339.59</ele>
   </trkpt>
   <trkpt lat="-37.835060000000006" lon="145.33996000000002">
    <ele>344.04</ele>
   </trkpt>
   <trkpt lat="-37.835060000000006" lon="145.33995000000002">
    <ele>344.05</ele>
   </trkpt>
   <trkpt lat="-37.835150000000006" lon="145.33989000000003">
    <ele>344.05</ele>
   </trkpt>
   <trkpt lat="-37.83543" lon="145.33977000000002">
    <ele>351.06000000000006</ele>
   </trkpt>
   <trkpt lat="-37.83576" lon="145.33959000000002">
    <ele>356.3</ele>
   </trkpt>
   <trkpt lat="-37.83625" lon="145.33926000000002">
    <ele>360.04</ele>
   </trkpt>
   <trkpt lat="-37.83677" lon="145.339">
    <ele>359.48</ele>
   </trkpt>
   <trkpt lat="-37.83713" lon="145.33869">
    <ele>354.27000000000004</ele>
   </trkpt>
   <trkpt lat="-37.837250000000004" lon="145.33857">
    <ele>354.27000000000004</ele>
   </trkpt>
   <trkpt lat="-37.83724" lon="145.33879000000002">
    <ele>357.89000000000004</ele>
   </trkpt>
   <trkpt lat="-37.83724" lon="145.33924000000002">
    <ele>368.48</ele>
   </trkpt>
   <trkpt lat="-37.83719" lon="145.33995000000002">
    <ele>381.20000000000005</ele>
   </trkpt>
   <trkpt lat="-37.83719" lon="145.34022000000002">
    <ele>388.83</ele>
   </trkpt>
   <trkpt lat="-37.837120000000006" lon="145.34063">
    <ele>397.45000000000005</ele>
   </trkpt>
   <trkpt lat="-37.83713" lon="145.34112000000002">
    <ele>407.73</ele>
   </trkpt>
   <trkpt lat="-37.836960000000005" lon="145.34162">
    <ele>424.61</ele>
   </trkpt>
   <trkpt lat="-37.836960000000005" lon="145.34161">
    <ele>424.04</ele>
   </trkpt>
   <trkpt lat="-37.83684" lon="145.34198">
    <ele>433.68</ele>
   </trkpt>
   <trkpt lat="-37.83679" lon="145.34257000000002">
    <ele>450.47</ele>
   </trkpt>
   <trkpt lat="-37.83684" lon="145.34255000000002">
    <ele>451.26000000000005</ele>
   </trkpt>
   <trkpt lat="-37.83699" lon="145.34254">
    <ele>452.25000000000006</ele>
   </trkpt>
   <trkpt lat="-37.83746" lon="145.34274000000002">
    <ele>460.01000000000005</ele>
   </trkpt>
   <trkpt lat="-37.8376" lon="145.34282000000002">
    <ele>462.51000000000005</ele>
   </trkpt>
   <trkpt lat="-37.83789" lon="145.34306">
    <ele>466.88</ele>
   </trkpt>
   <trkpt lat="-37.83807" lon="145.34326000000001">
    <ele>470.86000000000007</ele>
   </trkpt>
   <trkpt lat="-37.83818" lon="145.34336000000002">
    <ele>472.69000000000005</ele>
   </trkpt>
   <trkpt lat="-37.8384" lon="145.34348">
    <ele>474.48</ele>
   </trkpt>
   <trkpt lat="-37.83854" lon="145.34353000000002">
    <ele>474.56</ele>
   </trkpt>
   <trkpt lat="-37.83874" lon="145.34358">
    <ele>473.28000000000003</ele>
   </trkpt>
   <trkpt lat="-37.83901" lon="145.34369">
    <ele>471.26</ele>
   </trkpt>
   <trkpt lat="-37.8391" lon="145.34374000000003">
    <ele>470.0</ele>
   </trkpt>
   <trkpt lat="-37.83966" lon="145.34384">
    <ele>468.35</ele>
   </trkpt>
   <trkpt lat="-37.84024" lon="145.34384">
    <ele>468.31000000000006</ele>
   </trkpt>
   <trkpt lat="-37.84057" lon="145.34386">
    <ele>465.95000000000005</ele>
   </trkpt>
   <trkpt lat="-37.84091" lon="145.34394">
    <ele>463.14000000000004</ele>
   </trkpt>
   <trkpt lat="-37.84125" lon="145.34408000000002">
    <ele>460.82000000000005</ele>
   </trkpt>
   <trkpt lat="-37.84163" lon="145.34426000000002">
    <ele>458.3</ele>
   </trkpt>
   <trkpt lat="-37.84183" lon="145.34441">
    <ele>457.75000000000006</ele>
   </trkpt>
   <trkpt lat="-37.842040000000004" lon="145.34463000000002">
    <ele>456.63000000000005</ele>
   </trkpt>
   <trkpt lat="-37.84221" lon="145.34493">
    <ele>456.21000000000004</ele>
   </trkpt>
   <trkpt lat="-37.8423" lon="145.34518">
    <ele>455.67</ele>
   </trkpt>
   <trkpt lat="-37.84239" lon="145.34554">
    <ele>454.76000000000005</ele>
   </trkpt>
   <trkpt lat="-37.84241" lon="145.34594">
    <ele>453.16</ele>
   </trkpt>
   <trkpt lat="-37.84239" lon="145.34612">
    <ele>452.12</ele>
   </trkpt>
   <trkpt lat="-37.8423" lon="145.34661">
    <ele>450.70000000000005</ele>
   </trkpt>
   <trkpt lat="-37.84228" lon="145.3468">
    <ele>450.16</ele>
   </trkpt>
   <trkpt lat="-37.8423" lon="145.34731000000002">
    <ele>447.77000000000004</ele>
   </trkpt>
   <trkpt lat="-37.8423" lon="145.34775000000002">
    <ele>444.66</ele>
   </trkpt>
   <trkpt lat="-37.84225" lon="145.34794000000002">
    <ele>444.11000000000007</ele>
   </trkpt>
   <trkpt lat="-37.84219" lon="145.34804000000003">
    <ele>443.86</ele>
   </trkpt>
   <trkpt lat="-37.84201" lon="145.34824">
    <ele>442.96000000000004</ele>
   </trkpt>
   <trkpt lat="-37.84194" lon="145.34835">
    <ele>442.74</ele>
   </trkpt>
   <trkpt lat="-37.84183" lon="145.34872000000001">
    <ele>441.73</ele>
   </trkpt>
   <trkpt lat="-37.84185" lon="145.34889">
    <ele>441.37</ele>
   </trkpt>
   <trkpt lat="-37.84192" lon="145.34903">
    <ele>439.37</ele>
   </trkpt>
   <trkpt lat="-37.84201" lon="145.34906">
    <ele>437.66</ele>
   </trkpt>
   <trkpt lat="-37.8421" lon="145.34902000000002">
    <ele>436.72</ele>
   </trkpt>
   <trkpt lat="-37.84219" lon="145.34892000000002">
    <ele>430.89000000000004</ele>
   </trkpt>
   <trkpt lat="-37.84237" lon="145.3488">
    <ele>428.15000000000003</ele>
   </trkpt>
   <trkpt lat="-37.84261" lon="145.34873000000002">
    <ele>424.17</ele>
   </trkpt>
   <trkpt lat="-37.842620000000004" lon="145.34873000000002">
    <ele>424.22</ele>
   </trkpt>
   <trkpt lat="-37.842760000000006" lon="145.34866000000002">
    <ele>422.38000000000005</ele>
   </trkpt>
   <trkpt lat="-37.84286" lon="145.34865000000002">
    <ele>418.81</ele>
   </trkpt>
   <trkpt lat="-37.84306" lon="145.34874000000002">
    <ele>415.54</ele>
   </trkpt>
   <trkpt lat="-37.84315" lon="145.34874000000002">
    <ele>414.14</ele>
   </trkpt>
   <trkpt lat="-37.843320000000006" lon="145.34844">
    <ele>411.24000000000007</ele>
   </trkpt>
   <trkpt lat="-37.84337" lon="145.34801000000002">
    <ele>409.53000000000003</ele>
   </trkpt>
   <trkpt lat="-37.84382" lon="145.34711000000001">
    <ele>395.96000000000004</ele>
   </trkpt>
   <trkpt lat="-37.84384" lon="145.3469">
    <ele>391.19000000000005</ele>
   </trkpt>
   <trkpt lat="-37.84378" lon="145.34646">
    <ele>386.11</ele>
   </trkpt>
   <trkpt lat="-37.8438" lon="145.34609">
    <ele>380.21000000000004</ele>
   </trkpt>
   <trkpt lat="-37.84389" lon="145.34585">
    <ele>374.55000000000007</ele>
   </trkpt>
   <trkpt lat="-37.84393" lon="145.34585">
    <ele>373.49</ele>
   </trkpt>
   <trkpt lat="-37.844" lon="145.34587000000002">
    <ele>371.57</ele>
   </trkpt>
   <trkpt lat="-37.84418" lon="145.34607000000003">
    <ele>368.71000000000004</ele>
   </trkpt>
   <trkpt lat="-37.84445" lon="145.34615000000002">
    <ele>364.71000000000004</ele>
   </trkpt>
   <trkpt lat="-37.845060000000004" lon="145.34613000000002">
    <ele>351.46999999999997</ele>
   </trkpt>
   <trkpt lat="-37.84519" lon="145.34607000000003">
    <ele>347.77000000000004</ele>
   </trkpt>
   <trkpt lat="-37.84543" lon="145.3459">
    <ele>341.79</ele>
   </trkpt>
   <trkpt lat="-37.84548" lon="145.34592">
    <ele>339.98</ele>
   </trkpt>
   <trkpt lat="-37.84559" lon="145.34591">
    <ele>336.97</ele>
   </trkpt>
   <trkpt lat="-37.84564" lon="145.34588000000002">
    <ele>336.97</ele>
   </trkpt>
   <trkpt lat="-37.84592" lon="145.34556">
    <ele>330.99</ele>
   </trkpt>
   <trkpt lat="-37.84597" lon="145.34545">
    <ele>330.37000000000006</ele>
   </trkpt>
   <trkpt lat="-37.84597" lon="145.34536">
    <ele>329.93</ele>
   </trkpt>
   <trkpt lat="-37.84586" lon="145.34502">
    <ele>329.32</ele>
   </trkpt>
   <trkpt lat="-37.8457" lon="145.34482">
    <ele>328.29</ele>
   </trkpt>
   <trkpt lat="-37.84559" lon="145.34452000000002">
    <ele>325.89</ele>
   </trkpt>
   <trkpt lat="-37.84554" lon="145.34428">
    <ele>322.86</ele>
   </trkpt>
   <trkpt lat="-37.84557" lon="145.34413">
    <ele>321.70000000000005</ele>
   </trkpt>
   <trkpt lat="-37.84559" lon="145.34410000000003">
    <ele>321.70000000000005</ele>
   </trkpt>
   <trkpt lat="-37.845690000000005" lon="145.34410000000003">
    <ele>319.86</ele>
   </trkpt>
   <trkpt lat="-37.84599" lon="145.34422">
    <ele>314.20000000000005</ele>
   </trkpt>
   <trkpt lat="-37.84642" lon="145.34432">
    <ele>307.13</ele>
   </trkpt>
   <trkpt lat="-37.84657" lon="145.34428">
    <ele>305.74</ele>
   </trkpt>
   <trkpt lat="-37.84666" lon="145.3442">
    <ele>303.85</ele>
   </trkpt>
   <trkpt lat="-37.84691" lon="145.34377">
    <ele>298.99</ele>
   </trkpt>
   <trkpt lat="-37.84702" lon="145.34371000000002">
    <ele>297.93</ele>
   </trkpt>
   <trkpt lat="-37.84709" lon="145.34374000000003">
    <ele>297.44000000000005</ele>
   </trkpt>
   <trkpt lat="-37.847170000000006" lon="145.34381000000002">
    <ele>296.8</ele>
   </trkpt>
   <trkpt lat="-37.84718" lon="145.34387">
    <ele>296.8</ele>
   </trkpt>
   <trkpt lat="-37.8472" lon="145.34408000000002">
    <ele>295.75</ele>
   </trkpt>
   <trkpt lat="-37.84707" lon="145.34472000000002">
    <ele>292.83000000000004</ele>
   </trkpt>
   <trkpt lat="-37.84707" lon="145.34496000000001">
    <ele>292.97</ele>
   </trkpt>
   <trkpt lat="-37.847170000000006" lon="145.34528">
    <ele>293.54</ele>
   </trkpt>
   <trkpt lat="-37.84722" lon="145.34541000000002">
    <ele>293.6</ele>
   </trkpt>
   <trkpt lat="-37.84731" lon="145.34550000000002">
    <ele>293.62000000000006</ele>
   </trkpt>
   <trkpt lat="-37.84745" lon="145.34555">
    <ele>293.53000000000003</ele>
   </trkpt>
   <trkpt lat="-37.84756" lon="145.34556">
    <ele>293.12000000000006</ele>
   </trkpt>
   <trkpt lat="-37.84781" lon="145.34555">
    <ele>291.8</ele>
   </trkpt>
   <trkpt lat="-37.84789" lon="145.34557">
    <ele>291.15000000000003</ele>
   </trkpt>
   <trkpt lat="-37.84798" lon="145.34563">
    <ele>290.13</ele>
   </trkpt>
   <trkpt lat="-37.848200000000006" lon="145.3459">
    <ele>287.51000000000005</ele>
   </trkpt>
   <trkpt lat="-37.84848" lon="145.34639">
    <ele>284.32</ele>
   </trkpt>
   <trkpt lat="-37.84854" lon="145.34643">
    <ele>282.35</ele>
   </trkpt>
   <trkpt lat="-37.84857" lon="145.34639">
    <ele>282.35</ele>
   </trkpt>
   <trkpt lat="-37.84859" lon="145.34626">
    <ele>281.46000000000004</ele>
   </trkpt>
   <trkpt lat="-37.848600001899754" lon="145.34558999997228">
    <ele>278.18</ele>
   </trkpt>
   <trkpt lat="-37.84861" lon="145.34492">
    <ele>274.99</ele>
   </trkpt>
   <trkpt lat="-37.84868" lon="145.34415">
    <ele>274.0</ele>
   </trkpt>
   <trkpt lat="-37.84875" lon="145.34361">
    <ele>273.45000000000005</ele>
   </trkpt>
   <trkpt lat="-37.84895" lon="145.34452000000002">
    <ele>284.48</ele>
   </trkpt>
   <trkpt lat="-37.8491" lon="145.34499000000002">
    <ele>291.67</ele>
   </trkpt>
   <trkpt lat="-37.84937" lon="145.34567">
    <ele>302.32000000000005</ele>
   </trkpt>
   <trkpt lat="-37.84964" lon="145.34674">
    <ele>310.93</ele>
   </trkpt>
   <trkpt lat="-37.84975" lon="145.34712000000002">
    <ele>313.71999999999997</ele>
   </trkpt>
   <trkpt lat="-37.85007" lon="145.34765000000002">
    <ele>320.88</ele>
   </trkpt>
   <trkpt lat="-37.85025" lon="145.34803000000002">
    <ele>327.85</ele>
   </trkpt>
   <trkpt lat="-37.8506" lon="145.34881000000001">
    <ele>337.41</ele>
   </trkpt>
   <trkpt lat="-37.8508" lon="145.34936000000002">
    <ele>343.83000000000004</ele>
   </trkpt>
   <trkpt lat="-37.85098" lon="145.34968">
    <ele>352.2</ele>
   </trkpt>
   <trkpt lat="-37.85105" lon="145.34977">
    <ele>359.1</ele>
   </trkpt>
   <trkpt lat="-37.85116" lon="145.34979">
    <ele>362.47</ele>
   </trkpt>
   <trkpt lat="-37.85195" lon="145.34931">
    <ele>392.64000000000004</ele>
   </trkpt>
   <trkpt lat="-37.85246" lon="145.34893000000002">
    <ele>414.29</ele>
   </trkpt>
   <trkpt lat="-37.85262" lon="145.34889">
    <ele>418.44</ele>
   </trkpt>
   <trkpt lat="-37.85284" lon="145.34871">
    <ele>428.64</ele>
   </trkpt>
   <trkpt lat="-37.85298" lon="145.34869">
    <ele>429.86</ele>
   </trkpt>
   <trkpt lat="-37.85329" lon="145.34838000000002">
    <ele>437.44000000000005</ele>
   </trkpt>
   <trkpt lat="-37.85349" lon="145.34832">
    <ele>440.28000000000003</ele>
   </trkpt>
   <trkpt lat="-37.85347" lon="145.34849">
    <ele>440.73</ele>
   </trkpt>
   <trkpt lat="-37.85351" lon="145.34869">
    <ele>444.38000000000005</ele>
   </trkpt>
   <trkpt lat="-37.85378" lon="145.34931">
    <ele>450.42</ele>
   </trkpt>
   <trkpt lat="-37.85419" lon="145.34983000000003">
    <ele>459.49000000000007</ele>
   </trkpt>
   <trkpt lat="-37.85468" lon="145.35037">
    <ele>473.25000000000006</ele>
   </trkpt>
   <trkpt lat="-37.85507500138615" lon="145.35092499714384">
    <ele>482.51000000000005</ele>
   </trkpt>
   <trkpt lat="-37.855470000000004" lon="145.35148">
    <ele>490.67</ele>
   </trkpt>
   <trkpt lat="-37.85528" lon="145.35168000000002">
    <ele>488.30000000000007</ele>
   </trkpt>
   <trkpt lat="-37.85526" lon="145.35179000000002">
    <ele>487.19000000000005</ele>
   </trkpt>
   <trkpt lat="-37.85521" lon="145.35193">
    <ele>486.04</ele>
   </trkpt>
   <trkpt lat="-37.855140000000006" lon="145.35198000000003">
    <ele>484.41</ele>
   </trkpt>
   <trkpt lat="-37.854940000000006" lon="145.3522">
    <ele>478.38</ele>
   </trkpt>
   <trkpt lat="-37.85495" lon="145.35219">
    <ele>478.81</ele>
   </trkpt>
   <trkpt lat="-37.85486" lon="145.3523">
    <ele>476.62000000000006</ele>
   </trkpt>
   <trkpt lat="-37.85472" lon="145.3527">
    <ele>471.67</ele>
   </trkpt>
   <trkpt lat="-37.85466" lon="145.35276000000002">
    <ele>468.55</ele>
   </trkpt>
   <trkpt lat="-37.85461" lon="145.35294000000002">
    <ele>467.15000000000003</ele>
   </trkpt>
   <trkpt lat="-37.85461" lon="145.35309">
    <ele>465.96000000000004</ele>
   </trkpt>
   <trkpt lat="-37.854580000000006" lon="145.35319">
    <ele>464.36</ele>
   </trkpt>
   <trkpt lat="-37.85452" lon="145.35320000000002">
    <ele>463.79</ele>
   </trkpt>
   <trkpt lat="-37.85439" lon="145.35299">
    <ele>461.22</ele>
   </trkpt>
   <trkpt lat="-37.854350000000004" lon="145.35299">
    <ele>460.01000000000005</ele>
   </trkpt>
   <trkpt lat="-37.854110000000006" lon="145.35328">
    <ele>455.56</ele>
   </trkpt>
   <trkpt lat="-37.85396" lon="145.35339000000002">
    <ele>453.17</ele>
   </trkpt>
   <trkpt lat="-37.85342" lon="145.35415">
    <ele>447.11000000000007</ele>
   </trkpt>
   <trkpt lat="-37.85331" lon="145.35443">
    <ele>443.38000000000005</ele>
   </trkpt>
   <trkpt lat="-37.853" lon="145.35505">
    <ele>442.58000000000004</ele>
   </trkpt>
   <trkpt lat="-37.85298" lon="145.3556">
    <ele>445.17</ele>
   </trkpt>
   <trkpt lat="-37.85289" lon="145.35602">
    <ele>446.08000000000004</ele>
   </trkpt>
   <trkpt lat="-37.85284" lon="145.3561">
    <ele>446.01</ele>
   </trkpt>
   <trkpt lat="-37.85275" lon="145.35644000000002">
    <ele>447.65000000000003</ele>
   </trkpt>
   <trkpt lat="-37.85264" lon="145.35660000000001">
    <ele>448.97</ele>
   </trkpt>
   <trkpt lat="-37.85242" lon="145.35717000000002">
    <ele>459.82000000000005</ele>
   </trkpt>
   <trkpt lat="-37.85242" lon="145.35716000000002">
    <ele>459.64000000000004</ele>
   </trkpt>
   <trkpt lat="-37.85239" lon="145.35723000000002">
    <ele>460.31000000000006</ele>
   </trkpt>
   <trkpt lat="-37.852230000000006" lon="145.3574">
    <ele>464.22</ele>
   </trkpt>
   <trkpt lat="-37.8521" lon="145.35760000000002">
    <ele>464.22</ele>
   </trkpt>
   <trkpt lat="-37.851890000000004" lon="145.35781">
    <ele>471.43</ele>
   </trkpt>
   <trkpt lat="-37.85177" lon="145.35780000000003">
    <ele>469.23</ele>
   </trkpt>
   <trkpt lat="-37.85157" lon="145.35757">
    <ele>461.22</ele>
   </trkpt>
   <trkpt lat="-37.8515" lon="145.35757">
    <ele>459.77</ele>
   </trkpt>
   <trkpt lat="-37.85132" lon="145.35802">
    <ele>463.9200000000001</ele>
   </trkpt>
   <trkpt lat="-37.85121" lon="145.35867000000002">
    <ele>466.5</ele>
   </trkpt>
   <trkpt lat="-37.851110000000006" lon="145.35914000000002">
    <ele>463.66</ele>
   </trkpt>
   <trkpt lat="-37.85092" lon="145.35967000000002">
    <ele>465.93</ele>
   </trkpt>
   <trkpt lat="-37.85085" lon="145.35979">
    <ele>468.96000000000004</ele>
   </trkpt>
   <trkpt lat="-37.850730000000006" lon="145.35992000000002">
    <ele>471.5</ele>
   </trkpt>
   <trkpt lat="-37.850640000000006" lon="145.35994000000002">
    <ele>472.91</ele>
   </trkpt>
   <trkpt lat="-37.85051" lon="145.35993000000002">
    <ele>474.91</ele>
   </trkpt>
   <trkpt lat="-37.85013" lon="145.35996">
    <ele>482.74000000000007</ele>
   </trkpt>
   <trkpt lat="-37.84998" lon="145.35999">
    <ele>486.18000000000006</ele>
   </trkpt>
   <trkpt lat="-37.84978" lon="145.35994000000002">
    <ele>490.55</ele>
   </trkpt>
   <trkpt lat="-37.84942" lon="145.35956000000002">
    <ele>495.64</ele>
   </trkpt>
   <trkpt lat="-37.84924" lon="145.35928">
    <ele>497.09000000000003</ele>
   </trkpt>
   <trkpt lat="-37.84913" lon="145.35913000000002">
    <ele>497.31</ele>
   </trkpt>
   <trkpt lat="-37.84874500075761" lon="145.35868999763292">
    <ele>495.94000000000005</ele>
   </trkpt>
   <trkpt lat="-37.84836" lon="145.35825">
    <ele>491.95000000000005</ele>
   </trkpt>
   <trkpt lat="-37.84792" lon="145.35781">
    <ele>492.64</ele>
   </trkpt>
   <trkpt lat="-37.84783" lon="145.35772">
    <ele>494.34000000000003</ele>
   </trkpt>
   <trkpt lat="-37.84772" lon="145.35768000000002">
    <ele>495.3500000000001</ele>
   </trkpt>
   <trkpt lat="-37.84713" lon="145.35719">
    <ele>496.33000000000004</ele>
   </trkpt>
   <trkpt lat="-37.84682" lon="145.35668">
    <ele>493.34000000000003</ele>
   </trkpt>
   <trkpt lat="-37.84651" lon="145.3563">
    <ele>497.40000000000003</ele>
   </trkpt>
   <trkpt lat="-37.84626" lon="145.35571000000002">
    <ele>501.83</ele>
   </trkpt>
   <trkpt lat="-37.84624" lon="145.35552">
    <ele>502.19</ele>
   </trkpt>
   <trkpt lat="-37.84631" lon="145.3554">
    <ele>501.8</ele>
   </trkpt>
   <trkpt lat="-37.84662" lon="145.35509000000002">
    <ele>499.76000000000005</ele>
   </trkpt>
   <trkpt lat="-37.84673" lon="145.35492000000002">
    <ele>499.64000000000004</ele>
   </trkpt>
   <trkpt lat="-37.846810000000005" lon="145.35467">
    <ele>501.09000000000003</ele>
   </trkpt>
   <trkpt lat="-37.84693" lon="145.35409">
    <ele>505.29</ele>
   </trkpt>
   <trkpt lat="-37.846900000000005" lon="145.35394000000002">
    <ele>506.53000000000003</ele>
   </trkpt>
   <trkpt lat="-37.846830000000004" lon="145.35398">
    <ele>506.38000000000005</ele>
   </trkpt>
   <trkpt lat="-37.8468" lon="145.35404">
    <ele>506.38000000000005</ele>
   </trkpt>
   <trkpt lat="-37.84626000080321" lon="145.35446000303094">
    <ele>509.12</ele>
   </trkpt>
   <trkpt lat="-37.84572" lon="145.35488">
    <ele>510.6400000000001</ele>
   </trkpt>
   <trkpt lat="-37.84572" lon="145.35487">
    <ele>510.63</ele>
   </trkpt>
   <trkpt lat="-37.845220000000005" lon="145.35527000000002">
    <ele>511.4200000000001</ele>
   </trkpt>
   <trkpt lat="-37.8453" lon="145.35535000000002">
    <ele>511.02000000000004</ele>
   </trkpt>
   <trkpt lat="-37.8456533370517" lon="145.3560133269724">
    <ele>510.4700000000001</ele>
   </trkpt>
   <trkpt lat="-37.84600667038273" lon="145.35667666030133">
    <ele>508.90000000000003</ele>
   </trkpt>
   <trkpt lat="-37.846360000000004" lon="145.35734000000002">
    <ele>509.01000000000005</ele>
   </trkpt>
   <trkpt lat="-37.84644" lon="145.35760000000002">
    <ele>509.89000000000004</ele>
   </trkpt>
   <trkpt lat="-37.846540000000005" lon="145.35771000000003">
    <ele>510.29</ele>
   </trkpt>
   <trkpt lat="-37.84664" lon="145.35795000000002">
    <ele>512.6800000000001</ele>
   </trkpt>
   <trkpt lat="-37.84695" lon="145.35840000000002">
    <ele>516.78</ele>
   </trkpt>
   <trkpt lat="-37.84709" lon="145.35882">
    <ele>518.1</ele>
   </trkpt>
   <trkpt lat="-37.84704" lon="145.35884000000001">
    <ele>517.17</ele>
   </trkpt>
   <trkpt lat="-37.84716" lon="145.35931000000002">
    <ele>516.35</ele>
   </trkpt>
   <trkpt lat="-37.84738" lon="145.36030000000002">
    <ele>511.63</ele>
   </trkpt>
   <trkpt lat="-37.84713" lon="145.36037000000002">
    <ele>512.15</ele>
   </trkpt>
   <trkpt lat="-37.84707" lon="145.3604">
    <ele>512.48</ele>
   </trkpt>
   <trkpt lat="-37.84698" lon="145.36054000000001">
    <ele>511.09999999999997</ele>
   </trkpt>
   <trkpt lat="-37.84682" lon="145.36052">
    <ele>511.31000000000006</ele>
   </trkpt>
   <trkpt lat="-37.84655" lon="145.36054000000001">
    <ele>511.50000000000006</ele>
   </trkpt>
   <trkpt lat="-37.84619" lon="145.36064000000002">
    <ele>511.74000000000007</ele>
   </trkpt>
   <trkpt lat="-37.84630000000001" lon="145.3617">
    <ele>507.38000000000005</ele>
   </trkpt>
   <trkpt lat="-37.846410000000006" lon="145.3623">
    <ele>499.44000000000005</ele>
   </trkpt>
   <trkpt lat="-37.84655000174529" lon="145.36294499871246">
    <ele>486.7</ele>
   </trkpt>
   <trkpt lat="-37.84669" lon="145.36359000000002">
    <ele>487.55</ele>
   </trkpt>
   <trkpt lat="-37.846780001567424" lon="145.3642049990327">
    <ele>499.96</ele>
   </trkpt>
   <trkpt lat="-37.84687" lon="145.36482">
    <ele>509.3500000000001</ele>
   </trkpt>
   <trkpt lat="-37.84693" lon="145.36513000000002">
    <ele>513.02</ele>
   </trkpt>
   <trkpt lat="-37.84691" lon="145.36540000000002">
    <ele>517.57</ele>
   </trkpt>
   <trkpt lat="-37.8470000020766" lon="145.36609499941713">
    <ele>526.27</ele>
   </trkpt>
   <trkpt lat="-37.84709" lon="145.36679">
    <ele>532.42</ele>
   </trkpt>
   <trkpt lat="-37.847150000000006" lon="145.36692000000002">
    <ele>533.0</ele>
   </trkpt>
   <trkpt lat="-37.84788" lon="145.36746000000002">
    <ele>534.4300000000001</ele>
   </trkpt>
   <trkpt lat="-37.84850250260153" lon="145.36791248854271">
    <ele>535.3</ele>
   </trkpt>
   <trkpt lat="-37.84912500347165" lon="145.36836498472553">
    <ele>540.8000000000001</ele>
   </trkpt>
   <trkpt lat="-37.84974750261032" lon="145.36881748854876">
    <ele>550.23</ele>
   </trkpt>
   <trkpt lat="-37.850370000000005" lon="145.36927">
    <ele>557.76</ele>
   </trkpt>
   <trkpt lat="-37.85072" lon="145.36927">
    <ele>560.4800000000001</ele>
   </trkpt>
   <trkpt lat="-37.85105" lon="145.36917000000003">
    <ele>562.1700000000001</ele>
   </trkpt>
   <trkpt lat="-37.85159" lon="145.36880000000002">
    <ele>564.19</ele>
   </trkpt>
   <trkpt lat="-37.85119" lon="145.36936">
    <ele>559.9900000000001</ele>
   </trkpt>
   <trkpt lat="-37.85119" lon="145.36935000000003">
    <ele>560.0500000000001</ele>
   </trkpt>
   <trkpt lat="-37.851760000000006" lon="145.36859">
    <ele>565.6600000000001</ele>
   </trkpt>
   <trkpt lat="-37.852070000000005" lon="145.36833000000001">
    <ele>569.6300000000001</ele>
   </trkpt>
   <trkpt lat="-37.85215" lon="145.3683">
    <ele>570.1</ele>
   </trkpt>
  </trkseg>
 </trk>
</gpx>
