<?xml version="1.0" encoding="UTF-8"?>
<gpx creator="StravaGPX" version="1.1" xmlns="http://www.topografix.com/GPX/1/1" xmlns:xsi="http://www.w3.org/2001/XMLSchema-instance" xsi:schemaLocation="http://www.topografix.com/GPX/1/1 http://www.topografix.com/GPX/1/1/gpx.xsd">
 <metadata>
  <name>2025 Christmas Kalorama 20k</name>
  <author>
   <name>john csorgo</name>
   <link href="https://www.strava.com/athletes/61185584"/>
  </author>
  <copyright author="OpenStreetMap contributors">
   <year>2020</year>
   <license>https://www.openstreetmap.org/copyright</license>
  </copyright>
  <link href="https://www.strava.com/routes/3434022660113183094"/>
 </metadata>
 <trk>
  <name>2025 Christmas Kalorama 20k</name>
  <link href="https://www.strava.com/routes/3434022660113183094"/>
  <type>trail_running</type>
  <trkseg>
   <trkpt lat="-37.8162" lon="145.37919000000002">
    <ele>433.82000000000005</ele>
   </trkpt>
   <trkpt lat="-37.81613" lon="145.37898">
    <ele>433.63</ele>
   </trkpt>
   <trkpt lat="-37.816" lon="145.37896">
    <ele>432.65000000000003</ele>
   </trkpt>
   <trkpt lat="-37.81579" lon="145.3788">
    <ele>431.3</ele>
   </trkpt>
   <trkpt lat="-37.81546" lon="145.37838000000002">
    <ele>430.43</ele>
   </trkpt>
   <trkpt lat="-37.815000000000005" lon="145.37811000000002">
    <ele>429.76000000000005</ele>
   </trkpt>
   <trkpt lat="-37.81450000127363" lon="145.3775549962098">
    <ele>435.24</ele>
   </trkpt>
   <trkpt lat="-37.814" lon="145.377">
    <ele>441.38000000000005</ele>
   </trkpt>
   <trkpt lat="-37.81394" lon="145.37682">
    <ele>443.66</ele>
   </trkpt>
   <trkpt lat="-37.8138" lon="145.37578000000002">
    <ele>451.29</ele>
   </trkpt>
   <trkpt lat="-37.813705001405076" lon="145.37520499930613">
    <ele>457.54</ele>
   </trkpt>
   <trkpt lat="-37.813610000000004" lon="145.37463000000002">
    <ele>461.12</ele>
   </trkpt>
   <trkpt lat="-37.8134" lon="145.37372000000002">
    <ele>465.3</ele>
   </trkpt>
   <trkpt lat="-37.813340000000004" lon="145.37318000000002">
    <ele>465.31000000000006</ele>
   </trkpt>
   <trkpt lat="-37.81338" lon="145.37299000000002">
    <ele>465.14000000000004</ele>
   </trkpt>
   <trkpt lat="-37.813480000000006" lon="145.3728">
    <ele>465.64000000000004</ele>
   </trkpt>
   <trkpt lat="-37.8136" lon="145.37265000000002">
    <ele>466.12</ele>
   </trkpt>
   <trkpt lat="-37.81396" lon="145.37239000000002">
    <ele>469.17</ele>
   </trkpt>
   <trkpt lat="-37.81427" lon="145.37235">
    <ele>470.19000000000005</ele>
   </trkpt>
   <trkpt lat="-37.81445" lon="145.37228000000002">
    <ele>470.9200000000001</ele>
   </trkpt>
   <trkpt lat="-37.81461" lon="145.37204">
    <ele>472.5</ele>
   </trkpt>
   <trkpt lat="-37.81474" lon="145.37179">
    <ele>474.1</ele>
   </trkpt>
   <trkpt lat="-37.81481" lon="145.37086000000002">
    <ele>480.66</ele>
   </trkpt>
   <trkpt lat="-37.81476" lon="145.37027">
    <ele>478.39000000000004</ele>
   </trkpt>
   <trkpt lat="-37.81467" lon="145.36967">
    <ele>473.35</ele>
   </trkpt>
   <trkpt lat="-37.814620000000005" lon="145.36915000000002">
    <ele>467.35</ele>
   </trkpt>
   <trkpt lat="-37.81461" lon="145.36878000000002">
    <ele>464.89000000000004</ele>
   </trkpt>
   <trkpt lat="-37.81461" lon="145.36827000000002">
    <ele>460.76000000000005</ele>
   </trkpt>
   <trkpt lat="-37.81481" lon="145.36755000000002">
    <ele>455.74</ele>
   </trkpt>
   <trkpt lat="-37.81488" lon="145.36741">
    <ele>452.57</ele>
   </trkpt>
   <trkpt lat="-37.81508" lon="145.36724">
    <ele>450.5</ele>
   </trkpt>
   <trkpt lat="-37.81537" lon="145.36716">
    <ele>450.07</ele>
   </trkpt>
   <trkpt lat="-37.81573" lon="145.36681000000002">
    <ele>454.06</ele>
   </trkpt>
   <trkpt lat="-37.81615" lon="145.36669">
    <ele>458.53000000000003</ele>
   </trkpt>
   <trkpt lat="-37.81678999995962" lon="145.36669999991267">
    <ele>463.65000000000003</ele>
   </trkpt>
   <trkpt lat="-37.81743" lon="145.36671">
    <ele>469.97</ele>
   </trkpt>
   <trkpt lat="-37.81745" lon="145.36571">
    <ele>458.42</ele>
   </trkpt>
   <trkpt lat="-37.81736" lon="145.36494000000002">
    <ele>447.70000000000005</ele>
   </trkpt>
   <trkpt lat="-37.81723" lon="145.36425">
    <ele>440.44000000000005</ele>
   </trkpt>
   <trkpt lat="-37.81721" lon="145.36376">
    <ele>435.2300000000001</ele>
   </trkpt>
   <trkpt lat="-37.81727" lon="145.36336">
    <ele>433.21000000000004</ele>
   </trkpt>
   <trkpt lat="-37.81732" lon="145.36321">
    <ele>426.58</ele>
   </trkpt>
   <trkpt lat="-37.81752" lon="145.36274">
    <ele>423.05</ele>
   </trkpt>
   <trkpt lat="-37.81761" lon="145.36260000000001">
    <ele>418.65000000000003</ele>
   </trkpt>
   <trkpt lat="-37.8177" lon="145.36251000000001">
    <ele>416.68000000000006</ele>
   </trkpt>
   <trkpt lat="-37.8181" lon="145.36234000000002">
    <ele>410.81</ele>
   </trkpt>
   <trkpt lat="-37.81828" lon="145.36215">
    <ele>408.78000000000003</ele>
   </trkpt>
   <trkpt lat="-37.81861" lon="145.36159">
    <ele>399.6</ele>
   </trkpt>
   <trkpt lat="-37.81868" lon="145.36143">
    <ele>398.26000000000005</ele>
   </trkpt>
   <trkpt lat="-37.8187" lon="145.36124">
    <ele>394.38</ele>
   </trkpt>
   <trkpt lat="-37.8187" lon="145.36094">
    <ele>392.25000000000006</ele>
   </trkpt>
   <trkpt lat="-37.818540000000006" lon="145.35998">
    <ele>378.78</ele>
   </trkpt>
   <trkpt lat="-37.81884" lon="145.35967000000002">
    <ele>384.32000000000005</ele>
   </trkpt>
   <trkpt lat="-37.81895" lon="145.35959000000003">
    <ele>386.89</ele>
   </trkpt>
   <trkpt lat="-37.81929" lon="145.35952">
    <ele>392.74</ele>
   </trkpt>
   <trkpt lat="-37.81951" lon="145.35937">
    <ele>392.43000000000006</ele>
   </trkpt>
   <trkpt lat="-37.81987" lon="145.35896000000002">
    <ele>392.22</ele>
   </trkpt>
   <trkpt lat="-37.820330000000006" lon="145.35863">
    <ele>395.85</ele>
   </trkpt>
   <trkpt lat="-37.82043" lon="145.35848000000001">
    <ele>395.83</ele>
   </trkpt>
   <trkpt lat="-37.8205" lon="145.35833000000002">
    <ele>395.70000000000005</ele>
   </trkpt>
   <trkpt lat="-37.820420000000006" lon="145.35778000000002">
    <ele>395.16</ele>
   </trkpt>
   <trkpt lat="-37.82043" lon="145.35744000000003">
    <ele>395.01000000000005</ele>
   </trkpt>
   <trkpt lat="-37.82045" lon="145.3573">
    <ele>395.01000000000005</ele>
   </trkpt>
   <trkpt lat="-37.82085" lon="145.35671000000002">
    <ele>394.84000000000003</ele>
   </trkpt>
   <trkpt lat="-37.82099" lon="145.35655">
    <ele>395.76000000000005</ele>
   </trkpt>
   <trkpt lat="-37.82112" lon="145.35653000000002">
    <ele>397.71</ele>
   </trkpt>
   <trkpt lat="-37.82126" lon="145.35643000000002">
    <ele>398.43</ele>
   </trkpt>
   <trkpt lat="-37.821450000000006" lon="145.35625000000002">
    <ele>398.54</ele>
   </trkpt>
   <trkpt lat="-37.82164" lon="145.35581000000002">
    <ele>400.32</ele>
   </trkpt>
   <trkpt lat="-37.82202" lon="145.35513">
    <ele>398.79</ele>
   </trkpt>
   <trkpt lat="-37.82204" lon="145.35498">
    <ele>397.92</ele>
   </trkpt>
   <trkpt lat="-37.82204" lon="145.35479">
    <ele>397.08000000000004</ele>
   </trkpt>
   <trkpt lat="-37.82193" lon="145.3544">
    <ele>400.86</ele>
   </trkpt>
   <trkpt lat="-37.82164" lon="145.35381">
    <ele>408.46000000000004</ele>
   </trkpt>
   <trkpt lat="-37.82159" lon="145.35368000000003">
    <ele>410.90000000000003</ele>
   </trkpt>
   <trkpt lat="-37.82155" lon="145.35288">
    <ele>418.87</ele>
   </trkpt>
   <trkpt lat="-37.82159" lon="145.35263">
    <ele>421.18000000000006</ele>
   </trkpt>
   <trkpt lat="-37.82209" lon="145.35202">
    <ele>437.36</ele>
   </trkpt>
   <trkpt lat="-37.82234000081451" lon="145.3515450018735">
    <ele>444.68</ele>
   </trkpt>
   <trkpt lat="-37.822590000000005" lon="145.35107000000002">
    <ele>449.24</ele>
   </trkpt>
   <trkpt lat="-37.823" lon="145.35069000000001">
    <ele>447.57</ele>
   </trkpt>
   <trkpt lat="-37.82343" lon="145.35046">
    <ele>444.58000000000004</ele>
   </trkpt>
   <trkpt lat="-37.8237" lon="145.35025000000002">
    <ele>443.19</ele>
   </trkpt>
   <trkpt lat="-37.823875001973626" lon="145.34956000178963">
    <ele>429.1</ele>
   </trkpt>
   <trkpt lat="-37.82405" lon="145.34887">
    <ele>423.32</ele>
   </trkpt>
   <trkpt lat="-37.82455500267554" lon="145.348075005434">
    <ele>415.96000000000004</ele>
   </trkpt>
   <trkpt lat="-37.82506" lon="145.34728">
    <ele>395.18</ele>
   </trkpt>
   <trkpt lat="-37.82531" lon="145.34704000000002">
    <ele>385.89</ele>
   </trkpt>
   <trkpt lat="-37.82569" lon="145.34635">
    <ele>369.86</ele>
   </trkpt>
   <trkpt lat="-37.82627" lon="145.34583">
    <ele>363.99</ele>
   </trkpt>
   <trkpt lat="-37.82656" lon="145.34569000000002">
    <ele>356.82</ele>
   </trkpt>
   <trkpt lat="-37.826800000000006" lon="145.34566">
    <ele>351.78000000000003</ele>
   </trkpt>
   <trkpt lat="-37.82755" lon="145.34513">
    <ele>340.63000000000005</ele>
   </trkpt>
   <trkpt lat="-37.82797" lon="145.34504">
    <ele>338.87</ele>
   </trkpt>
   <trkpt lat="-37.82844" lon="145.34486">
    <ele>340.41</ele>
   </trkpt>
   <trkpt lat="-37.82862" lon="145.34468">
    <ele>338.41</ele>
   </trkpt>
   <trkpt lat="-37.82891" lon="145.3443">
    <ele>329.08000000000004</ele>
   </trkpt>
   <trkpt lat="-37.82912" lon="145.34417000000002">
    <ele>324.15000000000003</ele>
   </trkpt>
   <trkpt lat="-37.82929" lon="145.34414">
    <ele>322.76000000000005</ele>
   </trkpt>
   <trkpt lat="-37.829620000000006" lon="145.34424">
    <ele>326.74</ele>
   </trkpt>
   <trkpt lat="-37.829930000000004" lon="145.34408000000002">
    <ele>329.88</ele>
   </trkpt>
   <trkpt lat="-37.83034" lon="145.34411">
    <ele>335.93</ele>
   </trkpt>
   <trkpt lat="-37.83095" lon="145.34385">
    <ele>333.81000000000006</ele>
   </trkpt>
   <trkpt lat="-37.83113" lon="145.34359">
    <ele>333.43</ele>
   </trkpt>
   <trkpt lat="-37.83124" lon="145.34334">
    <ele>332.37000000000006</ele>
   </trkpt>
   <trkpt lat="-37.83144" lon="145.34259">
    <ele>331.24</ele>
   </trkpt>
   <trkpt lat="-37.83153" lon="145.3424">
    <ele>330.71</ele>
   </trkpt>
   <trkpt lat="-37.83164" lon="145.34225">
    <ele>330.77</ele>
   </trkpt>
   <trkpt lat="-37.83169" lon="145.34243">
    <ele>336.81000000000006</ele>
   </trkpt>
   <trkpt lat="-37.83162" lon="145.34344000000002">
    <ele>350.17</ele>
   </trkpt>
   <trkpt lat="-37.8316" lon="145.34351">
    <ele>351.05</ele>
   </trkpt>
   <trkpt lat="-37.83142" lon="145.34377">
    <ele>354.25</ele>
   </trkpt>
   <trkpt lat="-37.83144" lon="145.34383000000003">
    <ele>354.25</ele>
   </trkpt>
   <trkpt lat="-37.83151" lon="145.34382000000002">
    <ele>360.05</ele>
   </trkpt>
   <trkpt lat="-37.83175" lon="145.34362000000002">
    <ele>364.3</ele>
   </trkpt>
   <trkpt lat="-37.83202" lon="145.34352">
    <ele>371.31</ele>
   </trkpt>
   <trkpt lat="-37.832240000000006" lon="145.34348">
    <ele>375.37</ele>
   </trkpt>
   <trkpt lat="-37.83258" lon="145.34358">
    <ele>387.85</ele>
   </trkpt>
   <trkpt lat="-37.83272" lon="145.3436">
    <ele>394.13000000000005</ele>
   </trkpt>
   <trkpt lat="-37.833180000000006" lon="145.34378">
    <ele>407.23</ele>
   </trkpt>
   <trkpt lat="-37.83334" lon="145.34378">
    <ele>409.12</ele>
   </trkpt>
   <trkpt lat="-37.8335" lon="145.34375">
    <ele>411.08000000000004</ele>
   </trkpt>
   <trkpt lat="-37.83375" lon="145.34368">
    <ele>414.58000000000004</ele>
   </trkpt>
   <trkpt lat="-37.83381" lon="145.34364000000002">
    <ele>415.06000000000006</ele>
   </trkpt>
   <trkpt lat="-37.8339" lon="145.34354000000002">
    <ele>415.86</ele>
   </trkpt>
   <trkpt lat="-37.83408" lon="145.34327000000002">
    <ele>417.93</ele>
   </trkpt>
   <trkpt lat="-37.83428" lon="145.34307">
    <ele>420.49</ele>
   </trkpt>
   <trkpt lat="-37.83449" lon="145.34293000000002">
    <ele>422.44000000000005</ele>
   </trkpt>
   <trkpt lat="-37.83471" lon="145.34282000000002">
    <ele>425.33000000000004</ele>
   </trkpt>
   <trkpt lat="-37.835" lon="145.34276">
    <ele>430.39000000000004</ele>
   </trkpt>
   <trkpt lat="-37.8354" lon="145.34276">
    <ele>435.56000000000006</ele>
   </trkpt>
   <trkpt lat="-37.83578" lon="145.34279">
    <ele>441.51</ele>
   </trkpt>
   <trkpt lat="-37.8361" lon="145.34279">
    <ele>444.81</ele>
   </trkpt>
   <trkpt lat="-37.83659" lon="145.34271">
    <ele>448.92</ele>
   </trkpt>
   <trkpt lat="-37.83666" lon="145.34268">
    <ele>449.42</ele>
   </trkpt>
   <trkpt lat="-37.83679" lon="145.34257000000002">
    <ele>450.47</ele>
   </trkpt>
   <trkpt lat="-37.83684" lon="145.34255000000002">
    <ele>451.26000000000005</ele>
   </trkpt>
   <trkpt lat="-37.83699" lon="145.34254">
    <ele>452.88000000000005</ele>
   </trkpt>
   <trkpt lat="-37.83746" lon="145.34274000000002">
    <ele>460.01000000000005</ele>
   </trkpt>
   <trkpt lat="-37.8376" lon="145.34282000000002">
    <ele>462.51000000000005</ele>
   </trkpt>
   <trkpt lat="-37.83789" lon="145.34306">
    <ele>466.88</ele>
   </trkpt>
   <trkpt lat="-37.83807" lon="145.34326000000001">
    <ele>471.54</ele>
   </trkpt>
   <trkpt lat="-37.83818" lon="145.34336000000002">
    <ele>473.16</ele>
   </trkpt>
   <trkpt lat="-37.8384" lon="145.34348">
    <ele>474.64000000000004</ele>
   </trkpt>
   <trkpt lat="-37.83854" lon="145.34353000000002">
    <ele>474.37</ele>
   </trkpt>
   <trkpt lat="-37.83874" lon="145.34358">
    <ele>473.28000000000003</ele>
   </trkpt>
   <trkpt lat="-37.8391" lon="145.34374000000003">
    <ele>469.61</ele>
   </trkpt>
   <trkpt lat="-37.83966" lon="145.34384">
    <ele>468.35</ele>
   </trkpt>
   <trkpt lat="-37.84024" lon="145.34384">
    <ele>467.89000000000004</ele>
   </trkpt>
   <trkpt lat="-37.84057" lon="145.34386">
    <ele>465.95000000000005</ele>
   </trkpt>
   <trkpt lat="-37.84091" lon="145.34394">
    <ele>463.14000000000004</ele>
   </trkpt>
   <trkpt lat="-37.84125" lon="145.34408000000002">
    <ele>460.82000000000005</ele>
   </trkpt>
   <trkpt lat="-37.84163" lon="145.34426000000002">
    <ele>458.3</ele>
   </trkpt>
   <trkpt lat="-37.84183" lon="145.34441">
    <ele>456.97</ele>
   </trkpt>
   <trkpt lat="-37.842040000000004" lon="145.34463000000002">
    <ele>456.63000000000005</ele>
   </trkpt>
   <trkpt lat="-37.84221" lon="145.34493">
    <ele>455.67</ele>
   </trkpt>
   <trkpt lat="-37.8423" lon="145.34518">
    <ele>455.35</ele>
   </trkpt>
   <trkpt lat="-37.84239" lon="145.34554">
    <ele>454.33</ele>
   </trkpt>
   <trkpt lat="-37.84241" lon="145.34594">
    <ele>453.16</ele>
   </trkpt>
   <trkpt lat="-37.84239" lon="145.34612">
    <ele>452.12</ele>
   </trkpt>
   <trkpt lat="-37.8423" lon="145.34661">
    <ele>450.70000000000005</ele>
   </trkpt>
   <trkpt lat="-37.84228" lon="145.3468">
    <ele>449.54</ele>
   </trkpt>
   <trkpt lat="-37.8423" lon="145.34731000000002">
    <ele>447.46000000000004</ele>
   </trkpt>
   <trkpt lat="-37.8423" lon="145.34775000000002">
    <ele>444.66</ele>
   </trkpt>
   <trkpt lat="-37.84225" lon="145.34794000000002">
    <ele>444.11000000000007</ele>
   </trkpt>
   <trkpt lat="-37.84219" lon="145.34804000000003">
    <ele>443.64000000000004</ele>
   </trkpt>
   <trkpt lat="-37.84201" lon="145.34824">
    <ele>442.74</ele>
   </trkpt>
   <trkpt lat="-37.84194" lon="145.34835">
    <ele>442.37</ele>
   </trkpt>
   <trkpt lat="-37.84183" lon="145.34872000000001">
    <ele>441.73</ele>
   </trkpt>
   <trkpt lat="-37.84185" lon="145.34889">
    <ele>441.37</ele>
   </trkpt>
   <trkpt lat="-37.84176" lon="145.34928000000002">
    <ele>452.3</ele>
   </trkpt>
   <trkpt lat="-37.84179" lon="145.34944000000002">
    <ele>452.19000000000005</ele>
   </trkpt>
   <trkpt lat="-37.84196" lon="145.34958">
    <ele>450.52000000000004</ele>
   </trkpt>
   <trkpt lat="-37.84219" lon="145.34969">
    <ele>449.79</ele>
   </trkpt>
   <trkpt lat="-37.84262500025573" lon="145.34986999898746">
    <ele>444.72</ele>
   </trkpt>
   <trkpt lat="-37.84306" lon="145.35005">
    <ele>441.91</ele>
   </trkpt>
   <trkpt lat="-37.84355" lon="145.35018000000002">
    <ele>438.22</ele>
   </trkpt>
   <trkpt lat="-37.84409" lon="145.35022">
    <ele>436.43</ele>
   </trkpt>
   <trkpt lat="-37.844440000000006" lon="145.35021">
    <ele>434.33000000000004</ele>
   </trkpt>
   <trkpt lat="-37.84493500020032" lon="145.35014000044447">
    <ele>428.37</ele>
   </trkpt>
   <trkpt lat="-37.84543" lon="145.35007000000002">
    <ele>425.1</ele>
   </trkpt>
   <trkpt lat="-37.84573" lon="145.35005">
    <ele>425.12000000000006</ele>
   </trkpt>
   <trkpt lat="-37.84575" lon="145.35005">
    <ele>425.14</ele>
   </trkpt>
   <trkpt lat="-37.84653" lon="145.35004">
    <ele>418.19000000000005</ele>
   </trkpt>
   <trkpt lat="-37.84678" lon="145.35007000000002">
    <ele>417.22</ele>
   </trkpt>
   <trkpt lat="-37.84695" lon="145.35014">
    <ele>417.35</ele>
   </trkpt>
   <trkpt lat="-37.8472" lon="145.35029">
    <ele>418.83000000000004</ele>
   </trkpt>
   <trkpt lat="-37.84767" lon="145.35063000000002">
    <ele>422.95000000000005</ele>
   </trkpt>
   <trkpt lat="-37.84792" lon="145.35087000000001">
    <ele>423.38000000000005</ele>
   </trkpt>
   <trkpt lat="-37.84819" lon="145.35123000000002">
    <ele>426.63</ele>
   </trkpt>
   <trkpt lat="-37.84845" lon="145.35175">
    <ele>430.90000000000003</ele>
   </trkpt>
   <trkpt lat="-37.8485" lon="145.35187000000002">
    <ele>431.82000000000005</ele>
   </trkpt>
   <trkpt lat="-37.848670000000006" lon="145.35243">
    <ele>437.91</ele>
   </trkpt>
   <trkpt lat="-37.84877" lon="145.35304000000002">
    <ele>442.57</ele>
   </trkpt>
   <trkpt lat="-37.84884" lon="145.35374000000002">
    <ele>446.45</ele>
   </trkpt>
   <trkpt lat="-37.84881" lon="145.35385000000002">
    <ele>447.46000000000004</ele>
   </trkpt>
   <trkpt lat="-37.84863" lon="145.35433">
    <ele>451.84000000000003</ele>
   </trkpt>
   <trkpt lat="-37.84852" lon="145.35456000000002">
    <ele>452.09000000000003</ele>
   </trkpt>
   <trkpt lat="-37.84839" lon="145.35525">
    <ele>446.38000000000005</ele>
   </trkpt>
   <trkpt lat="-37.84814" lon="145.3557">
    <ele>444.59000000000003</ele>
   </trkpt>
   <trkpt lat="-37.84812" lon="145.35582000000002">
    <ele>445.21000000000004</ele>
   </trkpt>
   <trkpt lat="-37.84814" lon="145.35590000000002">
    <ele>446.08000000000004</ele>
   </trkpt>
   <trkpt lat="-37.84821" lon="145.35601">
    <ele>446.71000000000004</ele>
   </trkpt>
   <trkpt lat="-37.84859" lon="145.35638">
    <ele>443.34</ele>
   </trkpt>
   <trkpt lat="-37.84866" lon="145.35649">
    <ele>443.34</ele>
   </trkpt>
   <trkpt lat="-37.8487" lon="145.35663000000002">
    <ele>442.39000000000004</ele>
   </trkpt>
   <trkpt lat="-37.84872" lon="145.35680000000002">
    <ele>441.66</ele>
   </trkpt>
   <trkpt lat="-37.84877" lon="145.35692">
    <ele>440.72</ele>
   </trkpt>
   <trkpt lat="-37.84886" lon="145.35699000000002">
    <ele>438.33000000000004</ele>
   </trkpt>
   <trkpt lat="-37.84895" lon="145.35702">
    <ele>435.57</ele>
   </trkpt>
   <trkpt lat="-37.84951" lon="145.35711">
    <ele>427.24</ele>
   </trkpt>
   <trkpt lat="-37.849700000000006" lon="145.35709">
    <ele>422.93</ele>
   </trkpt>
   <trkpt lat="-37.84998" lon="145.35682">
    <ele>415.91</ele>
   </trkpt>
   <trkpt lat="-37.85009" lon="145.35676">
    <ele>415.63000000000005</ele>
   </trkpt>
   <trkpt lat="-37.85054" lon="145.35639">
    <ele>419.68000000000006</ele>
   </trkpt>
   <trkpt lat="-37.85083" lon="145.35617000000002">
    <ele>419.48</ele>
   </trkpt>
   <trkpt lat="-37.85101" lon="145.35612">
    <ele>419.48</ele>
   </trkpt>
   <trkpt lat="-37.851480000049214" lon="145.35608500021982">
    <ele>419.01000000000005</ele>
   </trkpt>
   <trkpt lat="-37.85195" lon="145.35605">
    <ele>424.8</ele>
   </trkpt>
   <trkpt lat="-37.8526" lon="145.35617000000002">
    <ele>441.74</ele>
   </trkpt>
   <trkpt lat="-37.852630000000005" lon="145.35616000000002">
    <ele>441.74</ele>
   </trkpt>
   <trkpt lat="-37.85264" lon="145.35616000000002">
    <ele>441.70000000000005</ele>
   </trkpt>
   <trkpt lat="-37.85284" lon="145.3561">
    <ele>446.01</ele>
   </trkpt>
   <trkpt lat="-37.85289" lon="145.35602">
    <ele>446.08000000000004</ele>
   </trkpt>
   <trkpt lat="-37.85298" lon="145.3556">
    <ele>445.38000000000005</ele>
   </trkpt>
   <trkpt lat="-37.853" lon="145.35505">
    <ele>442.58000000000004</ele>
   </trkpt>
   <trkpt lat="-37.85331" lon="145.35443">
    <ele>443.38000000000005</ele>
   </trkpt>
   <trkpt lat="-37.85342" lon="145.35415">
    <ele>447.11000000000007</ele>
   </trkpt>
   <trkpt lat="-37.85396" lon="145.35339000000002">
    <ele>453.17</ele>
   </trkpt>
   <trkpt lat="-37.854110000000006" lon="145.35328">
    <ele>455.56</ele>
   </trkpt>
   <trkpt lat="-37.854350000000004" lon="145.35299">
    <ele>460.01000000000005</ele>
   </trkpt>
   <trkpt lat="-37.85439" lon="145.35299">
    <ele>460.01000000000005</ele>
   </trkpt>
   <trkpt lat="-37.85452" lon="145.35320000000002">
    <ele>463.18</ele>
   </trkpt>
   <trkpt lat="-37.85457" lon="145.35319">
    <ele>464.31000000000006</ele>
   </trkpt>
   <trkpt lat="-37.854580000000006" lon="145.35318">
    <ele>464.31000000000006</ele>
   </trkpt>
   <trkpt lat="-37.85461" lon="145.35309">
    <ele>465.96000000000004</ele>
   </trkpt>
   <trkpt lat="-37.85461" lon="145.35294000000002">
    <ele>466.53000000000003</ele>
   </trkpt>
   <trkpt lat="-37.85466" lon="145.35276000000002">
    <ele>468.55</ele>
   </trkpt>
   <trkpt lat="-37.85472" lon="145.3527">
    <ele>471.67</ele>
   </trkpt>
   <trkpt lat="-37.85486" lon="145.3523">
    <ele>475.79</ele>
   </trkpt>
   <trkpt lat="-37.855140000000006" lon="145.35198000000003">
    <ele>484.41</ele>
   </trkpt>
   <trkpt lat="-37.85521" lon="145.35193">
    <ele>485.28000000000003</ele>
   </trkpt>
   <trkpt lat="-37.85526" lon="145.35179000000002">
    <ele>487.19000000000005</ele>
   </trkpt>
   <trkpt lat="-37.85528" lon="145.35168000000002">
    <ele>488.30000000000007</ele>
   </trkpt>
   <trkpt lat="-37.855470000000004" lon="145.35148">
    <ele>490.67</ele>
   </trkpt>
   <trkpt lat="-37.85592000172204" lon="145.3521049962824">
    <ele>500.78</ele>
   </trkpt>
   <trkpt lat="-37.856370000000005" lon="145.35273">
    <ele>513.29</ele>
   </trkpt>
   <trkpt lat="-37.85674" lon="145.35330000000002">
    <ele>525.21</ele>
   </trkpt>
   <trkpt lat="-37.85703" lon="145.35389">
    <ele>539.42</ele>
   </trkpt>
   <trkpt lat="-37.85703" lon="145.35401000000002">
    <ele>542.9000000000001</ele>
   </trkpt>
   <trkpt lat="-37.85685" lon="145.35449">
    <ele>552.59</ele>
   </trkpt>
   <trkpt lat="-37.8568" lon="145.35479">
    <ele>555.58</ele>
   </trkpt>
   <trkpt lat="-37.85681" lon="145.35496">
    <ele>560.13</ele>
   </trkpt>
   <trkpt lat="-37.85683" lon="145.35502000000002">
    <ele>560.13</ele>
   </trkpt>
   <trkpt lat="-37.85718" lon="145.35543">
    <ele>571.09</ele>
   </trkpt>
   <trkpt lat="-37.8573" lon="145.35565000000003">
    <ele>574.5600000000001</ele>
   </trkpt>
   <trkpt lat="-37.85725" lon="145.35582000000002">
    <ele>574.77</ele>
   </trkpt>
   <trkpt lat="-37.8573" lon="145.35599000000002">
    <ele>574.49</ele>
   </trkpt>
   <trkpt lat="-37.85727" lon="145.35607000000002">
    <ele>574.3100000000001</ele>
   </trkpt>
   <trkpt lat="-37.85727" lon="145.35627000000002">
    <ele>573.3900000000001</ele>
   </trkpt>
   <trkpt lat="-37.85718" lon="145.35671000000002">
    <ele>569.55</ele>
   </trkpt>
   <trkpt lat="-37.85705" lon="145.35702">
    <ele>568.08</ele>
   </trkpt>
   <trkpt lat="-37.85703" lon="145.35715000000002">
    <ele>567.85</ele>
   </trkpt>
   <trkpt lat="-37.85698" lon="145.35725000000002">
    <ele>567.21</ele>
   </trkpt>
   <trkpt lat="-37.85671" lon="145.35748">
    <ele>561.2900000000001</ele>
   </trkpt>
   <trkpt lat="-37.8566" lon="145.35786000000002">
    <ele>560.88</ele>
   </trkpt>
   <trkpt lat="-37.85633" lon="145.35812">
    <ele>561.61</ele>
   </trkpt>
   <trkpt lat="-37.85618" lon="145.35822000000002">
    <ele>560.98</ele>
   </trkpt>
   <trkpt lat="-37.85571" lon="145.35829">
    <ele>556.39</ele>
   </trkpt>
   <trkpt lat="-37.85553" lon="145.35828">
    <ele>553.33</ele>
   </trkpt>
   <trkpt lat="-37.8553" lon="145.35817">
    <ele>547.5699999999999</ele>
   </trkpt>
   <trkpt lat="-37.85513" lon="145.358">
    <ele>538.4100000000001</ele>
   </trkpt>
   <trkpt lat="-37.85492" lon="145.35791">
    <ele>531.97</ele>
   </trkpt>
   <trkpt lat="-37.85461" lon="145.35797000000002">
    <ele>524.57</ele>
   </trkpt>
   <trkpt lat="-37.8545" lon="145.35797000000002">
    <ele>523.7900000000001</ele>
   </trkpt>
   <trkpt lat="-37.85432" lon="145.3581">
    <ele>522.36</ele>
   </trkpt>
   <trkpt lat="-37.85423" lon="145.35841000000002">
    <ele>527.3100000000001</ele>
   </trkpt>
   <trkpt lat="-37.85421" lon="145.35869000000002">
    <ele>531.51</ele>
   </trkpt>
   <trkpt lat="-37.85405" lon="145.35908">
    <ele>538.3</ele>
   </trkpt>
   <trkpt lat="-37.85403" lon="145.35922000000002">
    <ele>540.32</ele>
   </trkpt>
   <trkpt lat="-37.854020000000006" lon="145.35943">
    <ele>542.5699999999999</ele>
   </trkpt>
   <trkpt lat="-37.85394" lon="145.35982">
    <ele>545.5300000000001</ele>
   </trkpt>
   <trkpt lat="-37.85389" lon="145.35997">
    <ele>546.39</ele>
   </trkpt>
   <trkpt lat="-37.85403" lon="145.36014">
    <ele>551.6300000000001</ele>
   </trkpt>
   <trkpt lat="-37.854555001283956" lon="145.3607099958432">
    <ele>562.28</ele>
   </trkpt>
   <trkpt lat="-37.85508" lon="145.36128000000002">
    <ele>567.5400000000001</ele>
   </trkpt>
   <trkpt lat="-37.855470000000004" lon="145.36163000000002">
    <ele>572.99</ele>
   </trkpt>
   <trkpt lat="-37.855870000719825" lon="145.36204999769367">
    <ele>576.46</ele>
   </trkpt>
   <trkpt lat="-37.85627" lon="145.36247">
    <ele>581.5100000000001</ele>
   </trkpt>
   <trkpt lat="-37.85611500276215" lon="145.36327500157802">
    <ele>577.57</ele>
   </trkpt>
   <trkpt lat="-37.85596" lon="145.36408">
    <ele>574.45</ele>
   </trkpt>
   <trkpt lat="-37.856010000000005" lon="145.36421">
    <ele>573.1700000000001</ele>
   </trkpt>
   <trkpt lat="-37.856010000000005" lon="145.36439000000001">
    <ele>571.8000000000001</ele>
   </trkpt>
   <trkpt lat="-37.855900000000005" lon="145.36436">
    <ele>571.6</ele>
   </trkpt>
   <trkpt lat="-37.855722510680565" lon="145.36527750661614">
    <ele>571.07</ele>
   </trkpt>
   <trkpt lat="-37.855545014242175" lon="145.366195008814">
    <ele>572.8700000000001</ele>
   </trkpt>
   <trkpt lat="-37.855367510684886" lon="145.36711250659351">
    <ele>573.5300000000001</ele>
   </trkpt>
   <trkpt lat="-37.85519" lon="145.36803">
    <ele>573.3000000000001</ele>
   </trkpt>
   <trkpt lat="-37.8551" lon="145.36824000000001">
    <ele>572.6800000000001</ele>
   </trkpt>
   <trkpt lat="-37.85499" lon="145.36845000000002">
    <ele>572.52</ele>
   </trkpt>
   <trkpt lat="-37.854580000000006" lon="145.36896000000002">
    <ele>572.3000000000001</ele>
   </trkpt>
   <trkpt lat="-37.85445" lon="145.36905000000002">
    <ele>572.46</ele>
   </trkpt>
   <trkpt lat="-37.85421" lon="145.36937">
    <ele>573.08</ele>
   </trkpt>
   <trkpt lat="-37.85419" lon="145.36952000000002">
    <ele>573.22</ele>
   </trkpt>
   <trkpt lat="-37.85412" lon="145.36953000000003">
    <ele>573.22</ele>
   </trkpt>
   <trkpt lat="-37.85401" lon="145.36961000000002">
    <ele>573.57</ele>
   </trkpt>
   <trkpt lat="-37.85398" lon="145.36955">
    <ele>573.57</ele>
   </trkpt>
   <trkpt lat="-37.85356" lon="145.36916000000002">
    <ele>580.23</ele>
   </trkpt>
   <trkpt lat="-37.8536" lon="145.36897000000002">
    <ele>583.0500000000001</ele>
   </trkpt>
   <trkpt lat="-37.85369" lon="145.36877">
    <ele>584.99</ele>
   </trkpt>
   <trkpt lat="-37.8538" lon="145.36865">
    <ele>578.88</ele>
   </trkpt>
   <trkpt lat="-37.853440000000006" lon="145.36847">
    <ele>578.99</ele>
   </trkpt>
   <trkpt lat="-37.85314" lon="145.36833000000001">
    <ele>578.43</ele>
   </trkpt>
   <trkpt lat="-37.853" lon="145.36804">
    <ele>578.48</ele>
   </trkpt>
   <trkpt lat="-37.85269" lon="145.36755000000002">
    <ele>578.33</ele>
   </trkpt>
   <trkpt lat="-37.85237" lon="145.36720000000003">
    <ele>578.6</ele>
   </trkpt>
   <trkpt lat="-37.852050000000006" lon="145.36663000000001">
    <ele>580.3000000000001</ele>
   </trkpt>
   <trkpt lat="-37.85174000000001" lon="145.36622">
    <ele>579.3600000000001</ele>
   </trkpt>
   <trkpt lat="-37.851397507400705" lon="145.36698251056885">
    <ele>576.2400000000001</ele>
   </trkpt>
   <trkpt lat="-37.851055009884746" lon="145.36774501405344">
    <ele>570.9000000000001</ele>
   </trkpt>
   <trkpt lat="-37.85071250745221" lon="145.3685075104539">
    <ele>564.99</ele>
   </trkpt>
   <trkpt lat="-37.850370000000005" lon="145.36927">
    <ele>557.76</ele>
   </trkpt>
   <trkpt lat="-37.85038" lon="145.36928">
    <ele>557.76</ele>
   </trkpt>
   <trkpt lat="-37.85018" lon="145.36971">
    <ele>551.09</ele>
   </trkpt>
   <trkpt lat="-37.84984" lon="145.37028">
    <ele>544.1100000000001</ele>
   </trkpt>
   <trkpt lat="-37.84971" lon="145.37062">
    <ele>542.5699999999999</ele>
   </trkpt>
   <trkpt lat="-37.84930000000001" lon="145.37141000000003">
    <ele>541.3800000000001</ele>
   </trkpt>
   <trkpt lat="-37.84915" lon="145.37173">
    <ele>540.83</ele>
   </trkpt>
   <trkpt lat="-37.84904" lon="145.37184000000002">
    <ele>540.0200000000001</ele>
   </trkpt>
   <trkpt lat="-37.84892" lon="145.3719">
    <ele>538.2800000000001</ele>
   </trkpt>
   <trkpt lat="-37.84824000014734" lon="145.3717833311871">
    <ele>531.0100000000001</ele>
   </trkpt>
   <trkpt lat="-37.847560000179584" lon="145.37166666452597">
    <ele>526.6200000000001</ele>
   </trkpt>
   <trkpt lat="-37.846880000000006" lon="145.37155">
    <ele>523.94</ele>
   </trkpt>
   <trkpt lat="-37.84638999972779" lon="145.37145499930858">
    <ele>522.84</ele>
   </trkpt>
   <trkpt lat="-37.8459" lon="145.37136">
    <ele>522.24</ele>
   </trkpt>
   <trkpt lat="-37.84518500021802" lon="145.371154998024">
    <ele>521.45</ele>
   </trkpt>
   <trkpt lat="-37.84447" lon="145.37095000000002">
    <ele>520.84</ele>
   </trkpt>
   <trkpt lat="-37.84436" lon="145.37089">
    <ele>520.84</ele>
   </trkpt>
   <trkpt lat="-37.84429" lon="145.37084000000002">
    <ele>520.5200000000001</ele>
   </trkpt>
   <trkpt lat="-37.8438" lon="145.37016">
    <ele>516.33</ele>
   </trkpt>
   <trkpt lat="-37.84362" lon="145.36972">
    <ele>512.54</ele>
   </trkpt>
   <trkpt lat="-37.84299500154104" lon="145.36909999466238">
    <ele>501.39</ele>
   </trkpt>
   <trkpt lat="-37.84237" lon="145.36848">
    <ele>493.37</ele>
   </trkpt>
   <trkpt lat="-37.84223" lon="145.36838">
    <ele>491.91</ele>
   </trkpt>
   <trkpt lat="-37.84181" lon="145.36819">
    <ele>486.05</ele>
   </trkpt>
   <trkpt lat="-37.84169" lon="145.36817000000002">
    <ele>484.43</ele>
   </trkpt>
   <trkpt lat="-37.84096" lon="145.36811">
    <ele>476.02000000000004</ele>
   </trkpt>
   <trkpt lat="-37.840970000000006" lon="145.36842000000001">
    <ele>474.70000000000005</ele>
   </trkpt>
   <trkpt lat="-37.84087" lon="145.36892">
    <ele>472.16</ele>
   </trkpt>
   <trkpt lat="-37.84057" lon="145.36894">
    <ele>467.67</ele>
   </trkpt>
   <trkpt lat="-37.84022" lon="145.36902">
    <ele>463.3</ele>
   </trkpt>
   <trkpt lat="-37.83999" lon="145.36903">
    <ele>461.03000000000003</ele>
   </trkpt>
   <trkpt lat="-37.839940000000006" lon="145.36906000000002">
    <ele>459.85</ele>
   </trkpt>
   <trkpt lat="-37.83975" lon="145.36926000000003">
    <ele>455.98</ele>
   </trkpt>
   <trkpt lat="-37.839560000000006" lon="145.36941000000002">
    <ele>450.47</ele>
   </trkpt>
   <trkpt lat="-37.8391" lon="145.36968000000002">
    <ele>445.38000000000005</ele>
   </trkpt>
   <trkpt lat="-37.83885" lon="145.3698">
    <ele>442.27000000000004</ele>
   </trkpt>
   <trkpt lat="-37.83869" lon="145.36991">
    <ele>440.3</ele>
   </trkpt>
   <trkpt lat="-37.83849" lon="145.36997000000002">
    <ele>436.43</ele>
   </trkpt>
   <trkpt lat="-37.83798" lon="145.37023000000002">
    <ele>430.2900000000001</ele>
   </trkpt>
   <trkpt lat="-37.83769" lon="145.37040000000002">
    <ele>430.69</ele>
   </trkpt>
   <trkpt lat="-37.83737" lon="145.37053">
    <ele>433.83000000000004</ele>
   </trkpt>
   <trkpt lat="-37.83701000000001" lon="145.37063">
    <ele>434.2300000000001</ele>
   </trkpt>
   <trkpt lat="-37.83706" lon="145.3701">
    <ele>437.84000000000003</ele>
   </trkpt>
   <trkpt lat="-37.83719" lon="145.36971">
    <ele>442.47</ele>
   </trkpt>
   <trkpt lat="-37.83719" lon="145.36952000000002">
    <ele>443.97</ele>
   </trkpt>
   <trkpt lat="-37.83708" lon="145.36950000000002">
    <ele>443.36</ele>
   </trkpt>
   <trkpt lat="-37.8369" lon="145.36938">
    <ele>442.15000000000003</ele>
   </trkpt>
   <trkpt lat="-37.8367" lon="145.36918">
    <ele>441.00000000000006</ele>
   </trkpt>
   <trkpt lat="-37.83628" lon="145.36864">
    <ele>436.20000000000005</ele>
   </trkpt>
   <trkpt lat="-37.83583" lon="145.36804">
    <ele>430.22</ele>
   </trkpt>
   <trkpt lat="-37.83560000000001" lon="145.3675">
    <ele>426.86</ele>
   </trkpt>
   <trkpt lat="-37.83554" lon="145.36737000000002">
    <ele>426.04</ele>
   </trkpt>
   <trkpt lat="-37.83545" lon="145.36728000000002">
    <ele>425.62000000000006</ele>
   </trkpt>
   <trkpt lat="-37.83536" lon="145.36729000000003">
    <ele>425.42</ele>
   </trkpt>
   <trkpt lat="-37.83527" lon="145.36734">
    <ele>425.58</ele>
   </trkpt>
   <trkpt lat="-37.835190000000004" lon="145.36743">
    <ele>425.93</ele>
   </trkpt>
   <trkpt lat="-37.83509" lon="145.3673">
    <ele>427.02</ele>
   </trkpt>
   <trkpt lat="-37.83482" lon="145.36722">
    <ele>430.99</ele>
   </trkpt>
   <trkpt lat="-37.83469" lon="145.36711000000003">
    <ele>432.78000000000003</ele>
   </trkpt>
   <trkpt lat="-37.8344" lon="145.36679">
    <ele>438.89000000000004</ele>
   </trkpt>
   <trkpt lat="-37.83431" lon="145.36658">
    <ele>441.71000000000004</ele>
   </trkpt>
   <trkpt lat="-37.83419" lon="145.36644">
    <ele>443.97</ele>
   </trkpt>
   <trkpt lat="-37.8337" lon="145.36607">
    <ele>450.28000000000003</ele>
   </trkpt>
   <trkpt lat="-37.83341" lon="145.3658">
    <ele>453.46000000000004</ele>
   </trkpt>
   <trkpt lat="-37.833090000000006" lon="145.36562">
    <ele>458.27</ele>
   </trkpt>
   <trkpt lat="-37.83305" lon="145.36561">
    <ele>458.81000000000006</ele>
   </trkpt>
   <trkpt lat="-37.83276" lon="145.3656">
    <ele>463.29</ele>
   </trkpt>
   <trkpt lat="-37.832710000000006" lon="145.36564">
    <ele>464.49</ele>
   </trkpt>
   <trkpt lat="-37.83252" lon="145.36566000000002">
    <ele>465.9200000000001</ele>
   </trkpt>
   <trkpt lat="-37.8324" lon="145.36562">
    <ele>467.99</ele>
   </trkpt>
   <trkpt lat="-37.83207" lon="145.36518">
    <ele>474.9200000000001</ele>
   </trkpt>
   <trkpt lat="-37.83196" lon="145.36511000000002">
    <ele>477.93</ele>
   </trkpt>
   <trkpt lat="-37.83164" lon="145.365">
    <ele>481.71000000000004</ele>
   </trkpt>
   <trkpt lat="-37.83151" lon="145.36502000000002">
    <ele>482.48</ele>
   </trkpt>
   <trkpt lat="-37.83144" lon="145.36499">
    <ele>482.93</ele>
   </trkpt>
   <trkpt lat="-37.83124" lon="145.36485000000002">
    <ele>485.52000000000004</ele>
   </trkpt>
   <trkpt lat="-37.83113" lon="145.36483">
    <ele>486.67</ele>
   </trkpt>
   <trkpt lat="-37.83059" lon="145.36461">
    <ele>486.96000000000004</ele>
   </trkpt>
   <trkpt lat="-37.8305" lon="145.36453">
    <ele>487.04</ele>
   </trkpt>
   <trkpt lat="-37.83034" lon="145.36452">
    <ele>487.06000000000006</ele>
   </trkpt>
   <trkpt lat="-37.830180000000006" lon="145.36430000000001">
    <ele>488.08</ele>
   </trkpt>
   <trkpt lat="-37.82967" lon="145.3639">
    <ele>489.97</ele>
   </trkpt>
   <trkpt lat="-37.82945" lon="145.36360000000002">
    <ele>492.28000000000003</ele>
   </trkpt>
   <trkpt lat="-37.828860000000006" lon="145.36302">
    <ele>493.34000000000003</ele>
   </trkpt>
   <trkpt lat="-37.8286" lon="145.36275">
    <ele>493.99</ele>
   </trkpt>
   <trkpt lat="-37.82842" lon="145.36245000000002">
    <ele>494.11</ele>
   </trkpt>
   <trkpt lat="-37.8284" lon="145.36231">
    <ele>495.08</ele>
   </trkpt>
   <trkpt lat="-37.82842" lon="145.3622">
    <ele>495.21000000000004</ele>
   </trkpt>
   <trkpt lat="-37.8284" lon="145.36201">
    <ele>494.47</ele>
   </trkpt>
   <trkpt lat="-37.82836" lon="145.36187">
    <ele>494.31</ele>
   </trkpt>
   <trkpt lat="-37.82831" lon="145.36178">
    <ele>494.38000000000005</ele>
   </trkpt>
   <trkpt lat="-37.82824" lon="145.36177">
    <ele>494.38000000000005</ele>
   </trkpt>
   <trkpt lat="-37.828210000000006" lon="145.3615">
    <ele>494.95000000000005</ele>
   </trkpt>
   <trkpt lat="-37.82826" lon="145.36134">
    <ele>495.90000000000003</ele>
   </trkpt>
   <trkpt lat="-37.82824" lon="145.36102000000002">
    <ele>500.45000000000005</ele>
   </trkpt>
   <trkpt lat="-37.82831" lon="145.36064000000002">
    <ele>504.28000000000003</ele>
   </trkpt>
   <trkpt lat="-37.82831" lon="145.36051">
    <ele>507.72</ele>
   </trkpt>
   <trkpt lat="-37.828300000000006" lon="145.36042">
    <ele>507.72</ele>
   </trkpt>
   <trkpt lat="-37.828210000000006" lon="145.36031">
    <ele>510.83</ele>
   </trkpt>
   <trkpt lat="-37.82804" lon="145.36018">
    <ele>515.5500000000001</ele>
   </trkpt>
   <trkpt lat="-37.82788" lon="145.35998">
    <ele>510.18000000000006</ele>
   </trkpt>
   <trkpt lat="-37.828030000000005" lon="145.35981">
    <ele>510.11000000000007</ele>
   </trkpt>
   <trkpt lat="-37.82802" lon="145.35974000000002">
    <ele>511.68</ele>
   </trkpt>
   <trkpt lat="-37.82797" lon="145.35967000000002">
    <ele>515.19</ele>
   </trkpt>
   <trkpt lat="-37.82786" lon="145.3596">
    <ele>523.1</ele>
   </trkpt>
   <trkpt lat="-37.82772000000001" lon="145.35955">
    <ele>526.85</ele>
   </trkpt>
   <trkpt lat="-37.82728" lon="145.35929000000002">
    <ele>532.78</ele>
   </trkpt>
   <trkpt lat="-37.827180000000006" lon="145.35917">
    <ele>534.61</ele>
   </trkpt>
   <trkpt lat="-37.82705" lon="145.35911000000002">
    <ele>535.75</ele>
   </trkpt>
   <trkpt lat="-37.82694" lon="145.35909">
    <ele>536.6800000000001</ele>
   </trkpt>
   <trkpt lat="-37.82687" lon="145.35904000000002">
    <ele>537.9300000000001</ele>
   </trkpt>
   <trkpt lat="-37.82681" lon="145.35894000000002">
    <ele>538.6700000000001</ele>
   </trkpt>
   <trkpt lat="-37.82678000000001" lon="145.35874">
    <ele>542.63</ele>
   </trkpt>
   <trkpt lat="-37.82667" lon="145.35872">
    <ele>543.62</ele>
   </trkpt>
   <trkpt lat="-37.82645" lon="145.35860000000002">
    <ele>545.6800000000001</ele>
   </trkpt>
   <trkpt lat="-37.82614" lon="145.35836">
    <ele>549.1700000000001</ele>
   </trkpt>
   <trkpt lat="-37.82587" lon="145.35828">
    <ele>550.84</ele>
   </trkpt>
   <trkpt lat="-37.82567" lon="145.35817">
    <ele>553.06</ele>
   </trkpt>
   <trkpt lat="-37.82555" lon="145.35801">
    <ele>556.0500000000001</ele>
   </trkpt>
   <trkpt lat="-37.82549" lon="145.35781">
    <ele>558.9900000000001</ele>
   </trkpt>
   <trkpt lat="-37.82531" lon="145.35758">
    <ele>552.79</ele>
   </trkpt>
   <trkpt lat="-37.825250000000004" lon="145.35765">
    <ele>555.91</ele>
   </trkpt>
   <trkpt lat="-37.82524" lon="145.35717000000002">
    <ele>562.82</ele>
   </trkpt>
   <trkpt lat="-37.82526" lon="145.35688000000002">
    <ele>564.55</ele>
   </trkpt>
   <trkpt lat="-37.825320000000005" lon="145.35658">
    <ele>566.95</ele>
   </trkpt>
   <trkpt lat="-37.82504" lon="145.35681000000002">
    <ele>561.3900000000001</ele>
   </trkpt>
   <trkpt lat="-37.82493" lon="145.35696000000002">
    <ele>560.0</ele>
   </trkpt>
   <trkpt lat="-37.82419" lon="145.35738">
    <ele>547.52</ele>
   </trkpt>
   <trkpt lat="-37.8241" lon="145.35746">
    <ele>547.21</ele>
   </trkpt>
   <trkpt lat="-37.82383" lon="145.35781">
    <ele>548.5699999999999</ele>
   </trkpt>
   <trkpt lat="-37.82352" lon="145.35851000000002">
    <ele>551.89</ele>
   </trkpt>
   <trkpt lat="-37.82316" lon="145.35912000000002">
    <ele>543.97</ele>
   </trkpt>
   <trkpt lat="-37.82309" lon="145.35945">
    <ele>543.1100000000001</ele>
   </trkpt>
   <trkpt lat="-37.82279000151375" lon="145.36005500252674">
    <ele>540.7</ele>
   </trkpt>
   <trkpt lat="-37.82249" lon="145.36066000000002">
    <ele>539.84</ele>
   </trkpt>
   <trkpt lat="-37.82249" lon="145.36072000000001">
    <ele>540.4300000000001</ele>
   </trkpt>
   <trkpt lat="-37.82265" lon="145.36100000000002">
    <ele>546.42</ele>
   </trkpt>
   <trkpt lat="-37.82287" lon="145.36139">
    <ele>551.42</ele>
   </trkpt>
   <trkpt lat="-37.822900000000004" lon="145.36151">
    <ele>551.74</ele>
   </trkpt>
   <trkpt lat="-37.82289" lon="145.36159">
    <ele>551.74</ele>
   </trkpt>
   <trkpt lat="-37.82285" lon="145.36166">
    <ele>552.0400000000001</ele>
   </trkpt>
   <trkpt lat="-37.82278" lon="145.36171000000002">
    <ele>552.0400000000001</ele>
   </trkpt>
   <trkpt lat="-37.82269" lon="145.36171000000002">
    <ele>552.57</ele>
   </trkpt>
   <trkpt lat="-37.8226" lon="145.36174000000003">
    <ele>552.57</ele>
   </trkpt>
   <trkpt lat="-37.82251" lon="145.36179">
    <ele>552.7200000000001</ele>
   </trkpt>
   <trkpt lat="-37.822390000000006" lon="145.36191000000002">
    <ele>552.89</ele>
   </trkpt>
   <trkpt lat="-37.82204" lon="145.36202">
    <ele>553.44</ele>
   </trkpt>
   <trkpt lat="-37.82188" lon="145.36204">
    <ele>553.32</ele>
   </trkpt>
   <trkpt lat="-37.82173" lon="145.36202">
    <ele>552.85</ele>
   </trkpt>
   <trkpt lat="-37.82155" lon="145.36206">
    <ele>551.67</ele>
   </trkpt>
   <trkpt lat="-37.82112" lon="145.36202">
    <ele>544.62</ele>
   </trkpt>
   <trkpt lat="-37.82085" lon="145.36213">
    <ele>538.58</ele>
   </trkpt>
   <trkpt lat="-37.82079" lon="145.36214">
    <ele>532.93</ele>
   </trkpt>
   <trkpt lat="-37.82016" lon="145.36235000000002">
    <ele>512.5600000000001</ele>
   </trkpt>
   <trkpt lat="-37.81987" lon="145.36273">
    <ele>505.02000000000004</ele>
   </trkpt>
   <trkpt lat="-37.81958" lon="145.36325000000002">
    <ele>503.87</ele>
   </trkpt>
   <trkpt lat="-37.81949" lon="145.36317000000003">
    <ele>499.01000000000005</ele>
   </trkpt>
   <trkpt lat="-37.81942" lon="145.36305000000002">
    <ele>495.17</ele>
   </trkpt>
   <trkpt lat="-37.81926" lon="145.36299000000002">
    <ele>486.86</ele>
   </trkpt>
   <trkpt lat="-37.81911" lon="145.363">
    <ele>479.80000000000007</ele>
   </trkpt>
   <trkpt lat="-37.81897" lon="145.36294">
    <ele>475.39000000000004</ele>
   </trkpt>
   <trkpt lat="-37.81891" lon="145.36294">
    <ele>475.39000000000004</ele>
   </trkpt>
   <trkpt lat="-37.81884" lon="145.36299000000002">
    <ele>470.15</ele>
   </trkpt>
   <trkpt lat="-37.81877" lon="145.36299000000002">
    <ele>470.15</ele>
   </trkpt>
   <trkpt lat="-37.8183" lon="145.36328">
    <ele>462.68</ele>
   </trkpt>
   <trkpt lat="-37.817980000000006" lon="145.36344000000003">
    <ele>462.28000000000003</ele>
   </trkpt>
   <trkpt lat="-37.81779" lon="145.36370000000002">
    <ele>462.8</ele>
   </trkpt>
   <trkpt lat="-37.81765" lon="145.36397000000002">
    <ele>463.51000000000005</ele>
   </trkpt>
   <trkpt lat="-37.817600000000006" lon="145.36442000000002">
    <ele>464.97</ele>
   </trkpt>
   <trkpt lat="-37.817600000000006" lon="145.36507">
    <ele>466.4200000000001</ele>
   </trkpt>
   <trkpt lat="-37.81767" lon="145.36543">
    <ele>469.08000000000004</ele>
   </trkpt>
   <trkpt lat="-37.81765" lon="145.36558000000002">
    <ele>469.53000000000003</ele>
   </trkpt>
   <trkpt lat="-37.81774" lon="145.36581">
    <ele>470.33000000000004</ele>
   </trkpt>
   <trkpt lat="-37.81774" lon="145.36595">
    <ele>471.44</ele>
   </trkpt>
   <trkpt lat="-37.817690000000006" lon="145.36610000000002">
    <ele>472.19000000000005</ele>
   </trkpt>
   <trkpt lat="-37.817690000000006" lon="145.36609">
    <ele>472.20000000000005</ele>
   </trkpt>
   <trkpt lat="-37.817510000000006" lon="145.36671">
    <ele>470.31000000000006</ele>
   </trkpt>
   <trkpt lat="-37.817750000000004" lon="145.36672000000002">
    <ele>469.14000000000004</ele>
   </trkpt>
   <trkpt lat="-37.81776" lon="145.36664000000002">
    <ele>468.94</ele>
   </trkpt>
   <trkpt lat="-37.817840000000004" lon="145.3665">
    <ele>468.70000000000005</ele>
   </trkpt>
   <trkpt lat="-37.817980000000006" lon="145.36668">
    <ele>467.51000000000005</ele>
   </trkpt>
   <trkpt lat="-37.818070000000006" lon="145.36659">
    <ele>467.27</ele>
   </trkpt>
   <trkpt lat="-37.81815" lon="145.36668">
    <ele>467.12</ele>
   </trkpt>
   <trkpt lat="-37.818220000000004" lon="145.36668">
    <ele>467.18</ele>
   </trkpt>
   <trkpt lat="-37.81839" lon="145.36662">
    <ele>464.69000000000005</ele>
   </trkpt>
   <trkpt lat="-37.81873" lon="145.36637000000002">
    <ele>460.20000000000005</ele>
   </trkpt>
   <trkpt lat="-37.81882" lon="145.36634">
    <ele>458.05</ele>
   </trkpt>
   <trkpt lat="-37.819010000000006" lon="145.36635">
    <ele>457.02000000000004</ele>
   </trkpt>
   <trkpt lat="-37.81906" lon="145.36639000000002">
    <ele>455.55</ele>
   </trkpt>
   <trkpt lat="-37.81931" lon="145.36669">
    <ele>453.67</ele>
   </trkpt>
   <trkpt lat="-37.81949" lon="145.36685">
    <ele>450.07</ele>
   </trkpt>
   <trkpt lat="-37.819910000216005" lon="145.36709999854878">
    <ele>445.27000000000004</ele>
   </trkpt>
   <trkpt lat="-37.820330000000006" lon="145.36735000000002">
    <ele>437.84000000000003</ele>
   </trkpt>
   <trkpt lat="-37.82027" lon="145.36749">
    <ele>436.42</ele>
   </trkpt>
   <trkpt lat="-37.81989" lon="145.36791000000002">
    <ele>429.00000000000006</ele>
   </trkpt>
   <trkpt lat="-37.81971" lon="145.36796">
    <ele>426.84000000000003</ele>
   </trkpt>
   <trkpt lat="-37.81969" lon="145.36809000000002">
    <ele>425.83000000000004</ele>
   </trkpt>
   <trkpt lat="-37.81947" lon="145.36825000000002">
    <ele>424.50000000000006</ele>
   </trkpt>
   <trkpt lat="-37.81938" lon="145.36834000000002">
    <ele>423.22</ele>
   </trkpt>
   <trkpt lat="-37.8192" lon="145.36838">
    <ele>422.75</ele>
   </trkpt>
   <trkpt lat="-37.81897" lon="145.36854000000002">
    <ele>421.85</ele>
   </trkpt>
   <trkpt lat="-37.81882" lon="145.36880000000002">
    <ele>420.56000000000006</ele>
   </trkpt>
   <trkpt lat="-37.8187" lon="145.36887000000002">
    <ele>420.37</ele>
   </trkpt>
   <trkpt lat="-37.81859" lon="145.36884">
    <ele>420.71000000000004</ele>
   </trkpt>
   <trkpt lat="-37.81841" lon="145.36882">
    <ele>421.32</ele>
   </trkpt>
   <trkpt lat="-37.81806" lon="145.36912">
    <ele>427.03000000000003</ele>
   </trkpt>
   <trkpt lat="-37.81803" lon="145.36933000000002">
    <ele>428.7900000000001</ele>
   </trkpt>
   <trkpt lat="-37.81792" lon="145.36955">
    <ele>430.43</ele>
   </trkpt>
   <trkpt lat="-37.817890000000006" lon="145.36960000000002">
    <ele>430.56000000000006</ele>
   </trkpt>
   <trkpt lat="-37.81788" lon="145.36993">
    <ele>429.47</ele>
   </trkpt>
   <trkpt lat="-37.818070000000006" lon="145.37030000000001">
    <ele>421.11</ele>
   </trkpt>
   <trkpt lat="-37.8181" lon="145.37048000000001">
    <ele>418.64</ele>
   </trkpt>
   <trkpt lat="-37.81819" lon="145.37076000000002">
    <ele>416.38</ele>
   </trkpt>
   <trkpt lat="-37.81814" lon="145.371">
    <ele>415.35</ele>
   </trkpt>
   <trkpt lat="-37.81832" lon="145.37119">
    <ele>411.38</ele>
   </trkpt>
   <trkpt lat="-37.81839" lon="145.37130000000002">
    <ele>409.95000000000005</ele>
   </trkpt>
   <trkpt lat="-37.81841" lon="145.37143">
    <ele>409.44</ele>
   </trkpt>
   <trkpt lat="-37.81846" lon="145.37146">
    <ele>409.28000000000003</ele>
   </trkpt>
   <trkpt lat="-37.8185" lon="145.37158000000002">
    <ele>409.12</ele>
   </trkpt>
   <trkpt lat="-37.8185" lon="145.37183000000002">
    <ele>408.63000000000005</ele>
   </trkpt>
   <trkpt lat="-37.81875" lon="145.37217">
    <ele>405.35</ele>
   </trkpt>
   <trkpt lat="-37.81884" lon="145.37257000000002">
    <ele>406.11</ele>
   </trkpt>
   <trkpt lat="-37.81884" lon="145.37265000000002">
    <ele>406.51000000000005</ele>
   </trkpt>
   <trkpt lat="-37.81882" lon="145.37272000000002">
    <ele>406.62</ele>
   </trkpt>
   <trkpt lat="-37.81884" lon="145.37327000000002">
    <ele>406.98</ele>
   </trkpt>
   <trkpt lat="-37.81868" lon="145.37389000000002">
    <ele>410.02000000000004</ele>
   </trkpt>
   <trkpt lat="-37.818690000000004" lon="145.37392">
    <ele>410.04</ele>
   </trkpt>
   <trkpt lat="-37.81873" lon="145.37412">
    <ele>410.04</ele>
   </trkpt>
   <trkpt lat="-37.8187" lon="145.37428">
    <ele>409.84000000000003</ele>
   </trkpt>
   <trkpt lat="-37.81868" lon="145.37429">
    <ele>409.76</ele>
   </trkpt>
   <trkpt lat="-37.81866" lon="145.37460000000002">
    <ele>409.29</ele>
   </trkpt>
   <trkpt lat="-37.81866000137334" lon="145.37516999973354">
    <ele>408.94</ele>
   </trkpt>
   <trkpt lat="-37.81866" lon="145.37574">
    <ele>408.06</ele>
   </trkpt>
   <trkpt lat="-37.8187" lon="145.37608">
    <ele>408.55</ele>
   </trkpt>
   <trkpt lat="-37.81879" lon="145.37638">
    <ele>408.84000000000003</ele>
   </trkpt>
   <trkpt lat="-37.81884" lon="145.37678000000002">
    <ele>409.57000000000005</ele>
   </trkpt>
   <trkpt lat="-37.81884" lon="145.37714000000003">
    <ele>411.13000000000005</ele>
   </trkpt>
   <trkpt lat="-37.818895002218454" lon="145.37786499941572">
    <ele>415.37</ele>
   </trkpt>
   <trkpt lat="-37.81895" lon="145.37859">
    <ele>416.66</ele>
   </trkpt>
   <trkpt lat="-37.819" lon="145.37879">
    <ele>418.62000000000006</ele>
   </trkpt>
   <trkpt lat="-37.8192" lon="145.37943">
    <ele>421.49</ele>
   </trkpt>
   <trkpt lat="-37.81926" lon="145.37973000000002">
    <ele>423.61</ele>
   </trkpt>
   <trkpt lat="-37.81922" lon="145.37983">
    <ele>424.39000000000004</ele>
   </trkpt>
   <trkpt lat="-37.81911" lon="145.37999000000002">
    <ele>425.50000000000006</ele>
   </trkpt>
   <trkpt lat="-37.81879" lon="145.38028">
    <ele>426.64</ele>
   </trkpt>
   <trkpt lat="-37.81846" lon="145.38033000000001">
    <ele>427.36</ele>
   </trkpt>
   <trkpt lat="-37.81815" lon="145.38035000000002">
    <ele>428.52</ele>
   </trkpt>
   <trkpt lat="-37.81821" lon="145.37982000000002">
    <ele>430.76000000000005</ele>
   </trkpt>
   <trkpt lat="-37.81812" lon="145.37965">
    <ele>430.01000000000005</ele>
   </trkpt>
   <trkpt lat="-37.81803" lon="145.37954000000002">
    <ele>429.6</ele>
   </trkpt>
   <trkpt lat="-37.81796000000001" lon="145.37937000000002">
    <ele>428.7900000000001</ele>
   </trkpt>
   <trkpt lat="-37.817690000000006" lon="145.37876">
    <ele>426.2900000000001</ele>
   </trkpt>
   <trkpt lat="-37.81756" lon="145.37885">
    <ele>427.42</ele>
   </trkpt>
   <trkpt lat="-37.81761" lon="145.37902000000003">
    <ele>429.67</ele>
   </trkpt>
   <trkpt lat="-37.817550000000004" lon="145.37901000000002">
    <ele>430.1</ele>
   </trkpt>
   <trkpt lat="-37.81752" lon="145.37898">
    <ele>430.1</ele>
   </trkpt>
   <trkpt lat="-37.81743" lon="145.37873000000002">
    <ele>431.2900000000001</ele>
   </trkpt>
   <trkpt lat="-37.81727" lon="145.37852">
    <ele>432.62000000000006</ele>
   </trkpt>
   <trkpt lat="-37.81696" lon="145.37828000000002">
    <ele>435.22</ele>
   </trkpt>
   <trkpt lat="-37.81676" lon="145.37821000000002">
    <ele>436.07</ele>
   </trkpt>
   <trkpt lat="-37.81656" lon="145.37825">
    <ele>436.35</ele>
   </trkpt>
   <trkpt lat="-37.81642" lon="145.37833">
    <ele>436.11000000000007</ele>
   </trkpt>
   <trkpt lat="-37.81629" lon="145.37849">
    <ele>435.44000000000005</ele>
   </trkpt>
   <trkpt lat="-37.81617" lon="145.37872000000002">
    <ele>434.6</ele>
   </trkpt>
   <trkpt lat="-37.81613" lon="145.37898">
    <ele>433.63</ele>
   </trkpt>
   <trkpt lat="-37.8162" lon="145.37919000000002">
    <ele>433.78000000000003</ele>
   </trkpt>
   <trkpt lat="-37.816210000000005" lon="145.37949">
    <ele>434.11000000000007</ele>
   </trkpt>
  </trkseg>
 </trk>
</gpx>
