<?xml version="1.0" encoding="UTF-8"?>
<gpx creator="StravaGPX" version="1.1" xmlns="http://www.topografix.com/GPX/1/1" xmlns:xsi="http://www.w3.org/2001/XMLSchema-instance" xsi:schemaLocation="http://www.topografix.com/GPX/1/1 http://www.topografix.com/GPX/1/1/gpx.xsd">
 <metadata>
  <name> DTR 14k - Sunday 28 December</name>
  <author>
   <name>Richard Jones</name>
   <link href="https://www.strava.com/athletes/38085969"/>
  </author>
  <copyright author="OpenStreetMap contributors">
   <year>2020</year>
   <license>https://www.openstreetmap.org/copyright</license>
  </copyright>
  <link href="https://www.strava.com/routes/3439177295602716410"/>
 </metadata>
 <trk>
  <name> DTR 14k - Sunday 28 December</name>
  <link href="https://www.strava.com/routes/3439177295602716410"/>
  <type>trail_running</type>
  <trkseg>
   <trkpt lat="-37.887550000000005" lon="145.36996000000002">
    <ele>361.00000000000006</ele>
   </trkpt>
   <trkpt lat="-37.88738" lon="145.37008">
    <ele>362.82000000000005</ele>
   </trkpt>
   <trkpt lat="-37.88729" lon="145.37024000000002">
    <ele>364.56000000000006</ele>
   </trkpt>
   <trkpt lat="-37.886860000000006" lon="145.37055">
    <ele>367.26000000000005</ele>
   </trkpt>
   <trkpt lat="-37.88689" lon="145.37066000000002">
    <ele>370.73</ele>
   </trkpt>
   <trkpt lat="-37.88694" lon="145.37120000000002">
    <ele>371.58000000000004</ele>
   </trkpt>
   <trkpt lat="-37.88698" lon="145.37135">
    <ele>371.94000000000005</ele>
   </trkpt>
   <trkpt lat="-37.88705" lon="145.37147000000002">
    <ele>372.00000000000006</ele>
   </trkpt>
   <trkpt lat="-37.887425000479915" lon="145.37178999841026">
    <ele>369.87</ele>
   </trkpt>
   <trkpt lat="-37.887800000000006" lon="145.37211000000002">
    <ele>366.13</ele>
   </trkpt>
   <trkpt lat="-37.88841000078449" lon="145.37258499593258">
    <ele>361.24</ele>
   </trkpt>
   <trkpt lat="-37.88902" lon="145.37306">
    <ele>355.42</ele>
   </trkpt>
   <trkpt lat="-37.88950000069874" lon="145.37347499726883">
    <ele>352.51000000000005</ele>
   </trkpt>
   <trkpt lat="-37.88998" lon="145.37389000000002">
    <ele>347.27000000000004</ele>
   </trkpt>
   <trkpt lat="-37.89007" lon="145.37402">
    <ele>346.77000000000004</ele>
   </trkpt>
   <trkpt lat="-37.89011" lon="145.37428">
    <ele>345.89000000000004</ele>
   </trkpt>
   <trkpt lat="-37.89009" lon="145.37448">
    <ele>344.33000000000004</ele>
   </trkpt>
   <trkpt lat="-37.89" lon="145.37468">
    <ele>343.85</ele>
   </trkpt>
   <trkpt lat="-37.88993" lon="145.37490000000003">
    <ele>343.43</ele>
   </trkpt>
   <trkpt lat="-37.88996" lon="145.37504">
    <ele>343.88</ele>
   </trkpt>
   <trkpt lat="-37.89007" lon="145.37515000000002">
    <ele>344.90000000000003</ele>
   </trkpt>
   <trkpt lat="-37.89025" lon="145.37519">
    <ele>345.6</ele>
   </trkpt>
   <trkpt lat="-37.89052" lon="145.37509">
    <ele>344.93</ele>
   </trkpt>
   <trkpt lat="-37.89079" lon="145.37492">
    <ele>344.53</ele>
   </trkpt>
   <trkpt lat="-37.89114" lon="145.37492">
    <ele>343.69000000000005</ele>
   </trkpt>
   <trkpt lat="-37.89137" lon="145.37499000000003">
    <ele>343.6</ele>
   </trkpt>
   <trkpt lat="-37.89146" lon="145.37505000000002">
    <ele>344.04</ele>
   </trkpt>
   <trkpt lat="-37.89166" lon="145.37524000000002">
    <ele>345.43</ele>
   </trkpt>
   <trkpt lat="-37.892120000000006" lon="145.37593">
    <ele>351.51000000000005</ele>
   </trkpt>
   <trkpt lat="-37.89235000148019" lon="145.37650499840794">
    <ele>357.40000000000003</ele>
   </trkpt>
   <trkpt lat="-37.89258" lon="145.37708">
    <ele>363.08</ele>
   </trkpt>
   <trkpt lat="-37.89264" lon="145.37733">
    <ele>364.17</ele>
   </trkpt>
   <trkpt lat="-37.89267" lon="145.37773">
    <ele>369.20000000000005</ele>
   </trkpt>
   <trkpt lat="-37.89262" lon="145.37792000000002">
    <ele>372.35</ele>
   </trkpt>
   <trkpt lat="-37.89249" lon="145.37814">
    <ele>376.82000000000005</ele>
   </trkpt>
   <trkpt lat="-37.89235" lon="145.37830000000002">
    <ele>379.86</ele>
   </trkpt>
   <trkpt lat="-37.89229" lon="145.37834">
    <ele>380.79</ele>
   </trkpt>
   <trkpt lat="-37.89222" lon="145.37835">
    <ele>381.09000000000003</ele>
   </trkpt>
   <trkpt lat="-37.89177" lon="145.37807">
    <ele>382.79</ele>
   </trkpt>
   <trkpt lat="-37.89139" lon="145.37794000000002">
    <ele>384.90000000000003</ele>
   </trkpt>
   <trkpt lat="-37.89123" lon="145.37791">
    <ele>385.84000000000003</ele>
   </trkpt>
   <trkpt lat="-37.89112" lon="145.3779">
    <ele>386.62</ele>
   </trkpt>
   <trkpt lat="-37.89085" lon="145.37794000000002">
    <ele>388.13</ele>
   </trkpt>
   <trkpt lat="-37.89016" lon="145.37795">
    <ele>390.68</ele>
   </trkpt>
   <trkpt lat="-37.88931" lon="145.37781">
    <ele>394.3</ele>
   </trkpt>
   <trkpt lat="-37.88850500008015" lon="145.37797500181114">
    <ele>399.95000000000005</ele>
   </trkpt>
   <trkpt lat="-37.8877" lon="145.37814">
    <ele>407.55</ele>
   </trkpt>
   <trkpt lat="-37.887890000000006" lon="145.37830000000002">
    <ele>409.28000000000003</ele>
   </trkpt>
   <trkpt lat="-37.88812" lon="145.37844">
    <ele>410.51000000000005</ele>
   </trkpt>
   <trkpt lat="-37.88832" lon="145.3785">
    <ele>411.44</ele>
   </trkpt>
   <trkpt lat="-37.88861" lon="145.37863000000002">
    <ele>413.1</ele>
   </trkpt>
   <trkpt lat="-37.88915" lon="145.37891000000002">
    <ele>418.47</ele>
   </trkpt>
   <trkpt lat="-37.88973" lon="145.37923">
    <ele>422.52000000000004</ele>
   </trkpt>
   <trkpt lat="-37.890150000000006" lon="145.3795">
    <ele>423.51000000000005</ele>
   </trkpt>
   <trkpt lat="-37.89045" lon="145.37973000000002">
    <ele>427.33000000000004</ele>
   </trkpt>
   <trkpt lat="-37.89085" lon="145.38015000000001">
    <ele>430.18000000000006</ele>
   </trkpt>
   <trkpt lat="-37.8913550007523" lon="145.38059499687247">
    <ele>429.09000000000003</ele>
   </trkpt>
   <trkpt lat="-37.89186" lon="145.38104">
    <ele>428.2900000000001</ele>
   </trkpt>
   <trkpt lat="-37.89206" lon="145.38125000000002">
    <ele>427.52</ele>
   </trkpt>
   <trkpt lat="-37.89233" lon="145.38163">
    <ele>427.81</ele>
   </trkpt>
   <trkpt lat="-37.89242" lon="145.38186000000002">
    <ele>427.53000000000003</ele>
   </trkpt>
   <trkpt lat="-37.89255" lon="145.38238">
    <ele>425.78000000000003</ele>
   </trkpt>
   <trkpt lat="-37.892520001865584" lon="145.38304500037967">
    <ele>424.03000000000003</ele>
   </trkpt>
   <trkpt lat="-37.89249" lon="145.38371">
    <ele>424.34000000000003</ele>
   </trkpt>
   <trkpt lat="-37.89251" lon="145.38418000000001">
    <ele>424.57000000000005</ele>
   </trkpt>
   <trkpt lat="-37.8926" lon="145.38464000000002">
    <ele>424.15000000000003</ele>
   </trkpt>
   <trkpt lat="-37.89279000134739" lon="145.3851949986977">
    <ele>423.88000000000005</ele>
   </trkpt>
   <trkpt lat="-37.89298" lon="145.38575">
    <ele>422.83000000000004</ele>
   </trkpt>
   <trkpt lat="-37.89312" lon="145.38604">
    <ele>419.99</ele>
   </trkpt>
   <trkpt lat="-37.8932" lon="145.38621">
    <ele>418.54</ele>
   </trkpt>
   <trkpt lat="-37.89352" lon="145.38632">
    <ele>424.61</ele>
   </trkpt>
   <trkpt lat="-37.89432" lon="145.38645000000002">
    <ele>424.07000000000005</ele>
   </trkpt>
   <trkpt lat="-37.89495" lon="145.38648">
    <ele>422.23</ele>
   </trkpt>
   <trkpt lat="-37.89535" lon="145.38631">
    <ele>419.47</ele>
   </trkpt>
   <trkpt lat="-37.89551" lon="145.38614">
    <ele>419.47</ele>
   </trkpt>
   <trkpt lat="-37.89593" lon="145.38579000000001">
    <ele>416.06000000000006</ele>
   </trkpt>
   <trkpt lat="-37.89609" lon="145.38563000000002">
    <ele>415.21000000000004</ele>
   </trkpt>
   <trkpt lat="-37.89663" lon="145.38522">
    <ele>408.11</ele>
   </trkpt>
   <trkpt lat="-37.8969" lon="145.38498">
    <ele>403.97</ele>
   </trkpt>
   <trkpt lat="-37.89703" lon="145.38479">
    <ele>403.97</ele>
   </trkpt>
   <trkpt lat="-37.89719" lon="145.38446000000002">
    <ele>398.99</ele>
   </trkpt>
   <trkpt lat="-37.8973" lon="145.38409000000001">
    <ele>396.70000000000005</ele>
   </trkpt>
   <trkpt lat="-37.89742500207104" lon="145.3833950010252">
    <ele>394.24</ele>
   </trkpt>
   <trkpt lat="-37.89755" lon="145.3827">
    <ele>391.49</ele>
   </trkpt>
   <trkpt lat="-37.89762000167261" lon="145.38207500041318">
    <ele>390.91</ele>
   </trkpt>
   <trkpt lat="-37.897690000000004" lon="145.38145">
    <ele>390.58000000000004</ele>
   </trkpt>
   <trkpt lat="-37.89779" lon="145.38079000000002">
    <ele>392.21000000000004</ele>
   </trkpt>
   <trkpt lat="-37.89786" lon="145.38021">
    <ele>394.94</ele>
   </trkpt>
   <trkpt lat="-37.897850000000005" lon="145.38022">
    <ele>394.89</ele>
   </trkpt>
   <trkpt lat="-37.89788" lon="145.37979">
    <ele>396.86</ele>
   </trkpt>
   <trkpt lat="-37.897980000000004" lon="145.37919000000002">
    <ele>398.38</ele>
   </trkpt>
   <trkpt lat="-37.89822" lon="145.37928000000002">
    <ele>398.49</ele>
   </trkpt>
   <trkpt lat="-37.8984" lon="145.3794">
    <ele>397.89</ele>
   </trkpt>
   <trkpt lat="-37.899115000498796" lon="145.37975999647793">
    <ele>391.66</ele>
   </trkpt>
   <trkpt lat="-37.89983" lon="145.38012">
    <ele>382.55000000000007</ele>
   </trkpt>
   <trkpt lat="-37.90025" lon="145.38027000000002">
    <ele>380.12</ele>
   </trkpt>
   <trkpt lat="-37.90095" lon="145.38066">
    <ele>375.1</ele>
   </trkpt>
   <trkpt lat="-37.90166" lon="145.38102">
    <ele>370.93</ele>
   </trkpt>
   <trkpt lat="-37.9022" lon="145.38132000000002">
    <ele>370.11000000000007</ele>
   </trkpt>
   <trkpt lat="-37.90243" lon="145.38138">
    <ele>369.83000000000004</ele>
   </trkpt>
   <trkpt lat="-37.9026" lon="145.38141000000002">
    <ele>369.19</ele>
   </trkpt>
   <trkpt lat="-37.90278" lon="145.38134000000002">
    <ele>367.59000000000003</ele>
   </trkpt>
   <trkpt lat="-37.90285" lon="145.38128">
    <ele>366.33000000000004</ele>
   </trkpt>
   <trkpt lat="-37.90307" lon="145.38094">
    <ele>360.07000000000005</ele>
   </trkpt>
   <trkpt lat="-37.90325" lon="145.38043000000002">
    <ele>349.57000000000005</ele>
   </trkpt>
   <trkpt lat="-37.90339" lon="145.38022">
    <ele>344.86000000000007</ele>
   </trkpt>
   <trkpt lat="-37.90368" lon="145.37987">
    <ele>336.46000000000004</ele>
   </trkpt>
   <trkpt lat="-37.90404" lon="145.37937000000002">
    <ele>324.93000000000006</ele>
   </trkpt>
   <trkpt lat="-37.904320000859784" lon="145.3788850020797">
    <ele>316.18</ele>
   </trkpt>
   <trkpt lat="-37.9046" lon="145.3784">
    <ele>304.54</ele>
   </trkpt>
   <trkpt lat="-37.90475" lon="145.37804">
    <ele>294.76</ele>
   </trkpt>
   <trkpt lat="-37.904970000000006" lon="145.37744">
    <ele>281.95000000000005</ele>
   </trkpt>
   <trkpt lat="-37.90523000176999" lon="145.3768050020867">
    <ele>274.3</ele>
   </trkpt>
   <trkpt lat="-37.90549" lon="145.37617">
    <ele>271.96000000000004</ele>
   </trkpt>
   <trkpt lat="-37.905910000000006" lon="145.37546">
    <ele>267.68</ele>
   </trkpt>
   <trkpt lat="-37.90643" lon="145.37461000000002">
    <ele>258.04</ele>
   </trkpt>
   <trkpt lat="-37.9069" lon="145.37378">
    <ele>247.06000000000003</ele>
   </trkpt>
   <trkpt lat="-37.90699" lon="145.37323">
    <ele>242.08</ele>
   </trkpt>
   <trkpt lat="-37.90713" lon="145.37263000000002">
    <ele>232.07000000000002</ele>
   </trkpt>
   <trkpt lat="-37.90713" lon="145.37253">
    <ele>230.78</ele>
   </trkpt>
   <trkpt lat="-37.90701" lon="145.37227000000001">
    <ele>228.48000000000002</ele>
   </trkpt>
   <trkpt lat="-37.90672" lon="145.37188">
    <ele>222.82000000000002</ele>
   </trkpt>
   <trkpt lat="-37.90639" lon="145.37087000000002">
    <ele>224.79000000000002</ele>
   </trkpt>
   <trkpt lat="-37.90628" lon="145.37043">
    <ele>227.38000000000002</ele>
   </trkpt>
   <trkpt lat="-37.9063" lon="145.37003">
    <ele>228.86</ele>
   </trkpt>
   <trkpt lat="-37.90634" lon="145.36982">
    <ele>228.80000000000004</ele>
   </trkpt>
   <trkpt lat="-37.9065" lon="145.36961000000002">
    <ele>228.52</ele>
   </trkpt>
   <trkpt lat="-37.9067" lon="145.36924000000002">
    <ele>228.9</ele>
   </trkpt>
   <trkpt lat="-37.90677" lon="145.36897000000002">
    <ele>228.9</ele>
   </trkpt>
   <trkpt lat="-37.90677" lon="145.36884">
    <ele>228.95000000000002</ele>
   </trkpt>
   <trkpt lat="-37.90668" lon="145.36825000000002">
    <ele>229.48000000000002</ele>
   </trkpt>
   <trkpt lat="-37.90675" lon="145.36773000000002">
    <ele>226.63000000000002</ele>
   </trkpt>
   <trkpt lat="-37.90663" lon="145.36713">
    <ele>224.75</ele>
   </trkpt>
   <trkpt lat="-37.90661" lon="145.36685">
    <ele>227.01000000000002</ele>
   </trkpt>
   <trkpt lat="-37.90657" lon="145.36668">
    <ele>231.11</ele>
   </trkpt>
   <trkpt lat="-37.906620000000004" lon="145.36646000000002">
    <ele>234.25</ele>
   </trkpt>
   <trkpt lat="-37.90663" lon="145.3664">
    <ele>235.41</ele>
   </trkpt>
   <trkpt lat="-37.90663" lon="145.36637000000002">
    <ele>235.41</ele>
   </trkpt>
   <trkpt lat="-37.90646" lon="145.36564">
    <ele>257.3</ele>
   </trkpt>
   <trkpt lat="-37.90623" lon="145.36459000000002">
    <ele>277.48</ele>
   </trkpt>
   <trkpt lat="-37.90614" lon="145.36395000000002">
    <ele>286.7</ele>
   </trkpt>
   <trkpt lat="-37.906060000000004" lon="145.36378000000002">
    <ele>290.17</ele>
   </trkpt>
   <trkpt lat="-37.905770000000004" lon="145.36347">
    <ele>294.99</ele>
   </trkpt>
   <trkpt lat="-37.90565" lon="145.3634">
    <ele>296.42</ele>
   </trkpt>
   <trkpt lat="-37.90545" lon="145.36334000000002">
    <ele>299.91</ele>
   </trkpt>
   <trkpt lat="-37.905350000000006" lon="145.36324000000002">
    <ele>299.91</ele>
   </trkpt>
   <trkpt lat="-37.90522" lon="145.36309">
    <ele>306.72</ele>
   </trkpt>
   <trkpt lat="-37.9046" lon="145.36269000000001">
    <ele>314.51</ele>
   </trkpt>
   <trkpt lat="-37.90442" lon="145.36266">
    <ele>316.38000000000005</ele>
   </trkpt>
   <trkpt lat="-37.90417" lon="145.36270000000002">
    <ele>317.89</ele>
   </trkpt>
   <trkpt lat="-37.90366" lon="145.36271000000002">
    <ele>322.07</ele>
   </trkpt>
   <trkpt lat="-37.90307" lon="145.36296000000002">
    <ele>327.1</ele>
   </trkpt>
   <trkpt lat="-37.90283" lon="145.36315000000002">
    <ele>329.94</ele>
   </trkpt>
   <trkpt lat="-37.90263" lon="145.36328">
    <ele>332.61</ele>
   </trkpt>
   <trkpt lat="-37.90216" lon="145.36339">
    <ele>339.46000000000004</ele>
   </trkpt>
   <trkpt lat="-37.90189" lon="145.36350000000002">
    <ele>341.5</ele>
   </trkpt>
   <trkpt lat="-37.901450000000004" lon="145.36383">
    <ele>346.92</ele>
   </trkpt>
   <trkpt lat="-37.90124" lon="145.36343000000002">
    <ele>345.86</ele>
   </trkpt>
   <trkpt lat="-37.9011" lon="145.36289000000002">
    <ele>341.77000000000004</ele>
   </trkpt>
   <trkpt lat="-37.90086" lon="145.36205">
    <ele>334.54</ele>
   </trkpt>
   <trkpt lat="-37.900830000000006" lon="145.36186">
    <ele>333.37</ele>
   </trkpt>
   <trkpt lat="-37.90077" lon="145.36145000000002">
    <ele>334.03000000000003</ele>
   </trkpt>
   <trkpt lat="-37.90059" lon="145.36069">
    <ele>338.40000000000003</ele>
   </trkpt>
   <trkpt lat="-37.90057" lon="145.36046000000002">
    <ele>338.03000000000003</ele>
   </trkpt>
   <trkpt lat="-37.9005" lon="145.36012000000002">
    <ele>334.79</ele>
   </trkpt>
   <trkpt lat="-37.9003" lon="145.35946">
    <ele>316.54</ele>
   </trkpt>
   <trkpt lat="-37.9001" lon="145.35860000000002">
    <ele>302.00000000000006</ele>
   </trkpt>
   <trkpt lat="-37.9001" lon="145.35835">
    <ele>298.24</ele>
   </trkpt>
   <trkpt lat="-37.900000000000006" lon="145.35778000000002">
    <ele>284.75</ele>
   </trkpt>
   <trkpt lat="-37.89992" lon="145.35763">
    <ele>275.88</ele>
   </trkpt>
   <trkpt lat="-37.89992" lon="145.35755">
    <ele>275.88</ele>
   </trkpt>
   <trkpt lat="-37.900000000000006" lon="145.35732000000002">
    <ele>269.57000000000005</ele>
   </trkpt>
   <trkpt lat="-37.900000000000006" lon="145.35713">
    <ele>265.5</ele>
   </trkpt>
   <trkpt lat="-37.89996" lon="145.35696000000002">
    <ele>256.61</ele>
   </trkpt>
   <trkpt lat="-37.89985" lon="145.35690000000002">
    <ele>256.58000000000004</ele>
   </trkpt>
   <trkpt lat="-37.89994" lon="145.35687000000001">
    <ele>256.58000000000004</ele>
   </trkpt>
   <trkpt lat="-37.90001" lon="145.35687000000001">
    <ele>266.69000000000005</ele>
   </trkpt>
   <trkpt lat="-37.9001" lon="145.35691">
    <ele>266.83</ele>
   </trkpt>
   <trkpt lat="-37.900110000000005" lon="145.35685">
    <ele>266.83</ele>
   </trkpt>
   <trkpt lat="-37.89996" lon="145.35677">
    <ele>267.78000000000003</ele>
   </trkpt>
   <trkpt lat="-37.89985" lon="145.35665">
    <ele>268.31000000000006</ele>
   </trkpt>
   <trkpt lat="-37.89974" lon="145.35645000000002">
    <ele>268.83</ele>
   </trkpt>
   <trkpt lat="-37.899730000000005" lon="145.35632">
    <ele>269.15</ele>
   </trkpt>
   <trkpt lat="-37.89967" lon="145.35628">
    <ele>270.56</ele>
   </trkpt>
   <trkpt lat="-37.89958" lon="145.35626000000002">
    <ele>271.43</ele>
   </trkpt>
   <trkpt lat="-37.89932" lon="145.35603">
    <ele>273.76</ele>
   </trkpt>
   <trkpt lat="-37.89923" lon="145.35597">
    <ele>273.96000000000004</ele>
   </trkpt>
   <trkpt lat="-37.89927" lon="145.35586">
    <ele>274.43</ele>
   </trkpt>
   <trkpt lat="-37.899170000000005" lon="145.35578">
    <ele>274.89000000000004</ele>
   </trkpt>
   <trkpt lat="-37.89898" lon="145.3557">
    <ele>276.48</ele>
   </trkpt>
   <trkpt lat="-37.89873" lon="145.35563000000002">
    <ele>279.11</ele>
   </trkpt>
   <trkpt lat="-37.8984" lon="145.35568">
    <ele>283.33000000000004</ele>
   </trkpt>
   <trkpt lat="-37.89819" lon="145.35568">
    <ele>284.92</ele>
   </trkpt>
   <trkpt lat="-37.89804" lon="145.35571000000002">
    <ele>285.75</ele>
   </trkpt>
   <trkpt lat="-37.89795" lon="145.35578">
    <ele>285.75</ele>
   </trkpt>
   <trkpt lat="-37.89748" lon="145.35624">
    <ele>292.86</ele>
   </trkpt>
   <trkpt lat="-37.89728" lon="145.35668">
    <ele>295.27000000000004</ele>
   </trkpt>
   <trkpt lat="-37.89676" lon="145.35695">
    <ele>301.22</ele>
   </trkpt>
   <trkpt lat="-37.8967" lon="145.357">
    <ele>302.14</ele>
   </trkpt>
   <trkpt lat="-37.89660000000001" lon="145.35716000000002">
    <ele>302.66</ele>
   </trkpt>
   <trkpt lat="-37.89654" lon="145.35726000000003">
    <ele>302.72</ele>
   </trkpt>
   <trkpt lat="-37.89629" lon="145.35743000000002">
    <ele>304.84</ele>
   </trkpt>
   <trkpt lat="-37.89616" lon="145.35745">
    <ele>306.1</ele>
   </trkpt>
   <trkpt lat="-37.89598" lon="145.35736">
    <ele>306.98</ele>
   </trkpt>
   <trkpt lat="-37.89558" lon="145.35738">
    <ele>309.95</ele>
   </trkpt>
   <trkpt lat="-37.89531" lon="145.35732000000002">
    <ele>313.41</ele>
   </trkpt>
   <trkpt lat="-37.89522" lon="145.35726000000003">
    <ele>314.26000000000005</ele>
   </trkpt>
   <trkpt lat="-37.89504" lon="145.35737">
    <ele>315.76000000000005</ele>
   </trkpt>
   <trkpt lat="-37.89488" lon="145.35737">
    <ele>317.47</ele>
   </trkpt>
   <trkpt lat="-37.89457" lon="145.35724000000002">
    <ele>321.58000000000004</ele>
   </trkpt>
   <trkpt lat="-37.89434" lon="145.35721">
    <ele>325.01</ele>
   </trkpt>
   <trkpt lat="-37.89408" lon="145.35721">
    <ele>331.49</ele>
   </trkpt>
   <trkpt lat="-37.89372" lon="145.35718">
    <ele>337.08000000000004</ele>
   </trkpt>
   <trkpt lat="-37.89329" lon="145.35727">
    <ele>341.77000000000004</ele>
   </trkpt>
   <trkpt lat="-37.89316" lon="145.35723000000002">
    <ele>342.40000000000003</ele>
   </trkpt>
   <trkpt lat="-37.89298" lon="145.35709">
    <ele>344.30000000000007</ele>
   </trkpt>
   <trkpt lat="-37.89287" lon="145.35705000000002">
    <ele>345.31</ele>
   </trkpt>
   <trkpt lat="-37.89273" lon="145.35704">
    <ele>345.87</ele>
   </trkpt>
   <trkpt lat="-37.89258" lon="145.35709">
    <ele>349.31</ele>
   </trkpt>
   <trkpt lat="-37.89246" lon="145.35709">
    <ele>352.26</ele>
   </trkpt>
   <trkpt lat="-37.89195" lon="145.35690000000002">
    <ele>361.14</ele>
   </trkpt>
   <trkpt lat="-37.89186" lon="145.35682">
    <ele>361.97</ele>
   </trkpt>
   <trkpt lat="-37.891740000000006" lon="145.35659">
    <ele>364.82000000000005</ele>
   </trkpt>
   <trkpt lat="-37.891200000000005" lon="145.35612">
    <ele>374.15000000000003</ele>
   </trkpt>
   <trkpt lat="-37.89049" lon="145.35545000000002">
    <ele>382.73</ele>
   </trkpt>
   <trkpt lat="-37.89034" lon="145.35532">
    <ele>385.79</ele>
   </trkpt>
   <trkpt lat="-37.89014" lon="145.35523">
    <ele>387.31000000000006</ele>
   </trkpt>
   <trkpt lat="-37.88985" lon="145.35506">
    <ele>390.73</ele>
   </trkpt>
   <trkpt lat="-37.88964" lon="145.35511000000002">
    <ele>396.95</ele>
   </trkpt>
   <trkpt lat="-37.88958" lon="145.35502000000002">
    <ele>398.13000000000005</ele>
   </trkpt>
   <trkpt lat="-37.88922" lon="145.35487">
    <ele>401.56</ele>
   </trkpt>
   <trkpt lat="-37.88915" lon="145.35486">
    <ele>401.93</ele>
   </trkpt>
   <trkpt lat="-37.88893" lon="145.35489">
    <ele>403.75000000000006</ele>
   </trkpt>
   <trkpt lat="-37.888630000000006" lon="145.35499000000002">
    <ele>409.68000000000006</ele>
   </trkpt>
   <trkpt lat="-37.888600000000004" lon="145.35502000000002">
    <ele>411.01000000000005</ele>
   </trkpt>
   <trkpt lat="-37.88855" lon="145.35496">
    <ele>411.73</ele>
   </trkpt>
   <trkpt lat="-37.88857" lon="145.35492000000002">
    <ele>413.19000000000005</ele>
   </trkpt>
   <trkpt lat="-37.88848" lon="145.35468">
    <ele>415.73</ele>
   </trkpt>
   <trkpt lat="-37.88828" lon="145.35435">
    <ele>422.49</ele>
   </trkpt>
   <trkpt lat="-37.8881" lon="145.35416">
    <ele>427.01000000000005</ele>
   </trkpt>
   <trkpt lat="-37.88792" lon="145.35378">
    <ele>431.47</ele>
   </trkpt>
   <trkpt lat="-37.88781" lon="145.35358000000002">
    <ele>436.01</ele>
   </trkpt>
   <trkpt lat="-37.88772" lon="145.35336">
    <ele>439.24</ele>
   </trkpt>
   <trkpt lat="-37.88765" lon="145.35301">
    <ele>442.16</ele>
   </trkpt>
   <trkpt lat="-37.88745" lon="145.35251000000002">
    <ele>451.08000000000004</ele>
   </trkpt>
   <trkpt lat="-37.887240000000006" lon="145.35214000000002">
    <ele>457.29</ele>
   </trkpt>
   <trkpt lat="-37.88729" lon="145.35211">
    <ele>456.63000000000005</ele>
   </trkpt>
   <trkpt lat="-37.88727" lon="145.35205000000002">
    <ele>456.63000000000005</ele>
   </trkpt>
   <trkpt lat="-37.88727" lon="145.35195000000002">
    <ele>456.40000000000003</ele>
   </trkpt>
   <trkpt lat="-37.88727" lon="145.35185">
    <ele>455.79</ele>
   </trkpt>
   <trkpt lat="-37.88736" lon="145.35174">
    <ele>455.54</ele>
   </trkpt>
   <trkpt lat="-37.88783" lon="145.35185">
    <ele>449.58000000000004</ele>
   </trkpt>
   <trkpt lat="-37.88812" lon="145.35205000000002">
    <ele>447.16</ele>
   </trkpt>
   <trkpt lat="-37.88841" lon="145.35235">
    <ele>443.87000000000006</ele>
   </trkpt>
   <trkpt lat="-37.88882" lon="145.35269000000002">
    <ele>440.29</ele>
   </trkpt>
   <trkpt lat="-37.88915" lon="145.35287000000002">
    <ele>436.37</ele>
   </trkpt>
   <trkpt lat="-37.88935" lon="145.35294000000002">
    <ele>434.26000000000005</ele>
   </trkpt>
   <trkpt lat="-37.88985" lon="145.35299">
    <ele>431.26000000000005</ele>
   </trkpt>
   <trkpt lat="-37.89052" lon="145.3531">
    <ele>423.65000000000003</ele>
   </trkpt>
   <trkpt lat="-37.890730000000005" lon="145.35311000000002">
    <ele>422.52000000000004</ele>
   </trkpt>
   <trkpt lat="-37.8909" lon="145.35308">
    <ele>421.63000000000005</ele>
   </trkpt>
   <trkpt lat="-37.89101" lon="145.35302000000001">
    <ele>420.94000000000005</ele>
   </trkpt>
   <trkpt lat="-37.89119" lon="145.35283">
    <ele>418.7</ele>
   </trkpt>
   <trkpt lat="-37.89128" lon="145.35273">
    <ele>418.7</ele>
   </trkpt>
   <trkpt lat="-37.89137" lon="145.35227">
    <ele>413.52000000000004</ele>
   </trkpt>
   <trkpt lat="-37.89139" lon="145.35214000000002">
    <ele>413.52000000000004</ele>
   </trkpt>
   <trkpt lat="-37.89137" lon="145.35187000000002">
    <ele>413.52000000000004</ele>
   </trkpt>
   <trkpt lat="-37.89120000210858" lon="145.35115999826206">
    <ele>407.64000000000004</ele>
   </trkpt>
   <trkpt lat="-37.89103" lon="145.35045000000002">
    <ele>401.76</ele>
   </trkpt>
   <trkpt lat="-37.89067" lon="145.34957">
    <ele>395.84000000000003</ele>
   </trkpt>
   <trkpt lat="-37.890620000000006" lon="145.34932">
    <ele>394.13000000000005</ele>
   </trkpt>
   <trkpt lat="-37.89054" lon="145.34882000000002">
    <ele>391.17</ele>
   </trkpt>
   <trkpt lat="-37.89054" lon="145.34848000000002">
    <ele>388.3</ele>
   </trkpt>
   <trkpt lat="-37.89052" lon="145.34830000000002">
    <ele>385.77000000000004</ele>
   </trkpt>
   <trkpt lat="-37.89043" lon="145.34805">
    <ele>383.20000000000005</ele>
   </trkpt>
   <trkpt lat="-37.89052" lon="145.34785000000002">
    <ele>383.20000000000005</ele>
   </trkpt>
   <trkpt lat="-37.890800000000006" lon="145.34763">
    <ele>379.25</ele>
   </trkpt>
   <trkpt lat="-37.89126" lon="145.34735">
    <ele>374.53000000000003</ele>
   </trkpt>
   <trkpt lat="-37.891805000721654" lon="145.34696000283103">
    <ele>368.32000000000005</ele>
   </trkpt>
   <trkpt lat="-37.89235" lon="145.34657">
    <ele>362.13</ele>
   </trkpt>
   <trkpt lat="-37.89208" lon="145.34649000000002">
    <ele>366.28000000000003</ele>
   </trkpt>
   <trkpt lat="-37.891870000000004" lon="145.34645">
    <ele>371.41</ele>
   </trkpt>
   <trkpt lat="-37.89166" lon="145.34634">
    <ele>379.54</ele>
   </trkpt>
   <trkpt lat="-37.8915" lon="145.3462">
    <ele>379.54</ele>
   </trkpt>
   <trkpt lat="-37.89141" lon="145.34617">
    <ele>381.22</ele>
   </trkpt>
   <trkpt lat="-37.89099" lon="145.34611">
    <ele>387.78000000000003</ele>
   </trkpt>
   <trkpt lat="-37.89072" lon="145.34623000000002">
    <ele>396.77</ele>
   </trkpt>
   <trkpt lat="-37.89036" lon="145.34618">
    <ele>407.01000000000005</ele>
   </trkpt>
   <trkpt lat="-37.89016" lon="145.34611">
    <ele>410.64000000000004</ele>
   </trkpt>
   <trkpt lat="-37.89" lon="145.34609">
    <ele>414.51000000000005</ele>
   </trkpt>
   <trkpt lat="-37.88991" lon="145.34611">
    <ele>414.51000000000005</ele>
   </trkpt>
   <trkpt lat="-37.88973" lon="145.3462">
    <ele>426.42</ele>
   </trkpt>
   <trkpt lat="-37.88935" lon="145.34658000000002">
    <ele>437.99</ele>
   </trkpt>
   <trkpt lat="-37.88897" lon="145.34685000000002">
    <ele>450.97</ele>
   </trkpt>
   <trkpt lat="-37.88879" lon="145.34693000000001">
    <ele>456.17</ele>
   </trkpt>
   <trkpt lat="-37.888290000000005" lon="145.34705000000002">
    <ele>468.83000000000004</ele>
   </trkpt>
   <trkpt lat="-37.888290000000005" lon="145.34706">
    <ele>469.02000000000004</ele>
   </trkpt>
   <trkpt lat="-37.88796" lon="145.34717">
    <ele>472.82</ele>
   </trkpt>
   <trkpt lat="-37.88781" lon="145.34726">
    <ele>477.89000000000004</ele>
   </trkpt>
   <trkpt lat="-37.88749" lon="145.34755">
    <ele>484.71000000000004</ele>
   </trkpt>
   <trkpt lat="-37.88705" lon="145.34804000000003">
    <ele>491.27000000000004</ele>
   </trkpt>
   <trkpt lat="-37.8868" lon="145.34823">
    <ele>493.19</ele>
   </trkpt>
   <trkpt lat="-37.88669" lon="145.34829000000002">
    <ele>493.59000000000003</ele>
   </trkpt>
   <trkpt lat="-37.88664" lon="145.34829000000002">
    <ele>493.64</ele>
   </trkpt>
   <trkpt lat="-37.88658" lon="145.34825">
    <ele>493.63</ele>
   </trkpt>
   <trkpt lat="-37.88606" lon="145.3478">
    <ele>490.95000000000005</ele>
   </trkpt>
   <trkpt lat="-37.88555" lon="145.34747000000002">
    <ele>489.54</ele>
   </trkpt>
   <trkpt lat="-37.8855" lon="145.34765000000002">
    <ele>489.07000000000005</ele>
   </trkpt>
   <trkpt lat="-37.88548" lon="145.34823">
    <ele>487.25</ele>
   </trkpt>
   <trkpt lat="-37.88555" lon="145.34883000000002">
    <ele>486.14</ele>
   </trkpt>
   <trkpt lat="-37.88561" lon="145.34911000000002">
    <ele>485.85</ele>
   </trkpt>
   <trkpt lat="-37.88561" lon="145.34938000000002">
    <ele>485.4100000000001</ele>
   </trkpt>
   <trkpt lat="-37.88568" lon="145.34975">
    <ele>483.96000000000004</ele>
   </trkpt>
   <trkpt lat="-37.88568" lon="145.34986">
    <ele>483.29</ele>
   </trkpt>
   <trkpt lat="-37.88564" lon="145.34996">
    <ele>482.46000000000004</ele>
   </trkpt>
   <trkpt lat="-37.88537" lon="145.35015">
    <ele>478.91</ele>
   </trkpt>
   <trkpt lat="-37.88521" lon="145.35021">
    <ele>477.81</ele>
   </trkpt>
   <trkpt lat="-37.88503" lon="145.35021">
    <ele>477.15000000000003</ele>
   </trkpt>
   <trkpt lat="-37.88481" lon="145.35028">
    <ele>474.67</ele>
   </trkpt>
   <trkpt lat="-37.884640000000005" lon="145.35035000000002">
    <ele>473.78000000000003</ele>
   </trkpt>
   <trkpt lat="-37.88461" lon="145.35046">
    <ele>472.83000000000004</ele>
   </trkpt>
   <trkpt lat="-37.88461" lon="145.35066">
    <ele>470.4800000000001</ele>
   </trkpt>
   <trkpt lat="-37.884710000000005" lon="145.35090000000002">
    <ele>468.80000000000007</ele>
   </trkpt>
   <trkpt lat="-37.88477" lon="145.35099000000002">
    <ele>469.72</ele>
   </trkpt>
   <trkpt lat="-37.88443" lon="145.35102">
    <ele>471.04</ele>
   </trkpt>
   <trkpt lat="-37.88427" lon="145.35105000000001">
    <ele>472.08000000000004</ele>
   </trkpt>
   <trkpt lat="-37.88402" lon="145.3512">
    <ele>473.04</ele>
   </trkpt>
   <trkpt lat="-37.883790000000005" lon="145.35131">
    <ele>475.35</ele>
   </trkpt>
   <trkpt lat="-37.88373" lon="145.3514">
    <ele>475.77000000000004</ele>
   </trkpt>
   <trkpt lat="-37.88353" lon="145.35180000000003">
    <ele>477.52000000000004</ele>
   </trkpt>
   <trkpt lat="-37.88342" lon="145.35195000000002">
    <ele>477.83000000000004</ele>
   </trkpt>
   <trkpt lat="-37.883280000000006" lon="145.35205000000002">
    <ele>477.77000000000004</ele>
   </trkpt>
   <trkpt lat="-37.88326" lon="145.35207000000003">
    <ele>477.77000000000004</ele>
   </trkpt>
   <trkpt lat="-37.88311" lon="145.35219">
    <ele>477.68000000000006</ele>
   </trkpt>
   <trkpt lat="-37.883" lon="145.35234">
    <ele>477.80000000000007</ele>
   </trkpt>
   <trkpt lat="-37.88266" lon="145.3531">
    <ele>479.97</ele>
   </trkpt>
   <trkpt lat="-37.88266" lon="145.35319">
    <ele>480.28000000000003</ele>
   </trkpt>
   <trkpt lat="-37.88282" lon="145.35356000000002">
    <ele>482.69000000000005</ele>
   </trkpt>
   <trkpt lat="-37.88291" lon="145.35394000000002">
    <ele>483.64</ele>
   </trkpt>
   <trkpt lat="-37.88293" lon="145.35439000000002">
    <ele>484.6</ele>
   </trkpt>
   <trkpt lat="-37.88315" lon="145.35522">
    <ele>487.57000000000005</ele>
   </trkpt>
   <trkpt lat="-37.88318" lon="145.3554">
    <ele>488.77000000000004</ele>
   </trkpt>
   <trkpt lat="-37.88351" lon="145.3553">
    <ele>487.46000000000004</ele>
   </trkpt>
   <trkpt lat="-37.8838" lon="145.35575">
    <ele>488.54</ele>
   </trkpt>
   <trkpt lat="-37.88387" lon="145.35593">
    <ele>489.22</ele>
   </trkpt>
   <trkpt lat="-37.88391" lon="145.35613">
    <ele>490.54</ele>
   </trkpt>
   <trkpt lat="-37.88391" lon="145.35645000000002">
    <ele>493.40000000000003</ele>
   </trkpt>
   <trkpt lat="-37.88389" lon="145.35675">
    <ele>494.74</ele>
   </trkpt>
   <trkpt lat="-37.883790000000005" lon="145.35711">
    <ele>495.94000000000005</ele>
   </trkpt>
   <trkpt lat="-37.8838" lon="145.35725000000002">
    <ele>497.02</ele>
   </trkpt>
   <trkpt lat="-37.88385" lon="145.35776">
    <ele>498.95000000000005</ele>
   </trkpt>
   <trkpt lat="-37.884" lon="145.35808">
    <ele>501.2300000000001</ele>
   </trkpt>
   <trkpt lat="-37.88402" lon="145.35827">
    <ele>502.04</ele>
   </trkpt>
   <trkpt lat="-37.88407" lon="145.35852">
    <ele>502.33000000000004</ele>
   </trkpt>
   <trkpt lat="-37.88441" lon="145.35840000000002">
    <ele>503.82000000000005</ele>
   </trkpt>
   <trkpt lat="-37.88456" lon="145.35838">
    <ele>504.44</ele>
   </trkpt>
   <trkpt lat="-37.88476" lon="145.35842000000002">
    <ele>504.44</ele>
   </trkpt>
   <trkpt lat="-37.88532" lon="145.35860000000002">
    <ele>507.39</ele>
   </trkpt>
   <trkpt lat="-37.885450000000006" lon="145.35868000000002">
    <ele>507.99000000000007</ele>
   </trkpt>
   <trkpt lat="-37.8858" lon="145.35913000000002">
    <ele>511.87000000000006</ele>
   </trkpt>
   <trkpt lat="-37.88591" lon="145.35922000000002">
    <ele>512.08</ele>
   </trkpt>
   <trkpt lat="-37.88595" lon="145.35933">
    <ele>512.1800000000001</ele>
   </trkpt>
   <trkpt lat="-37.88598" lon="145.35957000000002">
    <ele>512.12</ele>
   </trkpt>
   <trkpt lat="-37.88573" lon="145.36033">
    <ele>510.16</ele>
   </trkpt>
   <trkpt lat="-37.88568" lon="145.36059">
    <ele>508.72</ele>
   </trkpt>
   <trkpt lat="-37.88555" lon="145.36100000000002">
    <ele>506.05</ele>
   </trkpt>
   <trkpt lat="-37.88537" lon="145.36136000000002">
    <ele>504.45000000000005</ele>
   </trkpt>
   <trkpt lat="-37.88514" lon="145.36202">
    <ele>498.59000000000003</ele>
   </trkpt>
   <trkpt lat="-37.88503" lon="145.36224">
    <ele>496.57000000000005</ele>
   </trkpt>
   <trkpt lat="-37.88496000000001" lon="145.36231">
    <ele>496.57000000000005</ele>
   </trkpt>
   <trkpt lat="-37.8851" lon="145.36238">
    <ele>496.20000000000005</ele>
   </trkpt>
   <trkpt lat="-37.88514" lon="145.36243000000002">
    <ele>495.76000000000005</ele>
   </trkpt>
   <trkpt lat="-37.88514" lon="145.36251000000001">
    <ele>495.49</ele>
   </trkpt>
   <trkpt lat="-37.8849" lon="145.36279000000002">
    <ele>491.17</ele>
   </trkpt>
   <trkpt lat="-37.88479" lon="145.36302">
    <ele>487.93</ele>
   </trkpt>
   <trkpt lat="-37.88474" lon="145.36315000000002">
    <ele>483.30000000000007</ele>
   </trkpt>
   <trkpt lat="-37.88472" lon="145.36334000000002">
    <ele>481.66</ele>
   </trkpt>
   <trkpt lat="-37.8847" lon="145.36339">
    <ele>480.95000000000005</ele>
   </trkpt>
   <trkpt lat="-37.88456" lon="145.3634">
    <ele>478.66</ele>
   </trkpt>
   <trkpt lat="-37.88449" lon="145.36339">
    <ele>478.02000000000004</ele>
   </trkpt>
   <trkpt lat="-37.88443" lon="145.36341000000002">
    <ele>477.25000000000006</ele>
   </trkpt>
   <trkpt lat="-37.884420000000006" lon="145.36347">
    <ele>476.35</ele>
   </trkpt>
   <trkpt lat="-37.88445" lon="145.36369000000002">
    <ele>471.08000000000004</ele>
   </trkpt>
   <trkpt lat="-37.88463" lon="145.36419">
    <ele>462.57000000000005</ele>
   </trkpt>
   <trkpt lat="-37.88476" lon="145.36443">
    <ele>459.0400000000001</ele>
   </trkpt>
   <trkpt lat="-37.88479" lon="145.36451000000002">
    <ele>457.23</ele>
   </trkpt>
   <trkpt lat="-37.88476" lon="145.36459000000002">
    <ele>457.23</ele>
   </trkpt>
   <trkpt lat="-37.88483" lon="145.36484000000002">
    <ele>451.44000000000005</ele>
   </trkpt>
   <trkpt lat="-37.88494" lon="145.36503000000002">
    <ele>449.85</ele>
   </trkpt>
   <trkpt lat="-37.88499" lon="145.36505000000002">
    <ele>449.74</ele>
   </trkpt>
   <trkpt lat="-37.88517" lon="145.36524">
    <ele>448.36</ele>
   </trkpt>
   <trkpt lat="-37.88519" lon="145.36531000000002">
    <ele>446.77000000000004</ele>
   </trkpt>
   <trkpt lat="-37.885360000000006" lon="145.36547000000002">
    <ele>442.85</ele>
   </trkpt>
   <trkpt lat="-37.88539" lon="145.36557000000002">
    <ele>440.92</ele>
   </trkpt>
   <trkpt lat="-37.88546" lon="145.36561">
    <ele>440.01</ele>
   </trkpt>
   <trkpt lat="-37.88548" lon="145.36577">
    <ele>436.49</ele>
   </trkpt>
   <trkpt lat="-37.88546" lon="145.36592000000002">
    <ele>433.27000000000004</ele>
   </trkpt>
   <trkpt lat="-37.885270000000006" lon="145.36607">
    <ele>427.7900000000001</ele>
   </trkpt>
   <trkpt lat="-37.884980000000006" lon="145.36612000000002">
    <ele>424.08</ele>
   </trkpt>
   <trkpt lat="-37.88474" lon="145.36611000000002">
    <ele>420.16</ele>
   </trkpt>
   <trkpt lat="-37.88463" lon="145.36617">
    <ele>418.30000000000007</ele>
   </trkpt>
   <trkpt lat="-37.88458" lon="145.36623">
    <ele>416.18000000000006</ele>
   </trkpt>
   <trkpt lat="-37.88461" lon="145.36635">
    <ele>416.18000000000006</ele>
   </trkpt>
   <trkpt lat="-37.88465" lon="145.36642">
    <ele>416.18000000000006</ele>
   </trkpt>
   <trkpt lat="-37.88465" lon="145.36651">
    <ele>406.03000000000003</ele>
   </trkpt>
   <trkpt lat="-37.8847" lon="145.36657000000002">
    <ele>406.03000000000003</ele>
   </trkpt>
   <trkpt lat="-37.8847" lon="145.36672000000002">
    <ele>406.03000000000003</ele>
   </trkpt>
   <trkpt lat="-37.88481" lon="145.36711000000003">
    <ele>396.77</ele>
   </trkpt>
   <trkpt lat="-37.88499" lon="145.36737000000002">
    <ele>391.76000000000005</ele>
   </trkpt>
   <trkpt lat="-37.88517" lon="145.36757">
    <ele>385.70000000000005</ele>
   </trkpt>
   <trkpt lat="-37.8855" lon="145.36785">
    <ele>379.39</ele>
   </trkpt>
   <trkpt lat="-37.88564" lon="145.36801">
    <ele>373.50000000000006</ele>
   </trkpt>
   <trkpt lat="-37.88602" lon="145.36834000000002">
    <ele>363.32000000000005</ele>
   </trkpt>
   <trkpt lat="-37.886100000000006" lon="145.36837">
    <ele>361.26</ele>
   </trkpt>
   <trkpt lat="-37.88611" lon="145.36851000000001">
    <ele>361.16</ele>
   </trkpt>
   <trkpt lat="-37.88642" lon="145.36872000000002">
    <ele>364.89000000000004</ele>
   </trkpt>
   <trkpt lat="-37.88667" lon="145.36906000000002">
    <ele>367.22</ele>
   </trkpt>
   <trkpt lat="-37.88736" lon="145.36978000000002">
    <ele>352.05</ele>
   </trkpt>
   <trkpt lat="-37.88743" lon="145.36973">
    <ele>351.69</ele>
   </trkpt>
   <trkpt lat="-37.88749" lon="145.36999">
    <ele>361.00000000000006</ele>
   </trkpt>
   <trkpt lat="-37.887550000000005" lon="145.36996000000002">
    <ele>361.00000000000006</ele>
   </trkpt>
  </trkseg>
 </trk>
</gpx>
