<?xml version="1.0" encoding="UTF-8"?>
<gpx creator="StravaGPX" version="1.1" xmlns="http://www.topografix.com/GPX/1/1" xmlns:xsi="http://www.w3.org/2001/XMLSchema-instance" xsi:schemaLocation="http://www.topografix.com/GPX/1/1 http://www.topografix.com/GPX/1/1/gpx.xsd">
 <metadata>
  <name>7 December 2025 DTR - 20k</name>
  <author>
   <name>Dion Graham</name>
   <link href="https://www.strava.com/athletes/26355872"/>
  </author>
  <copyright author="OpenStreetMap contributors">
   <year>2020</year>
   <license>https://www.openstreetmap.org/copyright</license>
  </copyright>
  <link href="https://www.strava.com/routes/3431494704060047152"/>
 </metadata>
 <trk>
  <name>7 December 2025 DTR - 20k</name>
  <link href="https://www.strava.com/routes/3431494704060047152"/>
  <type>trail_running</type>
  <trkseg>
   <trkpt lat="-37.86301" lon="145.35413">
    <ele>482.25</ele>
   </trkpt>
   <trkpt lat="-37.86316" lon="145.35444">
    <ele>485.99</ele>
   </trkpt>
   <trkpt lat="-37.86334" lon="145.35477">
    <ele>477.47</ele>
   </trkpt>
   <trkpt lat="-37.86345" lon="145.35489">
    <ele>474.6</ele>
   </trkpt>
   <trkpt lat="-37.863600000000005" lon="145.35494">
    <ele>472.71000000000004</ele>
   </trkpt>
   <trkpt lat="-37.86415" lon="145.35496">
    <ele>463.55</ele>
   </trkpt>
   <trkpt lat="-37.86435" lon="145.35499000000002">
    <ele>458.36</ele>
   </trkpt>
   <trkpt lat="-37.8645" lon="145.35506">
    <ele>455.29</ele>
   </trkpt>
   <trkpt lat="-37.864850000000004" lon="145.35513">
    <ele>448.0</ele>
   </trkpt>
   <trkpt lat="-37.86502" lon="145.35512">
    <ele>445.95</ele>
   </trkpt>
   <trkpt lat="-37.8652" lon="145.35519000000002">
    <ele>442.14000000000004</ele>
   </trkpt>
   <trkpt lat="-37.86547" lon="145.35535000000002">
    <ele>439.79</ele>
   </trkpt>
   <trkpt lat="-37.86591000000001" lon="145.35539">
    <ele>434.75</ele>
   </trkpt>
   <trkpt lat="-37.86598" lon="145.35542">
    <ele>434.25</ele>
   </trkpt>
   <trkpt lat="-37.865990000000004" lon="145.35551">
    <ele>434.25</ele>
   </trkpt>
   <trkpt lat="-37.866" lon="145.35554000000002">
    <ele>434.25</ele>
   </trkpt>
   <trkpt lat="-37.86596" lon="145.35572000000002">
    <ele>433.93</ele>
   </trkpt>
   <trkpt lat="-37.865860000000005" lon="145.35572000000002">
    <ele>414.21000000000004</ele>
   </trkpt>
   <trkpt lat="-37.86589" lon="145.35592000000003">
    <ele>432.06000000000006</ele>
   </trkpt>
   <trkpt lat="-37.86585" lon="145.35607000000002">
    <ele>430.13</ele>
   </trkpt>
   <trkpt lat="-37.866" lon="145.35656">
    <ele>427.54</ele>
   </trkpt>
   <trkpt lat="-37.86623" lon="145.35682">
    <ele>424.57000000000005</ele>
   </trkpt>
   <trkpt lat="-37.86632" lon="145.35688000000002">
    <ele>424.28000000000003</ele>
   </trkpt>
   <trkpt lat="-37.86654" lon="145.35708000000002">
    <ele>421.38</ele>
   </trkpt>
   <trkpt lat="-37.86672" lon="145.35738">
    <ele>419.46000000000004</ele>
   </trkpt>
   <trkpt lat="-37.86675" lon="145.35739">
    <ele>419.46000000000004</ele>
   </trkpt>
   <trkpt lat="-37.86688" lon="145.35736">
    <ele>419.34000000000003</ele>
   </trkpt>
   <trkpt lat="-37.86715" lon="145.35776">
    <ele>419.46000000000004</ele>
   </trkpt>
   <trkpt lat="-37.86728" lon="145.35787000000002">
    <ele>418.57000000000005</ele>
   </trkpt>
   <trkpt lat="-37.86737" lon="145.35797000000002">
    <ele>418.32</ele>
   </trkpt>
   <trkpt lat="-37.86748" lon="145.35804000000002">
    <ele>418.28000000000003</ele>
   </trkpt>
   <trkpt lat="-37.86755" lon="145.35812">
    <ele>418.1</ele>
   </trkpt>
   <trkpt lat="-37.86766" lon="145.35817">
    <ele>418.09000000000003</ele>
   </trkpt>
   <trkpt lat="-37.86771" lon="145.35824000000002">
    <ele>418.17</ele>
   </trkpt>
   <trkpt lat="-37.86768" lon="145.35852">
    <ele>417.71000000000004</ele>
   </trkpt>
   <trkpt lat="-37.86773" lon="145.35860000000002">
    <ele>417.92</ele>
   </trkpt>
   <trkpt lat="-37.86793" lon="145.35878000000002">
    <ele>418.94</ele>
   </trkpt>
   <trkpt lat="-37.86806" lon="145.35901">
    <ele>418.04</ele>
   </trkpt>
   <trkpt lat="-37.8682" lon="145.35908">
    <ele>417.95000000000005</ele>
   </trkpt>
   <trkpt lat="-37.86871" lon="145.35917">
    <ele>418.39000000000004</ele>
   </trkpt>
   <trkpt lat="-37.86887" lon="145.35943">
    <ele>416.37</ele>
   </trkpt>
   <trkpt lat="-37.869220000000006" lon="145.35977000000003">
    <ele>415.14</ele>
   </trkpt>
   <trkpt lat="-37.8695" lon="145.36015">
    <ele>414.88</ele>
   </trkpt>
   <trkpt lat="-37.86963" lon="145.36053">
    <ele>412.55</ele>
   </trkpt>
   <trkpt lat="-37.86972" lon="145.36065000000002">
    <ele>411.91</ele>
   </trkpt>
   <trkpt lat="-37.86999" lon="145.36083000000002">
    <ele>412.19000000000005</ele>
   </trkpt>
   <trkpt lat="-37.87071" lon="145.36105">
    <ele>410.39000000000004</ele>
   </trkpt>
   <trkpt lat="-37.87113" lon="145.36123">
    <ele>409.53000000000003</ele>
   </trkpt>
   <trkpt lat="-37.87182" lon="145.36126000000002">
    <ele>409.72</ele>
   </trkpt>
   <trkpt lat="-37.87205" lon="145.36114">
    <ele>409.72</ele>
   </trkpt>
   <trkpt lat="-37.87221" lon="145.36118000000002">
    <ele>409.19000000000005</ele>
   </trkpt>
   <trkpt lat="-37.87234" lon="145.36127000000002">
    <ele>407.98</ele>
   </trkpt>
   <trkpt lat="-37.87243" lon="145.36129000000003">
    <ele>407.75000000000006</ele>
   </trkpt>
   <trkpt lat="-37.87292" lon="145.36119000000002">
    <ele>406.34000000000003</ele>
   </trkpt>
   <trkpt lat="-37.873360000000005" lon="145.36122">
    <ele>401.01000000000005</ele>
   </trkpt>
   <trkpt lat="-37.873400000000004" lon="145.36126000000002">
    <ele>400.6</ele>
   </trkpt>
   <trkpt lat="-37.873490000000004" lon="145.36143">
    <ele>399.72</ele>
   </trkpt>
   <trkpt lat="-37.873540000000006" lon="145.3614">
    <ele>399.44</ele>
   </trkpt>
   <trkpt lat="-37.873560000000005" lon="145.36141">
    <ele>399.35</ele>
   </trkpt>
   <trkpt lat="-37.87357" lon="145.36146000000002">
    <ele>399.35</ele>
   </trkpt>
   <trkpt lat="-37.87355" lon="145.36154000000002">
    <ele>399.22</ele>
   </trkpt>
   <trkpt lat="-37.87368" lon="145.36174000000003">
    <ele>397.13000000000005</ele>
   </trkpt>
   <trkpt lat="-37.87377" lon="145.36196">
    <ele>393.21000000000004</ele>
   </trkpt>
   <trkpt lat="-37.87377" lon="145.36206">
    <ele>376.98</ele>
   </trkpt>
   <trkpt lat="-37.873740000000005" lon="145.36213">
    <ele>376.98</ele>
   </trkpt>
   <trkpt lat="-37.87391" lon="145.3623">
    <ele>376.97</ele>
   </trkpt>
   <trkpt lat="-37.87413" lon="145.36263000000002">
    <ele>377.11000000000007</ele>
   </trkpt>
   <trkpt lat="-37.87422" lon="145.36283">
    <ele>376.99000000000007</ele>
   </trkpt>
   <trkpt lat="-37.87433" lon="145.36322">
    <ele>376.39000000000004</ele>
   </trkpt>
   <trkpt lat="-37.87467" lon="145.36383">
    <ele>373.73</ele>
   </trkpt>
   <trkpt lat="-37.87471" lon="145.36405000000002">
    <ele>373.73</ele>
   </trkpt>
   <trkpt lat="-37.87478" lon="145.3649">
    <ele>370.02</ele>
   </trkpt>
   <trkpt lat="-37.87485" lon="145.36522000000002">
    <ele>367.78000000000003</ele>
   </trkpt>
   <trkpt lat="-37.87509" lon="145.36587">
    <ele>365.71000000000004</ele>
   </trkpt>
   <trkpt lat="-37.87523" lon="145.36611000000002">
    <ele>363.88000000000005</ele>
   </trkpt>
   <trkpt lat="-37.87579" lon="145.36678">
    <ele>359.55</ele>
   </trkpt>
   <trkpt lat="-37.8759" lon="145.36699000000002">
    <ele>358.11</ele>
   </trkpt>
   <trkpt lat="-37.875910000000005" lon="145.36700000000002">
    <ele>358.11</ele>
   </trkpt>
   <trkpt lat="-37.875980000000006" lon="145.36725">
    <ele>357.13</ele>
   </trkpt>
   <trkpt lat="-37.87599" lon="145.36753000000002">
    <ele>355.24000000000007</ele>
   </trkpt>
   <trkpt lat="-37.87599" lon="145.36765000000003">
    <ele>355.24000000000007</ele>
   </trkpt>
   <trkpt lat="-37.87592" lon="145.36792">
    <ele>353.97</ele>
   </trkpt>
   <trkpt lat="-37.8757" lon="145.36839">
    <ele>350.98</ele>
   </trkpt>
   <trkpt lat="-37.87567000000001" lon="145.36859">
    <ele>349.66</ele>
   </trkpt>
   <trkpt lat="-37.87547" lon="145.36843000000002">
    <ele>372.62</ele>
   </trkpt>
   <trkpt lat="-37.87554" lon="145.36892">
    <ele>369.42</ele>
   </trkpt>
   <trkpt lat="-37.87554" lon="145.36915000000002">
    <ele>369.97</ele>
   </trkpt>
   <trkpt lat="-37.87545" lon="145.36945">
    <ele>372.14000000000004</ele>
   </trkpt>
   <trkpt lat="-37.87541" lon="145.36953000000003">
    <ele>373.69</ele>
   </trkpt>
   <trkpt lat="-37.87536" lon="145.36978000000002">
    <ele>374.49</ele>
   </trkpt>
   <trkpt lat="-37.87541" lon="145.37033000000002">
    <ele>369.24</ele>
   </trkpt>
   <trkpt lat="-37.8755" lon="145.37059000000002">
    <ele>365.45000000000005</ele>
   </trkpt>
   <trkpt lat="-37.875600000000006" lon="145.37072">
    <ele>363.13</ele>
   </trkpt>
   <trkpt lat="-37.87608" lon="145.37106">
    <ele>357.91</ele>
   </trkpt>
   <trkpt lat="-37.87614000000001" lon="145.37109">
    <ele>357.79</ele>
   </trkpt>
   <trkpt lat="-37.87635" lon="145.37115">
    <ele>341.79</ele>
   </trkpt>
   <trkpt lat="-37.8765" lon="145.37138000000002">
    <ele>334.81000000000006</ele>
   </trkpt>
   <trkpt lat="-37.87637" lon="145.37132000000003">
    <ele>335.45000000000005</ele>
   </trkpt>
   <trkpt lat="-37.87628" lon="145.37130000000002">
    <ele>335.71</ele>
   </trkpt>
   <trkpt lat="-37.87597" lon="145.37137">
    <ele>338.33000000000004</ele>
   </trkpt>
   <trkpt lat="-37.87579" lon="145.37137">
    <ele>338.98</ele>
   </trkpt>
   <trkpt lat="-37.875220000000006" lon="145.37127">
    <ele>343.25000000000006</ele>
   </trkpt>
   <trkpt lat="-37.875040000000006" lon="145.37126">
    <ele>344.1</ele>
   </trkpt>
   <trkpt lat="-37.874700000000004" lon="145.37130000000002">
    <ele>346.80000000000007</ele>
   </trkpt>
   <trkpt lat="-37.874660000000006" lon="145.3718">
    <ele>358.18000000000006</ele>
   </trkpt>
   <trkpt lat="-37.874495001515065" lon="145.37240000137075">
    <ele>375.22</ele>
   </trkpt>
   <trkpt lat="-37.87433" lon="145.37300000000002">
    <ele>395.94</ele>
   </trkpt>
   <trkpt lat="-37.87424" lon="145.37365">
    <ele>409.32</ele>
   </trkpt>
   <trkpt lat="-37.87405000200656" lon="145.37434000180457">
    <ele>416.65000000000003</ele>
   </trkpt>
   <trkpt lat="-37.87386" lon="145.37503">
    <ele>428.05</ele>
   </trkpt>
   <trkpt lat="-37.87373" lon="145.37591">
    <ele>441.75</ele>
   </trkpt>
   <trkpt lat="-37.87356000976839" lon="145.37678750607844">
    <ele>459.93000000000006</ele>
   </trkpt>
   <trkpt lat="-37.87339001302399" lon="145.3776650081072">
    <ele>471.52000000000004</ele>
   </trkpt>
   <trkpt lat="-37.873220009766854" lon="145.37854250608615">
    <ele>480.08000000000004</ele>
   </trkpt>
   <trkpt lat="-37.873050000000006" lon="145.37942">
    <ele>488.04</ele>
   </trkpt>
   <trkpt lat="-37.8729" lon="145.37994">
    <ele>493.3500000000001</ele>
   </trkpt>
   <trkpt lat="-37.87279" lon="145.38043000000002">
    <ele>491.94000000000005</ele>
   </trkpt>
   <trkpt lat="-37.872690000000006" lon="145.38075">
    <ele>490.99</ele>
   </trkpt>
   <trkpt lat="-37.87261" lon="145.38073">
    <ele>490.99</ele>
   </trkpt>
   <trkpt lat="-37.87221" lon="145.38052000000002">
    <ele>494.64</ele>
   </trkpt>
   <trkpt lat="-37.87172500002051" lon="145.38032499865992">
    <ele>496.87</ele>
   </trkpt>
   <trkpt lat="-37.87124" lon="145.38013">
    <ele>499.18000000000006</ele>
   </trkpt>
   <trkpt lat="-37.87077" lon="145.37989000000002">
    <ele>503.84000000000003</ele>
   </trkpt>
   <trkpt lat="-37.87059" lon="145.37978">
    <ele>506.41</ele>
   </trkpt>
   <trkpt lat="-37.87039" lon="145.37975">
    <ele>512.0300000000001</ele>
   </trkpt>
   <trkpt lat="-37.87024" lon="145.37967">
    <ele>512.0300000000001</ele>
   </trkpt>
   <trkpt lat="-37.87006" lon="145.37962000000002">
    <ele>515.64</ele>
   </trkpt>
   <trkpt lat="-37.86988" lon="145.37951">
    <ele>518.2800000000001</ele>
   </trkpt>
   <trkpt lat="-37.86914" lon="145.37900000000002">
    <ele>527.22</ele>
   </trkpt>
   <trkpt lat="-37.86849" lon="145.37853">
    <ele>532.98</ele>
   </trkpt>
   <trkpt lat="-37.86802" lon="145.37826">
    <ele>535.08</ele>
   </trkpt>
   <trkpt lat="-37.86764" lon="145.37802000000002">
    <ele>536.47</ele>
   </trkpt>
   <trkpt lat="-37.867360000000005" lon="145.3778">
    <ele>538.0200000000001</ele>
   </trkpt>
   <trkpt lat="-37.86731" lon="145.37782">
    <ele>537.5699999999999</ele>
   </trkpt>
   <trkpt lat="-37.86694" lon="145.37748000000002">
    <ele>542.95</ele>
   </trkpt>
   <trkpt lat="-37.86663" lon="145.37732000000003">
    <ele>548.9900000000001</ele>
   </trkpt>
   <trkpt lat="-37.86632" lon="145.37727">
    <ele>553.4300000000001</ele>
   </trkpt>
   <trkpt lat="-37.86558" lon="145.3771">
    <ele>563.96</ele>
   </trkpt>
   <trkpt lat="-37.86547" lon="145.3771">
    <ele>564.96</ele>
   </trkpt>
   <trkpt lat="-37.86527" lon="145.37714000000003">
    <ele>567.0</ele>
   </trkpt>
   <trkpt lat="-37.865080000000006" lon="145.37709">
    <ele>568.8199999999999</ele>
   </trkpt>
   <trkpt lat="-37.86504" lon="145.37697">
    <ele>569.77</ele>
   </trkpt>
   <trkpt lat="-37.865" lon="145.37696000000003">
    <ele>569.77</ele>
   </trkpt>
   <trkpt lat="-37.86455" lon="145.37691">
    <ele>571.72</ele>
   </trkpt>
   <trkpt lat="-37.8645" lon="145.37693000000002">
    <ele>571.72</ele>
   </trkpt>
   <trkpt lat="-37.86428" lon="145.37687000000003">
    <ele>572.3600000000001</ele>
   </trkpt>
   <trkpt lat="-37.86352" lon="145.37678000000002">
    <ele>570.1</ele>
   </trkpt>
   <trkpt lat="-37.863350000000004" lon="145.3768">
    <ele>565.97</ele>
   </trkpt>
   <trkpt lat="-37.86325" lon="145.37676000000002">
    <ele>566.08</ele>
   </trkpt>
   <trkpt lat="-37.86263000012048" lon="145.37667999933907">
    <ele>565.11</ele>
   </trkpt>
   <trkpt lat="-37.862010000000005" lon="145.37660000000002">
    <ele>561.61</ele>
   </trkpt>
   <trkpt lat="-37.86153000006305" lon="145.37651499945218">
    <ele>559.9399999999999</ele>
   </trkpt>
   <trkpt lat="-37.861050000000006" lon="145.37643">
    <ele>558.5</ele>
   </trkpt>
   <trkpt lat="-37.860490000000006" lon="145.37631000000002">
    <ele>558.86</ele>
   </trkpt>
   <trkpt lat="-37.86046000312499" lon="145.37717000041977">
    <ele>559.0</ele>
   </trkpt>
   <trkpt lat="-37.86043" lon="145.37803000000002">
    <ele>553.4100000000001</ele>
   </trkpt>
   <trkpt lat="-37.86032" lon="145.37913">
    <ele>539.19</ele>
   </trkpt>
   <trkpt lat="-37.86032000327456" lon="145.38001000005107">
    <ele>524.91</ele>
   </trkpt>
   <trkpt lat="-37.86032" lon="145.38089000000002">
    <ele>517.6200000000001</ele>
   </trkpt>
   <trkpt lat="-37.86027" lon="145.38124000000002">
    <ele>516.98</ele>
   </trkpt>
   <trkpt lat="-37.86021" lon="145.38127">
    <ele>516.9</ele>
   </trkpt>
   <trkpt lat="-37.86007" lon="145.38119">
    <ele>519.73</ele>
   </trkpt>
   <trkpt lat="-37.860020000000006" lon="145.38135000000003">
    <ele>520.4300000000001</ele>
   </trkpt>
   <trkpt lat="-37.85998" lon="145.38159000000002">
    <ele>520.2800000000001</ele>
   </trkpt>
   <trkpt lat="-37.859930000000006" lon="145.38259000000002">
    <ele>519.66</ele>
   </trkpt>
   <trkpt lat="-37.85983" lon="145.38273">
    <ele>517.87</ele>
   </trkpt>
   <trkpt lat="-37.859770000000005" lon="145.38287000000003">
    <ele>516.1800000000001</ele>
   </trkpt>
   <trkpt lat="-37.8598" lon="145.38292">
    <ele>516.1800000000001</ele>
   </trkpt>
   <trkpt lat="-37.85987" lon="145.38334">
    <ele>512.37</ele>
   </trkpt>
   <trkpt lat="-37.8598" lon="145.38387">
    <ele>508.45000000000005</ele>
   </trkpt>
   <trkpt lat="-37.85974" lon="145.38416">
    <ele>506.21000000000004</ele>
   </trkpt>
   <trkpt lat="-37.85974" lon="145.38429000000002">
    <ele>505.16</ele>
   </trkpt>
   <trkpt lat="-37.85971" lon="145.38439000000002">
    <ele>504.02000000000004</ele>
   </trkpt>
   <trkpt lat="-37.85965" lon="145.38445000000002">
    <ele>502.77000000000004</ele>
   </trkpt>
   <trkpt lat="-37.8594" lon="145.38458">
    <ele>499.69</ele>
   </trkpt>
   <trkpt lat="-37.85927" lon="145.38478">
    <ele>494.26000000000005</ele>
   </trkpt>
   <trkpt lat="-37.85924" lon="145.38524">
    <ele>487.42</ele>
   </trkpt>
   <trkpt lat="-37.8592" lon="145.3854">
    <ele>485.74000000000007</ele>
   </trkpt>
   <trkpt lat="-37.85891" lon="145.38586">
    <ele>477.15000000000003</ele>
   </trkpt>
   <trkpt lat="-37.858700000000006" lon="145.38611">
    <ele>474.17</ele>
   </trkpt>
   <trkpt lat="-37.85871" lon="145.3861">
    <ele>474.17</ele>
   </trkpt>
   <trkpt lat="-37.8586" lon="145.3862">
    <ele>472.81000000000006</ele>
   </trkpt>
   <trkpt lat="-37.85839" lon="145.38625000000002">
    <ele>469.06</ele>
   </trkpt>
   <trkpt lat="-37.85821" lon="145.38625000000002">
    <ele>463.59000000000003</ele>
   </trkpt>
   <trkpt lat="-37.85817" lon="145.38619">
    <ele>463.59000000000003</ele>
   </trkpt>
   <trkpt lat="-37.85821" lon="145.38609000000002">
    <ele>460.53000000000003</ele>
   </trkpt>
   <trkpt lat="-37.85821" lon="145.38587">
    <ele>456.81000000000006</ele>
   </trkpt>
   <trkpt lat="-37.85815" lon="145.38567">
    <ele>453.91</ele>
   </trkpt>
   <trkpt lat="-37.858050000000006" lon="145.38551">
    <ele>450.38000000000005</ele>
   </trkpt>
   <trkpt lat="-37.85797" lon="145.38532">
    <ele>449.5</ele>
   </trkpt>
   <trkpt lat="-37.8575" lon="145.38472000000002">
    <ele>445.52000000000004</ele>
   </trkpt>
   <trkpt lat="-37.85741" lon="145.38446000000002">
    <ele>444.77000000000004</ele>
   </trkpt>
   <trkpt lat="-37.85739" lon="145.38424">
    <ele>444.00000000000006</ele>
   </trkpt>
   <trkpt lat="-37.85739" lon="145.38403000000002">
    <ele>442.88000000000005</ele>
   </trkpt>
   <trkpt lat="-37.8575" lon="145.38337">
    <ele>441.16</ele>
   </trkpt>
   <trkpt lat="-37.85752" lon="145.38283">
    <ele>439.86</ele>
   </trkpt>
   <trkpt lat="-37.8575" lon="145.38250000000002">
    <ele>439.20000000000005</ele>
   </trkpt>
   <trkpt lat="-37.857440000000004" lon="145.38230000000001">
    <ele>438.99000000000007</ele>
   </trkpt>
   <trkpt lat="-37.85707" lon="145.38234">
    <ele>430.72</ele>
   </trkpt>
   <trkpt lat="-37.85674" lon="145.38225">
    <ele>423.32</ele>
   </trkpt>
   <trkpt lat="-37.85672" lon="145.38225">
    <ele>423.32</ele>
   </trkpt>
   <trkpt lat="-37.85674" lon="145.38225">
    <ele>423.32</ele>
   </trkpt>
   <trkpt lat="-37.85665" lon="145.38232000000002">
    <ele>419.86</ele>
   </trkpt>
   <trkpt lat="-37.8566" lon="145.38243">
    <ele>417.82</ele>
   </trkpt>
   <trkpt lat="-37.85667" lon="145.38279">
    <ele>412.64</ele>
   </trkpt>
   <trkpt lat="-37.85663" lon="145.38306">
    <ele>410.0</ele>
   </trkpt>
   <trkpt lat="-37.85654" lon="145.38322000000002">
    <ele>408.74000000000007</ele>
   </trkpt>
   <trkpt lat="-37.85638" lon="145.38374000000002">
    <ele>410.26</ele>
   </trkpt>
   <trkpt lat="-37.85636" lon="145.38406">
    <ele>413.15000000000003</ele>
   </trkpt>
   <trkpt lat="-37.85636" lon="145.38443">
    <ele>415.64</ele>
   </trkpt>
   <trkpt lat="-37.85642" lon="145.38466000000003">
    <ele>417.72</ele>
   </trkpt>
   <trkpt lat="-37.85651" lon="145.38478">
    <ele>420.24000000000007</ele>
   </trkpt>
   <trkpt lat="-37.85705" lon="145.38525">
    <ele>424.73</ele>
   </trkpt>
   <trkpt lat="-37.85712" lon="145.38534">
    <ele>425.50000000000006</ele>
   </trkpt>
   <trkpt lat="-37.85712" lon="145.38546000000002">
    <ele>425.74</ele>
   </trkpt>
   <trkpt lat="-37.85694" lon="145.38588000000001">
    <ele>430.48</ele>
   </trkpt>
   <trkpt lat="-37.856660000000005" lon="145.38628">
    <ele>433.3</ele>
   </trkpt>
   <trkpt lat="-37.856680000000004" lon="145.38627000000002">
    <ele>433.3</ele>
   </trkpt>
   <trkpt lat="-37.85656" lon="145.38636000000002">
    <ele>432.92</ele>
   </trkpt>
   <trkpt lat="-37.85645" lon="145.38638">
    <ele>432.21000000000004</ele>
   </trkpt>
   <trkpt lat="-37.85618" lon="145.38636000000002">
    <ele>428.36</ele>
   </trkpt>
   <trkpt lat="-37.85604" lon="145.38625000000002">
    <ele>425.18000000000006</ele>
   </trkpt>
   <trkpt lat="-37.856" lon="145.38617000000002">
    <ele>424.37</ele>
   </trkpt>
   <trkpt lat="-37.85586" lon="145.38612">
    <ele>422.78000000000003</ele>
   </trkpt>
   <trkpt lat="-37.85575" lon="145.38613">
    <ele>422.59000000000003</ele>
   </trkpt>
   <trkpt lat="-37.855610000000006" lon="145.3861">
    <ele>422.58</ele>
   </trkpt>
   <trkpt lat="-37.85501" lon="145.38577">
    <ele>414.35</ele>
   </trkpt>
   <trkpt lat="-37.854490000000006" lon="145.38562000000002">
    <ele>404.32</ele>
   </trkpt>
   <trkpt lat="-37.85396" lon="145.38551">
    <ele>392.34000000000003</ele>
   </trkpt>
   <trkpt lat="-37.85309" lon="145.38565">
    <ele>376.05000000000007</ele>
   </trkpt>
   <trkpt lat="-37.85275" lon="145.38578">
    <ele>369.26000000000005</ele>
   </trkpt>
   <trkpt lat="-37.85233" lon="145.38585">
    <ele>360.83000000000004</ele>
   </trkpt>
   <trkpt lat="-37.8519" lon="145.38586">
    <ele>353.18000000000006</ele>
   </trkpt>
   <trkpt lat="-37.85116" lon="145.38566">
    <ele>343.62</ele>
   </trkpt>
   <trkpt lat="-37.850460000000005" lon="145.38531">
    <ele>331.13000000000005</ele>
   </trkpt>
   <trkpt lat="-37.84995" lon="145.38541">
    <ele>324.18</ele>
   </trkpt>
   <trkpt lat="-37.849500000000006" lon="145.38575">
    <ele>318.68</ele>
   </trkpt>
   <trkpt lat="-37.84904" lon="145.38596">
    <ele>312.27000000000004</ele>
   </trkpt>
   <trkpt lat="-37.84854" lon="145.38608000000002">
    <ele>306.32000000000005</ele>
   </trkpt>
   <trkpt lat="-37.84834" lon="145.38619">
    <ele>302.95</ele>
   </trkpt>
   <trkpt lat="-37.84812" lon="145.38636000000002">
    <ele>301.71000000000004</ele>
   </trkpt>
   <trkpt lat="-37.84751" lon="145.38669000000002">
    <ele>294.71000000000004</ele>
   </trkpt>
   <trkpt lat="-37.84736" lon="145.38680000000002">
    <ele>293.54</ele>
   </trkpt>
   <trkpt lat="-37.8472" lon="145.38689000000002">
    <ele>291.76</ele>
   </trkpt>
   <trkpt lat="-37.84691" lon="145.38723000000002">
    <ele>288.81</ele>
   </trkpt>
   <trkpt lat="-37.84671" lon="145.38737">
    <ele>287.15000000000003</ele>
   </trkpt>
   <trkpt lat="-37.84651" lon="145.38742000000002">
    <ele>286.77000000000004</ele>
   </trkpt>
   <trkpt lat="-37.84628" lon="145.38743000000002">
    <ele>286.25</ele>
   </trkpt>
   <trkpt lat="-37.84613" lon="145.38748">
    <ele>285.86</ele>
   </trkpt>
   <trkpt lat="-37.84577" lon="145.38776000000001">
    <ele>283.26</ele>
   </trkpt>
   <trkpt lat="-37.84557" lon="145.388">
    <ele>282.24000000000007</ele>
   </trkpt>
   <trkpt lat="-37.84539" lon="145.38825">
    <ele>282.03</ele>
   </trkpt>
   <trkpt lat="-37.84523" lon="145.38868000000002">
    <ele>282.46000000000004</ele>
   </trkpt>
   <trkpt lat="-37.84487" lon="145.38931000000002">
    <ele>282.87</ele>
   </trkpt>
   <trkpt lat="-37.84478" lon="145.38966000000002">
    <ele>283.53</ele>
   </trkpt>
   <trkpt lat="-37.84474" lon="145.39010000000002">
    <ele>286.71000000000004</ele>
   </trkpt>
   <trkpt lat="-37.844630001663425" lon="145.3907200007095">
    <ele>288.74</ele>
   </trkpt>
   <trkpt lat="-37.84452" lon="145.39134">
    <ele>290.32</ele>
   </trkpt>
   <trkpt lat="-37.84452" lon="145.39135000000002">
    <ele>290.32</ele>
   </trkpt>
   <trkpt lat="-37.84416" lon="145.39055000000002">
    <ele>280.56</ele>
   </trkpt>
   <trkpt lat="-37.84416" lon="145.39043">
    <ele>280.03</ele>
   </trkpt>
   <trkpt lat="-37.844260000000006" lon="145.39003000000002">
    <ele>277.41</ele>
   </trkpt>
   <trkpt lat="-37.8442" lon="145.38957000000002">
    <ele>273.03</ele>
   </trkpt>
   <trkpt lat="-37.84427" lon="145.38914000000003">
    <ele>270.45000000000005</ele>
   </trkpt>
   <trkpt lat="-37.84427" lon="145.38897">
    <ele>270.63000000000005</ele>
   </trkpt>
   <trkpt lat="-37.844210000000004" lon="145.38883">
    <ele>272.29</ele>
   </trkpt>
   <trkpt lat="-37.844100000000005" lon="145.38879">
    <ele>273.87</ele>
   </trkpt>
   <trkpt lat="-37.84393" lon="145.38879">
    <ele>275.86000000000007</ele>
   </trkpt>
   <trkpt lat="-37.84375" lon="145.38884000000002">
    <ele>276.13000000000005</ele>
   </trkpt>
   <trkpt lat="-37.84351" lon="145.38905000000003">
    <ele>275.0</ele>
   </trkpt>
   <trkpt lat="-37.843320000000006" lon="145.38902000000002">
    <ele>276.28000000000003</ele>
   </trkpt>
   <trkpt lat="-37.84315" lon="145.38891">
    <ele>278.55</ele>
   </trkpt>
   <trkpt lat="-37.8431" lon="145.38876000000002">
    <ele>281.59</ele>
   </trkpt>
   <trkpt lat="-37.84306" lon="145.38855">
    <ele>283.76</ele>
   </trkpt>
   <trkpt lat="-37.842830000000006" lon="145.38816">
    <ele>286.64</ele>
   </trkpt>
   <trkpt lat="-37.84243" lon="145.38848000000002">
    <ele>282.12</ele>
   </trkpt>
   <trkpt lat="-37.84237" lon="145.38848000000002">
    <ele>282.12</ele>
   </trkpt>
   <trkpt lat="-37.84237" lon="145.38825">
    <ele>281.68000000000006</ele>
   </trkpt>
   <trkpt lat="-37.842470000000006" lon="145.38771">
    <ele>279.26</ele>
   </trkpt>
   <trkpt lat="-37.84261" lon="145.38726">
    <ele>278.58000000000004</ele>
   </trkpt>
   <trkpt lat="-37.8427" lon="145.38637">
    <ele>277.81</ele>
   </trkpt>
   <trkpt lat="-37.84277" lon="145.38612">
    <ele>278.31</ele>
   </trkpt>
   <trkpt lat="-37.84286" lon="145.38585">
    <ele>278.67</ele>
   </trkpt>
   <trkpt lat="-37.84299" lon="145.38529">
    <ele>280.64</ele>
   </trkpt>
   <trkpt lat="-37.84304" lon="145.38501000000002">
    <ele>281.62</ele>
   </trkpt>
   <trkpt lat="-37.84299" lon="145.38485">
    <ele>281.90000000000003</ele>
   </trkpt>
   <trkpt lat="-37.84292000000001" lon="145.38473000000002">
    <ele>282.1</ele>
   </trkpt>
   <trkpt lat="-37.84297" lon="145.38451">
    <ele>283.55</ele>
   </trkpt>
   <trkpt lat="-37.84295" lon="145.38430000000002">
    <ele>286.83000000000004</ele>
   </trkpt>
   <trkpt lat="-37.84286" lon="145.38411000000002">
    <ele>288.37</ele>
   </trkpt>
   <trkpt lat="-37.84281" lon="145.38376000000002">
    <ele>291.55</ele>
   </trkpt>
   <trkpt lat="-37.84281" lon="145.38304000000002">
    <ele>296.25</ele>
   </trkpt>
   <trkpt lat="-37.84279" lon="145.38266000000002">
    <ele>300.18</ele>
   </trkpt>
   <trkpt lat="-37.84272" lon="145.38237">
    <ele>304.12</ele>
   </trkpt>
   <trkpt lat="-37.84263" lon="145.38217">
    <ele>306.53000000000003</ele>
   </trkpt>
   <trkpt lat="-37.84248" lon="145.38167">
    <ele>310.59000000000003</ele>
   </trkpt>
   <trkpt lat="-37.84248" lon="145.38133000000002">
    <ele>312.11</ele>
   </trkpt>
   <trkpt lat="-37.84243" lon="145.38109">
    <ele>318.47</ele>
   </trkpt>
   <trkpt lat="-37.842310000000005" lon="145.38066">
    <ele>320.45</ele>
   </trkpt>
   <trkpt lat="-37.84205" lon="145.38012">
    <ele>324.90000000000003</ele>
   </trkpt>
   <trkpt lat="-37.84201" lon="145.38002">
    <ele>324.90000000000003</ele>
   </trkpt>
   <trkpt lat="-37.84185" lon="145.37971000000002">
    <ele>325.70000000000005</ele>
   </trkpt>
   <trkpt lat="-37.84154" lon="145.37922">
    <ele>328.37000000000006</ele>
   </trkpt>
   <trkpt lat="-37.84122" lon="145.37847000000002">
    <ele>330.04</ele>
   </trkpt>
   <trkpt lat="-37.84103" lon="145.37786">
    <ele>333.12</ele>
   </trkpt>
   <trkpt lat="-37.840990000000005" lon="145.37779">
    <ele>333.16</ele>
   </trkpt>
   <trkpt lat="-37.840970000000006" lon="145.37764">
    <ele>334.19000000000005</ele>
   </trkpt>
   <trkpt lat="-37.84089" lon="145.37754">
    <ele>335.05</ele>
   </trkpt>
   <trkpt lat="-37.84046" lon="145.37711000000002">
    <ele>343.31</ele>
   </trkpt>
   <trkpt lat="-37.84024" lon="145.37681">
    <ele>350.83000000000004</ele>
   </trkpt>
   <trkpt lat="-37.83999500117897" lon="145.37628499828548">
    <ele>355.12000000000006</ele>
   </trkpt>
   <trkpt lat="-37.83975" lon="145.37576">
    <ele>361.90000000000003</ele>
   </trkpt>
   <trkpt lat="-37.83950000241456" lon="145.3750049974551">
    <ele>371.04</ele>
   </trkpt>
   <trkpt lat="-37.83925" lon="145.37425000000002">
    <ele>377.76000000000005</ele>
   </trkpt>
   <trkpt lat="-37.83921" lon="145.37414">
    <ele>378.51</ele>
   </trkpt>
   <trkpt lat="-37.8391" lon="145.37399000000002">
    <ele>379.45</ele>
   </trkpt>
   <trkpt lat="-37.83883" lon="145.37376">
    <ele>380.22</ele>
   </trkpt>
   <trkpt lat="-37.83858" lon="145.37359">
    <ele>380.56</ele>
   </trkpt>
   <trkpt lat="-37.83847" lon="145.37354000000002">
    <ele>381.20000000000005</ele>
   </trkpt>
   <trkpt lat="-37.83822" lon="145.37348">
    <ele>384.19</ele>
   </trkpt>
   <trkpt lat="-37.83805" lon="145.37351">
    <ele>390.16</ele>
   </trkpt>
   <trkpt lat="-37.83791" lon="145.37358">
    <ele>393.34000000000003</ele>
   </trkpt>
   <trkpt lat="-37.837880000000006" lon="145.37362000000002">
    <ele>393.51</ele>
   </trkpt>
   <trkpt lat="-37.83784" lon="145.37368">
    <ele>395.40000000000003</ele>
   </trkpt>
   <trkpt lat="-37.83764" lon="145.37427000000002">
    <ele>404.78000000000003</ele>
   </trkpt>
   <trkpt lat="-37.83746" lon="145.37449">
    <ele>406.90000000000003</ele>
   </trkpt>
   <trkpt lat="-37.83735" lon="145.37466">
    <ele>407.28000000000003</ele>
   </trkpt>
   <trkpt lat="-37.83719" lon="145.37407000000002">
    <ele>408.84000000000003</ele>
   </trkpt>
   <trkpt lat="-37.83719" lon="145.37388">
    <ele>409.26</ele>
   </trkpt>
   <trkpt lat="-37.83708" lon="145.37331">
    <ele>413.23</ele>
   </trkpt>
   <trkpt lat="-37.83699" lon="145.37235">
    <ele>423.75</ele>
   </trkpt>
   <trkpt lat="-37.837030000000006" lon="145.3719">
    <ele>427.08</ele>
   </trkpt>
   <trkpt lat="-37.83699" lon="145.37133">
    <ele>430.38000000000005</ele>
   </trkpt>
   <trkpt lat="-37.837030000000006" lon="145.37094000000002">
    <ele>432.49</ele>
   </trkpt>
   <trkpt lat="-37.83701000000001" lon="145.37064">
    <ele>434.15000000000003</ele>
   </trkpt>
   <trkpt lat="-37.83701000000001" lon="145.37063">
    <ele>434.15000000000003</ele>
   </trkpt>
   <trkpt lat="-37.83737" lon="145.37053">
    <ele>433.83000000000004</ele>
   </trkpt>
   <trkpt lat="-37.83769" lon="145.37040000000002">
    <ele>430.38000000000005</ele>
   </trkpt>
   <trkpt lat="-37.83798" lon="145.37023000000002">
    <ele>430.52</ele>
   </trkpt>
   <trkpt lat="-37.83849" lon="145.36997000000002">
    <ele>436.43</ele>
   </trkpt>
   <trkpt lat="-37.83869" lon="145.36991">
    <ele>440.3</ele>
   </trkpt>
   <trkpt lat="-37.83885" lon="145.3698">
    <ele>442.27000000000004</ele>
   </trkpt>
   <trkpt lat="-37.8391" lon="145.36968000000002">
    <ele>445.38000000000005</ele>
   </trkpt>
   <trkpt lat="-37.839560000000006" lon="145.36941000000002">
    <ele>454.52000000000004</ele>
   </trkpt>
   <trkpt lat="-37.83975" lon="145.36926000000003">
    <ele>455.98</ele>
   </trkpt>
   <trkpt lat="-37.839940000000006" lon="145.36906000000002">
    <ele>460.48</ele>
   </trkpt>
   <trkpt lat="-37.83999" lon="145.36903">
    <ele>461.03000000000003</ele>
   </trkpt>
   <trkpt lat="-37.84022" lon="145.36902">
    <ele>463.3</ele>
   </trkpt>
   <trkpt lat="-37.84057" lon="145.36894">
    <ele>467.67</ele>
   </trkpt>
   <trkpt lat="-37.84087" lon="145.36892">
    <ele>472.16</ele>
   </trkpt>
   <trkpt lat="-37.840970000000006" lon="145.36842000000001">
    <ele>474.70000000000005</ele>
   </trkpt>
   <trkpt lat="-37.84096" lon="145.36811">
    <ele>476.02000000000004</ele>
   </trkpt>
   <trkpt lat="-37.84169" lon="145.36817000000002">
    <ele>484.43</ele>
   </trkpt>
   <trkpt lat="-37.84181" lon="145.36819">
    <ele>486.05</ele>
   </trkpt>
   <trkpt lat="-37.84219" lon="145.36729000000003">
    <ele>477.26</ele>
   </trkpt>
   <trkpt lat="-37.842290000000006" lon="145.36720000000003">
    <ele>477.26</ele>
   </trkpt>
   <trkpt lat="-37.842470000000006" lon="145.36714">
    <ele>475.2</ele>
   </trkpt>
   <trkpt lat="-37.84246" lon="145.36715">
    <ele>475.2</ele>
   </trkpt>
   <trkpt lat="-37.8425" lon="145.36701000000002">
    <ele>474.65000000000003</ele>
   </trkpt>
   <trkpt lat="-37.8425" lon="145.36689">
    <ele>474.73</ele>
   </trkpt>
   <trkpt lat="-37.84234" lon="145.36639000000002">
    <ele>477.73</ele>
   </trkpt>
   <trkpt lat="-37.84192" lon="145.36546">
    <ele>476.97</ele>
   </trkpt>
   <trkpt lat="-37.841910000000006" lon="145.36531000000002">
    <ele>476.97</ele>
   </trkpt>
   <trkpt lat="-37.84199" lon="145.36499">
    <ele>474.30000000000007</ele>
   </trkpt>
   <trkpt lat="-37.8421" lon="145.36476000000002">
    <ele>472.52000000000004</ele>
   </trkpt>
   <trkpt lat="-37.84245500074403" lon="145.3643400020237">
    <ele>466.59000000000003</ele>
   </trkpt>
   <trkpt lat="-37.84281" lon="145.36392">
    <ele>459.13000000000005</ele>
   </trkpt>
   <trkpt lat="-37.84286" lon="145.36383">
    <ele>458.37000000000006</ele>
   </trkpt>
   <trkpt lat="-37.84288" lon="145.36368000000002">
    <ele>457.88000000000005</ele>
   </trkpt>
   <trkpt lat="-37.84281" lon="145.36349">
    <ele>457.81000000000006</ele>
   </trkpt>
   <trkpt lat="-37.84223" lon="145.36280000000002">
    <ele>468.95000000000005</ele>
   </trkpt>
   <trkpt lat="-37.8421" lon="145.36245000000002">
    <ele>471.53000000000003</ele>
   </trkpt>
   <trkpt lat="-37.842130000000004" lon="145.36174000000003">
    <ele>477.01000000000005</ele>
   </trkpt>
   <trkpt lat="-37.8428350004788" lon="145.3615475055181">
    <ele>482.37</ele>
   </trkpt>
   <trkpt lat="-37.84354000064427" lon="145.36135500735594">
    <ele>494.34000000000003</ele>
   </trkpt>
   <trkpt lat="-37.8442450004964" lon="145.36116250551345">
    <ele>505.84000000000003</ele>
   </trkpt>
   <trkpt lat="-37.844950000000004" lon="145.36097">
    <ele>512.72</ele>
   </trkpt>
   <trkpt lat="-37.84501" lon="145.36099000000002">
    <ele>513.1600000000001</ele>
   </trkpt>
   <trkpt lat="-37.84560500000557" lon="145.36085000114778">
    <ele>513.7900000000001</ele>
   </trkpt>
   <trkpt lat="-37.8462" lon="145.36071">
    <ele>512.41</ele>
   </trkpt>
   <trkpt lat="-37.84619" lon="145.36064000000002">
    <ele>511.74000000000007</ele>
   </trkpt>
   <trkpt lat="-37.84655" lon="145.36054000000001">
    <ele>511.50000000000006</ele>
   </trkpt>
   <trkpt lat="-37.84682" lon="145.36052">
    <ele>511.31000000000006</ele>
   </trkpt>
   <trkpt lat="-37.84698" lon="145.36054000000001">
    <ele>511.09999999999997</ele>
   </trkpt>
   <trkpt lat="-37.84705" lon="145.36058">
    <ele>510.93</ele>
   </trkpt>
   <trkpt lat="-37.84707" lon="145.36051">
    <ele>511.16</ele>
   </trkpt>
   <trkpt lat="-37.84718" lon="145.3604">
    <ele>511.31000000000006</ele>
   </trkpt>
   <trkpt lat="-37.847350000000006" lon="145.36039000000002">
    <ele>511.50000000000006</ele>
   </trkpt>
   <trkpt lat="-37.84741" lon="145.36042">
    <ele>511.50000000000006</ele>
   </trkpt>
   <trkpt lat="-37.84725" lon="145.35972">
    <ele>514.41</ele>
   </trkpt>
   <trkpt lat="-37.84732" lon="145.35972">
    <ele>515.35</ele>
   </trkpt>
   <trkpt lat="-37.84709" lon="145.35882">
    <ele>518.1</ele>
   </trkpt>
   <trkpt lat="-37.84695" lon="145.35840000000002">
    <ele>516.78</ele>
   </trkpt>
   <trkpt lat="-37.84664" lon="145.35795000000002">
    <ele>512.6800000000001</ele>
   </trkpt>
   <trkpt lat="-37.846540000000005" lon="145.35771000000003">
    <ele>510.29</ele>
   </trkpt>
   <trkpt lat="-37.84644" lon="145.35760000000002">
    <ele>509.89000000000004</ele>
   </trkpt>
   <trkpt lat="-37.846360000000004" lon="145.35734000000002">
    <ele>509.01000000000005</ele>
   </trkpt>
   <trkpt lat="-37.846006670389734" lon="145.35667666031446">
    <ele>508.90000000000003</ele>
   </trkpt>
   <trkpt lat="-37.84565333705871" lon="145.35601332698553">
    <ele>510.4700000000001</ele>
   </trkpt>
   <trkpt lat="-37.8453" lon="145.35535000000002">
    <ele>511.02000000000004</ele>
   </trkpt>
   <trkpt lat="-37.845220000000005" lon="145.35527000000002">
    <ele>511.4200000000001</ele>
   </trkpt>
   <trkpt lat="-37.845746668159556" lon="145.35486000580076">
    <ele>510.58000000000004</ele>
   </trkpt>
   <trkpt lat="-37.84627333489767" lon="145.35445000574518">
    <ele>509.12</ele>
   </trkpt>
   <trkpt lat="-37.8468" lon="145.35404">
    <ele>506.38000000000005</ele>
   </trkpt>
   <trkpt lat="-37.846830000000004" lon="145.35398">
    <ele>506.38000000000005</ele>
   </trkpt>
   <trkpt lat="-37.846900000000005" lon="145.35394000000002">
    <ele>506.53000000000003</ele>
   </trkpt>
   <trkpt lat="-37.84734" lon="145.35397">
    <ele>495.27000000000004</ele>
   </trkpt>
   <trkpt lat="-37.84781" lon="145.35397">
    <ele>479.05</ele>
   </trkpt>
   <trkpt lat="-37.84798" lon="145.35389">
    <ele>474.30000000000007</ele>
   </trkpt>
   <trkpt lat="-37.84828" lon="145.35382">
    <ele>464.33</ele>
   </trkpt>
   <trkpt lat="-37.84857" lon="145.35368000000003">
    <ele>452.01</ele>
   </trkpt>
   <trkpt lat="-37.84868" lon="145.35357000000002">
    <ele>444.49000000000007</ele>
   </trkpt>
   <trkpt lat="-37.848800000000004" lon="145.35342">
    <ele>444.94000000000005</ele>
   </trkpt>
   <trkpt lat="-37.84877" lon="145.35304000000002">
    <ele>442.57</ele>
   </trkpt>
   <trkpt lat="-37.848670000000006" lon="145.35243">
    <ele>437.91</ele>
   </trkpt>
   <trkpt lat="-37.8485" lon="145.35187000000002">
    <ele>431.82000000000005</ele>
   </trkpt>
   <trkpt lat="-37.84845" lon="145.35175">
    <ele>430.90000000000003</ele>
   </trkpt>
   <trkpt lat="-37.84819" lon="145.35123000000002">
    <ele>426.63</ele>
   </trkpt>
   <trkpt lat="-37.84792" lon="145.35087000000001">
    <ele>423.38000000000005</ele>
   </trkpt>
   <trkpt lat="-37.84767" lon="145.35063000000002">
    <ele>422.95000000000005</ele>
   </trkpt>
   <trkpt lat="-37.8472" lon="145.35029">
    <ele>418.83000000000004</ele>
   </trkpt>
   <trkpt lat="-37.84695" lon="145.35014">
    <ele>417.35</ele>
   </trkpt>
   <trkpt lat="-37.84678" lon="145.35007000000002">
    <ele>417.22</ele>
   </trkpt>
   <trkpt lat="-37.84653" lon="145.35004">
    <ele>419.83000000000004</ele>
   </trkpt>
   <trkpt lat="-37.845980000089995" lon="145.35005500010948">
    <ele>424.34000000000003</ele>
   </trkpt>
   <trkpt lat="-37.84543" lon="145.35007000000002">
    <ele>425.47</ele>
   </trkpt>
   <trkpt lat="-37.844934999841115" lon="145.35014000049526">
    <ele>429.56000000000006</ele>
   </trkpt>
   <trkpt lat="-37.844440000000006" lon="145.35021">
    <ele>434.33000000000004</ele>
   </trkpt>
   <trkpt lat="-37.84409" lon="145.35022">
    <ele>436.56000000000006</ele>
   </trkpt>
   <trkpt lat="-37.84355" lon="145.35018000000002">
    <ele>439.98</ele>
   </trkpt>
   <trkpt lat="-37.84306" lon="145.35005">
    <ele>442.16</ele>
   </trkpt>
   <trkpt lat="-37.84262500001824" lon="145.3498699988892">
    <ele>445.34000000000003</ele>
   </trkpt>
   <trkpt lat="-37.84219" lon="145.34969">
    <ele>449.79</ele>
   </trkpt>
   <trkpt lat="-37.84196" lon="145.34958">
    <ele>451.49000000000007</ele>
   </trkpt>
   <trkpt lat="-37.84185" lon="145.3495">
    <ele>452.03000000000003</ele>
   </trkpt>
   <trkpt lat="-37.84179" lon="145.34944000000002">
    <ele>452.3</ele>
   </trkpt>
   <trkpt lat="-37.84176" lon="145.34928000000002">
    <ele>446.64000000000004</ele>
   </trkpt>
   <trkpt lat="-37.84185" lon="145.34889">
    <ele>441.39000000000004</ele>
   </trkpt>
   <trkpt lat="-37.84192" lon="145.34903">
    <ele>439.37</ele>
   </trkpt>
   <trkpt lat="-37.84201" lon="145.34906">
    <ele>437.66</ele>
   </trkpt>
   <trkpt lat="-37.8421" lon="145.34902000000002">
    <ele>436.72</ele>
   </trkpt>
   <trkpt lat="-37.84219" lon="145.34892000000002">
    <ele>430.89000000000004</ele>
   </trkpt>
   <trkpt lat="-37.84237" lon="145.3488">
    <ele>429.04</ele>
   </trkpt>
   <trkpt lat="-37.84263" lon="145.34873000000002">
    <ele>424.07000000000005</ele>
   </trkpt>
   <trkpt lat="-37.842760000000006" lon="145.34866000000002">
    <ele>422.38000000000005</ele>
   </trkpt>
   <trkpt lat="-37.84286" lon="145.34865000000002">
    <ele>418.81</ele>
   </trkpt>
   <trkpt lat="-37.84306" lon="145.34874000000002">
    <ele>415.54</ele>
   </trkpt>
   <trkpt lat="-37.84315" lon="145.34874000000002">
    <ele>414.14</ele>
   </trkpt>
   <trkpt lat="-37.843320000000006" lon="145.34844">
    <ele>411.24000000000007</ele>
   </trkpt>
   <trkpt lat="-37.84337" lon="145.34801000000002">
    <ele>409.53000000000003</ele>
   </trkpt>
   <trkpt lat="-37.84382" lon="145.34711000000001">
    <ele>395.96000000000004</ele>
   </trkpt>
   <trkpt lat="-37.84384" lon="145.3469">
    <ele>391.19000000000005</ele>
   </trkpt>
   <trkpt lat="-37.84378" lon="145.34646">
    <ele>386.11</ele>
   </trkpt>
   <trkpt lat="-37.8438" lon="145.34609">
    <ele>380.21000000000004</ele>
   </trkpt>
   <trkpt lat="-37.84389" lon="145.34585">
    <ele>374.55000000000007</ele>
   </trkpt>
   <trkpt lat="-37.84393" lon="145.34585">
    <ele>373.49</ele>
   </trkpt>
   <trkpt lat="-37.844" lon="145.34587000000002">
    <ele>371.57</ele>
   </trkpt>
   <trkpt lat="-37.84418" lon="145.34607000000003">
    <ele>368.71000000000004</ele>
   </trkpt>
   <trkpt lat="-37.84445" lon="145.34615000000002">
    <ele>364.71000000000004</ele>
   </trkpt>
   <trkpt lat="-37.845060000000004" lon="145.34613000000002">
    <ele>351.46999999999997</ele>
   </trkpt>
   <trkpt lat="-37.84519" lon="145.34607000000003">
    <ele>347.77000000000004</ele>
   </trkpt>
   <trkpt lat="-37.84543" lon="145.3459">
    <ele>341.79</ele>
   </trkpt>
   <trkpt lat="-37.84548" lon="145.34592">
    <ele>339.98</ele>
   </trkpt>
   <trkpt lat="-37.84559" lon="145.34591">
    <ele>336.97</ele>
   </trkpt>
   <trkpt lat="-37.84564" lon="145.34588000000002">
    <ele>336.97</ele>
   </trkpt>
   <trkpt lat="-37.84566" lon="145.34605000000002">
    <ele>336.89000000000004</ele>
   </trkpt>
   <trkpt lat="-37.84566" lon="145.34625">
    <ele>337.18</ele>
   </trkpt>
   <trkpt lat="-37.8455" lon="145.34657">
    <ele>339.11</ele>
   </trkpt>
   <trkpt lat="-37.84539" lon="145.34672">
    <ele>339.6</ele>
   </trkpt>
   <trkpt lat="-37.84532" lon="145.34689">
    <ele>340.33000000000004</ele>
   </trkpt>
   <trkpt lat="-37.84525" lon="145.34717">
    <ele>339.71</ele>
   </trkpt>
   <trkpt lat="-37.8453" lon="145.34728">
    <ele>338.07000000000005</ele>
   </trkpt>
   <trkpt lat="-37.845330000000004" lon="145.34732000000002">
    <ele>337.05</ele>
   </trkpt>
   <trkpt lat="-37.845380000000006" lon="145.34732000000002">
    <ele>336.72</ele>
   </trkpt>
   <trkpt lat="-37.84548" lon="145.34724">
    <ele>334.41</ele>
   </trkpt>
   <trkpt lat="-37.84557" lon="145.3471">
    <ele>331.47</ele>
   </trkpt>
   <trkpt lat="-37.84575" lon="145.3469">
    <ele>328.66</ele>
   </trkpt>
   <trkpt lat="-37.84592" lon="145.34679">
    <ele>324.23</ele>
   </trkpt>
   <trkpt lat="-37.84619" lon="145.34649000000002">
    <ele>317.47</ele>
   </trkpt>
   <trkpt lat="-37.846410000000006" lon="145.34633000000002">
    <ele>313.56</ele>
   </trkpt>
   <trkpt lat="-37.84666" lon="145.3459">
    <ele>307.04</ele>
   </trkpt>
   <trkpt lat="-37.84675" lon="145.34558">
    <ele>304.69</ele>
   </trkpt>
   <trkpt lat="-37.846880000000006" lon="145.34483">
    <ele>297.52</ele>
   </trkpt>
   <trkpt lat="-37.84698" lon="145.34445000000002">
    <ele>295.18</ele>
   </trkpt>
   <trkpt lat="-37.84707" lon="145.3443">
    <ele>294.97</ele>
   </trkpt>
   <trkpt lat="-37.84716" lon="145.34429">
    <ele>294.81</ele>
   </trkpt>
   <trkpt lat="-37.84707" lon="145.34472000000002">
    <ele>292.83000000000004</ele>
   </trkpt>
   <trkpt lat="-37.84707" lon="145.34496000000001">
    <ele>292.97</ele>
   </trkpt>
   <trkpt lat="-37.847170000000006" lon="145.34528">
    <ele>293.49</ele>
   </trkpt>
   <trkpt lat="-37.84722" lon="145.34541000000002">
    <ele>293.6</ele>
   </trkpt>
   <trkpt lat="-37.84731" lon="145.34550000000002">
    <ele>293.62000000000006</ele>
   </trkpt>
   <trkpt lat="-37.84745" lon="145.34555">
    <ele>293.53000000000003</ele>
   </trkpt>
   <trkpt lat="-37.84756" lon="145.34556">
    <ele>293.3</ele>
   </trkpt>
   <trkpt lat="-37.84781" lon="145.34555">
    <ele>291.8</ele>
   </trkpt>
   <trkpt lat="-37.84789" lon="145.34557">
    <ele>291.15000000000003</ele>
   </trkpt>
   <trkpt lat="-37.84798" lon="145.34563">
    <ele>290.13</ele>
   </trkpt>
   <trkpt lat="-37.848200000000006" lon="145.3459">
    <ele>287.51000000000005</ele>
   </trkpt>
   <trkpt lat="-37.84848" lon="145.34639">
    <ele>284.32</ele>
   </trkpt>
   <trkpt lat="-37.84852" lon="145.34641000000002">
    <ele>283.68000000000006</ele>
   </trkpt>
   <trkpt lat="-37.84854" lon="145.34642000000002">
    <ele>283.68000000000006</ele>
   </trkpt>
   <trkpt lat="-37.84857" lon="145.34639">
    <ele>283.68000000000006</ele>
   </trkpt>
   <trkpt lat="-37.84859" lon="145.34626">
    <ele>282.35</ele>
   </trkpt>
   <trkpt lat="-37.848600001899754" lon="145.34558999997228">
    <ele>278.18</ele>
   </trkpt>
   <trkpt lat="-37.84861" lon="145.34492">
    <ele>275.57000000000005</ele>
   </trkpt>
   <trkpt lat="-37.84868" lon="145.34415">
    <ele>274.0</ele>
   </trkpt>
   <trkpt lat="-37.84875" lon="145.34365000000003">
    <ele>273.46000000000004</ele>
   </trkpt>
   <trkpt lat="-37.84875" lon="145.34361">
    <ele>273.45000000000005</ele>
   </trkpt>
   <trkpt lat="-37.84895" lon="145.34452000000002">
    <ele>284.48</ele>
   </trkpt>
   <trkpt lat="-37.8491" lon="145.34499000000002">
    <ele>291.67</ele>
   </trkpt>
   <trkpt lat="-37.84937" lon="145.34567">
    <ele>301.74</ele>
   </trkpt>
   <trkpt lat="-37.84964" lon="145.34674">
    <ele>310.93</ele>
   </trkpt>
   <trkpt lat="-37.84975" lon="145.34712000000002">
    <ele>313.20000000000005</ele>
   </trkpt>
   <trkpt lat="-37.85007" lon="145.34765000000002">
    <ele>320.88</ele>
   </trkpt>
   <trkpt lat="-37.85033500150118" lon="145.34822999808796">
    <ele>330.74</ele>
   </trkpt>
   <trkpt lat="-37.8506" lon="145.34881000000001">
    <ele>337.41</ele>
   </trkpt>
   <trkpt lat="-37.8508" lon="145.34936000000002">
    <ele>343.83000000000004</ele>
   </trkpt>
   <trkpt lat="-37.85098" lon="145.34968">
    <ele>352.2</ele>
   </trkpt>
   <trkpt lat="-37.851040000000005" lon="145.34975">
    <ele>357.89000000000004</ele>
   </trkpt>
   <trkpt lat="-37.85105" lon="145.34976">
    <ele>357.89000000000004</ele>
   </trkpt>
   <trkpt lat="-37.85116" lon="145.34979">
    <ele>362.47</ele>
   </trkpt>
   <trkpt lat="-37.85195" lon="145.34931">
    <ele>392.64000000000004</ele>
   </trkpt>
   <trkpt lat="-37.85246" lon="145.34893000000002">
    <ele>414.29</ele>
   </trkpt>
   <trkpt lat="-37.85262" lon="145.34889">
    <ele>418.44</ele>
   </trkpt>
   <trkpt lat="-37.85284" lon="145.34871">
    <ele>428.64</ele>
   </trkpt>
   <trkpt lat="-37.85298" lon="145.34869">
    <ele>429.86</ele>
   </trkpt>
   <trkpt lat="-37.85329" lon="145.34838000000002">
    <ele>437.44000000000005</ele>
   </trkpt>
   <trkpt lat="-37.85349" lon="145.34832">
    <ele>440.28000000000003</ele>
   </trkpt>
   <trkpt lat="-37.85347" lon="145.34849">
    <ele>440.73</ele>
   </trkpt>
   <trkpt lat="-37.85351" lon="145.34869">
    <ele>444.38000000000005</ele>
   </trkpt>
   <trkpt lat="-37.85378" lon="145.34931">
    <ele>450.42</ele>
   </trkpt>
   <trkpt lat="-37.853860000000005" lon="145.34941">
    <ele>452.77000000000004</ele>
   </trkpt>
   <trkpt lat="-37.85416" lon="145.34943">
    <ele>452.69000000000005</ele>
   </trkpt>
   <trkpt lat="-37.85474500023648" lon="145.3495549990445">
    <ele>454.6600000000001</ele>
   </trkpt>
   <trkpt lat="-37.85533" lon="145.34968">
    <ele>457.34000000000003</ele>
   </trkpt>
   <trkpt lat="-37.85577" lon="145.34973000000002">
    <ele>454.79</ele>
   </trkpt>
   <trkpt lat="-37.85632999992552" lon="145.34984499909962">
    <ele>444.48</ele>
   </trkpt>
   <trkpt lat="-37.85689" lon="145.34996">
    <ele>427.1</ele>
   </trkpt>
   <trkpt lat="-37.85716" lon="145.34998000000002">
    <ele>421.91</ele>
   </trkpt>
   <trkpt lat="-37.85743" lon="145.34995">
    <ele>414.77000000000004</ele>
   </trkpt>
   <trkpt lat="-37.85757" lon="145.34989000000002">
    <ele>412.95000000000005</ele>
   </trkpt>
   <trkpt lat="-37.85781" lon="145.34966">
    <ele>406.80000000000007</ele>
   </trkpt>
   <trkpt lat="-37.85801" lon="145.34944000000002">
    <ele>402.8</ele>
   </trkpt>
   <trkpt lat="-37.8581" lon="145.34938000000002">
    <ele>401.13000000000005</ele>
   </trkpt>
   <trkpt lat="-37.85875" lon="145.34924">
    <ele>391.34000000000003</ele>
   </trkpt>
   <trkpt lat="-37.8588" lon="145.34917000000002">
    <ele>390.71000000000004</ele>
   </trkpt>
   <trkpt lat="-37.85877" lon="145.34889">
    <ele>385.35</ele>
   </trkpt>
   <trkpt lat="-37.85893" lon="145.34861">
    <ele>381.53000000000003</ele>
   </trkpt>
   <trkpt lat="-37.859" lon="145.34836">
    <ele>376.07</ele>
   </trkpt>
   <trkpt lat="-37.85902" lon="145.34832">
    <ele>375.42</ele>
   </trkpt>
   <trkpt lat="-37.859080000000006" lon="145.34832">
    <ele>374.89000000000004</ele>
   </trkpt>
   <trkpt lat="-37.8592" lon="145.34841">
    <ele>373.59000000000003</ele>
   </trkpt>
   <trkpt lat="-37.85927" lon="145.34839000000002">
    <ele>372.55000000000007</ele>
   </trkpt>
   <trkpt lat="-37.8594" lon="145.34808">
    <ele>368.44000000000005</ele>
   </trkpt>
   <trkpt lat="-37.859500000000004" lon="145.34782">
    <ele>365.54</ele>
   </trkpt>
   <trkpt lat="-37.86027" lon="145.34776000000002">
    <ele>373.22</ele>
   </trkpt>
   <trkpt lat="-37.86032" lon="145.34775000000002">
    <ele>373.22</ele>
   </trkpt>
   <trkpt lat="-37.86068" lon="145.34759000000003">
    <ele>379.56</ele>
   </trkpt>
   <trkpt lat="-37.86097" lon="145.34757000000002">
    <ele>385.81000000000006</ele>
   </trkpt>
   <trkpt lat="-37.86101" lon="145.34763">
    <ele>386.42</ele>
   </trkpt>
   <trkpt lat="-37.86101" lon="145.34771">
    <ele>387.42</ele>
   </trkpt>
   <trkpt lat="-37.86097" lon="145.34788">
    <ele>387.84000000000003</ele>
   </trkpt>
   <trkpt lat="-37.86097" lon="145.34804000000003">
    <ele>389.79</ele>
   </trkpt>
   <trkpt lat="-37.86104" lon="145.34814">
    <ele>390.91</ele>
   </trkpt>
   <trkpt lat="-37.86112" lon="145.34822">
    <ele>392.32000000000005</ele>
   </trkpt>
   <trkpt lat="-37.86121" lon="145.34824">
    <ele>394.77</ele>
   </trkpt>
   <trkpt lat="-37.86128" lon="145.34822">
    <ele>395.55</ele>
   </trkpt>
   <trkpt lat="-37.86159" lon="145.34802000000002">
    <ele>398.71</ele>
   </trkpt>
   <trkpt lat="-37.86164" lon="145.34794000000002">
    <ele>399.29</ele>
   </trkpt>
   <trkpt lat="-37.86168" lon="145.34779">
    <ele>400.20000000000005</ele>
   </trkpt>
   <trkpt lat="-37.86162" lon="145.34753">
    <ele>401.95000000000005</ele>
   </trkpt>
   <trkpt lat="-37.86162" lon="145.34737">
    <ele>403.53000000000003</ele>
   </trkpt>
   <trkpt lat="-37.861790000000006" lon="145.34698">
    <ele>407.55</ele>
   </trkpt>
   <trkpt lat="-37.86186" lon="145.34747000000002">
    <ele>408.05</ele>
   </trkpt>
   <trkpt lat="-37.862115001274674" lon="145.34800999821977">
    <ele>407.27000000000004</ele>
   </trkpt>
   <trkpt lat="-37.862370000000006" lon="145.34855000000002">
    <ele>412.13000000000005</ele>
   </trkpt>
   <trkpt lat="-37.86238" lon="145.34883000000002">
    <ele>414.22</ele>
   </trkpt>
   <trkpt lat="-37.86236" lon="145.34893000000002">
    <ele>415.39000000000004</ele>
   </trkpt>
   <trkpt lat="-37.86224" lon="145.34912">
    <ele>417.45000000000005</ele>
   </trkpt>
   <trkpt lat="-37.86182" lon="145.34959">
    <ele>427.31</ele>
   </trkpt>
   <trkpt lat="-37.86166" lon="145.34982000000002">
    <ele>430.49</ele>
   </trkpt>
   <trkpt lat="-37.86135" lon="145.35045000000002">
    <ele>440.28000000000003</ele>
   </trkpt>
   <trkpt lat="-37.86115" lon="145.3511">
    <ele>446.93000000000006</ele>
   </trkpt>
   <trkpt lat="-37.861050000000006" lon="145.35133000000002">
    <ele>448.19</ele>
   </trkpt>
   <trkpt lat="-37.860960000000006" lon="145.35146">
    <ele>451.03000000000003</ele>
   </trkpt>
   <trkpt lat="-37.860490000000006" lon="145.35181">
    <ele>460.29</ele>
   </trkpt>
   <trkpt lat="-37.86023" lon="145.35196000000002">
    <ele>463.76000000000005</ele>
   </trkpt>
   <trkpt lat="-37.85994" lon="145.35221">
    <ele>469.85</ele>
   </trkpt>
   <trkpt lat="-37.8596" lon="145.35241000000002">
    <ele>473.54</ele>
   </trkpt>
   <trkpt lat="-37.85945" lon="145.35244">
    <ele>475.40000000000003</ele>
   </trkpt>
   <trkpt lat="-37.85938" lon="145.35266000000001">
    <ele>486.79</ele>
   </trkpt>
   <trkpt lat="-37.85929" lon="145.35279">
    <ele>489.57000000000005</ele>
   </trkpt>
   <trkpt lat="-37.85927" lon="145.35286000000002">
    <ele>489.57000000000005</ele>
   </trkpt>
   <trkpt lat="-37.85931" lon="145.35311000000002">
    <ele>495.2900000000001</ele>
   </trkpt>
   <trkpt lat="-37.85938" lon="145.35323000000002">
    <ele>498.15000000000003</ele>
   </trkpt>
   <trkpt lat="-37.85956" lon="145.35346">
    <ele>502.28000000000003</ele>
   </trkpt>
   <trkpt lat="-37.859930000000006" lon="145.35424">
    <ele>513.23</ele>
   </trkpt>
   <trkpt lat="-37.86016" lon="145.35452">
    <ele>513.39</ele>
   </trkpt>
   <trkpt lat="-37.860600000000005" lon="145.35546000000002">
    <ele>507.77000000000004</ele>
   </trkpt>
   <trkpt lat="-37.86061" lon="145.35558">
    <ele>505.26000000000005</ele>
   </trkpt>
   <trkpt lat="-37.86059" lon="145.35571000000002">
    <ele>498.78000000000003</ele>
   </trkpt>
   <trkpt lat="-37.86059" lon="145.35592000000003">
    <ele>498.78000000000003</ele>
   </trkpt>
   <trkpt lat="-37.860640000000004" lon="145.35598000000002">
    <ele>495.06000000000006</ele>
   </trkpt>
   <trkpt lat="-37.86072" lon="145.35566">
    <ele>494.21000000000004</ele>
   </trkpt>
   <trkpt lat="-37.86081" lon="145.35551">
    <ele>493.61</ele>
   </trkpt>
   <trkpt lat="-37.861260001004666" lon="145.35500000322173">
    <ele>490.6</ele>
   </trkpt>
   <trkpt lat="-37.86171" lon="145.35449">
    <ele>486.61</ele>
   </trkpt>
   <trkpt lat="-37.862" lon="145.35422">
    <ele>484.91</ele>
   </trkpt>
   <trkpt lat="-37.86241000035585" lon="145.3539150017247">
    <ele>482.33000000000004</ele>
   </trkpt>
   <trkpt lat="-37.862820000000006" lon="145.35361">
    <ele>480.53000000000003</ele>
   </trkpt>
  </trkseg>
 </trk>
</gpx>
