<?xml version="1.0" encoding="UTF-8"?>
<gpx creator="StravaGPX" version="1.1" xmlns="http://www.topografix.com/GPX/1/1" xmlns:xsi="http://www.w3.org/2001/XMLSchema-instance" xsi:schemaLocation="http://www.topografix.com/GPX/1/1 http://www.topografix.com/GPX/1/1/gpx.xsd">
 <metadata>
  <name> DTR 8k - Sunday 28 December</name>
  <author>
   <name>Richard Jones</name>
   <link href="https://www.strava.com/athletes/38085969"/>
  </author>
  <copyright author="OpenStreetMap contributors">
   <year>2020</year>
   <license>https://www.openstreetmap.org/copyright</license>
  </copyright>
  <link href="https://www.strava.com/routes/3439184262834898804"/>
 </metadata>
 <trk>
  <name> DTR 8k - Sunday 28 December</name>
  <link href="https://www.strava.com/routes/3439184262834898804"/>
  <type>trail_running</type>
  <trkseg>
   <trkpt lat="-37.887620000000005" lon="145.36993">
    <ele>360.90000000000003</ele>
   </trkpt>
   <trkpt lat="-37.88749" lon="145.36999">
    <ele>361.2</ele>
   </trkpt>
   <trkpt lat="-37.88738" lon="145.37008">
    <ele>362.82000000000005</ele>
   </trkpt>
   <trkpt lat="-37.88729" lon="145.37024000000002">
    <ele>364.56000000000006</ele>
   </trkpt>
   <trkpt lat="-37.886860000000006" lon="145.37055">
    <ele>367.26000000000005</ele>
   </trkpt>
   <trkpt lat="-37.88689" lon="145.37066000000002">
    <ele>371.02</ele>
   </trkpt>
   <trkpt lat="-37.88694" lon="145.37120000000002">
    <ele>371.58000000000004</ele>
   </trkpt>
   <trkpt lat="-37.88698" lon="145.37135">
    <ele>371.94000000000005</ele>
   </trkpt>
   <trkpt lat="-37.88705" lon="145.37147000000002">
    <ele>372.00000000000006</ele>
   </trkpt>
   <trkpt lat="-37.887425000479915" lon="145.37178999841026">
    <ele>369.87</ele>
   </trkpt>
   <trkpt lat="-37.887800000000006" lon="145.37211000000002">
    <ele>366.13</ele>
   </trkpt>
   <trkpt lat="-37.88841000078449" lon="145.37258499593258">
    <ele>361.24</ele>
   </trkpt>
   <trkpt lat="-37.88902" lon="145.37306">
    <ele>355.42</ele>
   </trkpt>
   <trkpt lat="-37.88950000069874" lon="145.37347499726883">
    <ele>352.51000000000005</ele>
   </trkpt>
   <trkpt lat="-37.88998" lon="145.37389000000002">
    <ele>347.27000000000004</ele>
   </trkpt>
   <trkpt lat="-37.89007" lon="145.37402">
    <ele>346.77000000000004</ele>
   </trkpt>
   <trkpt lat="-37.89011" lon="145.37428">
    <ele>345.89000000000004</ele>
   </trkpt>
   <trkpt lat="-37.89009" lon="145.37448">
    <ele>344.33000000000004</ele>
   </trkpt>
   <trkpt lat="-37.89" lon="145.37468">
    <ele>343.64</ele>
   </trkpt>
   <trkpt lat="-37.88993" lon="145.37490000000003">
    <ele>343.43</ele>
   </trkpt>
   <trkpt lat="-37.88996" lon="145.37504">
    <ele>343.88</ele>
   </trkpt>
   <trkpt lat="-37.89007" lon="145.37515000000002">
    <ele>344.90000000000003</ele>
   </trkpt>
   <trkpt lat="-37.89025" lon="145.37519">
    <ele>345.6</ele>
   </trkpt>
   <trkpt lat="-37.89052" lon="145.37509">
    <ele>345.01000000000005</ele>
   </trkpt>
   <trkpt lat="-37.89079" lon="145.37492">
    <ele>344.63000000000005</ele>
   </trkpt>
   <trkpt lat="-37.89112" lon="145.37477">
    <ele>341.08000000000004</ele>
   </trkpt>
   <trkpt lat="-37.891180000000006" lon="145.37476">
    <ele>340.11</ele>
   </trkpt>
   <trkpt lat="-37.89137" lon="145.37478000000002">
    <ele>337.54</ele>
   </trkpt>
   <trkpt lat="-37.89148" lon="145.37473">
    <ele>337.07000000000005</ele>
   </trkpt>
   <trkpt lat="-37.89157" lon="145.37466">
    <ele>336.18</ele>
   </trkpt>
   <trkpt lat="-37.89159" lon="145.37459">
    <ele>336.16</ele>
   </trkpt>
   <trkpt lat="-37.89159" lon="145.37401">
    <ele>340.94</ele>
   </trkpt>
   <trkpt lat="-37.89161" lon="145.37392">
    <ele>340.94</ele>
   </trkpt>
   <trkpt lat="-37.89166" lon="145.37383">
    <ele>342.39000000000004</ele>
   </trkpt>
   <trkpt lat="-37.89175" lon="145.37377">
    <ele>343.42</ele>
   </trkpt>
   <trkpt lat="-37.89193" lon="145.37368">
    <ele>346.32</ele>
   </trkpt>
   <trkpt lat="-37.892100000000006" lon="145.37365">
    <ele>347.44</ele>
   </trkpt>
   <trkpt lat="-37.892120000000006" lon="145.37365">
    <ele>347.78000000000003</ele>
   </trkpt>
   <trkpt lat="-37.8924" lon="145.37368">
    <ele>351.43</ele>
   </trkpt>
   <trkpt lat="-37.89284" lon="145.37382000000002">
    <ele>356.71000000000004</ele>
   </trkpt>
   <trkpt lat="-37.89331" lon="145.37409000000002">
    <ele>361.12000000000006</ele>
   </trkpt>
   <trkpt lat="-37.89349" lon="145.37424000000001">
    <ele>363.59000000000003</ele>
   </trkpt>
   <trkpt lat="-37.89383" lon="145.37475">
    <ele>369.66</ele>
   </trkpt>
   <trkpt lat="-37.89392" lon="145.37482">
    <ele>372.24</ele>
   </trkpt>
   <trkpt lat="-37.89423" lon="145.37495">
    <ele>377.68</ele>
   </trkpt>
   <trkpt lat="-37.89437" lon="145.37505000000002">
    <ele>379.20000000000005</ele>
   </trkpt>
   <trkpt lat="-37.894560000000006" lon="145.37512">
    <ele>379.20000000000005</ele>
   </trkpt>
   <trkpt lat="-37.89479" lon="145.37516000000002">
    <ele>387.87000000000006</ele>
   </trkpt>
   <trkpt lat="-37.89513" lon="145.37514000000002">
    <ele>391.91</ele>
   </trkpt>
   <trkpt lat="-37.89549" lon="145.37521">
    <ele>396.3</ele>
   </trkpt>
   <trkpt lat="-37.8958" lon="145.37517000000003">
    <ele>398.11</ele>
   </trkpt>
   <trkpt lat="-37.896080000000005" lon="145.37524000000002">
    <ele>398.61</ele>
   </trkpt>
   <trkpt lat="-37.89636" lon="145.37518">
    <ele>398.89</ele>
   </trkpt>
   <trkpt lat="-37.89658" lon="145.37518">
    <ele>398.79</ele>
   </trkpt>
   <trkpt lat="-37.89676" lon="145.37524000000002">
    <ele>398.86</ele>
   </trkpt>
   <trkpt lat="-37.89701" lon="145.37541000000002">
    <ele>399.01000000000005</ele>
   </trkpt>
   <trkpt lat="-37.89723" lon="145.37565">
    <ele>399.45000000000005</ele>
   </trkpt>
   <trkpt lat="-37.89734" lon="145.37586000000002">
    <ele>399.94</ele>
   </trkpt>
   <trkpt lat="-37.897540000000006" lon="145.37663">
    <ele>399.08000000000004</ele>
   </trkpt>
   <trkpt lat="-37.89772" lon="145.37738000000002">
    <ele>396.55</ele>
   </trkpt>
   <trkpt lat="-37.89781" lon="145.3779">
    <ele>396.18</ele>
   </trkpt>
   <trkpt lat="-37.8979" lon="145.37899000000002">
    <ele>399.55</ele>
   </trkpt>
   <trkpt lat="-37.897920000000006" lon="145.37907">
    <ele>399.45000000000005</ele>
   </trkpt>
   <trkpt lat="-37.897980000000004" lon="145.37919000000002">
    <ele>398.17</ele>
   </trkpt>
   <trkpt lat="-37.89822" lon="145.37928000000002">
    <ele>398.49</ele>
   </trkpt>
   <trkpt lat="-37.8984" lon="145.3794">
    <ele>397.89</ele>
   </trkpt>
   <trkpt lat="-37.899115000498796" lon="145.37975999647793">
    <ele>391.66</ele>
   </trkpt>
   <trkpt lat="-37.89983" lon="145.38012">
    <ele>381.85</ele>
   </trkpt>
   <trkpt lat="-37.90025" lon="145.38027000000002">
    <ele>378.67</ele>
   </trkpt>
   <trkpt lat="-37.90095" lon="145.38066">
    <ele>375.1</ele>
   </trkpt>
   <trkpt lat="-37.90166" lon="145.38102">
    <ele>370.93</ele>
   </trkpt>
   <trkpt lat="-37.9022" lon="145.38132000000002">
    <ele>370.11000000000007</ele>
   </trkpt>
   <trkpt lat="-37.90243" lon="145.38138">
    <ele>369.83000000000004</ele>
   </trkpt>
   <trkpt lat="-37.9026" lon="145.38141000000002">
    <ele>369.19</ele>
   </trkpt>
   <trkpt lat="-37.90278" lon="145.38134000000002">
    <ele>367.59000000000003</ele>
   </trkpt>
   <trkpt lat="-37.90285" lon="145.38128">
    <ele>366.33000000000004</ele>
   </trkpt>
   <trkpt lat="-37.90307" lon="145.38094">
    <ele>360.07000000000005</ele>
   </trkpt>
   <trkpt lat="-37.90325" lon="145.38043000000002">
    <ele>349.57000000000005</ele>
   </trkpt>
   <trkpt lat="-37.90339" lon="145.38022">
    <ele>344.86000000000007</ele>
   </trkpt>
   <trkpt lat="-37.90368" lon="145.37987">
    <ele>336.46000000000004</ele>
   </trkpt>
   <trkpt lat="-37.90404" lon="145.37937000000002">
    <ele>324.93000000000006</ele>
   </trkpt>
   <trkpt lat="-37.904320000859784" lon="145.3788850020797">
    <ele>316.18</ele>
   </trkpt>
   <trkpt lat="-37.9046" lon="145.3784">
    <ele>304.54</ele>
   </trkpt>
   <trkpt lat="-37.90475" lon="145.37804">
    <ele>294.76</ele>
   </trkpt>
   <trkpt lat="-37.904970000000006" lon="145.37744">
    <ele>281.95000000000005</ele>
   </trkpt>
   <trkpt lat="-37.90523000176999" lon="145.3768050020867">
    <ele>274.3</ele>
   </trkpt>
   <trkpt lat="-37.90549" lon="145.37617">
    <ele>271.96000000000004</ele>
   </trkpt>
   <trkpt lat="-37.905910000000006" lon="145.37546">
    <ele>267.68</ele>
   </trkpt>
   <trkpt lat="-37.90643" lon="145.37461000000002">
    <ele>258.04</ele>
   </trkpt>
   <trkpt lat="-37.9069" lon="145.37378">
    <ele>247.06000000000003</ele>
   </trkpt>
   <trkpt lat="-37.90699" lon="145.37323">
    <ele>242.08</ele>
   </trkpt>
   <trkpt lat="-37.90713" lon="145.37263000000002">
    <ele>232.07000000000002</ele>
   </trkpt>
   <trkpt lat="-37.90713" lon="145.37253">
    <ele>230.78</ele>
   </trkpt>
   <trkpt lat="-37.90701" lon="145.37227000000001">
    <ele>228.48000000000002</ele>
   </trkpt>
   <trkpt lat="-37.90672" lon="145.37188">
    <ele>222.45000000000002</ele>
   </trkpt>
   <trkpt lat="-37.90639" lon="145.37087000000002">
    <ele>225.35000000000002</ele>
   </trkpt>
   <trkpt lat="-37.90628" lon="145.37043">
    <ele>227.95000000000002</ele>
   </trkpt>
   <trkpt lat="-37.9063" lon="145.37003">
    <ele>228.86</ele>
   </trkpt>
   <trkpt lat="-37.90634" lon="145.36982">
    <ele>228.80000000000004</ele>
   </trkpt>
   <trkpt lat="-37.9065" lon="145.36961000000002">
    <ele>228.52</ele>
   </trkpt>
   <trkpt lat="-37.9067" lon="145.36924000000002">
    <ele>228.92000000000002</ele>
   </trkpt>
   <trkpt lat="-37.90677" lon="145.36897000000002">
    <ele>228.9</ele>
   </trkpt>
   <trkpt lat="-37.906740000000006" lon="145.36868">
    <ele>229.03</ele>
   </trkpt>
   <trkpt lat="-37.90668" lon="145.36825000000002">
    <ele>229.48000000000002</ele>
   </trkpt>
   <trkpt lat="-37.90675" lon="145.36773000000002">
    <ele>226.63000000000002</ele>
   </trkpt>
   <trkpt lat="-37.90663" lon="145.36713">
    <ele>224.75</ele>
   </trkpt>
   <trkpt lat="-37.90661" lon="145.36685">
    <ele>227.01000000000002</ele>
   </trkpt>
   <trkpt lat="-37.90657" lon="145.36668">
    <ele>228.89000000000001</ele>
   </trkpt>
   <trkpt lat="-37.90663" lon="145.36637000000002">
    <ele>236.99</ele>
   </trkpt>
   <trkpt lat="-37.90646" lon="145.36564">
    <ele>257.3</ele>
   </trkpt>
   <trkpt lat="-37.90623" lon="145.36459000000002">
    <ele>277.48</ele>
   </trkpt>
   <trkpt lat="-37.90614" lon="145.36395000000002">
    <ele>288.74</ele>
   </trkpt>
   <trkpt lat="-37.906060000000004" lon="145.36378000000002">
    <ele>290.17</ele>
   </trkpt>
   <trkpt lat="-37.905770000000004" lon="145.36347">
    <ele>294.99</ele>
   </trkpt>
   <trkpt lat="-37.90565" lon="145.3634">
    <ele>296.42</ele>
   </trkpt>
   <trkpt lat="-37.90545" lon="145.36334000000002">
    <ele>299.91</ele>
   </trkpt>
   <trkpt lat="-37.905350000000006" lon="145.36324000000002">
    <ele>299.91</ele>
   </trkpt>
   <trkpt lat="-37.90522" lon="145.36309">
    <ele>306.72</ele>
   </trkpt>
   <trkpt lat="-37.9046" lon="145.36269000000001">
    <ele>314.51</ele>
   </trkpt>
   <trkpt lat="-37.90442" lon="145.36266">
    <ele>316.38000000000005</ele>
   </trkpt>
   <trkpt lat="-37.90417" lon="145.36270000000002">
    <ele>317.89</ele>
   </trkpt>
   <trkpt lat="-37.90366" lon="145.36271000000002">
    <ele>322.07</ele>
   </trkpt>
   <trkpt lat="-37.90307" lon="145.36296000000002">
    <ele>327.1</ele>
   </trkpt>
   <trkpt lat="-37.90283" lon="145.36315000000002">
    <ele>329.94</ele>
   </trkpt>
   <trkpt lat="-37.90263" lon="145.36328">
    <ele>332.61</ele>
   </trkpt>
   <trkpt lat="-37.90216" lon="145.36339">
    <ele>339.46000000000004</ele>
   </trkpt>
   <trkpt lat="-37.90189" lon="145.36350000000002">
    <ele>342.43</ele>
   </trkpt>
   <trkpt lat="-37.901450000000004" lon="145.36383">
    <ele>346.92</ele>
   </trkpt>
   <trkpt lat="-37.90122" lon="145.36398">
    <ele>349.29</ele>
   </trkpt>
   <trkpt lat="-37.90095" lon="145.36405000000002">
    <ele>352.41</ele>
   </trkpt>
   <trkpt lat="-37.9007" lon="145.36419">
    <ele>354.43</ele>
   </trkpt>
   <trkpt lat="-37.90052" lon="145.36433000000002">
    <ele>355.38</ele>
   </trkpt>
   <trkpt lat="-37.90034" lon="145.36439000000001">
    <ele>356.6</ele>
   </trkpt>
   <trkpt lat="-37.9001" lon="145.36443">
    <ele>358.03000000000003</ele>
   </trkpt>
   <trkpt lat="-37.899950000000004" lon="145.36442000000002">
    <ele>359.00000000000006</ele>
   </trkpt>
   <trkpt lat="-37.899530000000006" lon="145.36441000000002">
    <ele>360.85</ele>
   </trkpt>
   <trkpt lat="-37.89945" lon="145.3642">
    <ele>359.90000000000003</ele>
   </trkpt>
   <trkpt lat="-37.89936" lon="145.36412">
    <ele>359.48</ele>
   </trkpt>
   <trkpt lat="-37.89907" lon="145.36374">
    <ele>357.83000000000004</ele>
   </trkpt>
   <trkpt lat="-37.89898" lon="145.36370000000002">
    <ele>357.8</ele>
   </trkpt>
   <trkpt lat="-37.89878" lon="145.36367">
    <ele>357.95000000000005</ele>
   </trkpt>
   <trkpt lat="-37.89846" lon="145.36354">
    <ele>357.85</ele>
   </trkpt>
   <trkpt lat="-37.8984" lon="145.36349">
    <ele>357.49</ele>
   </trkpt>
   <trkpt lat="-37.89837" lon="145.36339">
    <ele>357.22</ele>
   </trkpt>
   <trkpt lat="-37.8984" lon="145.36321">
    <ele>355.76</ele>
   </trkpt>
   <trkpt lat="-37.89853" lon="145.36281000000002">
    <ele>352.49</ele>
   </trkpt>
   <trkpt lat="-37.8986" lon="145.36254000000002">
    <ele>350.80000000000007</ele>
   </trkpt>
   <trkpt lat="-37.89873" lon="145.36228">
    <ele>349.62000000000006</ele>
   </trkpt>
   <trkpt lat="-37.89871" lon="145.3621">
    <ele>348.68000000000006</ele>
   </trkpt>
   <trkpt lat="-37.89875" lon="145.36189000000002">
    <ele>348.68000000000006</ele>
   </trkpt>
   <trkpt lat="-37.89884" lon="145.36182000000002">
    <ele>347.1</ele>
   </trkpt>
   <trkpt lat="-37.89916" lon="145.36178">
    <ele>346.27000000000004</ele>
   </trkpt>
   <trkpt lat="-37.89949" lon="145.36182000000002">
    <ele>344.34000000000003</ele>
   </trkpt>
   <trkpt lat="-37.89949" lon="145.36183000000003">
    <ele>344.42</ele>
   </trkpt>
   <trkpt lat="-37.90001" lon="145.36191000000002">
    <ele>341.27000000000004</ele>
   </trkpt>
   <trkpt lat="-37.90012" lon="145.36187">
    <ele>339.9200000000001</ele>
   </trkpt>
   <trkpt lat="-37.90034" lon="145.36195">
    <ele>338.68</ele>
   </trkpt>
   <trkpt lat="-37.90039" lon="145.36194">
    <ele>338.34000000000003</ele>
   </trkpt>
   <trkpt lat="-37.90046" lon="145.36185">
    <ele>337.15</ele>
   </trkpt>
   <trkpt lat="-37.9005" lon="145.36184">
    <ele>337.15</ele>
   </trkpt>
   <trkpt lat="-37.900600000000004" lon="145.36185">
    <ele>335.88</ele>
   </trkpt>
   <trkpt lat="-37.900600000000004" lon="145.36186">
    <ele>339.33000000000004</ele>
   </trkpt>
   <trkpt lat="-37.900850000000005" lon="145.36180000000002">
    <ele>333.01000000000005</ele>
   </trkpt>
   <trkpt lat="-37.900830000000006" lon="145.36186">
    <ele>333.37</ele>
   </trkpt>
   <trkpt lat="-37.90077" lon="145.36145000000002">
    <ele>334.03000000000003</ele>
   </trkpt>
   <trkpt lat="-37.90059" lon="145.36069">
    <ele>338.40000000000003</ele>
   </trkpt>
   <trkpt lat="-37.90057" lon="145.36046000000002">
    <ele>338.03000000000003</ele>
   </trkpt>
   <trkpt lat="-37.9005" lon="145.36012000000002">
    <ele>334.79</ele>
   </trkpt>
   <trkpt lat="-37.9003" lon="145.35946">
    <ele>316.54</ele>
   </trkpt>
   <trkpt lat="-37.9001" lon="145.35860000000002">
    <ele>302.00000000000006</ele>
   </trkpt>
   <trkpt lat="-37.9001" lon="145.35835">
    <ele>298.24</ele>
   </trkpt>
   <trkpt lat="-37.900000000000006" lon="145.35778000000002">
    <ele>284.75</ele>
   </trkpt>
   <trkpt lat="-37.89992" lon="145.35763">
    <ele>275.88</ele>
   </trkpt>
   <trkpt lat="-37.89992" lon="145.35755">
    <ele>275.88</ele>
   </trkpt>
   <trkpt lat="-37.900000000000006" lon="145.35732000000002">
    <ele>269.57000000000005</ele>
   </trkpt>
   <trkpt lat="-37.900000000000006" lon="145.35713">
    <ele>265.5</ele>
   </trkpt>
   <trkpt lat="-37.89981" lon="145.35703">
    <ele>269.17</ele>
   </trkpt>
   <trkpt lat="-37.89967" lon="145.35702">
    <ele>270.42</ele>
   </trkpt>
   <trkpt lat="-37.89956" lon="145.35691">
    <ele>271.06</ele>
   </trkpt>
   <trkpt lat="-37.89916" lon="145.35669000000001">
    <ele>276.28000000000003</ele>
   </trkpt>
   <trkpt lat="-37.89905" lon="145.35671000000002">
    <ele>278.08000000000004</ele>
   </trkpt>
   <trkpt lat="-37.89878" lon="145.35686">
    <ele>284.73</ele>
   </trkpt>
   <trkpt lat="-37.89851" lon="145.35715000000002">
    <ele>287.14</ele>
   </trkpt>
   <trkpt lat="-37.89837" lon="145.35737">
    <ele>287.75</ele>
   </trkpt>
   <trkpt lat="-37.89831" lon="145.35755">
    <ele>288.36</ele>
   </trkpt>
   <trkpt lat="-37.89824" lon="145.35765">
    <ele>289.03000000000003</ele>
   </trkpt>
   <trkpt lat="-37.89817" lon="145.35786000000002">
    <ele>290.19</ele>
   </trkpt>
   <trkpt lat="-37.897870000000005" lon="145.35809">
    <ele>292.12000000000006</ele>
   </trkpt>
   <trkpt lat="-37.8979" lon="145.35808">
    <ele>292.19</ele>
   </trkpt>
   <trkpt lat="-37.89781" lon="145.35814000000002">
    <ele>291.97</ele>
   </trkpt>
   <trkpt lat="-37.89768" lon="145.35815000000002">
    <ele>291.25</ele>
   </trkpt>
   <trkpt lat="-37.8975" lon="145.35823000000002">
    <ele>292.08</ele>
   </trkpt>
   <trkpt lat="-37.89741" lon="145.35832000000002">
    <ele>293.18000000000006</ele>
   </trkpt>
   <trkpt lat="-37.89728" lon="145.35854">
    <ele>294.34000000000003</ele>
   </trkpt>
   <trkpt lat="-37.89717" lon="145.35867000000002">
    <ele>295.16</ele>
   </trkpt>
   <trkpt lat="-37.897090000000006" lon="145.35867000000002">
    <ele>295.64</ele>
   </trkpt>
   <trkpt lat="-37.89699" lon="145.35877000000002">
    <ele>296.63</ele>
   </trkpt>
   <trkpt lat="-37.89696" lon="145.3589">
    <ele>296.63</ele>
   </trkpt>
   <trkpt lat="-37.89683" lon="145.35912000000002">
    <ele>297.87</ele>
   </trkpt>
   <trkpt lat="-37.89672" lon="145.35945">
    <ele>298.54</ele>
   </trkpt>
   <trkpt lat="-37.89665" lon="145.35958000000002">
    <ele>299.14</ele>
   </trkpt>
   <trkpt lat="-37.89661" lon="145.35992000000002">
    <ele>301.11</ele>
   </trkpt>
   <trkpt lat="-37.89645" lon="145.36017">
    <ele>302.34</ele>
   </trkpt>
   <trkpt lat="-37.89618" lon="145.36090000000002">
    <ele>305.86</ele>
   </trkpt>
   <trkpt lat="-37.89609" lon="145.36145000000002">
    <ele>309.6</ele>
   </trkpt>
   <trkpt lat="-37.89578" lon="145.36200000000002">
    <ele>314.04</ele>
   </trkpt>
   <trkpt lat="-37.8956" lon="145.36243000000002">
    <ele>316.85</ele>
   </trkpt>
   <trkpt lat="-37.895500000000006" lon="145.36281000000002">
    <ele>318.84000000000003</ele>
   </trkpt>
   <trkpt lat="-37.89537" lon="145.36299000000002">
    <ele>320.20000000000005</ele>
   </trkpt>
   <trkpt lat="-37.89537" lon="145.36316000000002">
    <ele>322.32000000000005</ele>
   </trkpt>
   <trkpt lat="-37.89546" lon="145.36337">
    <ele>325.39</ele>
   </trkpt>
   <trkpt lat="-37.89551" lon="145.36357">
    <ele>327.93</ele>
   </trkpt>
   <trkpt lat="-37.89558" lon="145.36450000000002">
    <ele>337.51000000000005</ele>
   </trkpt>
   <trkpt lat="-37.8956" lon="145.36513000000002">
    <ele>346.43</ele>
   </trkpt>
   <trkpt lat="-37.89564" lon="145.36536">
    <ele>346.43</ele>
   </trkpt>
   <trkpt lat="-37.89573" lon="145.36615">
    <ele>358.86</ele>
   </trkpt>
   <trkpt lat="-37.89587" lon="145.36672000000002">
    <ele>366.19</ele>
   </trkpt>
   <trkpt lat="-37.8959350014648" lon="145.36730999940988">
    <ele>371.92</ele>
   </trkpt>
   <trkpt lat="-37.896" lon="145.36790000000002">
    <ele>370.41</ele>
   </trkpt>
   <trkpt lat="-37.89578" lon="145.36797">
    <ele>370.02</ele>
   </trkpt>
   <trkpt lat="-37.89508" lon="145.36802">
    <ele>369.64000000000004</ele>
   </trkpt>
   <trkpt lat="-37.89464" lon="145.36809000000002">
    <ele>368.26000000000005</ele>
   </trkpt>
   <trkpt lat="-37.89439" lon="145.3681">
    <ele>368.05</ele>
   </trkpt>
   <trkpt lat="-37.894360000000006" lon="145.36808000000002">
    <ele>368.05</ele>
   </trkpt>
   <trkpt lat="-37.89414" lon="145.36802">
    <ele>367.53000000000003</ele>
   </trkpt>
   <trkpt lat="-37.89349" lon="145.36792">
    <ele>364.50000000000006</ele>
   </trkpt>
   <trkpt lat="-37.89316" lon="145.36801">
    <ele>363.46</ele>
   </trkpt>
   <trkpt lat="-37.89269" lon="145.36831">
    <ele>362.33000000000004</ele>
   </trkpt>
   <trkpt lat="-37.89226" lon="145.36863000000002">
    <ele>362.72</ele>
   </trkpt>
   <trkpt lat="-37.89184" lon="145.36885">
    <ele>363.85</ele>
   </trkpt>
   <trkpt lat="-37.89146" lon="145.369">
    <ele>365.26000000000005</ele>
   </trkpt>
   <trkpt lat="-37.89101" lon="145.36944000000003">
    <ele>367.08</ele>
   </trkpt>
   <trkpt lat="-37.89074" lon="145.36965">
    <ele>369.37</ele>
   </trkpt>
   <trkpt lat="-37.890150000000006" lon="145.36999">
    <ele>370.01</ele>
   </trkpt>
   <trkpt lat="-37.88996" lon="145.37003">
    <ele>369.69</ele>
   </trkpt>
   <trkpt lat="-37.889770000000006" lon="145.37002">
    <ele>369.27000000000004</ele>
   </trkpt>
   <trkpt lat="-37.889540000000004" lon="145.37005000000002">
    <ele>368.50000000000006</ele>
   </trkpt>
   <trkpt lat="-37.88904499995207" lon="145.37000499969233">
    <ele>364.52</ele>
   </trkpt>
   <trkpt lat="-37.88855" lon="145.36996000000002">
    <ele>362.22</ele>
   </trkpt>
   <trkpt lat="-37.88812" lon="145.36999">
    <ele>361.40000000000003</ele>
   </trkpt>
   <trkpt lat="-37.887620000000005" lon="145.36993">
    <ele>360.90000000000003</ele>
   </trkpt>
  </trkseg>
 </trk>
</gpx>
