<?xml version="1.0" encoding="UTF-8"?>
<gpx creator="StravaGPX" version="1.1" xmlns="http://www.topografix.com/GPX/1/1" xmlns:xsi="http://www.w3.org/2001/XMLSchema-instance" xsi:schemaLocation="http://www.topografix.com/GPX/1/1 http://www.topografix.com/GPX/1/1/gpx.xsd">
 <metadata>
  <name>Sunday 10 DEC 23 - 14</name>
  <author>
   <name>Majid Nazem 🇦🇺</name>
   <link href="https://www.strava.com/athletes/5612969"/>
  </author>
  <copyright author="OpenStreetMap contributors">
   <year>2020</year>
   <license>https://www.openstreetmap.org/copyright</license>
  </copyright>
  <link href="https://www.strava.com/routes/3167651674967566284"/>
 </metadata>
 <trk>
  <name>Sunday 10 DEC 23 - 14</name>
  <link href="https://www.strava.com/routes/3167651674967566284"/>
  <type>running</type>
  <trkseg>
   <trkpt lat="-37.86287" lon="145.35383000000002">
    <ele>481.27000000000004</ele>
   </trkpt>
   <trkpt lat="-37.862820000000006" lon="145.35372">
    <ele>479.48</ele>
   </trkpt>
   <trkpt lat="-37.862860000000005" lon="145.35369">
    <ele>479.48</ele>
   </trkpt>
   <trkpt lat="-37.86263" lon="145.35319">
    <ele>477.33000000000004</ele>
   </trkpt>
   <trkpt lat="-37.86256" lon="145.353">
    <ele>475.34000000000003</ele>
   </trkpt>
   <trkpt lat="-37.86253" lon="145.35281">
    <ele>474.72</ele>
   </trkpt>
   <trkpt lat="-37.862460000000006" lon="145.35279">
    <ele>474.23</ele>
   </trkpt>
   <trkpt lat="-37.8624" lon="145.35274">
    <ele>473.95000000000005</ele>
   </trkpt>
   <trkpt lat="-37.862190000000005" lon="145.3522">
    <ele>470.28000000000003</ele>
   </trkpt>
   <trkpt lat="-37.86218" lon="145.35177000000002">
    <ele>466.99</ele>
   </trkpt>
   <trkpt lat="-37.8622" lon="145.3514">
    <ele>464.9200000000001</ele>
   </trkpt>
   <trkpt lat="-37.86256" lon="145.35098000000002">
    <ele>458.92</ele>
   </trkpt>
   <trkpt lat="-37.86258" lon="145.35084">
    <ele>455.86</ele>
   </trkpt>
   <trkpt lat="-37.862730000000006" lon="145.35069000000001">
    <ele>454.68</ele>
   </trkpt>
   <trkpt lat="-37.86233" lon="145.35036000000002">
    <ele>443.40000000000003</ele>
   </trkpt>
   <trkpt lat="-37.86218" lon="145.35036000000002">
    <ele>443.50000000000006</ele>
   </trkpt>
   <trkpt lat="-37.86175" lon="145.35062000000002">
    <ele>446.90000000000003</ele>
   </trkpt>
   <trkpt lat="-37.86157" lon="145.35075">
    <ele>447.59000000000003</ele>
   </trkpt>
   <trkpt lat="-37.86144" lon="145.35096000000001">
    <ele>447.12</ele>
   </trkpt>
   <trkpt lat="-37.86104" lon="145.35133000000002">
    <ele>446.93000000000006</ele>
   </trkpt>
   <trkpt lat="-37.860960000000006" lon="145.35146">
    <ele>449.08000000000004</ele>
   </trkpt>
   <trkpt lat="-37.86092" lon="145.35148">
    <ele>449.71000000000004</ele>
   </trkpt>
   <trkpt lat="-37.860490000000006" lon="145.35181">
    <ele>458.41</ele>
   </trkpt>
   <trkpt lat="-37.86023" lon="145.35196000000002">
    <ele>463.18</ele>
   </trkpt>
   <trkpt lat="-37.85994" lon="145.35221">
    <ele>468.02000000000004</ele>
   </trkpt>
   <trkpt lat="-37.8596" lon="145.35241000000002">
    <ele>472.24000000000007</ele>
   </trkpt>
   <trkpt lat="-37.85945" lon="145.35244">
    <ele>474.11</ele>
   </trkpt>
   <trkpt lat="-37.8592" lon="145.35248">
    <ele>478.92</ele>
   </trkpt>
   <trkpt lat="-37.85851" lon="145.35268000000002">
    <ele>487.55</ele>
   </trkpt>
   <trkpt lat="-37.85815" lon="145.35273">
    <ele>494.86</ele>
   </trkpt>
   <trkpt lat="-37.857635000010575" lon="145.35270499982573">
    <ele>499.86</ele>
   </trkpt>
   <trkpt lat="-37.85712" lon="145.35268000000002">
    <ele>503.9800000000001</ele>
   </trkpt>
   <trkpt lat="-37.85701" lon="145.35266000000001">
    <ele>506.8</ele>
   </trkpt>
   <trkpt lat="-37.85683" lon="145.35260000000002">
    <ele>508.07</ele>
   </trkpt>
   <trkpt lat="-37.85636" lon="145.35252">
    <ele>509.50000000000006</ele>
   </trkpt>
   <trkpt lat="-37.85622" lon="145.35247">
    <ele>508.51</ele>
   </trkpt>
   <trkpt lat="-37.85614" lon="145.35240000000002">
    <ele>507.5200000000001</ele>
   </trkpt>
   <trkpt lat="-37.85580500091417" lon="145.35193999793628">
    <ele>497.63</ele>
   </trkpt>
   <trkpt lat="-37.855470000000004" lon="145.35148">
    <ele>491.31</ele>
   </trkpt>
   <trkpt lat="-37.85528" lon="145.35168000000002">
    <ele>487.63000000000005</ele>
   </trkpt>
   <trkpt lat="-37.85526" lon="145.35179000000002">
    <ele>487.12000000000006</ele>
   </trkpt>
   <trkpt lat="-37.85521" lon="145.35193">
    <ele>485.84000000000003</ele>
   </trkpt>
   <trkpt lat="-37.855140000000006" lon="145.35198000000003">
    <ele>484.14</ele>
   </trkpt>
   <trkpt lat="-37.85486" lon="145.3523">
    <ele>474.64000000000004</ele>
   </trkpt>
   <trkpt lat="-37.85483" lon="145.35241000000002">
    <ele>473.23</ele>
   </trkpt>
   <trkpt lat="-37.854820000000004" lon="145.35242000000002">
    <ele>473.1</ele>
   </trkpt>
   <trkpt lat="-37.85472" lon="145.3527">
    <ele>468.87000000000006</ele>
   </trkpt>
   <trkpt lat="-37.85466" lon="145.35276000000002">
    <ele>466.15000000000003</ele>
   </trkpt>
   <trkpt lat="-37.85461" lon="145.35294000000002">
    <ele>464.49</ele>
   </trkpt>
   <trkpt lat="-37.85461" lon="145.35309">
    <ele>463.05</ele>
   </trkpt>
   <trkpt lat="-37.854580000000006" lon="145.35319">
    <ele>461.05</ele>
   </trkpt>
   <trkpt lat="-37.85452" lon="145.35320000000002">
    <ele>459.66</ele>
   </trkpt>
   <trkpt lat="-37.85439" lon="145.35299">
    <ele>455.86</ele>
   </trkpt>
   <trkpt lat="-37.854350000000004" lon="145.35299">
    <ele>455.86</ele>
   </trkpt>
   <trkpt lat="-37.85434" lon="145.35327">
    <ele>456.95</ele>
   </trkpt>
   <trkpt lat="-37.854110000000006" lon="145.35432">
    <ele>462.18</ele>
   </trkpt>
   <trkpt lat="-37.85403" lon="145.35528000000002">
    <ele>466.33000000000004</ele>
   </trkpt>
   <trkpt lat="-37.85405" lon="145.35554000000002">
    <ele>466.33000000000004</ele>
   </trkpt>
   <trkpt lat="-37.854110000000006" lon="145.35583000000003">
    <ele>468.59000000000003</ele>
   </trkpt>
   <trkpt lat="-37.85423" lon="145.35635000000002">
    <ele>469.85</ele>
   </trkpt>
   <trkpt lat="-37.85421" lon="145.35660000000001">
    <ele>470.83000000000004</ele>
   </trkpt>
   <trkpt lat="-37.85412" lon="145.35674">
    <ele>472.4200000000001</ele>
   </trkpt>
   <trkpt lat="-37.8538" lon="145.35702">
    <ele>474.67</ele>
   </trkpt>
   <trkpt lat="-37.85374" lon="145.35714000000002">
    <ele>474.73</ele>
   </trkpt>
   <trkpt lat="-37.85351" lon="145.35703">
    <ele>470.66</ele>
   </trkpt>
   <trkpt lat="-37.85311" lon="145.35713">
    <ele>465.90000000000003</ele>
   </trkpt>
   <trkpt lat="-37.85302" lon="145.35724000000002">
    <ele>466.59000000000003</ele>
   </trkpt>
   <trkpt lat="-37.85295" lon="145.35742000000002">
    <ele>469.38</ele>
   </trkpt>
   <trkpt lat="-37.8528" lon="145.35759000000002">
    <ele>472.25000000000006</ele>
   </trkpt>
   <trkpt lat="-37.85271" lon="145.35765">
    <ele>472.90000000000003</ele>
   </trkpt>
   <trkpt lat="-37.852720000000005" lon="145.35765">
    <ele>472.90000000000003</ele>
   </trkpt>
   <trkpt lat="-37.85262" lon="145.35772">
    <ele>473.53000000000003</ele>
   </trkpt>
   <trkpt lat="-37.852140000000006" lon="145.35791">
    <ele>475.05</ele>
   </trkpt>
   <trkpt lat="-37.852050000000006" lon="145.35793">
    <ele>474.44</ele>
   </trkpt>
   <trkpt lat="-37.85195" lon="145.3579">
    <ele>473.16</ele>
   </trkpt>
   <trkpt lat="-37.851910000000004" lon="145.35784">
    <ele>472.37</ele>
   </trkpt>
   <trkpt lat="-37.85177" lon="145.35780000000003">
    <ele>467.87000000000006</ele>
   </trkpt>
   <trkpt lat="-37.85157" lon="145.35757">
    <ele>460.86</ele>
   </trkpt>
   <trkpt lat="-37.8515" lon="145.35757">
    <ele>460.14000000000004</ele>
   </trkpt>
   <trkpt lat="-37.85132" lon="145.35802">
    <ele>464.53000000000003</ele>
   </trkpt>
   <trkpt lat="-37.85121" lon="145.35867000000002">
    <ele>466.95000000000005</ele>
   </trkpt>
   <trkpt lat="-37.851110000000006" lon="145.35914000000002">
    <ele>463.69000000000005</ele>
   </trkpt>
   <trkpt lat="-37.85092" lon="145.35967000000002">
    <ele>466.81000000000006</ele>
   </trkpt>
   <trkpt lat="-37.85085" lon="145.35979">
    <ele>469.86000000000007</ele>
   </trkpt>
   <trkpt lat="-37.850730000000006" lon="145.35992000000002">
    <ele>473.03000000000003</ele>
   </trkpt>
   <trkpt lat="-37.850640000000006" lon="145.35994000000002">
    <ele>473.03000000000003</ele>
   </trkpt>
   <trkpt lat="-37.85051" lon="145.35993000000002">
    <ele>475.7</ele>
   </trkpt>
   <trkpt lat="-37.85013" lon="145.35996">
    <ele>483.56000000000006</ele>
   </trkpt>
   <trkpt lat="-37.84998" lon="145.35999">
    <ele>488.29</ele>
   </trkpt>
   <trkpt lat="-37.84978" lon="145.35994000000002">
    <ele>491.7</ele>
   </trkpt>
   <trkpt lat="-37.849540000000005" lon="145.35968000000003">
    <ele>494.81</ele>
   </trkpt>
   <trkpt lat="-37.84942" lon="145.35956000000002">
    <ele>496.87</ele>
   </trkpt>
   <trkpt lat="-37.84913" lon="145.35913000000002">
    <ele>498.86</ele>
   </trkpt>
   <trkpt lat="-37.84874500075761" lon="145.35868999763292">
    <ele>497.62000000000006</ele>
   </trkpt>
   <trkpt lat="-37.84836" lon="145.35825">
    <ele>493.65000000000003</ele>
   </trkpt>
   <trkpt lat="-37.84783" lon="145.35772">
    <ele>496.7900000000001</ele>
   </trkpt>
   <trkpt lat="-37.84772" lon="145.35768000000002">
    <ele>497.70000000000005</ele>
   </trkpt>
   <trkpt lat="-37.84713" lon="145.35719">
    <ele>498.70000000000005</ele>
   </trkpt>
   <trkpt lat="-37.84682" lon="145.35668">
    <ele>496.05</ele>
   </trkpt>
   <trkpt lat="-37.84651" lon="145.3563">
    <ele>500.39</ele>
   </trkpt>
   <trkpt lat="-37.84626" lon="145.35571000000002">
    <ele>504.82000000000005</ele>
   </trkpt>
   <trkpt lat="-37.84624" lon="145.35552">
    <ele>505.0</ele>
   </trkpt>
   <trkpt lat="-37.84631" lon="145.3554">
    <ele>504.53999999999996</ele>
   </trkpt>
   <trkpt lat="-37.84662" lon="145.35509000000002">
    <ele>502.50000000000006</ele>
   </trkpt>
   <trkpt lat="-37.84673" lon="145.35492000000002">
    <ele>502.63</ele>
   </trkpt>
   <trkpt lat="-37.846810000000005" lon="145.35467">
    <ele>504.4700000000001</ele>
   </trkpt>
   <trkpt lat="-37.84698" lon="145.35392000000002">
    <ele>509.32</ele>
   </trkpt>
   <trkpt lat="-37.84691" lon="145.35384000000002">
    <ele>509.32</ele>
   </trkpt>
   <trkpt lat="-37.84685" lon="145.35385000000002">
    <ele>509.32</ele>
   </trkpt>
   <trkpt lat="-37.8468" lon="145.35404">
    <ele>507.46000000000004</ele>
   </trkpt>
   <trkpt lat="-37.84625666812739" lon="145.35445333941198">
    <ele>510.16</ele>
   </trkpt>
   <trkpt lat="-37.845713334810114" lon="145.354866672733">
    <ele>511.65000000000003</ele>
   </trkpt>
   <trkpt lat="-37.84517" lon="145.35528000000002">
    <ele>512.42</ele>
   </trkpt>
   <trkpt lat="-37.8453" lon="145.35535000000002">
    <ele>511.6400000000001</ele>
   </trkpt>
   <trkpt lat="-37.8456533370517" lon="145.3560133269724">
    <ele>511.09999999999997</ele>
   </trkpt>
   <trkpt lat="-37.84600667038273" lon="145.35667666030133">
    <ele>509.27</ele>
   </trkpt>
   <trkpt lat="-37.846360000000004" lon="145.35734000000002">
    <ele>509.32</ele>
   </trkpt>
   <trkpt lat="-37.84644" lon="145.35760000000002">
    <ele>510.37</ele>
   </trkpt>
   <trkpt lat="-37.846540000000005" lon="145.35771000000003">
    <ele>510.69000000000005</ele>
   </trkpt>
   <trkpt lat="-37.84664" lon="145.35795000000002">
    <ele>512.84</ele>
   </trkpt>
   <trkpt lat="-37.84695" lon="145.35840000000002">
    <ele>517.17</ele>
   </trkpt>
   <trkpt lat="-37.84709" lon="145.35882">
    <ele>518.08</ele>
   </trkpt>
   <trkpt lat="-37.84705" lon="145.35882">
    <ele>516.1800000000001</ele>
   </trkpt>
   <trkpt lat="-37.84723000272048" lon="145.3596199981118">
    <ele>513.49</ele>
   </trkpt>
   <trkpt lat="-37.84741" lon="145.36042">
    <ele>510.0800000000001</ele>
   </trkpt>
   <trkpt lat="-37.84738" lon="145.36030000000002">
    <ele>510.29</ele>
   </trkpt>
   <trkpt lat="-37.84713" lon="145.36037000000002">
    <ele>510.53999999999996</ele>
   </trkpt>
   <trkpt lat="-37.84707" lon="145.3604">
    <ele>511.01000000000005</ele>
   </trkpt>
   <trkpt lat="-37.84698" lon="145.36054000000001">
    <ele>509.7900000000001</ele>
   </trkpt>
   <trkpt lat="-37.84682" lon="145.36052">
    <ele>510.0</ele>
   </trkpt>
   <trkpt lat="-37.84655" lon="145.36054000000001">
    <ele>510.18000000000006</ele>
   </trkpt>
   <trkpt lat="-37.84619" lon="145.36064000000002">
    <ele>510.38000000000005</ele>
   </trkpt>
   <trkpt lat="-37.8462" lon="145.36071">
    <ele>510.95</ele>
   </trkpt>
   <trkpt lat="-37.84560500016017" lon="145.36085000111143">
    <ele>511.59</ele>
   </trkpt>
   <trkpt lat="-37.84501" lon="145.36099000000002">
    <ele>510.49</ele>
   </trkpt>
   <trkpt lat="-37.844950000000004" lon="145.36097">
    <ele>510.49</ele>
   </trkpt>
   <trkpt lat="-37.844245000461235" lon="145.36116250552305">
    <ele>503.72</ele>
   </trkpt>
   <trkpt lat="-37.8435400006091" lon="145.36135500736555">
    <ele>494.16</ele>
   </trkpt>
   <trkpt lat="-37.842835000443635" lon="145.36154750552768">
    <ele>482.44</ele>
   </trkpt>
   <trkpt lat="-37.842130000000004" lon="145.36174000000003">
    <ele>475.48</ele>
   </trkpt>
   <trkpt lat="-37.8421" lon="145.36245000000002">
    <ele>469.84000000000003</ele>
   </trkpt>
   <trkpt lat="-37.84223" lon="145.36280000000002">
    <ele>466.4800000000001</ele>
   </trkpt>
   <trkpt lat="-37.84281" lon="145.36349">
    <ele>455.91</ele>
   </trkpt>
   <trkpt lat="-37.84288" lon="145.36368000000002">
    <ele>455.86</ele>
   </trkpt>
   <trkpt lat="-37.84286" lon="145.36383">
    <ele>456.58000000000004</ele>
   </trkpt>
   <trkpt lat="-37.84281" lon="145.36392">
    <ele>457.43000000000006</ele>
   </trkpt>
   <trkpt lat="-37.842455000747556" lon="145.36434000201953">
    <ele>464.74</ele>
   </trkpt>
   <trkpt lat="-37.8421" lon="145.36476000000002">
    <ele>470.37000000000006</ele>
   </trkpt>
   <trkpt lat="-37.84196" lon="145.36505000000002">
    <ele>471.09000000000003</ele>
   </trkpt>
   <trkpt lat="-37.8419" lon="145.36530000000002">
    <ele>474.12</ele>
   </trkpt>
   <trkpt lat="-37.84207" lon="145.36572">
    <ele>476.55</ele>
   </trkpt>
   <trkpt lat="-37.84234" lon="145.36639000000002">
    <ele>475.45000000000005</ele>
   </trkpt>
   <trkpt lat="-37.8425" lon="145.36689">
    <ele>472.56</ele>
   </trkpt>
   <trkpt lat="-37.8425" lon="145.36701000000002">
    <ele>472.39000000000004</ele>
   </trkpt>
   <trkpt lat="-37.842470000000006" lon="145.36715">
    <ele>472.79</ele>
   </trkpt>
   <trkpt lat="-37.842290000000006" lon="145.36720000000003">
    <ele>474.61</ele>
   </trkpt>
   <trkpt lat="-37.84219" lon="145.36729000000003">
    <ele>475.83000000000004</ele>
   </trkpt>
   <trkpt lat="-37.84181" lon="145.36819">
    <ele>483.2</ele>
   </trkpt>
   <trkpt lat="-37.84136000013753" lon="145.36817499991304">
    <ele>477.4200000000001</ele>
   </trkpt>
   <trkpt lat="-37.84091" lon="145.36816000000002">
    <ele>473.53000000000003</ele>
   </trkpt>
   <trkpt lat="-37.84093" lon="145.36841">
    <ele>473.07000000000005</ele>
   </trkpt>
   <trkpt lat="-37.84087" lon="145.36892">
    <ele>471.05</ele>
   </trkpt>
   <trkpt lat="-37.84057" lon="145.36894">
    <ele>467.19000000000005</ele>
   </trkpt>
   <trkpt lat="-37.84022" lon="145.36902">
    <ele>462.39</ele>
   </trkpt>
   <trkpt lat="-37.83999" lon="145.36903">
    <ele>460.27</ele>
   </trkpt>
   <trkpt lat="-37.839940000000006" lon="145.36906000000002">
    <ele>459.76000000000005</ele>
   </trkpt>
   <trkpt lat="-37.83975" lon="145.36926000000003">
    <ele>455.07</ele>
   </trkpt>
   <trkpt lat="-37.839560000000006" lon="145.36941000000002">
    <ele>451.57</ele>
   </trkpt>
   <trkpt lat="-37.8391" lon="145.36968000000002">
    <ele>444.71000000000004</ele>
   </trkpt>
   <trkpt lat="-37.83885" lon="145.3698">
    <ele>442.32000000000005</ele>
   </trkpt>
   <trkpt lat="-37.83869" lon="145.36991">
    <ele>439.32000000000005</ele>
   </trkpt>
   <trkpt lat="-37.83849" lon="145.36997000000002">
    <ele>436.43</ele>
   </trkpt>
   <trkpt lat="-37.83798" lon="145.37023000000002">
    <ele>430.46</ele>
   </trkpt>
   <trkpt lat="-37.83769" lon="145.37040000000002">
    <ele>430.34000000000003</ele>
   </trkpt>
   <trkpt lat="-37.83758" lon="145.37044">
    <ele>431.34000000000003</ele>
   </trkpt>
   <trkpt lat="-37.8376" lon="145.37044">
    <ele>431.19</ele>
   </trkpt>
   <trkpt lat="-37.83737" lon="145.37053">
    <ele>433.96</ele>
   </trkpt>
   <trkpt lat="-37.83701000000001" lon="145.37063">
    <ele>434.99</ele>
   </trkpt>
   <trkpt lat="-37.837030000000006" lon="145.37094000000002">
    <ele>433.22</ele>
   </trkpt>
   <trkpt lat="-37.83699" lon="145.37133">
    <ele>430.52</ele>
   </trkpt>
   <trkpt lat="-37.837030000000006" lon="145.3719">
    <ele>427.22</ele>
   </trkpt>
   <trkpt lat="-37.83699" lon="145.37235">
    <ele>424.08</ele>
   </trkpt>
   <trkpt lat="-37.83708" lon="145.37331">
    <ele>414.43</ele>
   </trkpt>
   <trkpt lat="-37.83719" lon="145.37388">
    <ele>410.77000000000004</ele>
   </trkpt>
   <trkpt lat="-37.83719" lon="145.37407000000002">
    <ele>410.14000000000004</ele>
   </trkpt>
   <trkpt lat="-37.83735" lon="145.37466">
    <ele>409.01000000000005</ele>
   </trkpt>
   <trkpt lat="-37.83746" lon="145.37449">
    <ele>408.14000000000004</ele>
   </trkpt>
   <trkpt lat="-37.83764" lon="145.37427000000002">
    <ele>405.57000000000005</ele>
   </trkpt>
   <trkpt lat="-37.83784" lon="145.37368">
    <ele>394.53000000000003</ele>
   </trkpt>
   <trkpt lat="-37.83793" lon="145.37357">
    <ele>391.13000000000005</ele>
   </trkpt>
   <trkpt lat="-37.83805" lon="145.37351">
    <ele>388.94</ele>
   </trkpt>
   <trkpt lat="-37.83822" lon="145.37348">
    <ele>383.90000000000003</ele>
   </trkpt>
   <trkpt lat="-37.83847" lon="145.37354000000002">
    <ele>379.91</ele>
   </trkpt>
   <trkpt lat="-37.83858" lon="145.37359">
    <ele>378.99000000000007</ele>
   </trkpt>
   <trkpt lat="-37.83883" lon="145.37376">
    <ele>378.70000000000005</ele>
   </trkpt>
   <trkpt lat="-37.8391" lon="145.37399000000002">
    <ele>378.15000000000003</ele>
   </trkpt>
   <trkpt lat="-37.83921" lon="145.37414">
    <ele>377.22</ele>
   </trkpt>
   <trkpt lat="-37.83925" lon="145.37425000000002">
    <ele>376.47</ele>
   </trkpt>
   <trkpt lat="-37.83950000240526" lon="145.37500499742703">
    <ele>368.78000000000003</ele>
   </trkpt>
   <trkpt lat="-37.83975" lon="145.37576">
    <ele>361.2</ele>
   </trkpt>
   <trkpt lat="-37.839995001151586" lon="145.37628499822682">
    <ele>353.97</ele>
   </trkpt>
   <trkpt lat="-37.84024" lon="145.37681">
    <ele>349.11</ele>
   </trkpt>
   <trkpt lat="-37.84046" lon="145.37711000000002">
    <ele>343.26</ele>
   </trkpt>
   <trkpt lat="-37.84089" lon="145.37754">
    <ele>335.39</ele>
   </trkpt>
   <trkpt lat="-37.840970000000006" lon="145.37764">
    <ele>334.61</ele>
   </trkpt>
   <trkpt lat="-37.840990000000005" lon="145.37779">
    <ele>333.70000000000005</ele>
   </trkpt>
   <trkpt lat="-37.84103" lon="145.37786">
    <ele>333.70000000000005</ele>
   </trkpt>
   <trkpt lat="-37.84122" lon="145.37847000000002">
    <ele>330.46000000000004</ele>
   </trkpt>
   <trkpt lat="-37.84154" lon="145.37922">
    <ele>328.39</ele>
   </trkpt>
   <trkpt lat="-37.8417" lon="145.37947">
    <ele>326.82</ele>
   </trkpt>
   <trkpt lat="-37.84185" lon="145.37971000000002">
    <ele>325.70000000000005</ele>
   </trkpt>
   <trkpt lat="-37.84201" lon="145.38002">
    <ele>324.38</ele>
   </trkpt>
   <trkpt lat="-37.84205" lon="145.38012">
    <ele>324.26000000000005</ele>
   </trkpt>
   <trkpt lat="-37.8423" lon="145.38066">
    <ele>320.8</ele>
   </trkpt>
   <trkpt lat="-37.84243" lon="145.38109">
    <ele>313.96000000000004</ele>
   </trkpt>
   <trkpt lat="-37.84248" lon="145.38133000000002">
    <ele>313.96000000000004</ele>
   </trkpt>
   <trkpt lat="-37.84248" lon="145.38167">
    <ele>310.38000000000005</ele>
   </trkpt>
   <trkpt lat="-37.84263" lon="145.38217">
    <ele>306.88000000000005</ele>
   </trkpt>
   <trkpt lat="-37.84272" lon="145.38237">
    <ele>303.63</ele>
   </trkpt>
   <trkpt lat="-37.84279" lon="145.38266000000002">
    <ele>299.37</ele>
   </trkpt>
   <trkpt lat="-37.84281" lon="145.38304000000002">
    <ele>296.16</ele>
   </trkpt>
   <trkpt lat="-37.84281" lon="145.38357000000002">
    <ele>293.06000000000006</ele>
   </trkpt>
   <trkpt lat="-37.84326" lon="145.38336">
    <ele>300.32000000000005</ele>
   </trkpt>
   <trkpt lat="-37.84335" lon="145.38330000000002">
    <ele>301.50000000000006</ele>
   </trkpt>
   <trkpt lat="-37.84346" lon="145.38327">
    <ele>302.77000000000004</ele>
   </trkpt>
   <trkpt lat="-37.84364" lon="145.38343">
    <ele>303.46</ele>
   </trkpt>
   <trkpt lat="-37.84373" lon="145.38359">
    <ele>303.94000000000005</ele>
   </trkpt>
   <trkpt lat="-37.843900000000005" lon="145.38378">
    <ele>304.68</ele>
   </trkpt>
   <trkpt lat="-37.84407" lon="145.38397">
    <ele>306.43</ele>
   </trkpt>
   <trkpt lat="-37.84425" lon="145.38410000000002">
    <ele>309.17</ele>
   </trkpt>
   <trkpt lat="-37.844350000000006" lon="145.38415">
    <ele>311.77000000000004</ele>
   </trkpt>
   <trkpt lat="-37.84445" lon="145.38416">
    <ele>312.38000000000005</ele>
   </trkpt>
   <trkpt lat="-37.84463" lon="145.38432">
    <ele>314.12</ele>
   </trkpt>
   <trkpt lat="-37.84474" lon="145.38459">
    <ele>315.16</ele>
   </trkpt>
   <trkpt lat="-37.84487" lon="145.38496">
    <ele>315.0</ele>
   </trkpt>
   <trkpt lat="-37.84494" lon="145.38497">
    <ele>315.0</ele>
   </trkpt>
   <trkpt lat="-37.84501" lon="145.38500000000002">
    <ele>322.19</ele>
   </trkpt>
   <trkpt lat="-37.84512" lon="145.38515">
    <ele>322.19</ele>
   </trkpt>
   <trkpt lat="-37.8451" lon="145.38520000000003">
    <ele>322.19</ele>
   </trkpt>
   <trkpt lat="-37.84521" lon="145.38525">
    <ele>321.15999999999997</ele>
   </trkpt>
   <trkpt lat="-37.84568" lon="145.38528000000002">
    <ele>315.21999999999997</ele>
   </trkpt>
   <trkpt lat="-37.84601" lon="145.38532">
    <ele>310.86</ele>
   </trkpt>
   <trkpt lat="-37.84628" lon="145.3854">
    <ele>306.59000000000003</ele>
   </trkpt>
   <trkpt lat="-37.84655" lon="145.38557">
    <ele>303.6</ele>
   </trkpt>
   <trkpt lat="-37.84727" lon="145.38623">
    <ele>296.21000000000004</ele>
   </trkpt>
   <trkpt lat="-37.84749" lon="145.38625000000002">
    <ele>295.88000000000005</ele>
   </trkpt>
   <trkpt lat="-37.84774" lon="145.38622">
    <ele>296.48</ele>
   </trkpt>
   <trkpt lat="-37.84803" lon="145.38611">
    <ele>298.1</ele>
   </trkpt>
   <trkpt lat="-37.84821" lon="145.38600000000002">
    <ele>300.58</ele>
   </trkpt>
   <trkpt lat="-37.84841" lon="145.38582000000002">
    <ele>302.19</ele>
   </trkpt>
   <trkpt lat="-37.84886" lon="145.3855">
    <ele>308.31</ele>
   </trkpt>
   <trkpt lat="-37.84908" lon="145.38527000000002">
    <ele>309.09000000000003</ele>
   </trkpt>
   <trkpt lat="-37.84924" lon="145.38505">
    <ele>311.1</ele>
   </trkpt>
   <trkpt lat="-37.84946" lon="145.38481000000002">
    <ele>313.09000000000003</ele>
   </trkpt>
   <trkpt lat="-37.84962" lon="145.38474000000002">
    <ele>314.51</ele>
   </trkpt>
   <trkpt lat="-37.8498" lon="145.38495">
    <ele>316.68</ele>
   </trkpt>
   <trkpt lat="-37.849500000000006" lon="145.38575">
    <ele>320.64000000000004</ele>
   </trkpt>
   <trkpt lat="-37.84995" lon="145.38541">
    <ele>327.93</ele>
   </trkpt>
   <trkpt lat="-37.850460000000005" lon="145.38531">
    <ele>334.70000000000005</ele>
   </trkpt>
   <trkpt lat="-37.85116" lon="145.38566">
    <ele>347.5</ele>
   </trkpt>
   <trkpt lat="-37.8519" lon="145.38586">
    <ele>357.90000000000003</ele>
   </trkpt>
   <trkpt lat="-37.852230000000006" lon="145.38585">
    <ele>363.8</ele>
   </trkpt>
   <trkpt lat="-37.85224" lon="145.38585">
    <ele>363.89000000000004</ele>
   </trkpt>
   <trkpt lat="-37.85233" lon="145.38585">
    <ele>363.89000000000004</ele>
   </trkpt>
   <trkpt lat="-37.85275" lon="145.38578">
    <ele>373.70000000000005</ele>
   </trkpt>
   <trkpt lat="-37.85309" lon="145.38565">
    <ele>377.42</ele>
   </trkpt>
   <trkpt lat="-37.85392" lon="145.38552">
    <ele>395.75000000000006</ele>
   </trkpt>
   <trkpt lat="-37.85396" lon="145.38551">
    <ele>395.75000000000006</ele>
   </trkpt>
   <trkpt lat="-37.854490000000006" lon="145.38562000000002">
    <ele>407.57000000000005</ele>
   </trkpt>
   <trkpt lat="-37.85501" lon="145.38577">
    <ele>417.18000000000006</ele>
   </trkpt>
   <trkpt lat="-37.855610000000006" lon="145.3861">
    <ele>426.00000000000006</ele>
   </trkpt>
   <trkpt lat="-37.85557" lon="145.38625000000002">
    <ele>426.64</ele>
   </trkpt>
   <trkpt lat="-37.85551" lon="145.38635000000002">
    <ele>426.65000000000003</ele>
   </trkpt>
   <trkpt lat="-37.85537" lon="145.38641">
    <ele>425.63</ele>
   </trkpt>
   <trkpt lat="-37.85524" lon="145.3864">
    <ele>425.3</ele>
   </trkpt>
   <trkpt lat="-37.85504" lon="145.38646">
    <ele>425.32000000000005</ele>
   </trkpt>
   <trkpt lat="-37.85497" lon="145.38651000000002">
    <ele>425.96000000000004</ele>
   </trkpt>
   <trkpt lat="-37.85497" lon="145.38656">
    <ele>426.57000000000005</ele>
   </trkpt>
   <trkpt lat="-37.85504" lon="145.38664">
    <ele>428.75</ele>
   </trkpt>
   <trkpt lat="-37.855050000000006" lon="145.38665">
    <ele>428.75</ele>
   </trkpt>
   <trkpt lat="-37.85539000089311" lon="145.3870799981575">
    <ele>438.57</ele>
   </trkpt>
   <trkpt lat="-37.85573" lon="145.38751000000002">
    <ele>447.91</ele>
   </trkpt>
   <trkpt lat="-37.85609" lon="145.38808">
    <ele>455.34000000000003</ele>
   </trkpt>
   <trkpt lat="-37.856100000000005" lon="145.38808">
    <ele>455.34000000000003</ele>
   </trkpt>
   <trkpt lat="-37.85613" lon="145.38815000000002">
    <ele>455.34000000000003</ele>
   </trkpt>
   <trkpt lat="-37.85616" lon="145.38827">
    <ele>458.42</ele>
   </trkpt>
   <trkpt lat="-37.85627" lon="145.38844">
    <ele>458.40000000000003</ele>
   </trkpt>
   <trkpt lat="-37.85656" lon="145.38819">
    <ele>457.02000000000004</ele>
   </trkpt>
   <trkpt lat="-37.85676" lon="145.38799">
    <ele>456.28000000000003</ele>
   </trkpt>
   <trkpt lat="-37.85696" lon="145.38773">
    <ele>455.58000000000004</ele>
   </trkpt>
   <trkpt lat="-37.85714" lon="145.38738">
    <ele>454.1</ele>
   </trkpt>
   <trkpt lat="-37.8573" lon="145.38698000000002">
    <ele>453.40000000000003</ele>
   </trkpt>
   <trkpt lat="-37.85745" lon="145.38663000000003">
    <ele>453.07</ele>
   </trkpt>
   <trkpt lat="-37.857960000000006" lon="145.38599000000002">
    <ele>451.45</ele>
   </trkpt>
   <trkpt lat="-37.85804" lon="145.38581000000002">
    <ele>451.45</ele>
   </trkpt>
   <trkpt lat="-37.85804" lon="145.38562000000002">
    <ele>450.71000000000004</ele>
   </trkpt>
   <trkpt lat="-37.85824" lon="145.38594">
    <ele>456.51</ele>
   </trkpt>
   <trkpt lat="-37.85824" lon="145.38621">
    <ele>460.27</ele>
   </trkpt>
   <trkpt lat="-37.85826" lon="145.38624000000002">
    <ele>463.63000000000005</ele>
   </trkpt>
   <trkpt lat="-37.85839" lon="145.38625000000002">
    <ele>465.65000000000003</ele>
   </trkpt>
   <trkpt lat="-37.8586" lon="145.38616000000002">
    <ele>469.08000000000004</ele>
   </trkpt>
   <trkpt lat="-37.85875" lon="145.38602">
    <ele>469.93</ele>
   </trkpt>
   <trkpt lat="-37.85891" lon="145.38586">
    <ele>472.72</ele>
   </trkpt>
   <trkpt lat="-37.85918" lon="145.3854">
    <ele>480.34000000000003</ele>
   </trkpt>
   <trkpt lat="-37.859230000000004" lon="145.38511000000003">
    <ele>482.67</ele>
   </trkpt>
   <trkpt lat="-37.859230000000004" lon="145.38513">
    <ele>482.55</ele>
   </trkpt>
   <trkpt lat="-37.85924" lon="145.38477">
    <ele>486.56000000000006</ele>
   </trkpt>
   <trkpt lat="-37.85927" lon="145.38468">
    <ele>487.34000000000003</ele>
   </trkpt>
   <trkpt lat="-37.85965" lon="145.38444">
    <ele>495.19</ele>
   </trkpt>
   <trkpt lat="-37.85976" lon="145.38416">
    <ele>497.6</ele>
   </trkpt>
   <trkpt lat="-37.85985" lon="145.38353">
    <ele>500.39</ele>
   </trkpt>
   <trkpt lat="-37.85985" lon="145.38334">
    <ele>501.78</ele>
   </trkpt>
   <trkpt lat="-37.85981" lon="145.38287000000003">
    <ele>505.3500000000001</ele>
   </trkpt>
   <trkpt lat="-37.85989" lon="145.38267000000002">
    <ele>505.7900000000001</ele>
   </trkpt>
   <trkpt lat="-37.86005" lon="145.38256">
    <ele>515.14</ele>
   </trkpt>
   <trkpt lat="-37.86005" lon="145.38204000000002">
    <ele>515.75</ele>
   </trkpt>
   <trkpt lat="-37.86012" lon="145.38148">
    <ele>517.23</ele>
   </trkpt>
   <trkpt lat="-37.86014" lon="145.38135000000003">
    <ele>517.23</ele>
   </trkpt>
   <trkpt lat="-37.86021" lon="145.38127">
    <ele>517.23</ele>
   </trkpt>
   <trkpt lat="-37.86007" lon="145.38119">
    <ele>522.03</ele>
   </trkpt>
   <trkpt lat="-37.86016" lon="145.381">
    <ele>522.83</ele>
   </trkpt>
   <trkpt lat="-37.86023" lon="145.38074">
    <ele>524.94</ele>
   </trkpt>
   <trkpt lat="-37.86025" lon="145.38059">
    <ele>525.6</ele>
   </trkpt>
   <trkpt lat="-37.86023" lon="145.3805">
    <ele>526.2</ele>
   </trkpt>
   <trkpt lat="-37.85992" lon="145.38004">
    <ele>528.33</ele>
   </trkpt>
   <trkpt lat="-37.85957000073842" lon="145.37964999825422">
    <ele>531.3</ele>
   </trkpt>
   <trkpt lat="-37.85922" lon="145.37926000000002">
    <ele>533.84</ele>
   </trkpt>
   <trkpt lat="-37.859" lon="145.37889">
    <ele>535.9900000000001</ele>
   </trkpt>
   <trkpt lat="-37.85886" lon="145.37858">
    <ele>540.1</ele>
   </trkpt>
   <trkpt lat="-37.858425003214606" lon="145.37770499479035">
    <ele>548.36</ele>
   </trkpt>
   <trkpt lat="-37.85799" lon="145.37683">
    <ele>554.71</ele>
   </trkpt>
   <trkpt lat="-37.858000000000004" lon="145.37685000000002">
    <ele>554.71</ele>
   </trkpt>
   <trkpt lat="-37.85786" lon="145.37659000000002">
    <ele>557.1</ele>
   </trkpt>
   <trkpt lat="-37.8575" lon="145.37597000000002">
    <ele>562.6500000000001</ele>
   </trkpt>
   <trkpt lat="-37.85714" lon="145.37555">
    <ele>566.77</ele>
   </trkpt>
   <trkpt lat="-37.85683" lon="145.37527">
    <ele>568.5300000000001</ele>
   </trkpt>
   <trkpt lat="-37.85622" lon="145.37490000000003">
    <ele>575.5400000000001</ele>
   </trkpt>
   <trkpt lat="-37.856260000000006" lon="145.37480000000002">
    <ele>574.71</ele>
   </trkpt>
   <trkpt lat="-37.856" lon="145.37456">
    <ele>577.76</ele>
   </trkpt>
   <trkpt lat="-37.8556750005453" lon="145.37416499811948">
    <ele>579.0500000000001</ele>
   </trkpt>
   <trkpt lat="-37.85535" lon="145.37377">
    <ele>578.76</ele>
   </trkpt>
   <trkpt lat="-37.85531" lon="145.37379">
    <ele>578.76</ele>
   </trkpt>
   <trkpt lat="-37.85521" lon="145.37367">
    <ele>578.6300000000001</ele>
   </trkpt>
   <trkpt lat="-37.854845000635606" lon="145.37326999797466">
    <ele>578.6800000000001</ele>
   </trkpt>
   <trkpt lat="-37.85448" lon="145.37287">
    <ele>579.38</ele>
   </trkpt>
   <trkpt lat="-37.8543" lon="145.37263000000002">
    <ele>579.6999999999999</ele>
   </trkpt>
   <trkpt lat="-37.85414" lon="145.37239000000002">
    <ele>579.96</ele>
   </trkpt>
   <trkpt lat="-37.85405" lon="145.37220000000002">
    <ele>580.0200000000001</ele>
   </trkpt>
   <trkpt lat="-37.85403" lon="145.37202000000002">
    <ele>579.84</ele>
   </trkpt>
   <trkpt lat="-37.854020000000006" lon="145.37171">
    <ele>579.3900000000001</ele>
   </trkpt>
   <trkpt lat="-37.854040000000005" lon="145.37130000000002">
    <ele>578.71</ele>
   </trkpt>
   <trkpt lat="-37.85412500394389" lon="145.37033500103993">
    <ele>575.0500000000001</ele>
   </trkpt>
   <trkpt lat="-37.85421" lon="145.36937">
    <ele>572.33</ele>
   </trkpt>
   <trkpt lat="-37.85445" lon="145.36905000000002">
    <ele>572.28</ele>
   </trkpt>
   <trkpt lat="-37.854580000000006" lon="145.36896000000002">
    <ele>572.0500000000001</ele>
   </trkpt>
   <trkpt lat="-37.85499" lon="145.36845000000002">
    <ele>572.21</ele>
   </trkpt>
   <trkpt lat="-37.85519" lon="145.36803">
    <ele>573.09</ele>
   </trkpt>
   <trkpt lat="-37.85536500350699" lon="145.36712000213168">
    <ele>573.1</ele>
   </trkpt>
   <trkpt lat="-37.855540000000005" lon="145.36621000000002">
    <ele>572.55</ele>
   </trkpt>
   <trkpt lat="-37.85577" lon="145.36512000000002">
    <ele>569.62</ele>
   </trkpt>
   <trkpt lat="-37.85582" lon="145.36514000000003">
    <ele>569.62</ele>
   </trkpt>
   <trkpt lat="-37.85591" lon="145.36497">
    <ele>569.11</ele>
   </trkpt>
   <trkpt lat="-37.85591" lon="145.36474">
    <ele>569.91</ele>
   </trkpt>
   <trkpt lat="-37.85598" lon="145.36440000000002">
    <ele>570.23</ele>
   </trkpt>
   <trkpt lat="-37.855940000000004" lon="145.36425">
    <ele>570.1700000000001</ele>
   </trkpt>
   <trkpt lat="-37.856010000000005" lon="145.36421">
    <ele>571.5400000000001</ele>
   </trkpt>
   <trkpt lat="-37.85605" lon="145.36415000000002">
    <ele>572.3600000000001</ele>
   </trkpt>
   <trkpt lat="-37.85606000000001" lon="145.36398">
    <ele>572.67</ele>
   </trkpt>
   <trkpt lat="-37.85624" lon="145.36303">
    <ele>577.62</ele>
   </trkpt>
   <trkpt lat="-37.85629" lon="145.36248">
    <ele>581.65</ele>
   </trkpt>
   <trkpt lat="-37.856460001943994" lon="145.36179500174123">
    <ele>589.14</ele>
   </trkpt>
   <trkpt lat="-37.85663" lon="145.36111000000002">
    <ele>595.8500000000001</ele>
   </trkpt>
   <trkpt lat="-37.856680000000004" lon="145.36065000000002">
    <ele>601.2900000000001</ele>
   </trkpt>
   <trkpt lat="-37.85687" lon="145.35989">
    <ele>600.1</ele>
   </trkpt>
   <trkpt lat="-37.85696" lon="145.35929000000002">
    <ele>593.62</ele>
   </trkpt>
   <trkpt lat="-37.85696" lon="145.35928">
    <ele>593.74</ele>
   </trkpt>
   <trkpt lat="-37.85705000139975" lon="145.35871000053157">
    <ele>587.82</ele>
   </trkpt>
   <trkpt lat="-37.85714" lon="145.35814000000002">
    <ele>579.1700000000001</ele>
   </trkpt>
   <trkpt lat="-37.857220000000005" lon="145.35777000000002">
    <ele>576.08</ele>
   </trkpt>
   <trkpt lat="-37.85748" lon="145.35684">
    <ele>575.1800000000001</ele>
   </trkpt>
   <trkpt lat="-37.85752" lon="145.35645000000002">
    <ele>575.07</ele>
   </trkpt>
   <trkpt lat="-37.85745" lon="145.35598000000002">
    <ele>574.33</ele>
   </trkpt>
   <trkpt lat="-37.85756000000001" lon="145.35572000000002">
    <ele>575.96</ele>
   </trkpt>
   <trkpt lat="-37.85765" lon="145.35573000000002">
    <ele>575.3900000000001</ele>
   </trkpt>
   <trkpt lat="-37.85774" lon="145.3557">
    <ele>574.5600000000001</ele>
   </trkpt>
   <trkpt lat="-37.85792" lon="145.35547000000003">
    <ele>571.11</ele>
   </trkpt>
   <trkpt lat="-37.85826" lon="145.35524">
    <ele>561.2600000000001</ele>
   </trkpt>
   <trkpt lat="-37.85846" lon="145.35508000000002">
    <ele>556.82</ele>
   </trkpt>
   <trkpt lat="-37.85866" lon="145.35498">
    <ele>549.62</ele>
   </trkpt>
   <trkpt lat="-37.85877" lon="145.35487">
    <ele>546.18</ele>
   </trkpt>
   <trkpt lat="-37.85889" lon="145.35466000000002">
    <ele>540.0</ele>
   </trkpt>
   <trkpt lat="-37.85915" lon="145.35439000000002">
    <ele>532.09</ele>
   </trkpt>
   <trkpt lat="-37.859350000000006" lon="145.35425">
    <ele>523.7900000000001</ele>
   </trkpt>
   <trkpt lat="-37.85938" lon="145.35424">
    <ele>523.17</ele>
   </trkpt>
   <trkpt lat="-37.85956" lon="145.35415">
    <ele>517.6800000000001</ele>
   </trkpt>
   <trkpt lat="-37.85978" lon="145.35421000000002">
    <ele>514.1300000000001</ele>
   </trkpt>
   <trkpt lat="-37.860060000000004" lon="145.35438000000002">
    <ele>513.1600000000001</ele>
   </trkpt>
   <trkpt lat="-37.860325000891734" lon="145.35484499828854">
    <ele>515.42</ele>
   </trkpt>
   <trkpt lat="-37.86059" lon="145.35531">
    <ele>512.1</ele>
   </trkpt>
   <trkpt lat="-37.86061" lon="145.35545000000002">
    <ele>511.07</ele>
   </trkpt>
   <trkpt lat="-37.86063" lon="145.35594">
    <ele>499.22</ele>
   </trkpt>
   <trkpt lat="-37.86074" lon="145.3561">
    <ele>496.1</ele>
   </trkpt>
   <trkpt lat="-37.86084" lon="145.3562">
    <ele>492.52</ele>
   </trkpt>
   <trkpt lat="-37.86079" lon="145.35600000000002">
    <ele>492.12000000000006</ele>
   </trkpt>
   <trkpt lat="-37.86079" lon="145.35580000000002">
    <ele>491.94000000000005</ele>
   </trkpt>
   <trkpt lat="-37.86086" lon="145.35562000000002">
    <ele>491.48</ele>
   </trkpt>
   <trkpt lat="-37.86108" lon="145.35531">
    <ele>490.1</ele>
   </trkpt>
   <trkpt lat="-37.86153" lon="145.35481000000001">
    <ele>487.26</ele>
   </trkpt>
   <trkpt lat="-37.86198" lon="145.35437000000002">
    <ele>484.06000000000006</ele>
   </trkpt>
   <trkpt lat="-37.86229" lon="145.35409">
    <ele>481.17</ele>
   </trkpt>
   <trkpt lat="-37.86305" lon="145.35354">
    <ele>478.29</ele>
   </trkpt>
  </trkseg>
 </trk>
</gpx>
