<?xml version="1.0" encoding="UTF-8"?>
<gpx creator="StravaGPX" version="1.1" xmlns="http://www.topografix.com/GPX/1/1" xmlns:xsi="http://www.w3.org/2001/XMLSchema-instance" xsi:schemaLocation="http://www.topografix.com/GPX/1/1 http://www.topografix.com/GPX/1/1/gpx.xsd">
 <metadata>
  <name>Sunday 4th January 2026 Olinda 14k</name>
  <author>
   <name>john csorgo</name>
   <link href="https://www.strava.com/athletes/61185584"/>
  </author>
  <copyright author="OpenStreetMap contributors">
   <year>2020</year>
   <license>https://www.openstreetmap.org/copyright</license>
  </copyright>
  <link href="https://www.strava.com/routes/3441732838872314052"/>
 </metadata>
 <trk>
  <name>Sunday 4th January 2026 Olinda 14k</name>
  <link href="https://www.strava.com/routes/3441732838872314052"/>
  <type>running</type>
  <trkseg>
   <trkpt lat="-37.85314" lon="145.36833000000001">
    <ele>578.37</ele>
   </trkpt>
   <trkpt lat="-37.853660000000005" lon="145.36857">
    <ele>579.07</ele>
   </trkpt>
   <trkpt lat="-37.85409000000001" lon="145.36882">
    <ele>576.34</ele>
   </trkpt>
   <trkpt lat="-37.85441" lon="145.36911">
    <ele>572.4100000000001</ele>
   </trkpt>
   <trkpt lat="-37.85421" lon="145.36937">
    <ele>572.8700000000001</ele>
   </trkpt>
   <trkpt lat="-37.85412500393108" lon="145.37033500118534">
    <ele>575.96</ele>
   </trkpt>
   <trkpt lat="-37.854040000000005" lon="145.37130000000002">
    <ele>579.0500000000001</ele>
   </trkpt>
   <trkpt lat="-37.854020000000006" lon="145.37182">
    <ele>579.33</ele>
   </trkpt>
   <trkpt lat="-37.85405" lon="145.37220000000002">
    <ele>579.73</ele>
   </trkpt>
   <trkpt lat="-37.85414" lon="145.37239000000002">
    <ele>579.62</ele>
   </trkpt>
   <trkpt lat="-37.8543" lon="145.37263000000002">
    <ele>579.35</ele>
   </trkpt>
   <trkpt lat="-37.85448" lon="145.37287">
    <ele>578.91</ele>
   </trkpt>
   <trkpt lat="-37.85484500071746" lon="145.3732699980644">
    <ele>578.3100000000001</ele>
   </trkpt>
   <trkpt lat="-37.85521" lon="145.37367">
    <ele>578.1500000000001</ele>
   </trkpt>
   <trkpt lat="-37.85531" lon="145.37379">
    <ele>578.2900000000001</ele>
   </trkpt>
   <trkpt lat="-37.85535" lon="145.37377">
    <ele>578.0500000000001</ele>
   </trkpt>
   <trkpt lat="-37.85567500077416" lon="145.37416499839765">
    <ele>578.3900000000001</ele>
   </trkpt>
   <trkpt lat="-37.856" lon="145.37456">
    <ele>576.76</ele>
   </trkpt>
   <trkpt lat="-37.856260000000006" lon="145.37480000000002">
    <ele>574.04</ele>
   </trkpt>
   <trkpt lat="-37.85622" lon="145.37490000000003">
    <ele>574.1</ele>
   </trkpt>
   <trkpt lat="-37.85683" lon="145.37527">
    <ele>567.46</ele>
   </trkpt>
   <trkpt lat="-37.85714" lon="145.37555">
    <ele>565.0200000000001</ele>
   </trkpt>
   <trkpt lat="-37.8575" lon="145.37597000000002">
    <ele>561.06</ele>
   </trkpt>
   <trkpt lat="-37.85786" lon="145.37659000000002">
    <ele>554.4300000000001</ele>
   </trkpt>
   <trkpt lat="-37.85822" lon="145.37729000000002">
    <ele>547.6800000000001</ele>
   </trkpt>
   <trkpt lat="-37.85854000173349" lon="145.37793499714812">
    <ele>542.5000000000001</ele>
   </trkpt>
   <trkpt lat="-37.85886" lon="145.37858">
    <ele>535.09</ele>
   </trkpt>
   <trkpt lat="-37.859" lon="145.37889">
    <ele>531.02</ele>
   </trkpt>
   <trkpt lat="-37.85922" lon="145.37926000000002">
    <ele>528.3500000000001</ele>
   </trkpt>
   <trkpt lat="-37.8595700005479" lon="145.37964999804194">
    <ele>525.7900000000001</ele>
   </trkpt>
   <trkpt lat="-37.85992" lon="145.38004">
    <ele>522.32</ele>
   </trkpt>
   <trkpt lat="-37.860330000000005" lon="145.38064">
    <ele>518.78</ele>
   </trkpt>
   <trkpt lat="-37.86032" lon="145.38089000000002">
    <ele>517.73</ele>
   </trkpt>
   <trkpt lat="-37.86027" lon="145.38124000000002">
    <ele>517.0100000000001</ele>
   </trkpt>
   <trkpt lat="-37.86021" lon="145.38127">
    <ele>516.95</ele>
   </trkpt>
   <trkpt lat="-37.86007" lon="145.38119">
    <ele>518.63</ele>
   </trkpt>
   <trkpt lat="-37.860020000000006" lon="145.38135000000003">
    <ele>519.21</ele>
   </trkpt>
   <trkpt lat="-37.85998" lon="145.38159000000002">
    <ele>519.0600000000001</ele>
   </trkpt>
   <trkpt lat="-37.859930000000006" lon="145.38259000000002">
    <ele>518.37</ele>
   </trkpt>
   <trkpt lat="-37.85983" lon="145.38273">
    <ele>517.26</ele>
   </trkpt>
   <trkpt lat="-37.859770000000005" lon="145.38287000000003">
    <ele>515.39</ele>
   </trkpt>
   <trkpt lat="-37.8598" lon="145.38292">
    <ele>514.1999999999999</ele>
   </trkpt>
   <trkpt lat="-37.85987" lon="145.38334">
    <ele>510.9600000000001</ele>
   </trkpt>
   <trkpt lat="-37.8598" lon="145.38387">
    <ele>507.2300000000001</ele>
   </trkpt>
   <trkpt lat="-37.85974" lon="145.38416">
    <ele>505.40000000000003</ele>
   </trkpt>
   <trkpt lat="-37.85974" lon="145.38429000000002">
    <ele>503.84000000000003</ele>
   </trkpt>
   <trkpt lat="-37.85971" lon="145.38439000000002">
    <ele>502.69000000000005</ele>
   </trkpt>
   <trkpt lat="-37.85965" lon="145.38445000000002">
    <ele>502.07</ele>
   </trkpt>
   <trkpt lat="-37.8594" lon="145.38458">
    <ele>497.44000000000005</ele>
   </trkpt>
   <trkpt lat="-37.85927" lon="145.38478">
    <ele>492.86</ele>
   </trkpt>
   <trkpt lat="-37.85924" lon="145.38524">
    <ele>486.78000000000003</ele>
   </trkpt>
   <trkpt lat="-37.8592" lon="145.3854">
    <ele>484.29</ele>
   </trkpt>
   <trkpt lat="-37.85891" lon="145.38586">
    <ele>476.38</ele>
   </trkpt>
   <trkpt lat="-37.85871" lon="145.38611">
    <ele>472.36000000000007</ele>
   </trkpt>
   <trkpt lat="-37.8586" lon="145.3862">
    <ele>471.86000000000007</ele>
   </trkpt>
   <trkpt lat="-37.85839" lon="145.38625000000002">
    <ele>468.46000000000004</ele>
   </trkpt>
   <trkpt lat="-37.85824" lon="145.38625000000002">
    <ele>466.55</ele>
   </trkpt>
   <trkpt lat="-37.85819" lon="145.38623">
    <ele>462.32000000000005</ele>
   </trkpt>
   <trkpt lat="-37.85817" lon="145.3862">
    <ele>462.32000000000005</ele>
   </trkpt>
   <trkpt lat="-37.85821" lon="145.38609000000002">
    <ele>461.29</ele>
   </trkpt>
   <trkpt lat="-37.85821" lon="145.38587">
    <ele>456.53000000000003</ele>
   </trkpt>
   <trkpt lat="-37.85815" lon="145.38567">
    <ele>452.64000000000004</ele>
   </trkpt>
   <trkpt lat="-37.858050000000006" lon="145.38551">
    <ele>450.14000000000004</ele>
   </trkpt>
   <trkpt lat="-37.85797" lon="145.38532">
    <ele>448.97</ele>
   </trkpt>
   <trkpt lat="-37.85772" lon="145.38498">
    <ele>447.09000000000003</ele>
   </trkpt>
   <trkpt lat="-37.8577" lon="145.38496">
    <ele>447.00000000000006</ele>
   </trkpt>
   <trkpt lat="-37.8575" lon="145.38472000000002">
    <ele>445.51</ele>
   </trkpt>
   <trkpt lat="-37.85741" lon="145.38446000000002">
    <ele>444.49000000000007</ele>
   </trkpt>
   <trkpt lat="-37.85739" lon="145.38424">
    <ele>444.13</ele>
   </trkpt>
   <trkpt lat="-37.85739" lon="145.38403000000002">
    <ele>442.87</ele>
   </trkpt>
   <trkpt lat="-37.8575" lon="145.38337">
    <ele>441.1700000000001</ele>
   </trkpt>
   <trkpt lat="-37.85752" lon="145.38283">
    <ele>439.75</ele>
   </trkpt>
   <trkpt lat="-37.8575" lon="145.38250000000002">
    <ele>439.20000000000005</ele>
   </trkpt>
   <trkpt lat="-37.857440000000004" lon="145.38230000000001">
    <ele>438.94000000000005</ele>
   </trkpt>
   <trkpt lat="-37.85736" lon="145.38193">
    <ele>438.73</ele>
   </trkpt>
   <trkpt lat="-37.857290000000006" lon="145.38182">
    <ele>438.69</ele>
   </trkpt>
   <trkpt lat="-37.85712" lon="145.38146">
    <ele>437.89000000000004</ele>
   </trkpt>
   <trkpt lat="-37.857020000000006" lon="145.38128">
    <ele>437.69</ele>
   </trkpt>
   <trkpt lat="-37.85687" lon="145.38117000000003">
    <ele>437.28000000000003</ele>
   </trkpt>
   <trkpt lat="-37.856790000000004" lon="145.38113">
    <ele>436.84000000000003</ele>
   </trkpt>
   <trkpt lat="-37.85669" lon="145.38112">
    <ele>436.26000000000005</ele>
   </trkpt>
   <trkpt lat="-37.8564" lon="145.38117000000003">
    <ele>436.44000000000005</ele>
   </trkpt>
   <trkpt lat="-37.856170000000006" lon="145.38129">
    <ele>436.93</ele>
   </trkpt>
   <trkpt lat="-37.85591" lon="145.38134000000002">
    <ele>437.45000000000005</ele>
   </trkpt>
   <trkpt lat="-37.85546" lon="145.38168000000002">
    <ele>430.98</ele>
   </trkpt>
   <trkpt lat="-37.85495" lon="145.38212000000001">
    <ele>418.83000000000004</ele>
   </trkpt>
   <trkpt lat="-37.85453500032642" lon="145.38244000188357">
    <ele>412.12000000000006</ele>
   </trkpt>
   <trkpt lat="-37.85412" lon="145.38276000000002">
    <ele>401.37000000000006</ele>
   </trkpt>
   <trkpt lat="-37.85376" lon="145.38289">
    <ele>395.20000000000005</ele>
   </trkpt>
   <trkpt lat="-37.85329" lon="145.38318">
    <ele>385.28000000000003</ele>
   </trkpt>
   <trkpt lat="-37.85282" lon="145.38353">
    <ele>373.94000000000005</ele>
   </trkpt>
   <trkpt lat="-37.852250000000005" lon="145.38383000000002">
    <ele>361.1</ele>
   </trkpt>
   <trkpt lat="-37.85224" lon="145.38383000000002">
    <ele>365.27000000000004</ele>
   </trkpt>
   <trkpt lat="-37.85195" lon="145.38403000000002">
    <ele>359.32</ele>
   </trkpt>
   <trkpt lat="-37.85181" lon="145.38418000000001">
    <ele>354.87</ele>
   </trkpt>
   <trkpt lat="-37.85168" lon="145.38429000000002">
    <ele>352.06000000000006</ele>
   </trkpt>
   <trkpt lat="-37.85145" lon="145.38439000000002">
    <ele>347.15000000000003</ele>
   </trkpt>
   <trkpt lat="-37.85094" lon="145.38438000000002">
    <ele>336.05</ele>
   </trkpt>
   <trkpt lat="-37.8506" lon="145.38444">
    <ele>329.44</ele>
   </trkpt>
   <trkpt lat="-37.84984" lon="145.38484000000003">
    <ele>316.61</ele>
   </trkpt>
   <trkpt lat="-37.849700000000006" lon="145.38484000000003">
    <ele>315.33</ele>
   </trkpt>
   <trkpt lat="-37.84962" lon="145.38474000000002">
    <ele>313.96000000000004</ele>
   </trkpt>
   <trkpt lat="-37.84946" lon="145.38481000000002">
    <ele>313.17</ele>
   </trkpt>
   <trkpt lat="-37.84939" lon="145.38489">
    <ele>311.98</ele>
   </trkpt>
   <trkpt lat="-37.849430000000005" lon="145.38485">
    <ele>312.35</ele>
   </trkpt>
   <trkpt lat="-37.84924" lon="145.38505">
    <ele>310.76000000000005</ele>
   </trkpt>
   <trkpt lat="-37.84908" lon="145.38527000000002">
    <ele>307.88000000000005</ele>
   </trkpt>
   <trkpt lat="-37.84886" lon="145.3855">
    <ele>304.76000000000005</ele>
   </trkpt>
   <trkpt lat="-37.84841" lon="145.38582000000002">
    <ele>301.35</ele>
   </trkpt>
   <trkpt lat="-37.84821" lon="145.38600000000002">
    <ele>297.85</ele>
   </trkpt>
   <trkpt lat="-37.84803" lon="145.38611">
    <ele>297.07</ele>
   </trkpt>
   <trkpt lat="-37.84774" lon="145.38622">
    <ele>295.37</ele>
   </trkpt>
   <trkpt lat="-37.84749" lon="145.38625000000002">
    <ele>294.66</ele>
   </trkpt>
   <trkpt lat="-37.84727" lon="145.38623">
    <ele>294.95000000000005</ele>
   </trkpt>
   <trkpt lat="-37.84655" lon="145.38557">
    <ele>302.07</ele>
   </trkpt>
   <trkpt lat="-37.84628" lon="145.3854">
    <ele>305.65000000000003</ele>
   </trkpt>
   <trkpt lat="-37.84601" lon="145.38532">
    <ele>309.48</ele>
   </trkpt>
   <trkpt lat="-37.84568" lon="145.38528000000002">
    <ele>315.0</ele>
   </trkpt>
   <trkpt lat="-37.84521" lon="145.38525">
    <ele>319.94</ele>
   </trkpt>
   <trkpt lat="-37.8451" lon="145.38520000000003">
    <ele>320.59000000000003</ele>
   </trkpt>
   <trkpt lat="-37.84512" lon="145.38515">
    <ele>320.59000000000003</ele>
   </trkpt>
   <trkpt lat="-37.845040000000004" lon="145.38504">
    <ele>321.01</ele>
   </trkpt>
   <trkpt lat="-37.84528" lon="145.38482000000002">
    <ele>322.78000000000003</ele>
   </trkpt>
   <trkpt lat="-37.84534" lon="145.3845">
    <ele>326.95</ele>
   </trkpt>
   <trkpt lat="-37.84539" lon="145.38446000000002">
    <ele>326.95</ele>
   </trkpt>
   <trkpt lat="-37.84548" lon="145.38412000000002">
    <ele>330.40000000000003</ele>
   </trkpt>
   <trkpt lat="-37.84548" lon="145.38393000000002">
    <ele>335.17</ele>
   </trkpt>
   <trkpt lat="-37.84554" lon="145.38366000000002">
    <ele>340.89000000000004</ele>
   </trkpt>
   <trkpt lat="-37.84554" lon="145.38338000000002">
    <ele>343.32</ele>
   </trkpt>
   <trkpt lat="-37.84548" lon="145.38314000000003">
    <ele>345.68000000000006</ele>
   </trkpt>
   <trkpt lat="-37.84539" lon="145.38249000000002">
    <ele>351.85</ele>
   </trkpt>
   <trkpt lat="-37.84532" lon="145.38224000000002">
    <ele>353.48</ele>
   </trkpt>
   <trkpt lat="-37.84521" lon="145.38202">
    <ele>354.43</ele>
   </trkpt>
   <trkpt lat="-37.84501" lon="145.38150000000002">
    <ele>359.05</ele>
   </trkpt>
   <trkpt lat="-37.84501" lon="145.38151000000002">
    <ele>359.05</ele>
   </trkpt>
   <trkpt lat="-37.84472500131144" lon="145.38095499787295">
    <ele>363.25</ele>
   </trkpt>
   <trkpt lat="-37.844440000000006" lon="145.3804">
    <ele>365.19</ele>
   </trkpt>
   <trkpt lat="-37.84431" lon="145.38042000000002">
    <ele>362.21000000000004</ele>
   </trkpt>
   <trkpt lat="-37.84396" lon="145.38022">
    <ele>355.65000000000003</ele>
   </trkpt>
   <trkpt lat="-37.84315" lon="145.37983">
    <ele>345.80000000000007</ele>
   </trkpt>
   <trkpt lat="-37.84297" lon="145.37982000000002">
    <ele>342.44</ele>
   </trkpt>
   <trkpt lat="-37.84277" lon="145.37985">
    <ele>339.18</ele>
   </trkpt>
   <trkpt lat="-37.84257" lon="145.37998000000002">
    <ele>334.64000000000004</ele>
   </trkpt>
   <trkpt lat="-37.8425" lon="145.38008000000002">
    <ele>333.06</ele>
   </trkpt>
   <trkpt lat="-37.842380000000006" lon="145.38016000000002">
    <ele>330.16</ele>
   </trkpt>
   <trkpt lat="-37.84223" lon="145.38017000000002">
    <ele>326.94</ele>
   </trkpt>
   <trkpt lat="-37.84205" lon="145.38012">
    <ele>324.81000000000006</ele>
   </trkpt>
   <trkpt lat="-37.84201" lon="145.38002">
    <ele>324.64000000000004</ele>
   </trkpt>
   <trkpt lat="-37.84185" lon="145.37971000000002">
    <ele>325.88</ele>
   </trkpt>
   <trkpt lat="-37.84154" lon="145.37922">
    <ele>328.32</ele>
   </trkpt>
   <trkpt lat="-37.84122" lon="145.37847000000002">
    <ele>330.15000000000003</ele>
   </trkpt>
   <trkpt lat="-37.84103" lon="145.37786">
    <ele>333.17</ele>
   </trkpt>
   <trkpt lat="-37.840990000000005" lon="145.37779">
    <ele>333.20000000000005</ele>
   </trkpt>
   <trkpt lat="-37.840970000000006" lon="145.37764">
    <ele>334.16</ele>
   </trkpt>
   <trkpt lat="-37.84089" lon="145.37754">
    <ele>334.99</ele>
   </trkpt>
   <trkpt lat="-37.84046" lon="145.37711000000002">
    <ele>343.96000000000004</ele>
   </trkpt>
   <trkpt lat="-37.84024" lon="145.37681">
    <ele>348.16</ele>
   </trkpt>
   <trkpt lat="-37.83999500117897" lon="145.37628499828548">
    <ele>355.12000000000006</ele>
   </trkpt>
   <trkpt lat="-37.83975" lon="145.37576">
    <ele>361.99</ele>
   </trkpt>
   <trkpt lat="-37.83950000241456" lon="145.3750049974551">
    <ele>370.64000000000004</ele>
   </trkpt>
   <trkpt lat="-37.83925" lon="145.37425000000002">
    <ele>378.03000000000003</ele>
   </trkpt>
   <trkpt lat="-37.83921" lon="145.37414">
    <ele>379.01</ele>
   </trkpt>
   <trkpt lat="-37.8391" lon="145.37399000000002">
    <ele>379.63</ele>
   </trkpt>
   <trkpt lat="-37.83883" lon="145.37376">
    <ele>380.3</ele>
   </trkpt>
   <trkpt lat="-37.83858" lon="145.37359">
    <ele>380.6</ele>
   </trkpt>
   <trkpt lat="-37.83847" lon="145.37354000000002">
    <ele>381.23</ele>
   </trkpt>
   <trkpt lat="-37.83822" lon="145.37348">
    <ele>385.1</ele>
   </trkpt>
   <trkpt lat="-37.83805" lon="145.37351">
    <ele>390.15000000000003</ele>
   </trkpt>
   <trkpt lat="-37.83791" lon="145.37358">
    <ele>393.40000000000003</ele>
   </trkpt>
   <trkpt lat="-37.837880000000006" lon="145.37362000000002">
    <ele>393.66</ele>
   </trkpt>
   <trkpt lat="-37.83784" lon="145.37368">
    <ele>395.59000000000003</ele>
   </trkpt>
   <trkpt lat="-37.83764" lon="145.37427000000002">
    <ele>404.66</ele>
   </trkpt>
   <trkpt lat="-37.83746" lon="145.37449">
    <ele>406.78000000000003</ele>
   </trkpt>
   <trkpt lat="-37.83735" lon="145.37466">
    <ele>407.17</ele>
   </trkpt>
   <trkpt lat="-37.83719" lon="145.37407000000002">
    <ele>408.52000000000004</ele>
   </trkpt>
   <trkpt lat="-37.83719" lon="145.37388">
    <ele>409.14000000000004</ele>
   </trkpt>
   <trkpt lat="-37.83708" lon="145.37331">
    <ele>413.13000000000005</ele>
   </trkpt>
   <trkpt lat="-37.83699" lon="145.37235">
    <ele>423.55</ele>
   </trkpt>
   <trkpt lat="-37.837030000000006" lon="145.3719">
    <ele>426.98</ele>
   </trkpt>
   <trkpt lat="-37.83699" lon="145.37133">
    <ele>429.99</ele>
   </trkpt>
   <trkpt lat="-37.837030000000006" lon="145.37094000000002">
    <ele>431.3</ele>
   </trkpt>
   <trkpt lat="-37.83701000000001" lon="145.37063">
    <ele>434.20000000000005</ele>
   </trkpt>
   <trkpt lat="-37.83706" lon="145.3701">
    <ele>437.64000000000004</ele>
   </trkpt>
   <trkpt lat="-37.83719" lon="145.36971">
    <ele>442.95</ele>
   </trkpt>
   <trkpt lat="-37.83719" lon="145.36952000000002">
    <ele>444.48</ele>
   </trkpt>
   <trkpt lat="-37.837340000000005" lon="145.36954">
    <ele>441.37</ele>
   </trkpt>
   <trkpt lat="-37.83708" lon="145.36950000000002">
    <ele>439.43</ele>
   </trkpt>
   <trkpt lat="-37.8369" lon="145.36942000000002">
    <ele>437.02000000000004</ele>
   </trkpt>
   <trkpt lat="-37.83668" lon="145.36922">
    <ele>433.16</ele>
   </trkpt>
   <trkpt lat="-37.83631000097565" lon="145.36872999749014">
    <ele>427.31</ele>
   </trkpt>
   <trkpt lat="-37.83594" lon="145.36824000000001">
    <ele>422.74000000000007</ele>
   </trkpt>
   <trkpt lat="-37.83552" lon="145.36745000000002">
    <ele>415.79</ele>
   </trkpt>
   <trkpt lat="-37.8354" lon="145.36739">
    <ele>415.12000000000006</ele>
   </trkpt>
   <trkpt lat="-37.83531" lon="145.36742">
    <ele>415.0</ele>
   </trkpt>
   <trkpt lat="-37.83522" lon="145.36747000000003">
    <ele>415.04</ele>
   </trkpt>
   <trkpt lat="-37.83518" lon="145.36738000000003">
    <ele>415.91</ele>
   </trkpt>
   <trkpt lat="-37.83509" lon="145.3673">
    <ele>417.01000000000005</ele>
   </trkpt>
   <trkpt lat="-37.83482" lon="145.36722">
    <ele>422.96000000000004</ele>
   </trkpt>
   <trkpt lat="-37.83469" lon="145.36711000000003">
    <ele>425.34000000000003</ele>
   </trkpt>
   <trkpt lat="-37.8344" lon="145.36679">
    <ele>431.19</ele>
   </trkpt>
   <trkpt lat="-37.83431" lon="145.36658">
    <ele>435.45000000000005</ele>
   </trkpt>
   <trkpt lat="-37.83419" lon="145.36644">
    <ele>439.27000000000004</ele>
   </trkpt>
   <trkpt lat="-37.8337" lon="145.36607">
    <ele>451.46000000000004</ele>
   </trkpt>
   <trkpt lat="-37.83341" lon="145.3658">
    <ele>455.92</ele>
   </trkpt>
   <trkpt lat="-37.833090000000006" lon="145.36562">
    <ele>462.38</ele>
   </trkpt>
   <trkpt lat="-37.83276" lon="145.3656">
    <ele>466.83000000000004</ele>
   </trkpt>
   <trkpt lat="-37.832710000000006" lon="145.36564">
    <ele>467.59000000000003</ele>
   </trkpt>
   <trkpt lat="-37.83252" lon="145.36566000000002">
    <ele>471.01000000000005</ele>
   </trkpt>
   <trkpt lat="-37.8324" lon="145.36562">
    <ele>473.01000000000005</ele>
   </trkpt>
   <trkpt lat="-37.83207" lon="145.36518">
    <ele>482.75</ele>
   </trkpt>
   <trkpt lat="-37.83196" lon="145.36511000000002">
    <ele>483.44000000000005</ele>
   </trkpt>
   <trkpt lat="-37.83164" lon="145.365">
    <ele>488.83000000000004</ele>
   </trkpt>
   <trkpt lat="-37.83151" lon="145.36502000000002">
    <ele>489.26</ele>
   </trkpt>
   <trkpt lat="-37.83144" lon="145.36499">
    <ele>489.66</ele>
   </trkpt>
   <trkpt lat="-37.83126" lon="145.36482">
    <ele>494.88000000000005</ele>
   </trkpt>
   <trkpt lat="-37.83113" lon="145.36475000000002">
    <ele>497.37</ele>
   </trkpt>
   <trkpt lat="-37.8309" lon="145.36471">
    <ele>500.7600000000001</ele>
   </trkpt>
   <trkpt lat="-37.83059" lon="145.36460000000002">
    <ele>503.63</ele>
   </trkpt>
   <trkpt lat="-37.8305" lon="145.36452">
    <ele>504.73</ele>
   </trkpt>
   <trkpt lat="-37.83032" lon="145.36443">
    <ele>507.45000000000005</ele>
   </trkpt>
   <trkpt lat="-37.82967" lon="145.3639">
    <ele>510.74000000000007</ele>
   </trkpt>
   <trkpt lat="-37.82945" lon="145.36360000000002">
    <ele>512.9</ele>
   </trkpt>
   <trkpt lat="-37.82882" lon="145.36294">
    <ele>520.33</ele>
   </trkpt>
   <trkpt lat="-37.8286" lon="145.36275">
    <ele>520.98</ele>
   </trkpt>
   <trkpt lat="-37.828500000000005" lon="145.36258">
    <ele>521.5500000000001</ele>
   </trkpt>
   <trkpt lat="-37.82849" lon="145.36257">
    <ele>521.61</ele>
   </trkpt>
   <trkpt lat="-37.82842" lon="145.36245000000002">
    <ele>523.4100000000001</ele>
   </trkpt>
   <trkpt lat="-37.8284" lon="145.36231">
    <ele>524.25</ele>
   </trkpt>
   <trkpt lat="-37.82842" lon="145.3622">
    <ele>524.72</ele>
   </trkpt>
   <trkpt lat="-37.8284" lon="145.36201">
    <ele>524.99</ele>
   </trkpt>
   <trkpt lat="-37.828340000000004" lon="145.36183000000003">
    <ele>524.99</ele>
   </trkpt>
   <trkpt lat="-37.82831" lon="145.36141">
    <ele>518.11</ele>
   </trkpt>
   <trkpt lat="-37.82835" lon="145.36064000000002">
    <ele>511.85</ele>
   </trkpt>
   <trkpt lat="-37.82833" lon="145.36049">
    <ele>511.01000000000005</ele>
   </trkpt>
   <trkpt lat="-37.828210000000006" lon="145.36029000000002">
    <ele>510.5200000000001</ele>
   </trkpt>
   <trkpt lat="-37.82802" lon="145.36015">
    <ele>510.18000000000006</ele>
   </trkpt>
   <trkpt lat="-37.82788" lon="145.35998">
    <ele>508.09999999999997</ele>
   </trkpt>
   <trkpt lat="-37.828030000000005" lon="145.35981">
    <ele>508.07</ele>
   </trkpt>
   <trkpt lat="-37.82802" lon="145.35974000000002">
    <ele>513.27</ele>
   </trkpt>
   <trkpt lat="-37.82797" lon="145.35967000000002">
    <ele>516.0400000000001</ele>
   </trkpt>
   <trkpt lat="-37.82786" lon="145.3596">
    <ele>521.86</ele>
   </trkpt>
   <trkpt lat="-37.82772000000001" lon="145.35955">
    <ele>533.91</ele>
   </trkpt>
   <trkpt lat="-37.82728" lon="145.35929000000002">
    <ele>533.5300000000001</ele>
   </trkpt>
   <trkpt lat="-37.827180000000006" lon="145.35917">
    <ele>533.27</ele>
   </trkpt>
   <trkpt lat="-37.82705" lon="145.35911000000002">
    <ele>532.47</ele>
   </trkpt>
   <trkpt lat="-37.82694" lon="145.35909">
    <ele>532.2800000000001</ele>
   </trkpt>
   <trkpt lat="-37.82687" lon="145.35904000000002">
    <ele>532.0500000000001</ele>
   </trkpt>
   <trkpt lat="-37.82681" lon="145.35894000000002">
    <ele>532.1700000000001</ele>
   </trkpt>
   <trkpt lat="-37.82678000000001" lon="145.35874">
    <ele>533.0400000000001</ele>
   </trkpt>
   <trkpt lat="-37.82683" lon="145.35869000000002">
    <ele>535.46</ele>
   </trkpt>
   <trkpt lat="-37.82699" lon="145.35844">
    <ele>541.2</ele>
   </trkpt>
   <trkpt lat="-37.82721" lon="145.3582">
    <ele>548.42</ele>
   </trkpt>
   <trkpt lat="-37.82737" lon="145.35789000000003">
    <ele>553.7800000000001</ele>
   </trkpt>
   <trkpt lat="-37.82759" lon="145.35757">
    <ele>567.4</ele>
   </trkpt>
   <trkpt lat="-37.82764" lon="145.35731">
    <ele>571.0</ele>
   </trkpt>
   <trkpt lat="-37.82775" lon="145.35697000000002">
    <ele>574.16</ele>
   </trkpt>
   <trkpt lat="-37.82793" lon="145.35668">
    <ele>575.99</ele>
   </trkpt>
   <trkpt lat="-37.827940000000005" lon="145.35644000000002">
    <ele>585.96</ele>
   </trkpt>
   <trkpt lat="-37.828190000000006" lon="145.35636000000002">
    <ele>582.1200000000001</ele>
   </trkpt>
   <trkpt lat="-37.82831" lon="145.35626000000002">
    <ele>582.6600000000001</ele>
   </trkpt>
   <trkpt lat="-37.82837" lon="145.3561">
    <ele>583.67</ele>
   </trkpt>
   <trkpt lat="-37.82833" lon="145.35595">
    <ele>584.09</ele>
   </trkpt>
   <trkpt lat="-37.82884" lon="145.3557">
    <ele>585.7900000000001</ele>
   </trkpt>
   <trkpt lat="-37.829370000000004" lon="145.35549">
    <ele>588.21</ele>
   </trkpt>
   <trkpt lat="-37.82934" lon="145.3554">
    <ele>588.9000000000001</ele>
   </trkpt>
   <trkpt lat="-37.829350000000005" lon="145.35541">
    <ele>588.86</ele>
   </trkpt>
   <trkpt lat="-37.82929" lon="145.35536000000002">
    <ele>589.7900000000001</ele>
   </trkpt>
   <trkpt lat="-37.82918" lon="145.3553">
    <ele>589.7900000000001</ele>
   </trkpt>
   <trkpt lat="-37.82909" lon="145.35528000000002">
    <ele>591.28</ele>
   </trkpt>
   <trkpt lat="-37.82871" lon="145.35534">
    <ele>594.5400000000001</ele>
   </trkpt>
   <trkpt lat="-37.82835" lon="145.35531">
    <ele>599.13</ele>
   </trkpt>
   <trkpt lat="-37.828120000000006" lon="145.35516">
    <ele>602.74</ele>
   </trkpt>
   <trkpt lat="-37.82788" lon="145.35497">
    <ele>606.04</ele>
   </trkpt>
   <trkpt lat="-37.82751000074204" lon="145.35452499765438">
    <ele>613.6400000000001</ele>
   </trkpt>
   <trkpt lat="-37.82714" lon="145.35408">
    <ele>621.1500000000001</ele>
   </trkpt>
   <trkpt lat="-37.82705" lon="145.35386000000003">
    <ele>622.96</ele>
   </trkpt>
   <trkpt lat="-37.826980000000006" lon="145.35382">
    <ele>622.96</ele>
   </trkpt>
   <trkpt lat="-37.82692" lon="145.35366000000002">
    <ele>624.12</ele>
   </trkpt>
   <trkpt lat="-37.82683" lon="145.35363">
    <ele>623.72</ele>
   </trkpt>
   <trkpt lat="-37.82674" lon="145.35355">
    <ele>623.35</ele>
   </trkpt>
   <trkpt lat="-37.82663" lon="145.35322000000002">
    <ele>622.21</ele>
   </trkpt>
   <trkpt lat="-37.826620000000005" lon="145.35309">
    <ele>622.1600000000001</ele>
   </trkpt>
   <trkpt lat="-37.82618" lon="145.35317">
    <ele>620.0500000000001</ele>
   </trkpt>
   <trkpt lat="-37.82602" lon="145.35317">
    <ele>611.65</ele>
   </trkpt>
   <trkpt lat="-37.82589" lon="145.35312000000002">
    <ele>603.0600000000001</ele>
   </trkpt>
   <trkpt lat="-37.8258" lon="145.35314000000002">
    <ele>603.0600000000001</ele>
   </trkpt>
   <trkpt lat="-37.82564" lon="145.35313000000002">
    <ele>592.45</ele>
   </trkpt>
   <trkpt lat="-37.82553" lon="145.35331000000002">
    <ele>584.62</ele>
   </trkpt>
   <trkpt lat="-37.82547" lon="145.35287000000002">
    <ele>584.62</ele>
   </trkpt>
   <trkpt lat="-37.82551" lon="145.35260000000002">
    <ele>584.07</ele>
   </trkpt>
   <trkpt lat="-37.82558" lon="145.35231000000002">
    <ele>583.2900000000001</ele>
   </trkpt>
   <trkpt lat="-37.825590000000005" lon="145.3523">
    <ele>583.2900000000001</ele>
   </trkpt>
   <trkpt lat="-37.82596" lon="145.35162000000003">
    <ele>580.19</ele>
   </trkpt>
   <trkpt lat="-37.82625" lon="145.35123000000002">
    <ele>577.37</ele>
   </trkpt>
   <trkpt lat="-37.82658" lon="145.35101">
    <ele>575.25</ele>
   </trkpt>
   <trkpt lat="-37.82701" lon="145.35084">
    <ele>575.88</ele>
   </trkpt>
   <trkpt lat="-37.82758000007891" lon="145.35072500088367">
    <ele>573.85</ele>
   </trkpt>
   <trkpt lat="-37.82815" lon="145.35061000000002">
    <ele>573.5300000000001</ele>
   </trkpt>
   <trkpt lat="-37.8286300000965" lon="145.35060500003155">
    <ele>575.87</ele>
   </trkpt>
   <trkpt lat="-37.82911" lon="145.35060000000001">
    <ele>573.09</ele>
   </trkpt>
   <trkpt lat="-37.82943" lon="145.35047">
    <ele>568.08</ele>
   </trkpt>
   <trkpt lat="-37.82963" lon="145.35047">
    <ele>565.19</ele>
   </trkpt>
   <trkpt lat="-37.82999" lon="145.35055">
    <ele>562.37</ele>
   </trkpt>
   <trkpt lat="-37.83032" lon="145.35069000000001">
    <ele>559.35</ele>
   </trkpt>
   <trkpt lat="-37.83066" lon="145.35092">
    <ele>557.5300000000001</ele>
   </trkpt>
   <trkpt lat="-37.83093" lon="145.35097000000002">
    <ele>555.2</ele>
   </trkpt>
   <trkpt lat="-37.83122" lon="145.35091">
    <ele>555.32</ele>
   </trkpt>
   <trkpt lat="-37.83162" lon="145.35071000000002">
    <ele>561.7</ele>
   </trkpt>
   <trkpt lat="-37.83196" lon="145.35046">
    <ele>569.2400000000001</ele>
   </trkpt>
   <trkpt lat="-37.83231" lon="145.35010000000003">
    <ele>577.11</ele>
   </trkpt>
   <trkpt lat="-37.83267" lon="145.34969">
    <ele>584.76</ele>
   </trkpt>
   <trkpt lat="-37.83274" lon="145.34954000000002">
    <ele>585.52</ele>
   </trkpt>
   <trkpt lat="-37.83287" lon="145.34947000000003">
    <ele>586.2400000000001</ele>
   </trkpt>
   <trkpt lat="-37.83296" lon="145.34934">
    <ele>587.2400000000001</ele>
   </trkpt>
   <trkpt lat="-37.83323" lon="145.34911000000002">
    <ele>591.7900000000001</ele>
   </trkpt>
   <trkpt lat="-37.833330000000004" lon="145.3484">
    <ele>595.36</ele>
   </trkpt>
   <trkpt lat="-37.83346" lon="145.34808">
    <ele>595.07</ele>
   </trkpt>
   <trkpt lat="-37.83379500052499" lon="145.34767500204265">
    <ele>597.41</ele>
   </trkpt>
   <trkpt lat="-37.83413" lon="145.34727">
    <ele>597.1200000000001</ele>
   </trkpt>
   <trkpt lat="-37.8344" lon="145.34703000000002">
    <ele>597.13</ele>
   </trkpt>
   <trkpt lat="-37.83487" lon="145.34681">
    <ele>597.04</ele>
   </trkpt>
   <trkpt lat="-37.835150000000006" lon="145.34676000000002">
    <ele>597.5100000000001</ele>
   </trkpt>
   <trkpt lat="-37.83574" lon="145.34658000000002">
    <ele>601.3900000000001</ele>
   </trkpt>
   <trkpt lat="-37.83601" lon="145.34655">
    <ele>604.38</ele>
   </trkpt>
   <trkpt lat="-37.8363" lon="145.34654">
    <ele>606.75</ele>
   </trkpt>
   <trkpt lat="-37.83668" lon="145.34659000000002">
    <ele>611.35</ele>
   </trkpt>
   <trkpt lat="-37.83681" lon="145.34658000000002">
    <ele>611.09</ele>
   </trkpt>
   <trkpt lat="-37.83699" lon="145.34654">
    <ele>608.85</ele>
   </trkpt>
   <trkpt lat="-37.83706" lon="145.34649000000002">
    <ele>607.02</ele>
   </trkpt>
   <trkpt lat="-37.83726" lon="145.34629">
    <ele>600.6700000000001</ele>
   </trkpt>
   <trkpt lat="-37.83733" lon="145.34626">
    <ele>598.77</ele>
   </trkpt>
   <trkpt lat="-37.8376" lon="145.34623000000002">
    <ele>594.2900000000001</ele>
   </trkpt>
   <trkpt lat="-37.83771" lon="145.34619">
    <ele>592.1800000000001</ele>
   </trkpt>
   <trkpt lat="-37.83791" lon="145.34608">
    <ele>584.74</ele>
   </trkpt>
   <trkpt lat="-37.83813" lon="145.34605000000002">
    <ele>580.2</ele>
   </trkpt>
   <trkpt lat="-37.83834" lon="145.34596000000002">
    <ele>570.71</ele>
   </trkpt>
   <trkpt lat="-37.83843" lon="145.34587000000002">
    <ele>569.44</ele>
   </trkpt>
   <trkpt lat="-37.83856" lon="145.34584">
    <ele>566.4100000000001</ele>
   </trkpt>
   <trkpt lat="-37.83872" lon="145.34589000000003">
    <ele>565.24</ele>
   </trkpt>
   <trkpt lat="-37.83896" lon="145.34608">
    <ele>565.5400000000001</ele>
   </trkpt>
   <trkpt lat="-37.83912" lon="145.34611">
    <ele>562.97</ele>
   </trkpt>
   <trkpt lat="-37.83979" lon="145.34601">
    <ele>549.51</ele>
   </trkpt>
   <trkpt lat="-37.84013" lon="145.34605000000002">
    <ele>542.19</ele>
   </trkpt>
   <trkpt lat="-37.84033" lon="145.34614000000002">
    <ele>538.98</ele>
   </trkpt>
   <trkpt lat="-37.84035" lon="145.34611">
    <ele>538.98</ele>
   </trkpt>
   <trkpt lat="-37.84035" lon="145.3461">
    <ele>539.94</ele>
   </trkpt>
   <trkpt lat="-37.84035" lon="145.34608">
    <ele>539.94</ele>
   </trkpt>
   <trkpt lat="-37.84004" lon="145.34539">
    <ele>530.59</ele>
   </trkpt>
   <trkpt lat="-37.83977" lon="145.34502">
    <ele>518.1999999999999</ele>
   </trkpt>
   <trkpt lat="-37.83977" lon="145.34496000000001">
    <ele>518.1999999999999</ele>
   </trkpt>
   <trkpt lat="-37.83979" lon="145.34494">
    <ele>518.1999999999999</ele>
   </trkpt>
   <trkpt lat="-37.839850000000006" lon="145.34493">
    <ele>518.1999999999999</ele>
   </trkpt>
   <trkpt lat="-37.84055" lon="145.34504">
    <ele>508.93</ele>
   </trkpt>
   <trkpt lat="-37.84082" lon="145.34512">
    <ele>503.85</ele>
   </trkpt>
   <trkpt lat="-37.84122" lon="145.34528">
    <ele>496.56000000000006</ele>
   </trkpt>
   <trkpt lat="-37.84127" lon="145.34528">
    <ele>496.56000000000006</ele>
   </trkpt>
   <trkpt lat="-37.84127" lon="145.34522">
    <ele>496.56000000000006</ele>
   </trkpt>
   <trkpt lat="-37.8412" lon="145.34501">
    <ele>492.26000000000005</ele>
   </trkpt>
   <trkpt lat="-37.84109" lon="145.34479000000002">
    <ele>489.15000000000003</ele>
   </trkpt>
   <trkpt lat="-37.84091" lon="145.34454000000002">
    <ele>484.86</ele>
   </trkpt>
   <trkpt lat="-37.84051" lon="145.34409000000002">
    <ele>473.94</ele>
   </trkpt>
   <trkpt lat="-37.84028" lon="145.34392000000003">
    <ele>470.03000000000003</ele>
   </trkpt>
   <trkpt lat="-37.84024" lon="145.34384">
    <ele>468.64000000000004</ele>
   </trkpt>
   <trkpt lat="-37.84057" lon="145.34386">
    <ele>466.23</ele>
   </trkpt>
   <trkpt lat="-37.84091" lon="145.34394">
    <ele>463.67</ele>
   </trkpt>
   <trkpt lat="-37.84125" lon="145.34408000000002">
    <ele>461.41</ele>
   </trkpt>
   <trkpt lat="-37.84163" lon="145.34426000000002">
    <ele>458.37000000000006</ele>
   </trkpt>
   <trkpt lat="-37.84183" lon="145.34441">
    <ele>457.59000000000003</ele>
   </trkpt>
   <trkpt lat="-37.842040000000004" lon="145.34463000000002">
    <ele>457.01</ele>
   </trkpt>
   <trkpt lat="-37.84221" lon="145.34493">
    <ele>456.67</ele>
   </trkpt>
   <trkpt lat="-37.8423" lon="145.34518">
    <ele>456.05</ele>
   </trkpt>
   <trkpt lat="-37.84239" lon="145.34554">
    <ele>454.79</ele>
   </trkpt>
   <trkpt lat="-37.84241" lon="145.34594">
    <ele>453.38000000000005</ele>
   </trkpt>
   <trkpt lat="-37.84239" lon="145.34612">
    <ele>452.59000000000003</ele>
   </trkpt>
   <trkpt lat="-37.8423" lon="145.34661">
    <ele>451.16</ele>
   </trkpt>
   <trkpt lat="-37.84228" lon="145.3468">
    <ele>449.75000000000006</ele>
   </trkpt>
   <trkpt lat="-37.8423" lon="145.34731000000002">
    <ele>448.0</ele>
   </trkpt>
   <trkpt lat="-37.8423" lon="145.34775000000002">
    <ele>444.99000000000007</ele>
   </trkpt>
   <trkpt lat="-37.84225" lon="145.34794000000002">
    <ele>444.51</ele>
   </trkpt>
   <trkpt lat="-37.84219" lon="145.34804000000003">
    <ele>444.51</ele>
   </trkpt>
   <trkpt lat="-37.84201" lon="145.34824">
    <ele>443.32000000000005</ele>
   </trkpt>
   <trkpt lat="-37.84194" lon="145.34835">
    <ele>443.03000000000003</ele>
   </trkpt>
   <trkpt lat="-37.84183" lon="145.34872000000001">
    <ele>442.22</ele>
   </trkpt>
   <trkpt lat="-37.84185" lon="145.34889">
    <ele>441.69</ele>
   </trkpt>
   <trkpt lat="-37.84176" lon="145.34928000000002">
    <ele>448.12</ele>
   </trkpt>
   <trkpt lat="-37.84179" lon="145.34944000000002">
    <ele>452.75000000000006</ele>
   </trkpt>
   <trkpt lat="-37.84172" lon="145.3495">
    <ele>455.29</ele>
   </trkpt>
   <trkpt lat="-37.84152" lon="145.34975">
    <ele>461.13000000000005</ele>
   </trkpt>
   <trkpt lat="-37.84113" lon="145.34991000000002">
    <ele>478.41</ele>
   </trkpt>
   <trkpt lat="-37.84102" lon="145.35001000000003">
    <ele>482.51000000000005</ele>
   </trkpt>
   <trkpt lat="-37.84098" lon="145.35012">
    <ele>484.55</ele>
   </trkpt>
   <trkpt lat="-37.84098" lon="145.35011">
    <ele>484.03000000000003</ele>
   </trkpt>
   <trkpt lat="-37.84098" lon="145.35017000000002">
    <ele>484.78000000000003</ele>
   </trkpt>
   <trkpt lat="-37.84127" lon="145.35051">
    <ele>487.98</ele>
   </trkpt>
   <trkpt lat="-37.84183" lon="145.35098000000002">
    <ele>496.35</ele>
   </trkpt>
   <trkpt lat="-37.84201" lon="145.35107000000002">
    <ele>499.2900000000001</ele>
   </trkpt>
   <trkpt lat="-37.84207" lon="145.35114000000002">
    <ele>501.0300000000001</ele>
   </trkpt>
   <trkpt lat="-37.84223" lon="145.35143000000002">
    <ele>509.97999999999996</ele>
   </trkpt>
   <trkpt lat="-37.842470000000006" lon="145.35169000000002">
    <ele>516.09</ele>
   </trkpt>
   <trkpt lat="-37.84275" lon="145.35187000000002">
    <ele>519.19</ele>
   </trkpt>
   <trkpt lat="-37.84306" lon="145.35212">
    <ele>523.98</ele>
   </trkpt>
   <trkpt lat="-37.84335" lon="145.35238">
    <ele>526.03</ele>
   </trkpt>
   <trkpt lat="-37.84364" lon="145.35284000000001">
    <ele>530.5500000000001</ele>
   </trkpt>
   <trkpt lat="-37.84366" lon="145.35302000000001">
    <ele>532.24</ele>
   </trkpt>
   <trkpt lat="-37.843560000000004" lon="145.35325">
    <ele>533.12</ele>
   </trkpt>
   <trkpt lat="-37.84382" lon="145.35336">
    <ele>532.1400000000001</ele>
   </trkpt>
   <trkpt lat="-37.84405" lon="145.35351">
    <ele>530.64</ele>
   </trkpt>
   <trkpt lat="-37.84418" lon="145.35363">
    <ele>529.58</ele>
   </trkpt>
   <trkpt lat="-37.84432" lon="145.35388">
    <ele>527.22</ele>
   </trkpt>
   <trkpt lat="-37.84447" lon="145.35412000000002">
    <ele>525.36</ele>
   </trkpt>
   <trkpt lat="-37.84456" lon="145.35451">
    <ele>521.83</ele>
   </trkpt>
   <trkpt lat="-37.84458" lon="145.35522">
    <ele>515.0100000000001</ele>
   </trkpt>
   <trkpt lat="-37.8446" lon="145.35533">
    <ele>514.49</ele>
   </trkpt>
   <trkpt lat="-37.84514" lon="145.35531">
    <ele>511.62000000000006</ele>
   </trkpt>
   <trkpt lat="-37.845220000000005" lon="145.35527000000002">
    <ele>511.36</ele>
   </trkpt>
   <trkpt lat="-37.8453" lon="145.35535000000002">
    <ele>510.9600000000001</ele>
   </trkpt>
   <trkpt lat="-37.84567500202949" lon="145.35605499627977">
    <ele>510.34000000000003</ele>
   </trkpt>
   <trkpt lat="-37.846050000000005" lon="145.35676">
    <ele>508.78</ele>
   </trkpt>
   <trkpt lat="-37.846360000000004" lon="145.35734000000002">
    <ele>508.99000000000007</ele>
   </trkpt>
   <trkpt lat="-37.84644" lon="145.35760000000002">
    <ele>509.85</ele>
   </trkpt>
   <trkpt lat="-37.846540000000005" lon="145.35771000000003">
    <ele>510.21999999999997</ele>
   </trkpt>
   <trkpt lat="-37.84664" lon="145.35795000000002">
    <ele>512.49</ele>
   </trkpt>
   <trkpt lat="-37.84695" lon="145.35840000000002">
    <ele>516.57</ele>
   </trkpt>
   <trkpt lat="-37.84709" lon="145.35882">
    <ele>518.25</ele>
   </trkpt>
   <trkpt lat="-37.84704" lon="145.35884000000001">
    <ele>517.25</ele>
   </trkpt>
   <trkpt lat="-37.84716" lon="145.35931000000002">
    <ele>515.99</ele>
   </trkpt>
   <trkpt lat="-37.84728500125064" lon="145.35986499882972">
    <ele>514.45</ele>
   </trkpt>
   <trkpt lat="-37.84741" lon="145.36042">
    <ele>511.55000000000007</ele>
   </trkpt>
   <trkpt lat="-37.84745" lon="145.36059">
    <ele>511.0300000000001</ele>
   </trkpt>
   <trkpt lat="-37.84745" lon="145.36067">
    <ele>510.8400000000001</ele>
   </trkpt>
   <trkpt lat="-37.8474" lon="145.36077">
    <ele>510.4200000000001</ele>
   </trkpt>
   <trkpt lat="-37.84761" lon="145.36091000000002">
    <ele>509.95</ele>
   </trkpt>
   <trkpt lat="-37.848050000500415" lon="145.3612599978976">
    <ele>509.97999999999996</ele>
   </trkpt>
   <trkpt lat="-37.848490000000005" lon="145.36161">
    <ele>511.70000000000005</ele>
   </trkpt>
   <trkpt lat="-37.84863" lon="145.36169">
    <ele>512.76</ele>
   </trkpt>
   <trkpt lat="-37.849270000000004" lon="145.36192">
    <ele>517.36</ele>
   </trkpt>
   <trkpt lat="-37.84995" lon="145.36212">
    <ele>522.57</ele>
   </trkpt>
   <trkpt lat="-37.85" lon="145.36219">
    <ele>524.57</ele>
   </trkpt>
   <trkpt lat="-37.85065" lon="145.36246">
    <ele>535.49</ele>
   </trkpt>
   <trkpt lat="-37.85127000088429" lon="145.36293499595223">
    <ele>542.3800000000001</ele>
   </trkpt>
   <trkpt lat="-37.851890000000004" lon="145.36341000000002">
    <ele>555.3299999999999</ele>
   </trkpt>
   <trkpt lat="-37.85226" lon="145.36367">
    <ele>561.32</ele>
   </trkpt>
   <trkpt lat="-37.85235" lon="145.36373">
    <ele>562.71</ele>
   </trkpt>
   <trkpt lat="-37.85231" lon="145.36381">
    <ele>564.61</ele>
   </trkpt>
   <trkpt lat="-37.852790000000006" lon="145.36419">
    <ele>571.5300000000001</ele>
   </trkpt>
   <trkpt lat="-37.85250500122582" lon="145.3647400022288">
    <ele>576.6</ele>
   </trkpt>
   <trkpt lat="-37.85222" lon="145.36529000000002">
    <ele>579.1700000000001</ele>
   </trkpt>
   <trkpt lat="-37.852160000000005" lon="145.36524">
    <ele>579.0600000000001</ele>
   </trkpt>
   <trkpt lat="-37.85174000000001" lon="145.36622">
    <ele>579.57</ele>
   </trkpt>
   <trkpt lat="-37.852050000000006" lon="145.36663000000001">
    <ele>580.62</ele>
   </trkpt>
   <trkpt lat="-37.85237" lon="145.36720000000003">
    <ele>578.86</ele>
   </trkpt>
   <trkpt lat="-37.85269" lon="145.36755000000002">
    <ele>578.5100000000001</ele>
   </trkpt>
   <trkpt lat="-37.853" lon="145.36804">
    <ele>578.49</ele>
   </trkpt>
   <trkpt lat="-37.85314" lon="145.36833000000001">
    <ele>578.37</ele>
   </trkpt>
   <trkpt lat="-37.85295" lon="145.36823">
    <ele>577.3000000000001</ele>
   </trkpt>
   <trkpt lat="-37.85284" lon="145.36821">
    <ele>576.73</ele>
   </trkpt>
  </trkseg>
 </trk>
</gpx>
