<?xml version="1.0" encoding="UTF-8"?>
<gpx creator="StravaGPX" version="1.1" xmlns="http://www.topografix.com/GPX/1/1" xmlns:xsi="http://www.w3.org/2001/XMLSchema-instance" xsi:schemaLocation="http://www.topografix.com/GPX/1/1 http://www.topografix.com/GPX/1/1/gpx.xsd">
 <metadata>
  <name>20k-Sunday 11 January 2025</name>
  <author>
   <name>Geoff Markley</name>
   <link href="https://www.strava.com/athletes/775202"/>
  </author>
  <copyright author="OpenStreetMap contributors">
   <year>2020</year>
   <license>https://www.openstreetmap.org/copyright</license>
  </copyright>
  <link href="https://www.strava.com/routes/3444518702077280906"/>
 </metadata>
 <trk>
  <name>20k-Sunday 11 January 2025</name>
  <link href="https://www.strava.com/routes/3444518702077280906"/>
  <type>trail_running</type>
  <trkseg>
   <trkpt lat="-37.86287" lon="145.3538">
    <ele>480.95000000000005</ele>
   </trkpt>
   <trkpt lat="-37.862840000000006" lon="145.35371">
    <ele>480.84000000000003</ele>
   </trkpt>
   <trkpt lat="-37.862860000000005" lon="145.35369">
    <ele>480.74000000000007</ele>
   </trkpt>
   <trkpt lat="-37.86256" lon="145.353">
    <ele>477.31</ele>
   </trkpt>
   <trkpt lat="-37.86253" lon="145.35292">
    <ele>477.31</ele>
   </trkpt>
   <trkpt lat="-37.86253" lon="145.35285000000002">
    <ele>477.32</ele>
   </trkpt>
   <trkpt lat="-37.86242" lon="145.35278000000002">
    <ele>478.75000000000006</ele>
   </trkpt>
   <trkpt lat="-37.86222" lon="145.35236">
    <ele>473.19000000000005</ele>
   </trkpt>
   <trkpt lat="-37.86216" lon="145.35208">
    <ele>471.06</ele>
   </trkpt>
   <trkpt lat="-37.86215" lon="145.35175">
    <ele>467.73</ele>
   </trkpt>
   <trkpt lat="-37.86222" lon="145.3514">
    <ele>466.59000000000003</ele>
   </trkpt>
   <trkpt lat="-37.86274" lon="145.35069000000001">
    <ele>458.27</ele>
   </trkpt>
   <trkpt lat="-37.86285" lon="145.35058">
    <ele>456.12</ele>
   </trkpt>
   <trkpt lat="-37.863130000000005" lon="145.34997">
    <ele>448.56</ele>
   </trkpt>
   <trkpt lat="-37.86321" lon="145.3496">
    <ele>445.07</ele>
   </trkpt>
   <trkpt lat="-37.86323" lon="145.3494">
    <ele>443.78000000000003</ele>
   </trkpt>
   <trkpt lat="-37.86318" lon="145.34895">
    <ele>438.39000000000004</ele>
   </trkpt>
   <trkpt lat="-37.86316" lon="145.34836">
    <ele>431.41</ele>
   </trkpt>
   <trkpt lat="-37.86312" lon="145.34826">
    <ele>429.84000000000003</ele>
   </trkpt>
   <trkpt lat="-37.86296" lon="145.34810000000002">
    <ele>427.81</ele>
   </trkpt>
   <trkpt lat="-37.86256" lon="145.34787">
    <ele>424.58</ele>
   </trkpt>
   <trkpt lat="-37.86245" lon="145.34777000000003">
    <ele>422.62000000000006</ele>
   </trkpt>
   <trkpt lat="-37.8622" lon="145.34749000000002">
    <ele>419.27000000000004</ele>
   </trkpt>
   <trkpt lat="-37.86206" lon="145.34726">
    <ele>416.17</ele>
   </trkpt>
   <trkpt lat="-37.86202" lon="145.34712000000002">
    <ele>414.34000000000003</ele>
   </trkpt>
   <trkpt lat="-37.86193" lon="145.34642000000002">
    <ele>406.48</ele>
   </trkpt>
   <trkpt lat="-37.86186" lon="145.34658000000002">
    <ele>406.67</ele>
   </trkpt>
   <trkpt lat="-37.861790000000006" lon="145.34698">
    <ele>407.67</ele>
   </trkpt>
   <trkpt lat="-37.86186" lon="145.34747000000002">
    <ele>408.02000000000004</ele>
   </trkpt>
   <trkpt lat="-37.862115001274674" lon="145.34800999821977">
    <ele>407.48</ele>
   </trkpt>
   <trkpt lat="-37.862370000000006" lon="145.34855000000002">
    <ele>412.17</ele>
   </trkpt>
   <trkpt lat="-37.86238" lon="145.34883000000002">
    <ele>414.57000000000005</ele>
   </trkpt>
   <trkpt lat="-37.86236" lon="145.34893000000002">
    <ele>415.73</ele>
   </trkpt>
   <trkpt lat="-37.86224" lon="145.34912">
    <ele>419.29</ele>
   </trkpt>
   <trkpt lat="-37.86182" lon="145.34959">
    <ele>427.44000000000005</ele>
   </trkpt>
   <trkpt lat="-37.86166" lon="145.34982000000002">
    <ele>429.91</ele>
   </trkpt>
   <trkpt lat="-37.86135" lon="145.35045000000002">
    <ele>439.58000000000004</ele>
   </trkpt>
   <trkpt lat="-37.86115" lon="145.3511">
    <ele>447.1</ele>
   </trkpt>
   <trkpt lat="-37.861050000000006" lon="145.35133000000002">
    <ele>448.42</ele>
   </trkpt>
   <trkpt lat="-37.86094000000001" lon="145.35147">
    <ele>450.88000000000005</ele>
   </trkpt>
   <trkpt lat="-37.860960000000006" lon="145.35145">
    <ele>450.88000000000005</ele>
   </trkpt>
   <trkpt lat="-37.860490000000006" lon="145.35181">
    <ele>461.33</ele>
   </trkpt>
   <trkpt lat="-37.86023" lon="145.35196000000002">
    <ele>464.01000000000005</ele>
   </trkpt>
   <trkpt lat="-37.85994" lon="145.35221">
    <ele>468.94</ele>
   </trkpt>
   <trkpt lat="-37.8596" lon="145.35241000000002">
    <ele>472.63000000000005</ele>
   </trkpt>
   <trkpt lat="-37.85945" lon="145.35244">
    <ele>475.57000000000005</ele>
   </trkpt>
   <trkpt lat="-37.8592" lon="145.35248">
    <ele>479.62000000000006</ele>
   </trkpt>
   <trkpt lat="-37.85851" lon="145.35268000000002">
    <ele>488.63000000000005</ele>
   </trkpt>
   <trkpt lat="-37.85815" lon="145.35273">
    <ele>494.57000000000005</ele>
   </trkpt>
   <trkpt lat="-37.857635000010575" lon="145.35270499982573">
    <ele>500.01000000000005</ele>
   </trkpt>
   <trkpt lat="-37.85712" lon="145.35268000000002">
    <ele>506.76</ele>
   </trkpt>
   <trkpt lat="-37.85701" lon="145.35266000000001">
    <ele>506.76</ele>
   </trkpt>
   <trkpt lat="-37.85683" lon="145.35260000000002">
    <ele>508.73</ele>
   </trkpt>
   <trkpt lat="-37.85636" lon="145.35252">
    <ele>509.57000000000005</ele>
   </trkpt>
   <trkpt lat="-37.85622" lon="145.35247">
    <ele>508.4200000000001</ele>
   </trkpt>
   <trkpt lat="-37.85614" lon="145.35240000000002">
    <ele>507.24</ele>
   </trkpt>
   <trkpt lat="-37.85580500080854" lon="145.3519449978415">
    <ele>496.47</ele>
   </trkpt>
   <trkpt lat="-37.855470000000004" lon="145.35149">
    <ele>490.81</ele>
   </trkpt>
   <trkpt lat="-37.855470000000004" lon="145.35148">
    <ele>490.81</ele>
   </trkpt>
   <trkpt lat="-37.85528" lon="145.35168000000002">
    <ele>488.34000000000003</ele>
   </trkpt>
   <trkpt lat="-37.85526" lon="145.35179000000002">
    <ele>487.62000000000006</ele>
   </trkpt>
   <trkpt lat="-37.85521" lon="145.35193">
    <ele>486.08</ele>
   </trkpt>
   <trkpt lat="-37.855140000000006" lon="145.35198000000003">
    <ele>484.50000000000006</ele>
   </trkpt>
   <trkpt lat="-37.85486" lon="145.3523">
    <ele>476.62000000000006</ele>
   </trkpt>
   <trkpt lat="-37.85472" lon="145.3527">
    <ele>470.95000000000005</ele>
   </trkpt>
   <trkpt lat="-37.85466" lon="145.35276000000002">
    <ele>468.5</ele>
   </trkpt>
   <trkpt lat="-37.85461" lon="145.35294000000002">
    <ele>467.03000000000003</ele>
   </trkpt>
   <trkpt lat="-37.85461" lon="145.35309">
    <ele>465.85</ele>
   </trkpt>
   <trkpt lat="-37.854580000000006" lon="145.35319">
    <ele>464.34000000000003</ele>
   </trkpt>
   <trkpt lat="-37.85452" lon="145.35320000000002">
    <ele>463.27</ele>
   </trkpt>
   <trkpt lat="-37.85439" lon="145.35299">
    <ele>460.20000000000005</ele>
   </trkpt>
   <trkpt lat="-37.854350000000004" lon="145.35299">
    <ele>460.20000000000005</ele>
   </trkpt>
   <trkpt lat="-37.85434" lon="145.35327">
    <ele>460.97</ele>
   </trkpt>
   <trkpt lat="-37.854110000000006" lon="145.35432">
    <ele>466.0</ele>
   </trkpt>
   <trkpt lat="-37.85403" lon="145.35528000000002">
    <ele>469.02000000000004</ele>
   </trkpt>
   <trkpt lat="-37.85405" lon="145.35554000000002">
    <ele>470.18</ele>
   </trkpt>
   <trkpt lat="-37.854110000000006" lon="145.35583000000003">
    <ele>471.64000000000004</ele>
   </trkpt>
   <trkpt lat="-37.85423" lon="145.35635000000002">
    <ele>473.39000000000004</ele>
   </trkpt>
   <trkpt lat="-37.85421" lon="145.35660000000001">
    <ele>474.11</ele>
   </trkpt>
   <trkpt lat="-37.85412" lon="145.35674">
    <ele>474.87</ele>
   </trkpt>
   <trkpt lat="-37.8538" lon="145.35702">
    <ele>477.48</ele>
   </trkpt>
   <trkpt lat="-37.85374" lon="145.35714000000002">
    <ele>477.55</ele>
   </trkpt>
   <trkpt lat="-37.85351" lon="145.35703">
    <ele>472.83000000000004</ele>
   </trkpt>
   <trkpt lat="-37.85311" lon="145.35713">
    <ele>467.21</ele>
   </trkpt>
   <trkpt lat="-37.85302" lon="145.35724000000002">
    <ele>467.84000000000003</ele>
   </trkpt>
   <trkpt lat="-37.85295" lon="145.35742000000002">
    <ele>470.45000000000005</ele>
   </trkpt>
   <trkpt lat="-37.8528" lon="145.35759000000002">
    <ele>472.65</ele>
   </trkpt>
   <trkpt lat="-37.85262" lon="145.35772">
    <ele>473.85</ele>
   </trkpt>
   <trkpt lat="-37.852140000000006" lon="145.35791">
    <ele>474.79</ele>
   </trkpt>
   <trkpt lat="-37.852050000000006" lon="145.35793">
    <ele>474.45000000000005</ele>
   </trkpt>
   <trkpt lat="-37.85195" lon="145.3579">
    <ele>473.27000000000004</ele>
   </trkpt>
   <trkpt lat="-37.851890000000004" lon="145.35781">
    <ele>471.38</ele>
   </trkpt>
   <trkpt lat="-37.85177" lon="145.35780000000003">
    <ele>468.15</ele>
   </trkpt>
   <trkpt lat="-37.85157" lon="145.35757">
    <ele>460.57000000000005</ele>
   </trkpt>
   <trkpt lat="-37.8515" lon="145.35757">
    <ele>459.88</ele>
   </trkpt>
   <trkpt lat="-37.85132" lon="145.35802">
    <ele>464.05</ele>
   </trkpt>
   <trkpt lat="-37.85121" lon="145.35867000000002">
    <ele>466.6</ele>
   </trkpt>
   <trkpt lat="-37.851110000000006" lon="145.35914000000002">
    <ele>463.37000000000006</ele>
   </trkpt>
   <trkpt lat="-37.85092" lon="145.35967000000002">
    <ele>465.75000000000006</ele>
   </trkpt>
   <trkpt lat="-37.85085" lon="145.35979">
    <ele>468.79</ele>
   </trkpt>
   <trkpt lat="-37.850750000000005" lon="145.35989">
    <ele>471.73</ele>
   </trkpt>
   <trkpt lat="-37.850730000000006" lon="145.35991">
    <ele>471.73</ele>
   </trkpt>
   <trkpt lat="-37.850640000000006" lon="145.35994000000002">
    <ele>472.81000000000006</ele>
   </trkpt>
   <trkpt lat="-37.85051" lon="145.35993000000002">
    <ele>474.79</ele>
   </trkpt>
   <trkpt lat="-37.85013" lon="145.35996">
    <ele>482.55</ele>
   </trkpt>
   <trkpt lat="-37.84998" lon="145.35999">
    <ele>486.01000000000005</ele>
   </trkpt>
   <trkpt lat="-37.84978" lon="145.35994000000002">
    <ele>490.40000000000003</ele>
   </trkpt>
   <trkpt lat="-37.84942" lon="145.35956000000002">
    <ele>495.46000000000004</ele>
   </trkpt>
   <trkpt lat="-37.84913" lon="145.35913000000002">
    <ele>497.08</ele>
   </trkpt>
   <trkpt lat="-37.84874500075761" lon="145.35868999763292">
    <ele>495.7900000000001</ele>
   </trkpt>
   <trkpt lat="-37.84836" lon="145.35825">
    <ele>491.7900000000001</ele>
   </trkpt>
   <trkpt lat="-37.84783" lon="145.35772">
    <ele>494.01000000000005</ele>
   </trkpt>
   <trkpt lat="-37.84772" lon="145.35768000000002">
    <ele>495.06000000000006</ele>
   </trkpt>
   <trkpt lat="-37.84713" lon="145.35719">
    <ele>495.71000000000004</ele>
   </trkpt>
   <trkpt lat="-37.84682" lon="145.35668">
    <ele>492.93</ele>
   </trkpt>
   <trkpt lat="-37.84651" lon="145.3563">
    <ele>497.07000000000005</ele>
   </trkpt>
   <trkpt lat="-37.84626" lon="145.35571000000002">
    <ele>501.53000000000003</ele>
   </trkpt>
   <trkpt lat="-37.84624" lon="145.35552">
    <ele>501.81000000000006</ele>
   </trkpt>
   <trkpt lat="-37.84631" lon="145.3554">
    <ele>501.45000000000005</ele>
   </trkpt>
   <trkpt lat="-37.84662" lon="145.35509000000002">
    <ele>499.21000000000004</ele>
   </trkpt>
   <trkpt lat="-37.84673" lon="145.35492000000002">
    <ele>499.15000000000003</ele>
   </trkpt>
   <trkpt lat="-37.846810000000005" lon="145.35467">
    <ele>500.55000000000007</ele>
   </trkpt>
   <trkpt lat="-37.84693" lon="145.35409">
    <ele>505.17</ele>
   </trkpt>
   <trkpt lat="-37.846900000000005" lon="145.35394000000002">
    <ele>506.69000000000005</ele>
   </trkpt>
   <trkpt lat="-37.846830000000004" lon="145.35398">
    <ele>506.5900000000001</ele>
   </trkpt>
   <trkpt lat="-37.8468" lon="145.35404">
    <ele>506.5900000000001</ele>
   </trkpt>
   <trkpt lat="-37.84627333468335" lon="145.354450005912">
    <ele>509.27</ele>
   </trkpt>
   <trkpt lat="-37.845746667945235" lon="145.3548600059676">
    <ele>510.38000000000005</ele>
   </trkpt>
   <trkpt lat="-37.845220000000005" lon="145.35527000000002">
    <ele>511.36</ele>
   </trkpt>
   <trkpt lat="-37.8453" lon="145.35535000000002">
    <ele>510.9600000000001</ele>
   </trkpt>
   <trkpt lat="-37.8456533370517" lon="145.3560133269724">
    <ele>510.33000000000004</ele>
   </trkpt>
   <trkpt lat="-37.84600667038273" lon="145.35667666030133">
    <ele>509.11000000000007</ele>
   </trkpt>
   <trkpt lat="-37.846360000000004" lon="145.35734000000002">
    <ele>508.99000000000007</ele>
   </trkpt>
   <trkpt lat="-37.84644" lon="145.35760000000002">
    <ele>509.85</ele>
   </trkpt>
   <trkpt lat="-37.846540000000005" lon="145.35771000000003">
    <ele>510.21999999999997</ele>
   </trkpt>
   <trkpt lat="-37.84664" lon="145.35795000000002">
    <ele>512.49</ele>
   </trkpt>
   <trkpt lat="-37.84695" lon="145.35840000000002">
    <ele>516.78</ele>
   </trkpt>
   <trkpt lat="-37.84709" lon="145.35882">
    <ele>518.25</ele>
   </trkpt>
   <trkpt lat="-37.84732" lon="145.35972">
    <ele>515.38</ele>
   </trkpt>
   <trkpt lat="-37.84738" lon="145.35991">
    <ele>514.3000000000001</ele>
   </trkpt>
   <trkpt lat="-37.84745" lon="145.35993000000002">
    <ele>514.3000000000001</ele>
   </trkpt>
   <trkpt lat="-37.84754" lon="145.36035">
    <ele>511.58000000000004</ele>
   </trkpt>
   <trkpt lat="-37.8474" lon="145.36039000000002">
    <ele>511.62000000000006</ele>
   </trkpt>
   <trkpt lat="-37.84741" lon="145.36042">
    <ele>511.55000000000007</ele>
   </trkpt>
   <trkpt lat="-37.847350000000006" lon="145.36039000000002">
    <ele>511.4700000000001</ele>
   </trkpt>
   <trkpt lat="-37.84718" lon="145.3604">
    <ele>511.3500000000001</ele>
   </trkpt>
   <trkpt lat="-37.84707" lon="145.36051">
    <ele>511.21999999999997</ele>
   </trkpt>
   <trkpt lat="-37.84705" lon="145.36058">
    <ele>511.04</ele>
   </trkpt>
   <trkpt lat="-37.84698" lon="145.36054000000001">
    <ele>511.2</ele>
   </trkpt>
   <trkpt lat="-37.84682" lon="145.36052">
    <ele>511.3500000000001</ele>
   </trkpt>
   <trkpt lat="-37.84655" lon="145.36054000000001">
    <ele>511.50000000000006</ele>
   </trkpt>
   <trkpt lat="-37.84581333417932" lon="145.36074000998929">
    <ele>512.6200000000001</ele>
   </trkpt>
   <trkpt lat="-37.845076668020376" lon="145.36094001598258">
    <ele>512.6200000000001</ele>
   </trkpt>
   <trkpt lat="-37.844340001523186" lon="145.36114001798003">
    <ele>478.87</ele>
   </trkpt>
   <trkpt lat="-37.843603334687764" lon="145.36134001598185">
    <ele>478.87</ele>
   </trkpt>
   <trkpt lat="-37.842866667514116" lon="145.36154000998826">
    <ele>478.87</ele>
   </trkpt>
   <trkpt lat="-37.842130000000004" lon="145.36174000000003">
    <ele>478.87</ele>
   </trkpt>
   <trkpt lat="-37.8421" lon="145.36245000000002">
    <ele>471.95000000000005</ele>
   </trkpt>
   <trkpt lat="-37.84223" lon="145.36280000000002">
    <ele>467.4200000000001</ele>
   </trkpt>
   <trkpt lat="-37.84281" lon="145.36349">
    <ele>457.39</ele>
   </trkpt>
   <trkpt lat="-37.84288" lon="145.36368000000002">
    <ele>457.52000000000004</ele>
   </trkpt>
   <trkpt lat="-37.84286" lon="145.36383">
    <ele>458.43000000000006</ele>
   </trkpt>
   <trkpt lat="-37.84281" lon="145.36392">
    <ele>459.40000000000003</ele>
   </trkpt>
   <trkpt lat="-37.842455000747556" lon="145.36434000201953">
    <ele>466.6</ele>
   </trkpt>
   <trkpt lat="-37.8421" lon="145.36476000000002">
    <ele>472.61</ele>
   </trkpt>
   <trkpt lat="-37.84199" lon="145.36499">
    <ele>474.40000000000003</ele>
   </trkpt>
   <trkpt lat="-37.841910000000006" lon="145.36531000000002">
    <ele>475.66</ele>
   </trkpt>
   <trkpt lat="-37.84192" lon="145.36546">
    <ele>478.08000000000004</ele>
   </trkpt>
   <trkpt lat="-37.84234" lon="145.36639000000002">
    <ele>476.87</ele>
   </trkpt>
   <trkpt lat="-37.8425" lon="145.36689">
    <ele>475.07000000000005</ele>
   </trkpt>
   <trkpt lat="-37.8425" lon="145.36701000000002">
    <ele>474.94</ele>
   </trkpt>
   <trkpt lat="-37.84246" lon="145.36715">
    <ele>475.47</ele>
   </trkpt>
   <trkpt lat="-37.842470000000006" lon="145.36714">
    <ele>475.47</ele>
   </trkpt>
   <trkpt lat="-37.842290000000006" lon="145.36720000000003">
    <ele>477.39000000000004</ele>
   </trkpt>
   <trkpt lat="-37.84219" lon="145.36729000000003">
    <ele>478.67</ele>
   </trkpt>
   <trkpt lat="-37.84181" lon="145.36819">
    <ele>486.32</ele>
   </trkpt>
   <trkpt lat="-37.84169" lon="145.36817000000002">
    <ele>484.65000000000003</ele>
   </trkpt>
   <trkpt lat="-37.84096" lon="145.36811">
    <ele>476.03000000000003</ele>
   </trkpt>
   <trkpt lat="-37.840970000000006" lon="145.36842000000001">
    <ele>474.09</ele>
   </trkpt>
   <trkpt lat="-37.84087" lon="145.36892">
    <ele>472.08000000000004</ele>
   </trkpt>
   <trkpt lat="-37.84057" lon="145.36894">
    <ele>467.68</ele>
   </trkpt>
   <trkpt lat="-37.84022" lon="145.36902">
    <ele>463.11</ele>
   </trkpt>
   <trkpt lat="-37.83999" lon="145.36903">
    <ele>460.93000000000006</ele>
   </trkpt>
   <trkpt lat="-37.839940000000006" lon="145.36906000000002">
    <ele>459.83</ele>
   </trkpt>
   <trkpt lat="-37.83975" lon="145.36926000000003">
    <ele>455.82000000000005</ele>
   </trkpt>
   <trkpt lat="-37.839560000000006" lon="145.36941000000002">
    <ele>450.90000000000003</ele>
   </trkpt>
   <trkpt lat="-37.8391" lon="145.36968000000002">
    <ele>445.18</ele>
   </trkpt>
   <trkpt lat="-37.83885" lon="145.3698">
    <ele>442.1</ele>
   </trkpt>
   <trkpt lat="-37.83869" lon="145.36991">
    <ele>440.13</ele>
   </trkpt>
   <trkpt lat="-37.83849" lon="145.36997000000002">
    <ele>436.29</ele>
   </trkpt>
   <trkpt lat="-37.83798" lon="145.37023000000002">
    <ele>430.12000000000006</ele>
   </trkpt>
   <trkpt lat="-37.83769" lon="145.37040000000002">
    <ele>430.75</ele>
   </trkpt>
   <trkpt lat="-37.83737" lon="145.37053">
    <ele>434.00000000000006</ele>
   </trkpt>
   <trkpt lat="-37.83701000000001" lon="145.37063">
    <ele>434.20000000000005</ele>
   </trkpt>
   <trkpt lat="-37.837030000000006" lon="145.37094000000002">
    <ele>431.3</ele>
   </trkpt>
   <trkpt lat="-37.83699" lon="145.37133">
    <ele>429.99</ele>
   </trkpt>
   <trkpt lat="-37.837030000000006" lon="145.3719">
    <ele>426.98</ele>
   </trkpt>
   <trkpt lat="-37.83699" lon="145.37235">
    <ele>423.55</ele>
   </trkpt>
   <trkpt lat="-37.83708" lon="145.37331">
    <ele>413.13000000000005</ele>
   </trkpt>
   <trkpt lat="-37.83719" lon="145.37388">
    <ele>409.14000000000004</ele>
   </trkpt>
   <trkpt lat="-37.83719" lon="145.37407000000002">
    <ele>408.52000000000004</ele>
   </trkpt>
   <trkpt lat="-37.83738" lon="145.37475">
    <ele>407.03000000000003</ele>
   </trkpt>
   <trkpt lat="-37.83731" lon="145.37496000000002">
    <ele>406.61</ele>
   </trkpt>
   <trkpt lat="-37.83728" lon="145.37513">
    <ele>406.48</ele>
   </trkpt>
   <trkpt lat="-37.83724" lon="145.37557">
    <ele>408.29</ele>
   </trkpt>
   <trkpt lat="-37.83724" lon="145.3762">
    <ele>413.6</ele>
   </trkpt>
   <trkpt lat="-37.83722" lon="145.37645">
    <ele>414.45000000000005</ele>
   </trkpt>
   <trkpt lat="-37.83731" lon="145.37681">
    <ele>418.42</ele>
   </trkpt>
   <trkpt lat="-37.83731" lon="145.37695000000002">
    <ele>419.26</ele>
   </trkpt>
   <trkpt lat="-37.83731" lon="145.37694000000002">
    <ele>419.26</ele>
   </trkpt>
   <trkpt lat="-37.83722" lon="145.37716">
    <ele>422.1</ele>
   </trkpt>
   <trkpt lat="-37.83713" lon="145.37725">
    <ele>423.25</ele>
   </trkpt>
   <trkpt lat="-37.836720000409166" lon="145.3775850019153">
    <ele>427.81</ele>
   </trkpt>
   <trkpt lat="-37.836310000000005" lon="145.37792000000002">
    <ele>432.89000000000004</ele>
   </trkpt>
   <trkpt lat="-37.836040000000004" lon="145.37828000000002">
    <ele>434.57</ele>
   </trkpt>
   <trkpt lat="-37.83581" lon="145.37869">
    <ele>432.3</ele>
   </trkpt>
   <trkpt lat="-37.83576" lon="145.37886">
    <ele>431.63</ele>
   </trkpt>
   <trkpt lat="-37.83572" lon="145.37914">
    <ele>427.97</ele>
   </trkpt>
   <trkpt lat="-37.83572" lon="145.37938000000003">
    <ele>426.39000000000004</ele>
   </trkpt>
   <trkpt lat="-37.8359" lon="145.38023">
    <ele>418.55</ele>
   </trkpt>
   <trkpt lat="-37.83605" lon="145.38061000000002">
    <ele>413.68000000000006</ele>
   </trkpt>
   <trkpt lat="-37.83605" lon="145.38073">
    <ele>411.82</ele>
   </trkpt>
   <trkpt lat="-37.83599" lon="145.38093">
    <ele>408.61</ele>
   </trkpt>
   <trkpt lat="-37.83578" lon="145.38116000000002">
    <ele>400.29</ele>
   </trkpt>
   <trkpt lat="-37.83529" lon="145.38157">
    <ele>385.82000000000005</ele>
   </trkpt>
   <trkpt lat="-37.83498" lon="145.38171">
    <ele>377.68</ele>
   </trkpt>
   <trkpt lat="-37.83475" lon="145.38187000000002">
    <ele>373.8</ele>
   </trkpt>
   <trkpt lat="-37.8346" lon="145.38209">
    <ele>364.71000000000004</ele>
   </trkpt>
   <trkpt lat="-37.83428" lon="145.38267000000002">
    <ele>354.84000000000003</ele>
   </trkpt>
   <trkpt lat="-37.83419" lon="145.38279">
    <ele>352.85</ele>
   </trkpt>
   <trkpt lat="-37.8339" lon="145.38292">
    <ele>347.53</ele>
   </trkpt>
   <trkpt lat="-37.83357" lon="145.383">
    <ele>338.74</ele>
   </trkpt>
   <trkpt lat="-37.8333" lon="145.38317">
    <ele>335.88</ele>
   </trkpt>
   <trkpt lat="-37.833000000000006" lon="145.38347000000002">
    <ele>323.98</ele>
   </trkpt>
   <trkpt lat="-37.8324" lon="145.3838">
    <ele>310.94000000000005</ele>
   </trkpt>
   <trkpt lat="-37.83231" lon="145.38392000000002">
    <ele>308.82000000000005</ele>
   </trkpt>
   <trkpt lat="-37.832100000000004" lon="145.38427000000001">
    <ele>305.87</ele>
   </trkpt>
   <trkpt lat="-37.83198" lon="145.38464000000002">
    <ele>301.37</ele>
   </trkpt>
   <trkpt lat="-37.83196" lon="145.38479">
    <ele>300.46</ele>
   </trkpt>
   <trkpt lat="-37.8318" lon="145.38498">
    <ele>299.36</ele>
   </trkpt>
   <trkpt lat="-37.83173" lon="145.38513">
    <ele>298.42</ele>
   </trkpt>
   <trkpt lat="-37.83155" lon="145.38576">
    <ele>296.16</ele>
   </trkpt>
   <trkpt lat="-37.83153" lon="145.38604">
    <ele>295.22</ele>
   </trkpt>
   <trkpt lat="-37.83162" lon="145.38670000000002">
    <ele>291.18000000000006</ele>
   </trkpt>
   <trkpt lat="-37.83162" lon="145.38725000000002">
    <ele>287.7</ele>
   </trkpt>
   <trkpt lat="-37.83149" lon="145.38801">
    <ele>281.91</ele>
   </trkpt>
   <trkpt lat="-37.83135" lon="145.38858000000002">
    <ele>278.19000000000005</ele>
   </trkpt>
   <trkpt lat="-37.83131" lon="145.38892">
    <ele>276.18</ele>
   </trkpt>
   <trkpt lat="-37.83124" lon="145.38937">
    <ele>274.08000000000004</ele>
   </trkpt>
   <trkpt lat="-37.83122" lon="145.39006">
    <ele>270.45000000000005</ele>
   </trkpt>
   <trkpt lat="-37.83104" lon="145.3908">
    <ele>264.96000000000004</ele>
   </trkpt>
   <trkpt lat="-37.83043" lon="145.39088">
    <ele>261.73</ele>
   </trkpt>
   <trkpt lat="-37.82994" lon="145.39091000000002">
    <ele>259.63</ele>
   </trkpt>
   <trkpt lat="-37.82972" lon="145.39087">
    <ele>259.26000000000005</ele>
   </trkpt>
   <trkpt lat="-37.82956" lon="145.39079">
    <ele>258.74</ele>
   </trkpt>
   <trkpt lat="-37.82936" lon="145.39064000000002">
    <ele>258.23</ele>
   </trkpt>
   <trkpt lat="-37.82949" lon="145.39143">
    <ele>257.99</ele>
   </trkpt>
   <trkpt lat="-37.82969500418663" lon="145.39242499724256">
    <ele>255.57000000000002</ele>
   </trkpt>
   <trkpt lat="-37.8299" lon="145.39342000000002">
    <ele>250.93000000000004</ele>
   </trkpt>
   <trkpt lat="-37.82981" lon="145.39386000000002">
    <ele>248.74</ele>
   </trkpt>
   <trkpt lat="-37.82954" lon="145.39468000000002">
    <ele>245.02</ele>
   </trkpt>
   <trkpt lat="-37.82954" lon="145.39491">
    <ele>244.00000000000003</ele>
   </trkpt>
   <trkpt lat="-37.82963" lon="145.39519">
    <ele>242.3</ele>
   </trkpt>
   <trkpt lat="-37.82992" lon="145.39576000000002">
    <ele>239.79000000000002</ele>
   </trkpt>
   <trkpt lat="-37.82996" lon="145.39588">
    <ele>239.79000000000002</ele>
   </trkpt>
   <trkpt lat="-37.82999" lon="145.39610000000002">
    <ele>239.06000000000003</ele>
   </trkpt>
   <trkpt lat="-37.82996" lon="145.39644">
    <ele>237.40000000000003</ele>
   </trkpt>
   <trkpt lat="-37.82983" lon="145.39694">
    <ele>235.38</ele>
   </trkpt>
   <trkpt lat="-37.82953000180905" lon="145.39760500283762">
    <ele>232.88000000000002</ele>
   </trkpt>
   <trkpt lat="-37.82923" lon="145.39827000000002">
    <ele>235.60000000000002</ele>
   </trkpt>
   <trkpt lat="-37.82898" lon="145.39888000000002">
    <ele>237.57000000000002</ele>
   </trkpt>
   <trkpt lat="-37.82902" lon="145.39890000000003">
    <ele>237.57000000000002</ele>
   </trkpt>
   <trkpt lat="-37.82916" lon="145.39906000000002">
    <ele>240.88</ele>
   </trkpt>
   <trkpt lat="-37.82923" lon="145.39903">
    <ele>243.24</ele>
   </trkpt>
   <trkpt lat="-37.82929" lon="145.39898000000002">
    <ele>243.59000000000003</ele>
   </trkpt>
   <trkpt lat="-37.82943" lon="145.39875">
    <ele>244.36</ele>
   </trkpt>
   <trkpt lat="-37.82958" lon="145.39857">
    <ele>244.54</ele>
   </trkpt>
   <trkpt lat="-37.82995000115219" lon="145.3980700023784">
    <ele>243.36</ele>
   </trkpt>
   <trkpt lat="-37.83032" lon="145.39757">
    <ele>242.37000000000003</ele>
   </trkpt>
   <trkpt lat="-37.83084" lon="145.39721">
    <ele>246.22000000000003</ele>
   </trkpt>
   <trkpt lat="-37.83117" lon="145.39671">
    <ele>247.67000000000002</ele>
   </trkpt>
   <trkpt lat="-37.83164000101921" lon="145.39622500306393">
    <ele>248.4</ele>
   </trkpt>
   <trkpt lat="-37.83211" lon="145.39574000000002">
    <ele>246.82</ele>
   </trkpt>
   <trkpt lat="-37.832770001068916" lon="145.39524000446377">
    <ele>245.6</ele>
   </trkpt>
   <trkpt lat="-37.83343" lon="145.39474">
    <ele>245.20000000000002</ele>
   </trkpt>
   <trkpt lat="-37.83377" lon="145.39452">
    <ele>246.29</ele>
   </trkpt>
   <trkpt lat="-37.83422" lon="145.39430000000002">
    <ele>247.17000000000002</ele>
   </trkpt>
   <trkpt lat="-37.8346" lon="145.3942">
    <ele>245.64000000000001</ele>
   </trkpt>
   <trkpt lat="-37.83469" lon="145.39408">
    <ele>245.18</ele>
   </trkpt>
   <trkpt lat="-37.835150000000006" lon="145.39395000000002">
    <ele>245.31000000000003</ele>
   </trkpt>
   <trkpt lat="-37.83522" lon="145.39397000000002">
    <ele>245.52</ele>
   </trkpt>
   <trkpt lat="-37.83534" lon="145.39405000000002">
    <ele>246.73000000000002</ele>
   </trkpt>
   <trkpt lat="-37.83541" lon="145.39405000000002">
    <ele>246.93</ele>
   </trkpt>
   <trkpt lat="-37.83545" lon="145.39387000000002">
    <ele>245.25000000000003</ele>
   </trkpt>
   <trkpt lat="-37.83549" lon="145.39381">
    <ele>245.25000000000003</ele>
   </trkpt>
   <trkpt lat="-37.83572" lon="145.39354">
    <ele>243.19000000000003</ele>
   </trkpt>
   <trkpt lat="-37.83614500085438" lon="145.3930850026437">
    <ele>246.63000000000002</ele>
   </trkpt>
   <trkpt lat="-37.83657" lon="145.39263000000003">
    <ele>248.64000000000001</ele>
   </trkpt>
   <trkpt lat="-37.83679" lon="145.39245000000003">
    <ele>249.15</ele>
   </trkpt>
   <trkpt lat="-37.83697" lon="145.39235000000002">
    <ele>249.41000000000003</ele>
   </trkpt>
   <trkpt lat="-37.83737" lon="145.39208000000002">
    <ele>250.98000000000002</ele>
   </trkpt>
   <trkpt lat="-37.83726" lon="145.39164000000002">
    <ele>250.19000000000003</ele>
   </trkpt>
   <trkpt lat="-37.837270000000004" lon="145.39118000000002">
    <ele>248.19000000000003</ele>
   </trkpt>
   <trkpt lat="-37.8374" lon="145.39013">
    <ele>254.52</ele>
   </trkpt>
   <trkpt lat="-37.837410000000006" lon="145.38957000000002">
    <ele>254.73000000000002</ele>
   </trkpt>
   <trkpt lat="-37.83751" lon="145.38939000000002">
    <ele>254.88</ele>
   </trkpt>
   <trkpt lat="-37.83769" lon="145.38928">
    <ele>255.71000000000004</ele>
   </trkpt>
   <trkpt lat="-37.83791" lon="145.38927">
    <ele>255.71000000000004</ele>
   </trkpt>
   <trkpt lat="-37.83816" lon="145.38933">
    <ele>256.45</ele>
   </trkpt>
   <trkpt lat="-37.83836" lon="145.38944">
    <ele>257.34000000000003</ele>
   </trkpt>
   <trkpt lat="-37.83849" lon="145.38949000000002">
    <ele>257.8</ele>
   </trkpt>
   <trkpt lat="-37.83865" lon="145.38945">
    <ele>258.04</ele>
   </trkpt>
   <trkpt lat="-37.83885" lon="145.38936">
    <ele>258.65999999999997</ele>
   </trkpt>
   <trkpt lat="-37.83908" lon="145.38930000000002">
    <ele>259.21</ele>
   </trkpt>
   <trkpt lat="-37.83932" lon="145.38919">
    <ele>259.49</ele>
   </trkpt>
   <trkpt lat="-37.83959" lon="145.38912000000002">
    <ele>260.35</ele>
   </trkpt>
   <trkpt lat="-37.83981" lon="145.38901">
    <ele>260.19000000000005</ele>
   </trkpt>
   <trkpt lat="-37.840030000000006" lon="145.38874">
    <ele>257.77</ele>
   </trkpt>
   <trkpt lat="-37.84024" lon="145.38854">
    <ele>256.89</ele>
   </trkpt>
   <trkpt lat="-37.84055" lon="145.38814000000002">
    <ele>259.96000000000004</ele>
   </trkpt>
   <trkpt lat="-37.840880000000006" lon="145.38792">
    <ele>263.07</ele>
   </trkpt>
   <trkpt lat="-37.84098" lon="145.3878">
    <ele>263.76</ele>
   </trkpt>
   <trkpt lat="-37.84118" lon="145.38735">
    <ele>265.81000000000006</ele>
   </trkpt>
   <trkpt lat="-37.84149" lon="145.387">
    <ele>268.12</ele>
   </trkpt>
   <trkpt lat="-37.84203" lon="145.38627000000002">
    <ele>273.35</ele>
   </trkpt>
   <trkpt lat="-37.84223" lon="145.38594">
    <ele>273.91</ele>
   </trkpt>
   <trkpt lat="-37.84237" lon="145.38589000000002">
    <ele>274.44</ele>
   </trkpt>
   <trkpt lat="-37.842470000000006" lon="145.38578">
    <ele>275.17</ele>
   </trkpt>
   <trkpt lat="-37.84254" lon="145.38564000000002">
    <ele>275.36000000000007</ele>
   </trkpt>
   <trkpt lat="-37.84266" lon="145.38509000000002">
    <ele>279.81</ele>
   </trkpt>
   <trkpt lat="-37.84272" lon="145.38490000000002">
    <ele>280.52000000000004</ele>
   </trkpt>
   <trkpt lat="-37.84281" lon="145.38477">
    <ele>281.12</ele>
   </trkpt>
   <trkpt lat="-37.842890000000004" lon="145.38473000000002">
    <ele>281.62</ele>
   </trkpt>
   <trkpt lat="-37.84288" lon="145.38473000000002">
    <ele>281.62</ele>
   </trkpt>
   <trkpt lat="-37.84292000000001" lon="145.38473000000002">
    <ele>281.82</ele>
   </trkpt>
   <trkpt lat="-37.84299" lon="145.38485">
    <ele>281.6</ele>
   </trkpt>
   <trkpt lat="-37.84304" lon="145.38501000000002">
    <ele>281.30000000000007</ele>
   </trkpt>
   <trkpt lat="-37.84299" lon="145.38529">
    <ele>278.93</ele>
   </trkpt>
   <trkpt lat="-37.84286" lon="145.38585">
    <ele>278.17</ele>
   </trkpt>
   <trkpt lat="-37.84277" lon="145.38612">
    <ele>277.69000000000005</ele>
   </trkpt>
   <trkpt lat="-37.8427" lon="145.38637">
    <ele>277.41</ele>
   </trkpt>
   <trkpt lat="-37.84261" lon="145.38726">
    <ele>278.30000000000007</ele>
   </trkpt>
   <trkpt lat="-37.842470000000006" lon="145.38771">
    <ele>279.1</ele>
   </trkpt>
   <trkpt lat="-37.84237" lon="145.38825">
    <ele>281.44</ele>
   </trkpt>
   <trkpt lat="-37.84237" lon="145.38848000000002">
    <ele>281.93</ele>
   </trkpt>
   <trkpt lat="-37.84243" lon="145.38848000000002">
    <ele>281.93</ele>
   </trkpt>
   <trkpt lat="-37.842830000000006" lon="145.38816">
    <ele>286.74000000000007</ele>
   </trkpt>
   <trkpt lat="-37.84306" lon="145.38855">
    <ele>283.58</ele>
   </trkpt>
   <trkpt lat="-37.8431" lon="145.38876000000002">
    <ele>279.1</ele>
   </trkpt>
   <trkpt lat="-37.84315" lon="145.38891">
    <ele>278.39000000000004</ele>
   </trkpt>
   <trkpt lat="-37.843320000000006" lon="145.38902000000002">
    <ele>276.1</ele>
   </trkpt>
   <trkpt lat="-37.84351" lon="145.38905000000003">
    <ele>274.85</ele>
   </trkpt>
   <trkpt lat="-37.84375" lon="145.38884000000002">
    <ele>275.90000000000003</ele>
   </trkpt>
   <trkpt lat="-37.84393" lon="145.38879">
    <ele>275.53</ele>
   </trkpt>
   <trkpt lat="-37.844100000000005" lon="145.38879">
    <ele>273.42</ele>
   </trkpt>
   <trkpt lat="-37.844210000000004" lon="145.38883">
    <ele>271.88</ele>
   </trkpt>
   <trkpt lat="-37.84427" lon="145.38897">
    <ele>270.2</ele>
   </trkpt>
   <trkpt lat="-37.84427" lon="145.38914000000003">
    <ele>269.99</ele>
   </trkpt>
   <trkpt lat="-37.8442" lon="145.38957000000002">
    <ele>272.57000000000005</ele>
   </trkpt>
   <trkpt lat="-37.844260000000006" lon="145.39003000000002">
    <ele>277.03</ele>
   </trkpt>
   <trkpt lat="-37.84416" lon="145.39043">
    <ele>279.68</ele>
   </trkpt>
   <trkpt lat="-37.84416" lon="145.39055000000002">
    <ele>280.78000000000003</ele>
   </trkpt>
   <trkpt lat="-37.84452" lon="145.39135000000002">
    <ele>290.18000000000006</ele>
   </trkpt>
   <trkpt lat="-37.844630001627664" lon="145.39072500106786">
    <ele>288.71000000000004</ele>
   </trkpt>
   <trkpt lat="-37.84474" lon="145.39010000000002">
    <ele>285.98</ele>
   </trkpt>
   <trkpt lat="-37.84478" lon="145.38966000000002">
    <ele>283.75</ele>
   </trkpt>
   <trkpt lat="-37.84487" lon="145.38931000000002">
    <ele>282.96999999999997</ele>
   </trkpt>
   <trkpt lat="-37.84523" lon="145.38868000000002">
    <ele>282.28000000000003</ele>
   </trkpt>
   <trkpt lat="-37.84539" lon="145.38825">
    <ele>282.08</ele>
   </trkpt>
   <trkpt lat="-37.84557" lon="145.388">
    <ele>282.43</ele>
   </trkpt>
   <trkpt lat="-37.84577" lon="145.38776000000001">
    <ele>283.31</ele>
   </trkpt>
   <trkpt lat="-37.84613" lon="145.38748">
    <ele>285.95000000000005</ele>
   </trkpt>
   <trkpt lat="-37.84628" lon="145.38743000000002">
    <ele>286.52</ele>
   </trkpt>
   <trkpt lat="-37.84651" lon="145.38742000000002">
    <ele>287.02</ele>
   </trkpt>
   <trkpt lat="-37.84671" lon="145.38737">
    <ele>287.57000000000005</ele>
   </trkpt>
   <trkpt lat="-37.84691" lon="145.38723000000002">
    <ele>289.27000000000004</ele>
   </trkpt>
   <trkpt lat="-37.8472" lon="145.38689000000002">
    <ele>292.18000000000006</ele>
   </trkpt>
   <trkpt lat="-37.84736" lon="145.38680000000002">
    <ele>293.65000000000003</ele>
   </trkpt>
   <trkpt lat="-37.84751" lon="145.38669000000002">
    <ele>295.53000000000003</ele>
   </trkpt>
   <trkpt lat="-37.84812" lon="145.38636000000002">
    <ele>301.78000000000003</ele>
   </trkpt>
   <trkpt lat="-37.84834" lon="145.38619">
    <ele>303.48</ele>
   </trkpt>
   <trkpt lat="-37.84854" lon="145.38608000000002">
    <ele>306.32000000000005</ele>
   </trkpt>
   <trkpt lat="-37.84904" lon="145.38596">
    <ele>312.20000000000005</ele>
   </trkpt>
   <trkpt lat="-37.849500000000006" lon="145.38575">
    <ele>319.23</ele>
   </trkpt>
   <trkpt lat="-37.8498" lon="145.38495">
    <ele>315.81</ele>
   </trkpt>
   <trkpt lat="-37.849700000000006" lon="145.38484000000003">
    <ele>315.33</ele>
   </trkpt>
   <trkpt lat="-37.84984" lon="145.38484000000003">
    <ele>317.12</ele>
   </trkpt>
   <trkpt lat="-37.8506" lon="145.38444">
    <ele>329.44</ele>
   </trkpt>
   <trkpt lat="-37.85094" lon="145.38438000000002">
    <ele>336.05</ele>
   </trkpt>
   <trkpt lat="-37.85145" lon="145.38439000000002">
    <ele>347.15000000000003</ele>
   </trkpt>
   <trkpt lat="-37.85168" lon="145.38429000000002">
    <ele>352.06000000000006</ele>
   </trkpt>
   <trkpt lat="-37.85181" lon="145.38418000000001">
    <ele>354.87</ele>
   </trkpt>
   <trkpt lat="-37.85195" lon="145.38403000000002">
    <ele>359.32</ele>
   </trkpt>
   <trkpt lat="-37.85224" lon="145.38383000000002">
    <ele>365.27000000000004</ele>
   </trkpt>
   <trkpt lat="-37.85282" lon="145.38353">
    <ele>378.45</ele>
   </trkpt>
   <trkpt lat="-37.85329" lon="145.38318">
    <ele>388.12</ele>
   </trkpt>
   <trkpt lat="-37.85376" lon="145.38289">
    <ele>398.23</ele>
   </trkpt>
   <trkpt lat="-37.85412" lon="145.38276000000002">
    <ele>407.64000000000004</ele>
   </trkpt>
   <trkpt lat="-37.85453500053952" lon="145.38244000171923">
    <ele>415.15000000000003</ele>
   </trkpt>
   <trkpt lat="-37.85495" lon="145.38212000000001">
    <ele>421.26</ele>
   </trkpt>
   <trkpt lat="-37.85546" lon="145.38168000000002">
    <ele>432.50000000000006</ele>
   </trkpt>
   <trkpt lat="-37.855940000000004" lon="145.38131">
    <ele>437.51</ele>
   </trkpt>
   <trkpt lat="-37.856390000000005" lon="145.38117000000003">
    <ele>436.1700000000001</ele>
   </trkpt>
   <trkpt lat="-37.85669" lon="145.38112">
    <ele>436.48</ele>
   </trkpt>
   <trkpt lat="-37.85678" lon="145.38113">
    <ele>436.48</ele>
   </trkpt>
   <trkpt lat="-37.85687" lon="145.38117000000003">
    <ele>437.28000000000003</ele>
   </trkpt>
   <trkpt lat="-37.857020000000006" lon="145.38128">
    <ele>437.69</ele>
   </trkpt>
   <trkpt lat="-37.85712" lon="145.38146">
    <ele>437.89000000000004</ele>
   </trkpt>
   <trkpt lat="-37.857290000000006" lon="145.38182">
    <ele>438.69</ele>
   </trkpt>
   <trkpt lat="-37.85736" lon="145.38193">
    <ele>438.73</ele>
   </trkpt>
   <trkpt lat="-37.857440000000004" lon="145.38230000000001">
    <ele>438.94000000000005</ele>
   </trkpt>
   <trkpt lat="-37.85707" lon="145.38234">
    <ele>430.72</ele>
   </trkpt>
   <trkpt lat="-37.85674" lon="145.38225">
    <ele>423.32</ele>
   </trkpt>
   <trkpt lat="-37.85665" lon="145.38232000000002">
    <ele>421.09000000000003</ele>
   </trkpt>
   <trkpt lat="-37.8566" lon="145.38243">
    <ele>418.97</ele>
   </trkpt>
   <trkpt lat="-37.85667" lon="145.38279">
    <ele>413.88</ele>
   </trkpt>
   <trkpt lat="-37.85663" lon="145.38306">
    <ele>410.0</ele>
   </trkpt>
   <trkpt lat="-37.85654" lon="145.38322000000002">
    <ele>408.55</ele>
   </trkpt>
   <trkpt lat="-37.85638" lon="145.38374000000002">
    <ele>410.02000000000004</ele>
   </trkpt>
   <trkpt lat="-37.85636" lon="145.38406">
    <ele>412.98</ele>
   </trkpt>
   <trkpt lat="-37.85636" lon="145.38443">
    <ele>415.42</ele>
   </trkpt>
   <trkpt lat="-37.85642" lon="145.38466000000003">
    <ele>417.02000000000004</ele>
   </trkpt>
   <trkpt lat="-37.85651" lon="145.38478">
    <ele>420.2</ele>
   </trkpt>
   <trkpt lat="-37.85705" lon="145.38525">
    <ele>425.32000000000005</ele>
   </trkpt>
   <trkpt lat="-37.85712" lon="145.38534">
    <ele>425.32000000000005</ele>
   </trkpt>
   <trkpt lat="-37.85712" lon="145.38546000000002">
    <ele>425.54</ele>
   </trkpt>
   <trkpt lat="-37.85694" lon="145.38588000000001">
    <ele>429.66</ele>
   </trkpt>
   <trkpt lat="-37.85667" lon="145.38628">
    <ele>433.01000000000005</ele>
   </trkpt>
   <trkpt lat="-37.85656" lon="145.38636000000002">
    <ele>432.48</ele>
   </trkpt>
   <trkpt lat="-37.85645" lon="145.38638">
    <ele>431.7300000000001</ele>
   </trkpt>
   <trkpt lat="-37.85618" lon="145.38636000000002">
    <ele>428.31</ele>
   </trkpt>
   <trkpt lat="-37.85604" lon="145.38625000000002">
    <ele>424.33000000000004</ele>
   </trkpt>
   <trkpt lat="-37.856" lon="145.38617000000002">
    <ele>423.56000000000006</ele>
   </trkpt>
   <trkpt lat="-37.85586" lon="145.38612">
    <ele>422.24000000000007</ele>
   </trkpt>
   <trkpt lat="-37.85575" lon="145.38613">
    <ele>422.3</ele>
   </trkpt>
   <trkpt lat="-37.855610000000006" lon="145.3861">
    <ele>423.39000000000004</ele>
   </trkpt>
   <trkpt lat="-37.85557" lon="145.38625000000002">
    <ele>425.26</ele>
   </trkpt>
   <trkpt lat="-37.85551" lon="145.38635000000002">
    <ele>425.79</ele>
   </trkpt>
   <trkpt lat="-37.85542" lon="145.3864">
    <ele>425.88000000000005</ele>
   </trkpt>
   <trkpt lat="-37.85524" lon="145.3864">
    <ele>425.63</ele>
   </trkpt>
   <trkpt lat="-37.85504" lon="145.38646">
    <ele>426.24</ele>
   </trkpt>
   <trkpt lat="-37.85497" lon="145.38651000000002">
    <ele>426.71000000000004</ele>
   </trkpt>
   <trkpt lat="-37.85497" lon="145.38656">
    <ele>427.3</ele>
   </trkpt>
   <trkpt lat="-37.85515" lon="145.38679000000002">
    <ele>429.43</ele>
   </trkpt>
   <trkpt lat="-37.85533" lon="145.38698000000002">
    <ele>436.42</ele>
   </trkpt>
   <trkpt lat="-37.85573" lon="145.38751000000002">
    <ele>444.68</ele>
   </trkpt>
   <trkpt lat="-37.85613" lon="145.38815000000002">
    <ele>456.42</ele>
   </trkpt>
   <trkpt lat="-37.85618" lon="145.38828">
    <ele>457.85</ele>
   </trkpt>
   <trkpt lat="-37.85624" lon="145.38842000000002">
    <ele>459.08000000000004</ele>
   </trkpt>
   <trkpt lat="-37.85618" lon="145.38847">
    <ele>459.39</ele>
   </trkpt>
   <trkpt lat="-37.85607" lon="145.38864">
    <ele>459.63000000000005</ele>
   </trkpt>
   <trkpt lat="-37.85598" lon="145.38856">
    <ele>459.74</ele>
   </trkpt>
   <trkpt lat="-37.855970000000006" lon="145.38856">
    <ele>459.74</ele>
   </trkpt>
   <trkpt lat="-37.85607" lon="145.38864">
    <ele>459.63000000000005</ele>
   </trkpt>
   <trkpt lat="-37.85622" lon="145.38871">
    <ele>460.36</ele>
   </trkpt>
   <trkpt lat="-37.8564" lon="145.38873">
    <ele>462.28000000000003</ele>
   </trkpt>
   <trkpt lat="-37.856640000000006" lon="145.38871">
    <ele>464.89000000000004</ele>
   </trkpt>
   <trkpt lat="-37.85692" lon="145.38862">
    <ele>467.6</ele>
   </trkpt>
   <trkpt lat="-37.85739" lon="145.38834">
    <ele>471.71000000000004</ele>
   </trkpt>
   <trkpt lat="-37.85768" lon="145.38805000000002">
    <ele>473.55</ele>
   </trkpt>
   <trkpt lat="-37.85786" lon="145.38784">
    <ele>474.84000000000003</ele>
   </trkpt>
   <trkpt lat="-37.85804" lon="145.38754">
    <ele>476.89000000000004</ele>
   </trkpt>
   <trkpt lat="-37.85835" lon="145.38715000000002">
    <ele>481.37</ele>
   </trkpt>
   <trkpt lat="-37.85862" lon="145.38696000000002">
    <ele>484.4700000000001</ele>
   </trkpt>
   <trkpt lat="-37.859060000380985" lon="145.38669000156716">
    <ele>487.17</ele>
   </trkpt>
   <trkpt lat="-37.859500000000004" lon="145.38642000000002">
    <ele>490.87</ele>
   </trkpt>
   <trkpt lat="-37.85949" lon="145.38643000000002">
    <ele>490.87</ele>
   </trkpt>
   <trkpt lat="-37.85976" lon="145.38606000000001">
    <ele>493.72</ele>
   </trkpt>
   <trkpt lat="-37.85989" lon="145.38583">
    <ele>494.33000000000004</ele>
   </trkpt>
   <trkpt lat="-37.86025" lon="145.38496">
    <ele>501.1500000000001</ele>
   </trkpt>
   <trkpt lat="-37.860580000000006" lon="145.38432">
    <ele>503.78</ele>
   </trkpt>
   <trkpt lat="-37.860460001716454" lon="145.38367999887507">
    <ele>507.05</ele>
   </trkpt>
   <trkpt lat="-37.86034" lon="145.38304000000002">
    <ele>512.05</ele>
   </trkpt>
   <trkpt lat="-37.86027" lon="145.38273">
    <ele>514.42</ele>
   </trkpt>
   <trkpt lat="-37.86023" lon="145.38275000000002">
    <ele>514.6800000000001</ele>
   </trkpt>
   <trkpt lat="-37.86018" lon="145.38274">
    <ele>514.6800000000001</ele>
   </trkpt>
   <trkpt lat="-37.86009" lon="145.38268000000002">
    <ele>514.9100000000001</ele>
   </trkpt>
   <trkpt lat="-37.86005" lon="145.38257000000002">
    <ele>515.11</ele>
   </trkpt>
   <trkpt lat="-37.86005" lon="145.38204000000002">
    <ele>515.6800000000001</ele>
   </trkpt>
   <trkpt lat="-37.86012" lon="145.38148">
    <ele>516.7</ele>
   </trkpt>
   <trkpt lat="-37.86014" lon="145.38135000000003">
    <ele>516.84</ele>
   </trkpt>
   <trkpt lat="-37.86021" lon="145.38127">
    <ele>517.0100000000001</ele>
   </trkpt>
   <trkpt lat="-37.86027" lon="145.38124000000002">
    <ele>517.0100000000001</ele>
   </trkpt>
   <trkpt lat="-37.86032" lon="145.38089000000002">
    <ele>517.73</ele>
   </trkpt>
   <trkpt lat="-37.860330000000005" lon="145.38064">
    <ele>518.78</ele>
   </trkpt>
   <trkpt lat="-37.85992" lon="145.38004">
    <ele>522.32</ele>
   </trkpt>
   <trkpt lat="-37.85957000073842" lon="145.37964999825422">
    <ele>525.7900000000001</ele>
   </trkpt>
   <trkpt lat="-37.85922" lon="145.37926000000002">
    <ele>528.3500000000001</ele>
   </trkpt>
   <trkpt lat="-37.859" lon="145.37889">
    <ele>531.02</ele>
   </trkpt>
   <trkpt lat="-37.85886" lon="145.37858">
    <ele>535.6899999999999</ele>
   </trkpt>
   <trkpt lat="-37.85852667035379" lon="145.37791666059948">
    <ele>542.9000000000001</ele>
   </trkpt>
   <trkpt lat="-37.858193336986425" lon="145.3772533271985">
    <ele>548.1</ele>
   </trkpt>
   <trkpt lat="-37.85786" lon="145.37659000000002">
    <ele>555.32</ele>
   </trkpt>
   <trkpt lat="-37.8575" lon="145.37597000000002">
    <ele>561.06</ele>
   </trkpt>
   <trkpt lat="-37.85714" lon="145.37555">
    <ele>565.0200000000001</ele>
   </trkpt>
   <trkpt lat="-37.85683" lon="145.37527">
    <ele>567.46</ele>
   </trkpt>
   <trkpt lat="-37.85622" lon="145.37490000000003">
    <ele>574.1</ele>
   </trkpt>
   <trkpt lat="-37.85557667160077" lon="145.37413665335134">
    <ele>577.7500000000001</ele>
   </trkpt>
   <trkpt lat="-37.85493333827393" lon="145.3733733200259">
    <ele>576.5</ele>
   </trkpt>
   <trkpt lat="-37.854290000000006" lon="145.37261">
    <ele>576.5</ele>
   </trkpt>
   <trkpt lat="-37.85414" lon="145.37239000000002">
    <ele>579.62</ele>
   </trkpt>
   <trkpt lat="-37.85405" lon="145.37220000000002">
    <ele>579.73</ele>
   </trkpt>
   <trkpt lat="-37.854020000000006" lon="145.37182">
    <ele>579.33</ele>
   </trkpt>
   <trkpt lat="-37.854040000000005" lon="145.37130000000002">
    <ele>579.0500000000001</ele>
   </trkpt>
   <trkpt lat="-37.85411500331426" lon="145.37041500087014">
    <ele>575.96</ele>
   </trkpt>
   <trkpt lat="-37.85419" lon="145.36953000000003">
    <ele>573.1400000000001</ele>
   </trkpt>
   <trkpt lat="-37.85419" lon="145.36952000000002">
    <ele>573.1400000000001</ele>
   </trkpt>
   <trkpt lat="-37.85421" lon="145.36937">
    <ele>572.8700000000001</ele>
   </trkpt>
   <trkpt lat="-37.854380000000006" lon="145.36914000000002">
    <ele>572.57</ele>
   </trkpt>
   <trkpt lat="-37.85445" lon="145.36905000000002">
    <ele>572.4100000000001</ele>
   </trkpt>
   <trkpt lat="-37.854580000000006" lon="145.36896000000002">
    <ele>572.21</ele>
   </trkpt>
   <trkpt lat="-37.85499" lon="145.36845000000002">
    <ele>572.3600000000001</ele>
   </trkpt>
   <trkpt lat="-37.85519" lon="145.36803">
    <ele>573.21</ele>
   </trkpt>
   <trkpt lat="-37.85539822549628" lon="145.3670136650676">
    <ele>575.0600000000001</ele>
   </trkpt>
   <trkpt lat="-37.85560644225731" lon="145.36599732439376">
    <ele>575.0600000000001</ele>
   </trkpt>
   <trkpt lat="-37.855814650282994" lon="145.3649809779786">
    <ele>575.0600000000001</ele>
   </trkpt>
   <trkpt lat="-37.856022849573186" lon="145.36396462582243">
    <ele>575.0600000000001</ele>
   </trkpt>
   <trkpt lat="-37.85623104012779" lon="145.3629482679253">
    <ele>575.0600000000001</ele>
   </trkpt>
   <trkpt lat="-37.85643922194669" lon="145.36193190428745">
    <ele>577.4</ele>
   </trkpt>
   <trkpt lat="-37.85664739502977" lon="145.36091553490897">
    <ele>577.4</ele>
   </trkpt>
   <trkpt lat="-37.85685555937691" lon="145.35989915979005">
    <ele>577.4</ele>
   </trkpt>
   <trkpt lat="-37.85706371498799" lon="145.35888277893088">
    <ele>577.4</ele>
   </trkpt>
   <trkpt lat="-37.857271861862905" lon="145.35786639233163">
    <ele>577.4</ele>
   </trkpt>
   <trkpt lat="-37.85748" lon="145.35685">
    <ele>577.4</ele>
   </trkpt>
   <trkpt lat="-37.85757" lon="145.35637">
    <ele>575.47</ele>
   </trkpt>
   <trkpt lat="-37.857420000000005" lon="145.35594">
    <ele>574.72</ele>
   </trkpt>
   <trkpt lat="-37.85745" lon="145.35580000000002">
    <ele>575.76</ele>
   </trkpt>
   <trkpt lat="-37.85774" lon="145.3557">
    <ele>574.55</ele>
   </trkpt>
   <trkpt lat="-37.85792" lon="145.35547000000003">
    <ele>571.2600000000001</ele>
   </trkpt>
   <trkpt lat="-37.85826" lon="145.35524">
    <ele>563.86</ele>
   </trkpt>
   <trkpt lat="-37.85846" lon="145.35508000000002">
    <ele>557.37</ele>
   </trkpt>
   <trkpt lat="-37.85866" lon="145.35498">
    <ele>549.03</ele>
   </trkpt>
   <trkpt lat="-37.85877" lon="145.35487">
    <ele>545.23</ele>
   </trkpt>
   <trkpt lat="-37.85891" lon="145.35462">
    <ele>539.98</ele>
   </trkpt>
   <trkpt lat="-37.85938" lon="145.35420000000002">
    <ele>521.93</ele>
   </trkpt>
   <trkpt lat="-37.85956" lon="145.35410000000002">
    <ele>518.5500000000001</ele>
   </trkpt>
   <trkpt lat="-37.85969" lon="145.35413">
    <ele>516.07</ele>
   </trkpt>
   <trkpt lat="-37.859930000000006" lon="145.35424">
    <ele>513.69</ele>
   </trkpt>
   <trkpt lat="-37.86016" lon="145.35452">
    <ele>513.78</ele>
   </trkpt>
   <trkpt lat="-37.860600000000005" lon="145.35546000000002">
    <ele>507.71</ele>
   </trkpt>
   <trkpt lat="-37.86061" lon="145.35558">
    <ele>505.2000000000001</ele>
   </trkpt>
   <trkpt lat="-37.86059" lon="145.35571000000002">
    <ele>498.66</ele>
   </trkpt>
   <trkpt lat="-37.86059" lon="145.35592000000003">
    <ele>498.66</ele>
   </trkpt>
   <trkpt lat="-37.860640000000004" lon="145.35598000000002">
    <ele>494.91</ele>
   </trkpt>
   <trkpt lat="-37.86072" lon="145.35566">
    <ele>493.71000000000004</ele>
   </trkpt>
   <trkpt lat="-37.86081" lon="145.35551">
    <ele>493.41</ele>
   </trkpt>
   <trkpt lat="-37.861260001004666" lon="145.35500000322173">
    <ele>490.34000000000003</ele>
   </trkpt>
   <trkpt lat="-37.86171" lon="145.35449">
    <ele>486.03000000000003</ele>
   </trkpt>
   <trkpt lat="-37.862" lon="145.35422">
    <ele>484.11</ele>
   </trkpt>
   <trkpt lat="-37.86274" lon="145.35366000000002">
    <ele>480.58000000000004</ele>
   </trkpt>
  </trkseg>
 </trk>
</gpx>
