<?xml version="1.0" encoding="UTF-8"?>
<gpx creator="StravaGPX" version="1.1" xmlns="http://www.topografix.com/GPX/1/1" xmlns:xsi="http://www.w3.org/2001/XMLSchema-instance" xsi:schemaLocation="http://www.topografix.com/GPX/1/1 http://www.topografix.com/GPX/1/1/gpx.xsd">
 <metadata>
  <name>DTR 8k Sunday 25-1-26</name>
  <author>
   <name>Adriaan Homburg</name>
   <link href="https://www.strava.com/athletes/16685153"/>
  </author>
  <copyright author="OpenStreetMap contributors">
   <year>2020</year>
   <license>https://www.openstreetmap.org/copyright</license>
  </copyright>
  <link href="https://www.strava.com/routes/3449335541244165024"/>
 </metadata>
 <trk>
  <name>DTR 8k Sunday 25-1-26</name>
  <link href="https://www.strava.com/routes/3449335541244165024"/>
  <type>trail_running</type>
  <trkseg>
   <trkpt lat="-37.89094" lon="145.31733">
    <ele>179.04</ele>
   </trkpt>
   <trkpt lat="-37.89076" lon="145.31708">
    <ele>180.45000000000002</ele>
   </trkpt>
   <trkpt lat="-37.890730000000005" lon="145.31686000000002">
    <ele>181.87</ele>
   </trkpt>
   <trkpt lat="-37.8909" lon="145.31665">
    <ele>181.46</ele>
   </trkpt>
   <trkpt lat="-37.89099" lon="145.31640000000002">
    <ele>181.66000000000003</ele>
   </trkpt>
   <trkpt lat="-37.89099" lon="145.31613000000002">
    <ele>181.72000000000003</ele>
   </trkpt>
   <trkpt lat="-37.89108" lon="145.31604000000002">
    <ele>181.72000000000003</ele>
   </trkpt>
   <trkpt lat="-37.89148" lon="145.31548">
    <ele>175.38</ele>
   </trkpt>
   <trkpt lat="-37.89159" lon="145.3153">
    <ele>173.90000000000003</ele>
   </trkpt>
   <trkpt lat="-37.89166" lon="145.31470000000002">
    <ele>178.03000000000003</ele>
   </trkpt>
   <trkpt lat="-37.8917" lon="145.3142">
    <ele>181.47000000000003</ele>
   </trkpt>
   <trkpt lat="-37.89168" lon="145.31405">
    <ele>182.23</ele>
   </trkpt>
   <trkpt lat="-37.89159" lon="145.31376">
    <ele>184.06</ele>
   </trkpt>
   <trkpt lat="-37.8915" lon="145.31358">
    <ele>186.16000000000003</ele>
   </trkpt>
   <trkpt lat="-37.89132" lon="145.3134">
    <ele>187.29000000000002</ele>
   </trkpt>
   <trkpt lat="-37.89092" lon="145.31309000000002">
    <ele>192.70000000000002</ele>
   </trkpt>
   <trkpt lat="-37.89074" lon="145.31299">
    <ele>193.68</ele>
   </trkpt>
   <trkpt lat="-37.890710000000006" lon="145.31292000000002">
    <ele>194.01000000000002</ele>
   </trkpt>
   <trkpt lat="-37.890710000000006" lon="145.31282000000002">
    <ele>194.08</ele>
   </trkpt>
   <trkpt lat="-37.89072" lon="145.31278">
    <ele>194.08</ele>
   </trkpt>
   <trkpt lat="-37.89101" lon="145.31248000000002">
    <ele>194.86</ele>
   </trkpt>
   <trkpt lat="-37.89105" lon="145.31242">
    <ele>195.36</ele>
   </trkpt>
   <trkpt lat="-37.891180000000006" lon="145.31198">
    <ele>198.39000000000001</ele>
   </trkpt>
   <trkpt lat="-37.89121" lon="145.31161">
    <ele>200.73000000000002</ele>
   </trkpt>
   <trkpt lat="-37.89119" lon="145.31122000000002">
    <ele>203.69</ele>
   </trkpt>
   <trkpt lat="-37.89099" lon="145.31068000000002">
    <ele>211.22000000000003</ele>
   </trkpt>
   <trkpt lat="-37.89092" lon="145.31051000000002">
    <ele>215.12</ele>
   </trkpt>
   <trkpt lat="-37.89038" lon="145.30998000000002">
    <ele>227.36</ele>
   </trkpt>
   <trkpt lat="-37.890330000000006" lon="145.30995000000001">
    <ele>228.19000000000003</ele>
   </trkpt>
   <trkpt lat="-37.89027" lon="145.30997000000002">
    <ele>229.72</ele>
   </trkpt>
   <trkpt lat="-37.89025" lon="145.31002">
    <ele>229.72</ele>
   </trkpt>
   <trkpt lat="-37.89027" lon="145.31046">
    <ele>234.40000000000003</ele>
   </trkpt>
   <trkpt lat="-37.89025" lon="145.31066">
    <ele>238.02</ele>
   </trkpt>
   <trkpt lat="-37.89016" lon="145.31092">
    <ele>239.18000000000004</ele>
   </trkpt>
   <trkpt lat="-37.89002" lon="145.31111">
    <ele>243.08</ele>
   </trkpt>
   <trkpt lat="-37.88993" lon="145.31119">
    <ele>244.27</ele>
   </trkpt>
   <trkpt lat="-37.889680000000006" lon="145.31134">
    <ele>247.69000000000003</ele>
   </trkpt>
   <trkpt lat="-37.8896" lon="145.31134">
    <ele>251.58</ele>
   </trkpt>
   <trkpt lat="-37.88958" lon="145.31130000000002">
    <ele>251.58</ele>
   </trkpt>
   <trkpt lat="-37.88955" lon="145.31122000000002">
    <ele>251.58</ele>
   </trkpt>
   <trkpt lat="-37.88958" lon="145.31101">
    <ele>251.58</ele>
   </trkpt>
   <trkpt lat="-37.88958" lon="145.3109">
    <ele>251.58</ele>
   </trkpt>
   <trkpt lat="-37.88951" lon="145.31074">
    <ele>260.67</ele>
   </trkpt>
   <trkpt lat="-37.88931" lon="145.31038">
    <ele>264.8</ele>
   </trkpt>
   <trkpt lat="-37.889210000000006" lon="145.31025000000002">
    <ele>266.25000000000006</ele>
   </trkpt>
   <trkpt lat="-37.88908" lon="145.31016000000002">
    <ele>267.8</ele>
   </trkpt>
   <trkpt lat="-37.88902" lon="145.31014000000002">
    <ele>271.84000000000003</ele>
   </trkpt>
   <trkpt lat="-37.88893" lon="145.31018">
    <ele>271.84000000000003</ele>
   </trkpt>
   <trkpt lat="-37.88868" lon="145.31060000000002">
    <ele>279.23</ele>
   </trkpt>
   <trkpt lat="-37.88859" lon="145.31071">
    <ele>280.78000000000003</ele>
   </trkpt>
   <trkpt lat="-37.888450000000006" lon="145.31074">
    <ele>283.57000000000005</ele>
   </trkpt>
   <trkpt lat="-37.88794" lon="145.31068000000002">
    <ele>296.06000000000006</ele>
   </trkpt>
   <trkpt lat="-37.88779" lon="145.31063">
    <ele>299.4</ele>
   </trkpt>
   <trkpt lat="-37.887330000000006" lon="145.31040000000002">
    <ele>310.99000000000007</ele>
   </trkpt>
   <trkpt lat="-37.88705" lon="145.31019">
    <ele>314.37</ele>
   </trkpt>
   <trkpt lat="-37.88696" lon="145.31015000000002">
    <ele>315.65000000000003</ele>
   </trkpt>
   <trkpt lat="-37.88687" lon="145.31014000000002">
    <ele>316.42</ele>
   </trkpt>
   <trkpt lat="-37.88673" lon="145.31015000000002">
    <ele>317.63</ele>
   </trkpt>
   <trkpt lat="-37.88674" lon="145.31014000000002">
    <ele>317.63</ele>
   </trkpt>
   <trkpt lat="-37.8866" lon="145.3102">
    <ele>319.57</ele>
   </trkpt>
   <trkpt lat="-37.88629" lon="145.31038">
    <ele>324.87000000000006</ele>
   </trkpt>
   <trkpt lat="-37.8862" lon="145.31044">
    <ele>324.87000000000006</ele>
   </trkpt>
   <trkpt lat="-37.88611" lon="145.31055">
    <ele>329.23</ele>
   </trkpt>
   <trkpt lat="-37.88579500178934" lon="145.31120500285434">
    <ele>339.59</ele>
   </trkpt>
   <trkpt lat="-37.88548" lon="145.31186000000002">
    <ele>349.79</ele>
   </trkpt>
   <trkpt lat="-37.88541" lon="145.31207">
    <ele>354.75</ele>
   </trkpt>
   <trkpt lat="-37.8853" lon="145.31255000000002">
    <ele>364.42</ele>
   </trkpt>
   <trkpt lat="-37.885270000000006" lon="145.31266000000002">
    <ele>364.42</ele>
   </trkpt>
   <trkpt lat="-37.88519" lon="145.31273000000002">
    <ele>368.04</ele>
   </trkpt>
   <trkpt lat="-37.88501" lon="145.31279">
    <ele>371.02</ele>
   </trkpt>
   <trkpt lat="-37.88488" lon="145.3128">
    <ele>374.83000000000004</ele>
   </trkpt>
   <trkpt lat="-37.8843" lon="145.31272">
    <ele>385.81000000000006</ele>
   </trkpt>
   <trkpt lat="-37.88414" lon="145.31267000000003">
    <ele>388.94</ele>
   </trkpt>
   <trkpt lat="-37.88369" lon="145.31236">
    <ele>396.27</ele>
   </trkpt>
   <trkpt lat="-37.8834" lon="145.31222000000002">
    <ele>401.33</ele>
   </trkpt>
   <trkpt lat="-37.88308" lon="145.31215">
    <ele>405.81000000000006</ele>
   </trkpt>
   <trkpt lat="-37.882740000000005" lon="145.31214">
    <ele>408.80000000000007</ele>
   </trkpt>
   <trkpt lat="-37.88297" lon="145.31193000000002">
    <ele>404.31000000000006</ele>
   </trkpt>
   <trkpt lat="-37.88302" lon="145.31185000000002">
    <ele>403.63000000000005</ele>
   </trkpt>
   <trkpt lat="-37.88302" lon="145.31131000000002">
    <ele>398.91</ele>
   </trkpt>
   <trkpt lat="-37.88286" lon="145.31025000000002">
    <ele>388.11</ele>
   </trkpt>
   <trkpt lat="-37.88286" lon="145.31015000000002">
    <ele>388.11</ele>
   </trkpt>
   <trkpt lat="-37.88311" lon="145.30974">
    <ele>382.15000000000003</ele>
   </trkpt>
   <trkpt lat="-37.88311" lon="145.30958">
    <ele>380.20000000000005</ele>
   </trkpt>
   <trkpt lat="-37.88308" lon="145.30941">
    <ele>378.77000000000004</ele>
   </trkpt>
   <trkpt lat="-37.88302" lon="145.30928">
    <ele>375.28000000000003</ele>
   </trkpt>
   <trkpt lat="-37.88255" lon="145.30877">
    <ele>366.15000000000003</ele>
   </trkpt>
   <trkpt lat="-37.88244" lon="145.30873000000003">
    <ele>363.47</ele>
   </trkpt>
   <trkpt lat="-37.8823" lon="145.30873000000003">
    <ele>361.23</ele>
   </trkpt>
   <trkpt lat="-37.88221" lon="145.30869">
    <ele>361.23</ele>
   </trkpt>
   <trkpt lat="-37.88219" lon="145.30866">
    <ele>357.74</ele>
   </trkpt>
   <trkpt lat="-37.88223" lon="145.30856">
    <ele>357.74</ele>
   </trkpt>
   <trkpt lat="-37.88255" lon="145.30833">
    <ele>352.18000000000006</ele>
   </trkpt>
   <trkpt lat="-37.88275" lon="145.30824">
    <ele>347.36</ele>
   </trkpt>
   <trkpt lat="-37.88279" lon="145.3082">
    <ele>346.53</ele>
   </trkpt>
   <trkpt lat="-37.88277" lon="145.30814">
    <ele>345.64</ele>
   </trkpt>
   <trkpt lat="-37.88255" lon="145.30797">
    <ele>340.49</ele>
   </trkpt>
   <trkpt lat="-37.88214" lon="145.30780000000001">
    <ele>333.87</ele>
   </trkpt>
   <trkpt lat="-37.88185" lon="145.30775">
    <ele>329.84000000000003</ele>
   </trkpt>
   <trkpt lat="-37.88174" lon="145.3077">
    <ele>328.68</ele>
   </trkpt>
   <trkpt lat="-37.88152" lon="145.30794">
    <ele>325.99</ele>
   </trkpt>
   <trkpt lat="-37.88145" lon="145.30807000000001">
    <ele>324.56</ele>
   </trkpt>
   <trkpt lat="-37.88127" lon="145.30875">
    <ele>321.03000000000003</ele>
   </trkpt>
   <trkpt lat="-37.8812" lon="145.30912">
    <ele>318.75</ele>
   </trkpt>
   <trkpt lat="-37.88114" lon="145.30981">
    <ele>310.57</ele>
   </trkpt>
   <trkpt lat="-37.881040000000006" lon="145.31008">
    <ele>309.51</ele>
   </trkpt>
   <trkpt lat="-37.88096" lon="145.31011">
    <ele>309.46</ele>
   </trkpt>
   <trkpt lat="-37.880970000000005" lon="145.31011">
    <ele>309.46</ele>
   </trkpt>
   <trkpt lat="-37.88089" lon="145.31011">
    <ele>309.37</ele>
   </trkpt>
   <trkpt lat="-37.88082" lon="145.31005000000002">
    <ele>309.07</ele>
   </trkpt>
   <trkpt lat="-37.88035" lon="145.30939">
    <ele>297.28000000000003</ele>
   </trkpt>
   <trkpt lat="-37.87979" lon="145.30893">
    <ele>287.51000000000005</ele>
   </trkpt>
   <trkpt lat="-37.87921" lon="145.30859">
    <ele>281.56</ele>
   </trkpt>
   <trkpt lat="-37.87863" lon="145.30831">
    <ele>270.26</ele>
   </trkpt>
   <trkpt lat="-37.87816" lon="145.30803">
    <ele>263.12</ele>
   </trkpt>
   <trkpt lat="-37.87787" lon="145.30791000000002">
    <ele>259.92</ele>
   </trkpt>
   <trkpt lat="-37.87744" lon="145.30784">
    <ele>255.89000000000001</ele>
   </trkpt>
   <trkpt lat="-37.87729" lon="145.30784">
    <ele>254.73000000000002</ele>
   </trkpt>
   <trkpt lat="-37.87686" lon="145.30793">
    <ele>249.96</ele>
   </trkpt>
   <trkpt lat="-37.876470000000005" lon="145.30795">
    <ele>247.07</ele>
   </trkpt>
   <trkpt lat="-37.876200000000004" lon="145.30781000000002">
    <ele>241.83</ele>
   </trkpt>
   <trkpt lat="-37.87597" lon="145.30773000000002">
    <ele>237.83</ele>
   </trkpt>
   <trkpt lat="-37.87561" lon="145.30773000000002">
    <ele>235.13</ele>
   </trkpt>
   <trkpt lat="-37.87525" lon="145.30781000000002">
    <ele>229.93</ele>
   </trkpt>
   <trkpt lat="-37.87498" lon="145.30769">
    <ele>227.78</ele>
   </trkpt>
   <trkpt lat="-37.87483" lon="145.30766">
    <ele>227.94000000000003</ele>
   </trkpt>
   <trkpt lat="-37.87478" lon="145.3082">
    <ele>235.56</ele>
   </trkpt>
   <trkpt lat="-37.87473" lon="145.30829">
    <ele>237.94</ele>
   </trkpt>
   <trkpt lat="-37.87458" lon="145.30846000000003">
    <ele>241.36</ele>
   </trkpt>
   <trkpt lat="-37.87424" lon="145.30875">
    <ele>249.37</ele>
   </trkpt>
   <trkpt lat="-37.87411" lon="145.30882000000003">
    <ele>251.82000000000005</ele>
   </trkpt>
   <trkpt lat="-37.87369" lon="145.30894">
    <ele>257.73</ele>
   </trkpt>
   <trkpt lat="-37.87357" lon="145.30935000000002">
    <ele>267.93</ele>
   </trkpt>
   <trkpt lat="-37.87353" lon="145.30943000000002">
    <ele>270.54</ele>
   </trkpt>
   <trkpt lat="-37.87326" lon="145.30966">
    <ele>277.54</ele>
   </trkpt>
   <trkpt lat="-37.87317" lon="145.30980000000002">
    <ele>282.81</ele>
   </trkpt>
   <trkpt lat="-37.87306" lon="145.31023000000002">
    <ele>294.37</ele>
   </trkpt>
   <trkpt lat="-37.87299" lon="145.31035">
    <ele>299.77000000000004</ele>
   </trkpt>
   <trkpt lat="-37.8727" lon="145.31074">
    <ele>315.45</ele>
   </trkpt>
   <trkpt lat="-37.87236" lon="145.31108">
    <ele>328.13000000000005</ele>
   </trkpt>
   <trkpt lat="-37.872130000000006" lon="145.31118">
    <ele>335.59000000000003</ele>
   </trkpt>
   <trkpt lat="-37.87205" lon="145.31123000000002">
    <ele>337.08000000000004</ele>
   </trkpt>
   <trkpt lat="-37.872" lon="145.31129">
    <ele>340.37</ele>
   </trkpt>
   <trkpt lat="-37.871930000000006" lon="145.31158000000002">
    <ele>349.19000000000005</ele>
   </trkpt>
   <trkpt lat="-37.87201" lon="145.31204000000002">
    <ele>360.78000000000003</ele>
   </trkpt>
   <trkpt lat="-37.87182" lon="145.31231000000002">
    <ele>370.6700000000001</ele>
   </trkpt>
   <trkpt lat="-37.87174" lon="145.31253">
    <ele>376.82000000000005</ele>
   </trkpt>
   <trkpt lat="-37.87165" lon="145.31262">
    <ele>381.88000000000005</ele>
   </trkpt>
   <trkpt lat="-37.87133" lon="145.3128">
    <ele>387.33</ele>
   </trkpt>
   <trkpt lat="-37.87122" lon="145.31293000000002">
    <ele>390.21000000000004</ele>
   </trkpt>
   <trkpt lat="-37.87088500168487" lon="145.3135600028525">
    <ele>393.19000000000005</ele>
   </trkpt>
   <trkpt lat="-37.87055" lon="145.31419000000002">
    <ele>388.25000000000006</ele>
   </trkpt>
   <trkpt lat="-37.87064" lon="145.31427000000002">
    <ele>389.62</ele>
   </trkpt>
   <trkpt lat="-37.871" lon="145.31480000000002">
    <ele>395.16</ele>
   </trkpt>
   <trkpt lat="-37.871190000000006" lon="145.31547">
    <ele>403.86000000000007</ele>
   </trkpt>
   <trkpt lat="-37.87116" lon="145.31549">
    <ele>403.87</ele>
   </trkpt>
   <trkpt lat="-37.87129" lon="145.31581">
    <ele>410.07000000000005</ele>
   </trkpt>
   <trkpt lat="-37.87138" lon="145.31591">
    <ele>412.69000000000005</ele>
   </trkpt>
   <trkpt lat="-37.87149" lon="145.31611">
    <ele>420.98</ele>
   </trkpt>
   <trkpt lat="-37.87151" lon="145.31632000000002">
    <ele>423.89000000000004</ele>
   </trkpt>
   <trkpt lat="-37.87156" lon="145.31644">
    <ele>429.87</ele>
   </trkpt>
   <trkpt lat="-37.871660000000006" lon="145.31657">
    <ele>436.16</ele>
   </trkpt>
   <trkpt lat="-37.87165" lon="145.31664">
    <ele>436.16</ele>
   </trkpt>
   <trkpt lat="-37.87171" lon="145.31671">
    <ele>442.83000000000004</ele>
   </trkpt>
   <trkpt lat="-37.87185" lon="145.31703000000002">
    <ele>449.1</ele>
   </trkpt>
   <trkpt lat="-37.87185" lon="145.31707">
    <ele>449.1</ele>
   </trkpt>
   <trkpt lat="-37.87198" lon="145.31725">
    <ele>458.33</ele>
   </trkpt>
   <trkpt lat="-37.87203" lon="145.31727">
    <ele>458.33</ele>
   </trkpt>
   <trkpt lat="-37.87209" lon="145.31742">
    <ele>463.35</ele>
   </trkpt>
   <trkpt lat="-37.87207" lon="145.3176">
    <ele>468.47</ele>
   </trkpt>
   <trkpt lat="-37.87209" lon="145.31769">
    <ele>468.47</ele>
   </trkpt>
   <trkpt lat="-37.87205" lon="145.3178">
    <ele>479.1</ele>
   </trkpt>
   <trkpt lat="-37.87205" lon="145.31793000000002">
    <ele>479.1</ele>
   </trkpt>
   <trkpt lat="-37.87209" lon="145.31822000000003">
    <ele>489.62000000000006</ele>
   </trkpt>
   <trkpt lat="-37.87207" lon="145.31839000000002">
    <ele>494.51000000000005</ele>
   </trkpt>
   <trkpt lat="-37.872130000000006" lon="145.31845">
    <ele>500.44</ele>
   </trkpt>
   <trkpt lat="-37.87209" lon="145.31856000000002">
    <ele>500.44</ele>
   </trkpt>
   <trkpt lat="-37.87212" lon="145.31863">
    <ele>503.2000000000001</ele>
   </trkpt>
   <trkpt lat="-37.87212" lon="145.31871">
    <ele>504.49</ele>
   </trkpt>
   <trkpt lat="-37.87218" lon="145.31887">
    <ele>507.90000000000003</ele>
   </trkpt>
   <trkpt lat="-37.87219" lon="145.31912">
    <ele>511.87000000000006</ele>
   </trkpt>
   <trkpt lat="-37.8725" lon="145.31904">
    <ele>512.1800000000001</ele>
   </trkpt>
   <trkpt lat="-37.87285" lon="145.31900000000002">
    <ele>510.6400000000001</ele>
   </trkpt>
   <trkpt lat="-37.87321" lon="145.31901000000002">
    <ele>508.01000000000005</ele>
   </trkpt>
   <trkpt lat="-37.87384" lon="145.31919000000002">
    <ele>503.27</ele>
   </trkpt>
   <trkpt lat="-37.87429" lon="145.3194">
    <ele>501.05</ele>
   </trkpt>
   <trkpt lat="-37.87447" lon="145.31951">
    <ele>498.44000000000005</ele>
   </trkpt>
   <trkpt lat="-37.87469" lon="145.31975">
    <ele>496.34000000000003</ele>
   </trkpt>
   <trkpt lat="-37.87478" lon="145.31988">
    <ele>496.34000000000003</ele>
   </trkpt>
   <trkpt lat="-37.87491" lon="145.3202">
    <ele>493.65000000000003</ele>
   </trkpt>
   <trkpt lat="-37.874985003652874" lon="145.32112999899306">
    <ele>490.91</ele>
   </trkpt>
   <trkpt lat="-37.875060000000005" lon="145.32206000000002">
    <ele>494.44000000000005</ele>
   </trkpt>
   <trkpt lat="-37.87518" lon="145.32201">
    <ele>493.88000000000005</ele>
   </trkpt>
   <trkpt lat="-37.87529" lon="145.32202">
    <ele>493.66</ele>
   </trkpt>
   <trkpt lat="-37.87568" lon="145.32217">
    <ele>493.81</ele>
   </trkpt>
   <trkpt lat="-37.876215000218856" lon="145.322354998682">
    <ele>495.01000000000005</ele>
   </trkpt>
   <trkpt lat="-37.87675" lon="145.32254">
    <ele>493.36</ele>
   </trkpt>
   <trkpt lat="-37.877" lon="145.32270000000003">
    <ele>494.39000000000004</ele>
   </trkpt>
   <trkpt lat="-37.87783" lon="145.32313000000002">
    <ele>498.06000000000006</ele>
   </trkpt>
   <trkpt lat="-37.8782" lon="145.32342">
    <ele>497.63</ele>
   </trkpt>
   <trkpt lat="-37.8787" lon="145.32406">
    <ele>498.35</ele>
   </trkpt>
   <trkpt lat="-37.87892" lon="145.32431000000003">
    <ele>499.3</ele>
   </trkpt>
   <trkpt lat="-37.87932" lon="145.32488">
    <ele>498.28000000000003</ele>
   </trkpt>
   <trkpt lat="-37.87993" lon="145.32551">
    <ele>493.25</ele>
   </trkpt>
   <trkpt lat="-37.88067" lon="145.32611">
    <ele>485.18000000000006</ele>
   </trkpt>
   <trkpt lat="-37.88132" lon="145.32653000000002">
    <ele>478.98</ele>
   </trkpt>
   <trkpt lat="-37.88172" lon="145.32688000000002">
    <ele>474.32</ele>
   </trkpt>
   <trkpt lat="-37.88181" lon="145.32698000000002">
    <ele>473.14000000000004</ele>
   </trkpt>
   <trkpt lat="-37.88201" lon="145.32736">
    <ele>470.66</ele>
   </trkpt>
   <trkpt lat="-37.88223" lon="145.32806000000002">
    <ele>465.40000000000003</ele>
   </trkpt>
   <trkpt lat="-37.88241" lon="145.32832000000002">
    <ele>461.07000000000005</ele>
   </trkpt>
   <trkpt lat="-37.88264" lon="145.32853">
    <ele>456.76000000000005</ele>
   </trkpt>
   <trkpt lat="-37.88284" lon="145.32863">
    <ele>451.78000000000003</ele>
   </trkpt>
   <trkpt lat="-37.88311" lon="145.32864">
    <ele>446.02000000000004</ele>
   </trkpt>
   <trkpt lat="-37.88342" lon="145.32859000000002">
    <ele>442.70000000000005</ele>
   </trkpt>
   <trkpt lat="-37.88378" lon="145.32857">
    <ele>436.93</ele>
   </trkpt>
   <trkpt lat="-37.88407" lon="145.32862">
    <ele>430.40000000000003</ele>
   </trkpt>
   <trkpt lat="-37.88447" lon="145.32879">
    <ele>424.65000000000003</ele>
   </trkpt>
   <trkpt lat="-37.88499" lon="145.32898">
    <ele>412.47</ele>
   </trkpt>
   <trkpt lat="-37.88555" lon="145.32899">
    <ele>401.97</ele>
   </trkpt>
   <trkpt lat="-37.88584" lon="145.32891">
    <ele>396.07000000000005</ele>
   </trkpt>
   <trkpt lat="-37.88604" lon="145.32873">
    <ele>389.0</ele>
   </trkpt>
   <trkpt lat="-37.88624" lon="145.32841000000002">
    <ele>381.98</ele>
   </trkpt>
   <trkpt lat="-37.886390000000006" lon="145.32833000000002">
    <ele>380.87000000000006</ele>
   </trkpt>
   <trkpt lat="-37.88638" lon="145.32787000000002">
    <ele>378.13</ele>
   </trkpt>
   <trkpt lat="-37.88638" lon="145.32786000000002">
    <ele>378.13</ele>
   </trkpt>
   <trkpt lat="-37.88624" lon="145.32771000000002">
    <ele>377.64000000000004</ele>
   </trkpt>
   <trkpt lat="-37.8862" lon="145.3274">
    <ele>376.68</ele>
   </trkpt>
   <trkpt lat="-37.886190000000006" lon="145.32696">
    <ele>376.78</ele>
   </trkpt>
   <trkpt lat="-37.88608" lon="145.32707000000002">
    <ele>375.19</ele>
   </trkpt>
   <trkpt lat="-37.8857" lon="145.3273">
    <ele>371.1</ele>
   </trkpt>
   <trkpt lat="-37.88559" lon="145.32723000000001">
    <ele>369.9</ele>
   </trkpt>
   <trkpt lat="-37.88555" lon="145.32716000000002">
    <ele>368.98</ele>
   </trkpt>
   <trkpt lat="-37.88546" lon="145.32689000000002">
    <ele>366.09000000000003</ele>
   </trkpt>
   <trkpt lat="-37.88539" lon="145.32682">
    <ele>365.04</ele>
   </trkpt>
   <trkpt lat="-37.88532" lon="145.32677">
    <ele>363.66</ele>
   </trkpt>
   <trkpt lat="-37.88517" lon="145.32679000000002">
    <ele>361.7</ele>
   </trkpt>
   <trkpt lat="-37.8851" lon="145.32674">
    <ele>361.7</ele>
   </trkpt>
   <trkpt lat="-37.88503" lon="145.32657">
    <ele>360.31</ele>
   </trkpt>
   <trkpt lat="-37.88501" lon="145.32641">
    <ele>359.19</ele>
   </trkpt>
   <trkpt lat="-37.88481" lon="145.32615">
    <ele>355.34000000000003</ele>
   </trkpt>
   <trkpt lat="-37.88472" lon="145.32611">
    <ele>354.50000000000006</ele>
   </trkpt>
   <trkpt lat="-37.8847" lon="145.32606">
    <ele>353.74000000000007</ele>
   </trkpt>
   <trkpt lat="-37.88467" lon="145.32594">
    <ele>353.04</ele>
   </trkpt>
   <trkpt lat="-37.88472" lon="145.32581000000002">
    <ele>352.22</ele>
   </trkpt>
   <trkpt lat="-37.88483" lon="145.32566">
    <ele>350.39000000000004</ele>
   </trkpt>
   <trkpt lat="-37.8849" lon="145.32534">
    <ele>346.54</ele>
   </trkpt>
   <trkpt lat="-37.88494" lon="145.32504">
    <ele>341.51000000000005</ele>
   </trkpt>
   <trkpt lat="-37.88494" lon="145.32475000000002">
    <ele>337.79</ele>
   </trkpt>
   <trkpt lat="-37.8849" lon="145.32459">
    <ele>335.87</ele>
   </trkpt>
   <trkpt lat="-37.88481" lon="145.32436">
    <ele>333.63000000000005</ele>
   </trkpt>
   <trkpt lat="-37.88481" lon="145.32417">
    <ele>331.34000000000003</ele>
   </trkpt>
   <trkpt lat="-37.88483" lon="145.32404000000002">
    <ele>329.18</ele>
   </trkpt>
   <trkpt lat="-37.88481" lon="145.32355">
    <ele>318.07</ele>
   </trkpt>
   <trkpt lat="-37.8849" lon="145.32336">
    <ele>315.27000000000004</ele>
   </trkpt>
   <trkpt lat="-37.88488" lon="145.32315">
    <ele>313.8</ele>
   </trkpt>
   <trkpt lat="-37.88479" lon="145.32282">
    <ele>309.09000000000003</ele>
   </trkpt>
   <trkpt lat="-37.88465" lon="145.32261000000003">
    <ele>304.92</ele>
   </trkpt>
   <trkpt lat="-37.884570000000004" lon="145.32260000000002">
    <ele>304.91</ele>
   </trkpt>
   <trkpt lat="-37.88447" lon="145.32227">
    <ele>302.68</ele>
   </trkpt>
   <trkpt lat="-37.88443" lon="145.32186000000002">
    <ele>299.27000000000004</ele>
   </trkpt>
   <trkpt lat="-37.88432" lon="145.32141000000001">
    <ele>292.06000000000006</ele>
   </trkpt>
   <trkpt lat="-37.88423" lon="145.32127">
    <ele>290.3</ele>
   </trkpt>
   <trkpt lat="-37.88416" lon="145.3211">
    <ele>289.08</ele>
   </trkpt>
   <trkpt lat="-37.88416" lon="145.32099000000002">
    <ele>286.58</ele>
   </trkpt>
   <trkpt lat="-37.88425" lon="145.32069">
    <ele>284.31</ele>
   </trkpt>
   <trkpt lat="-37.88429" lon="145.32048">
    <ele>282.24000000000007</ele>
   </trkpt>
   <trkpt lat="-37.88425" lon="145.3202">
    <ele>279.43</ele>
   </trkpt>
   <trkpt lat="-37.88416" lon="145.31998000000002">
    <ele>277.81</ele>
   </trkpt>
   <trkpt lat="-37.88416" lon="145.31972000000002">
    <ele>274.44</ele>
   </trkpt>
   <trkpt lat="-37.88409" lon="145.31915">
    <ele>269.08000000000004</ele>
   </trkpt>
   <trkpt lat="-37.884" lon="145.31884000000002">
    <ele>266.57000000000005</ele>
   </trkpt>
   <trkpt lat="-37.88378" lon="145.31852">
    <ele>263.98</ele>
   </trkpt>
   <trkpt lat="-37.88373" lon="145.31835">
    <ele>262.02000000000004</ele>
   </trkpt>
   <trkpt lat="-37.88396" lon="145.31833">
    <ele>258.47</ele>
   </trkpt>
   <trkpt lat="-37.88429" lon="145.31839000000002">
    <ele>254.45000000000002</ele>
   </trkpt>
   <trkpt lat="-37.88479" lon="145.31835">
    <ele>247.84000000000003</ele>
   </trkpt>
   <trkpt lat="-37.88528" lon="145.31820000000002">
    <ele>237.13</ele>
   </trkpt>
   <trkpt lat="-37.88537" lon="145.31811000000002">
    <ele>236.40000000000003</ele>
   </trkpt>
   <trkpt lat="-37.88546" lon="145.31806">
    <ele>235.15000000000003</ele>
   </trkpt>
   <trkpt lat="-37.88553" lon="145.31806">
    <ele>235.0</ele>
   </trkpt>
   <trkpt lat="-37.885740000000006" lon="145.31805">
    <ele>232.4</ele>
   </trkpt>
   <trkpt lat="-37.885830000000006" lon="145.31797">
    <ele>231.27000000000004</ele>
   </trkpt>
   <trkpt lat="-37.88611" lon="145.31784000000002">
    <ele>229.39000000000001</ele>
   </trkpt>
   <trkpt lat="-37.88667" lon="145.31742">
    <ele>227.94000000000003</ele>
   </trkpt>
   <trkpt lat="-37.886880000000005" lon="145.31755">
    <ele>225.13000000000002</ele>
   </trkpt>
   <trkpt lat="-37.88712" lon="145.31764">
    <ele>220.62</ele>
   </trkpt>
   <trkpt lat="-37.88761" lon="145.31761">
    <ele>213.79</ele>
   </trkpt>
   <trkpt lat="-37.88772" lon="145.31759000000002">
    <ele>212.13</ele>
   </trkpt>
   <trkpt lat="-37.88781" lon="145.31755">
    <ele>210.61</ele>
   </trkpt>
   <trkpt lat="-37.88787000000001" lon="145.31756000000001">
    <ele>210.61</ele>
   </trkpt>
   <trkpt lat="-37.88808" lon="145.31744">
    <ele>208.27</ele>
   </trkpt>
   <trkpt lat="-37.888270000000006" lon="145.31747000000001">
    <ele>206.8</ele>
   </trkpt>
   <trkpt lat="-37.88828" lon="145.31748000000002">
    <ele>206.8</ele>
   </trkpt>
   <trkpt lat="-37.88839" lon="145.31750000000002">
    <ele>204.59</ele>
   </trkpt>
   <trkpt lat="-37.88846" lon="145.31753">
    <ele>204.59</ele>
   </trkpt>
   <trkpt lat="-37.88866" lon="145.31772">
    <ele>201.53</ele>
   </trkpt>
   <trkpt lat="-37.888830000000006" lon="145.31773">
    <ele>200.57000000000002</ele>
   </trkpt>
   <trkpt lat="-37.88884" lon="145.31775000000002">
    <ele>200.57000000000002</ele>
   </trkpt>
   <trkpt lat="-37.88893" lon="145.31777000000002">
    <ele>198.34</ele>
   </trkpt>
   <trkpt lat="-37.88895" lon="145.31774000000001">
    <ele>198.34</ele>
   </trkpt>
   <trkpt lat="-37.88931" lon="145.31776000000002">
    <ele>195.33</ele>
   </trkpt>
   <trkpt lat="-37.889410000000005" lon="145.31771">
    <ele>193.84</ele>
   </trkpt>
   <trkpt lat="-37.88967" lon="145.31767000000002">
    <ele>191.47000000000003</ele>
   </trkpt>
   <trkpt lat="-37.88974" lon="145.31771">
    <ele>190.95000000000002</ele>
   </trkpt>
   <trkpt lat="-37.88978" lon="145.31768000000002">
    <ele>190.41000000000003</ele>
   </trkpt>
   <trkpt lat="-37.88987" lon="145.31762">
    <ele>190.41000000000003</ele>
   </trkpt>
   <trkpt lat="-37.89031000000001" lon="145.31750000000002">
    <ele>185.12</ele>
   </trkpt>
   <trkpt lat="-37.89038" lon="145.31751">
    <ele>184.25000000000003</ele>
   </trkpt>
   <trkpt lat="-37.890440000000005" lon="145.31758000000002">
    <ele>184.25000000000003</ele>
   </trkpt>
   <trkpt lat="-37.89049" lon="145.31756000000001">
    <ele>184.17000000000002</ele>
   </trkpt>
   <trkpt lat="-37.8905" lon="145.31752">
    <ele>184.17000000000002</ele>
   </trkpt>
   <trkpt lat="-37.89058" lon="145.31753">
    <ele>183.29</ele>
   </trkpt>
   <trkpt lat="-37.89067" lon="145.31745">
    <ele>181.31000000000003</ele>
   </trkpt>
   <trkpt lat="-37.89072" lon="145.31744">
    <ele>181.31000000000003</ele>
   </trkpt>
   <trkpt lat="-37.89088" lon="145.31737">
    <ele>179.70000000000002</ele>
   </trkpt>
  </trkseg>
 </trk>
</gpx>
