<?xml version="1.0" encoding="UTF-8"?>
<gpx creator="StravaGPX" version="1.1" xmlns="http://www.topografix.com/GPX/1/1" xmlns:xsi="http://www.w3.org/2001/XMLSchema-instance" xsi:schemaLocation="http://www.topografix.com/GPX/1/1 http://www.topografix.com/GPX/1/1/gpx.xsd">
 <metadata>
  <name>Sunday 18/01/2025 - 14k</name>
  <author>
   <name>Dion Graham</name>
   <link href="https://www.strava.com/athletes/26355872"/>
  </author>
  <copyright author="OpenStreetMap contributors">
   <year>2020</year>
   <license>https://www.openstreetmap.org/copyright</license>
  </copyright>
  <link href="https://www.strava.com/routes/3446702455179642438"/>
 </metadata>
 <trk>
  <name>Sunday 18/01/2025 - 14k</name>
  <link href="https://www.strava.com/routes/3446702455179642438"/>
  <type>trail_running</type>
  <trkseg>
   <trkpt lat="-37.88749" lon="145.36999">
    <ele>361.2</ele>
   </trkpt>
   <trkpt lat="-37.887620000000005" lon="145.36993">
    <ele>360.90000000000003</ele>
   </trkpt>
   <trkpt lat="-37.88812" lon="145.36999">
    <ele>361.40000000000003</ele>
   </trkpt>
   <trkpt lat="-37.88855" lon="145.36996000000002">
    <ele>362.22</ele>
   </trkpt>
   <trkpt lat="-37.88904500006507" lon="145.37000499970262">
    <ele>364.52</ele>
   </trkpt>
   <trkpt lat="-37.889540000000004" lon="145.37005000000002">
    <ele>368.50000000000006</ele>
   </trkpt>
   <trkpt lat="-37.889770000000006" lon="145.37002">
    <ele>369.27000000000004</ele>
   </trkpt>
   <trkpt lat="-37.88996" lon="145.37003">
    <ele>369.78000000000003</ele>
   </trkpt>
   <trkpt lat="-37.890150000000006" lon="145.36999">
    <ele>370.01</ele>
   </trkpt>
   <trkpt lat="-37.89074" lon="145.36965">
    <ele>369.37</ele>
   </trkpt>
   <trkpt lat="-37.89101" lon="145.36944000000003">
    <ele>367.08</ele>
   </trkpt>
   <trkpt lat="-37.89146" lon="145.369">
    <ele>365.26000000000005</ele>
   </trkpt>
   <trkpt lat="-37.89184" lon="145.36885">
    <ele>363.85</ele>
   </trkpt>
   <trkpt lat="-37.89226" lon="145.36863000000002">
    <ele>362.72</ele>
   </trkpt>
   <trkpt lat="-37.89269" lon="145.36831">
    <ele>362.33000000000004</ele>
   </trkpt>
   <trkpt lat="-37.89316" lon="145.36801">
    <ele>363.46</ele>
   </trkpt>
   <trkpt lat="-37.89349" lon="145.36792">
    <ele>364.50000000000006</ele>
   </trkpt>
   <trkpt lat="-37.89414" lon="145.36802">
    <ele>367.53000000000003</ele>
   </trkpt>
   <trkpt lat="-37.89439" lon="145.3681">
    <ele>368.26000000000005</ele>
   </trkpt>
   <trkpt lat="-37.89464" lon="145.36809000000002">
    <ele>368.26000000000005</ele>
   </trkpt>
   <trkpt lat="-37.89508" lon="145.36802">
    <ele>369.64000000000004</ele>
   </trkpt>
   <trkpt lat="-37.895700000000005" lon="145.36797">
    <ele>369.9</ele>
   </trkpt>
   <trkpt lat="-37.89571" lon="145.36797">
    <ele>369.91</ele>
   </trkpt>
   <trkpt lat="-37.89578" lon="145.36797">
    <ele>370.02</ele>
   </trkpt>
   <trkpt lat="-37.896" lon="145.36790000000002">
    <ele>370.41</ele>
   </trkpt>
   <trkpt lat="-37.89593500148004" lon="145.36730999954818">
    <ele>371.6700000000001</ele>
   </trkpt>
   <trkpt lat="-37.89587" lon="145.36672000000002">
    <ele>366.19</ele>
   </trkpt>
   <trkpt lat="-37.89573" lon="145.36615">
    <ele>358.86</ele>
   </trkpt>
   <trkpt lat="-37.89564" lon="145.36536">
    <ele>346.43</ele>
   </trkpt>
   <trkpt lat="-37.8956" lon="145.36513000000002">
    <ele>342.39000000000004</ele>
   </trkpt>
   <trkpt lat="-37.89558" lon="145.36450000000002">
    <ele>337.51000000000005</ele>
   </trkpt>
   <trkpt lat="-37.89551" lon="145.36357">
    <ele>327.93</ele>
   </trkpt>
   <trkpt lat="-37.895480000000006" lon="145.36346">
    <ele>326.70000000000005</ele>
   </trkpt>
   <trkpt lat="-37.89546" lon="145.36337">
    <ele>325.39</ele>
   </trkpt>
   <trkpt lat="-37.89537" lon="145.36316000000002">
    <ele>322.32000000000005</ele>
   </trkpt>
   <trkpt lat="-37.89537" lon="145.36299000000002">
    <ele>320.20000000000005</ele>
   </trkpt>
   <trkpt lat="-37.895500000000006" lon="145.36281000000002">
    <ele>318.84000000000003</ele>
   </trkpt>
   <trkpt lat="-37.8956" lon="145.36243000000002">
    <ele>316.85</ele>
   </trkpt>
   <trkpt lat="-37.89578" lon="145.36200000000002">
    <ele>314.04</ele>
   </trkpt>
   <trkpt lat="-37.89609" lon="145.36145000000002">
    <ele>309.6</ele>
   </trkpt>
   <trkpt lat="-37.89618" lon="145.36090000000002">
    <ele>305.86</ele>
   </trkpt>
   <trkpt lat="-37.89645" lon="145.36017">
    <ele>302.34</ele>
   </trkpt>
   <trkpt lat="-37.89661" lon="145.35992000000002">
    <ele>301.11</ele>
   </trkpt>
   <trkpt lat="-37.89665" lon="145.35958000000002">
    <ele>298.91</ele>
   </trkpt>
   <trkpt lat="-37.89672" lon="145.35945">
    <ele>298.54</ele>
   </trkpt>
   <trkpt lat="-37.89683" lon="145.35912000000002">
    <ele>297.87</ele>
   </trkpt>
   <trkpt lat="-37.89696" lon="145.3589">
    <ele>296.63</ele>
   </trkpt>
   <trkpt lat="-37.89699" lon="145.35877000000002">
    <ele>296.63</ele>
   </trkpt>
   <trkpt lat="-37.897090000000006" lon="145.35867000000002">
    <ele>295.64</ele>
   </trkpt>
   <trkpt lat="-37.89717" lon="145.35867000000002">
    <ele>295.16</ele>
   </trkpt>
   <trkpt lat="-37.89728" lon="145.35854">
    <ele>294.34000000000003</ele>
   </trkpt>
   <trkpt lat="-37.89741" lon="145.35832000000002">
    <ele>293.18000000000006</ele>
   </trkpt>
   <trkpt lat="-37.8975" lon="145.35823000000002">
    <ele>292.08</ele>
   </trkpt>
   <trkpt lat="-37.89768" lon="145.35815000000002">
    <ele>291.25</ele>
   </trkpt>
   <trkpt lat="-37.89781" lon="145.35814000000002">
    <ele>291.97</ele>
   </trkpt>
   <trkpt lat="-37.89817" lon="145.35786000000002">
    <ele>290.19</ele>
   </trkpt>
   <trkpt lat="-37.89824" lon="145.35765">
    <ele>288.76</ele>
   </trkpt>
   <trkpt lat="-37.89831" lon="145.35755">
    <ele>288.36</ele>
   </trkpt>
   <trkpt lat="-37.89837" lon="145.35737">
    <ele>287.75</ele>
   </trkpt>
   <trkpt lat="-37.89851" lon="145.35715000000002">
    <ele>287.14</ele>
   </trkpt>
   <trkpt lat="-37.89878" lon="145.35686">
    <ele>284.73</ele>
   </trkpt>
   <trkpt lat="-37.89905" lon="145.35671000000002">
    <ele>278.08000000000004</ele>
   </trkpt>
   <trkpt lat="-37.89916" lon="145.35669000000001">
    <ele>276.28000000000003</ele>
   </trkpt>
   <trkpt lat="-37.89956" lon="145.35691">
    <ele>271.06</ele>
   </trkpt>
   <trkpt lat="-37.89967" lon="145.35702">
    <ele>270.42</ele>
   </trkpt>
   <trkpt lat="-37.89981" lon="145.35703">
    <ele>268.53000000000003</ele>
   </trkpt>
   <trkpt lat="-37.900000000000006" lon="145.35713">
    <ele>265.5</ele>
   </trkpt>
   <trkpt lat="-37.89996" lon="145.35696000000002">
    <ele>256.61</ele>
   </trkpt>
   <trkpt lat="-37.89985" lon="145.35690000000002">
    <ele>256.58000000000004</ele>
   </trkpt>
   <trkpt lat="-37.89994" lon="145.35687000000001">
    <ele>256.58000000000004</ele>
   </trkpt>
   <trkpt lat="-37.90001" lon="145.35687000000001">
    <ele>266.69000000000005</ele>
   </trkpt>
   <trkpt lat="-37.9001" lon="145.35691">
    <ele>266.69000000000005</ele>
   </trkpt>
   <trkpt lat="-37.900110000000005" lon="145.35685">
    <ele>266.83</ele>
   </trkpt>
   <trkpt lat="-37.89996" lon="145.35677">
    <ele>267.78000000000003</ele>
   </trkpt>
   <trkpt lat="-37.89985" lon="145.35665">
    <ele>268.31000000000006</ele>
   </trkpt>
   <trkpt lat="-37.89974" lon="145.35645000000002">
    <ele>268.83</ele>
   </trkpt>
   <trkpt lat="-37.899730000000005" lon="145.35632">
    <ele>269.15</ele>
   </trkpt>
   <trkpt lat="-37.89967" lon="145.35628">
    <ele>270.56</ele>
   </trkpt>
   <trkpt lat="-37.89958" lon="145.35626000000002">
    <ele>270.56</ele>
   </trkpt>
   <trkpt lat="-37.899530000000006" lon="145.35621">
    <ele>271.5</ele>
   </trkpt>
   <trkpt lat="-37.89932" lon="145.35603">
    <ele>273.76</ele>
   </trkpt>
   <trkpt lat="-37.89923" lon="145.35597">
    <ele>273.96000000000004</ele>
   </trkpt>
   <trkpt lat="-37.89927" lon="145.35586">
    <ele>274.43</ele>
   </trkpt>
   <trkpt lat="-37.899170000000005" lon="145.35578">
    <ele>274.89000000000004</ele>
   </trkpt>
   <trkpt lat="-37.89898" lon="145.3557">
    <ele>276.48</ele>
   </trkpt>
   <trkpt lat="-37.89873" lon="145.35563000000002">
    <ele>279.11</ele>
   </trkpt>
   <trkpt lat="-37.8984" lon="145.35568">
    <ele>281.2</ele>
   </trkpt>
   <trkpt lat="-37.89819" lon="145.35568">
    <ele>284.92</ele>
   </trkpt>
   <trkpt lat="-37.89804" lon="145.35571000000002">
    <ele>285.75</ele>
   </trkpt>
   <trkpt lat="-37.89795" lon="145.35578">
    <ele>285.75</ele>
   </trkpt>
   <trkpt lat="-37.89748" lon="145.35624">
    <ele>292.86</ele>
   </trkpt>
   <trkpt lat="-37.89728" lon="145.35668">
    <ele>295.27000000000004</ele>
   </trkpt>
   <trkpt lat="-37.89676" lon="145.35695">
    <ele>301.22</ele>
   </trkpt>
   <trkpt lat="-37.8967" lon="145.357">
    <ele>302.14</ele>
   </trkpt>
   <trkpt lat="-37.89654" lon="145.35726000000003">
    <ele>302.72</ele>
   </trkpt>
   <trkpt lat="-37.89629" lon="145.35743000000002">
    <ele>305.11</ele>
   </trkpt>
   <trkpt lat="-37.89616" lon="145.35745">
    <ele>306.1</ele>
   </trkpt>
   <trkpt lat="-37.89598" lon="145.35736">
    <ele>306.98</ele>
   </trkpt>
   <trkpt lat="-37.89558" lon="145.35738">
    <ele>309.95</ele>
   </trkpt>
   <trkpt lat="-37.89531" lon="145.35732000000002">
    <ele>313.41</ele>
   </trkpt>
   <trkpt lat="-37.89522" lon="145.35726000000003">
    <ele>314.26000000000005</ele>
   </trkpt>
   <trkpt lat="-37.89504" lon="145.35737">
    <ele>315.76000000000005</ele>
   </trkpt>
   <trkpt lat="-37.89488" lon="145.35737">
    <ele>317.47</ele>
   </trkpt>
   <trkpt lat="-37.89457" lon="145.35724000000002">
    <ele>322.35</ele>
   </trkpt>
   <trkpt lat="-37.89434" lon="145.35721">
    <ele>325.01</ele>
   </trkpt>
   <trkpt lat="-37.89408" lon="145.35721">
    <ele>332.21</ele>
   </trkpt>
   <trkpt lat="-37.89372" lon="145.35718">
    <ele>337.72</ele>
   </trkpt>
   <trkpt lat="-37.89329" lon="145.35727">
    <ele>341.77000000000004</ele>
   </trkpt>
   <trkpt lat="-37.89316" lon="145.35723000000002">
    <ele>342.40000000000003</ele>
   </trkpt>
   <trkpt lat="-37.892990000000005" lon="145.35709">
    <ele>344.15</ele>
   </trkpt>
   <trkpt lat="-37.89287" lon="145.35705000000002">
    <ele>345.31</ele>
   </trkpt>
   <trkpt lat="-37.89273" lon="145.35704">
    <ele>345.31</ele>
   </trkpt>
   <trkpt lat="-37.89258" lon="145.35709">
    <ele>349.31</ele>
   </trkpt>
   <trkpt lat="-37.89246" lon="145.35709">
    <ele>352.26</ele>
   </trkpt>
   <trkpt lat="-37.89195" lon="145.35690000000002">
    <ele>358.34000000000003</ele>
   </trkpt>
   <trkpt lat="-37.89186" lon="145.35682">
    <ele>361.97</ele>
   </trkpt>
   <trkpt lat="-37.891740000000006" lon="145.35659">
    <ele>364.82000000000005</ele>
   </trkpt>
   <trkpt lat="-37.891200000000005" lon="145.35612">
    <ele>374.15000000000003</ele>
   </trkpt>
   <trkpt lat="-37.89049" lon="145.35545000000002">
    <ele>382.73</ele>
   </trkpt>
   <trkpt lat="-37.89034" lon="145.35532">
    <ele>384.40000000000003</ele>
   </trkpt>
   <trkpt lat="-37.89014" lon="145.35523">
    <ele>387.31000000000006</ele>
   </trkpt>
   <trkpt lat="-37.889880000000005" lon="145.35507">
    <ele>390.73</ele>
   </trkpt>
   <trkpt lat="-37.88985" lon="145.35506">
    <ele>390.73</ele>
   </trkpt>
   <trkpt lat="-37.88964" lon="145.35511000000002">
    <ele>396.95</ele>
   </trkpt>
   <trkpt lat="-37.88958" lon="145.35502000000002">
    <ele>398.13000000000005</ele>
   </trkpt>
   <trkpt lat="-37.88922" lon="145.35487">
    <ele>401.56</ele>
   </trkpt>
   <trkpt lat="-37.88915" lon="145.35486">
    <ele>401.93</ele>
   </trkpt>
   <trkpt lat="-37.88893" lon="145.35489">
    <ele>403.75000000000006</ele>
   </trkpt>
   <trkpt lat="-37.888740000000006" lon="145.35494">
    <ele>406.58000000000004</ele>
   </trkpt>
   <trkpt lat="-37.888630000000006" lon="145.35499000000002">
    <ele>409.68000000000006</ele>
   </trkpt>
   <trkpt lat="-37.888600000000004" lon="145.35502000000002">
    <ele>411.01000000000005</ele>
   </trkpt>
   <trkpt lat="-37.88855" lon="145.35496">
    <ele>411.73</ele>
   </trkpt>
   <trkpt lat="-37.88857" lon="145.35492000000002">
    <ele>411.73</ele>
   </trkpt>
   <trkpt lat="-37.88848" lon="145.35468">
    <ele>415.73</ele>
   </trkpt>
   <trkpt lat="-37.88828" lon="145.35435">
    <ele>422.49</ele>
   </trkpt>
   <trkpt lat="-37.8881" lon="145.35416">
    <ele>427.01000000000005</ele>
   </trkpt>
   <trkpt lat="-37.88792" lon="145.35378">
    <ele>431.47</ele>
   </trkpt>
   <trkpt lat="-37.88781" lon="145.35358000000002">
    <ele>436.01</ele>
   </trkpt>
   <trkpt lat="-37.88772" lon="145.35336">
    <ele>439.24</ele>
   </trkpt>
   <trkpt lat="-37.88765" lon="145.35301">
    <ele>442.16</ele>
   </trkpt>
   <trkpt lat="-37.88745" lon="145.35251000000002">
    <ele>451.08000000000004</ele>
   </trkpt>
   <trkpt lat="-37.88740000000001" lon="145.35241000000002">
    <ele>453.01</ele>
   </trkpt>
   <trkpt lat="-37.887240000000006" lon="145.35214000000002">
    <ele>457.29</ele>
   </trkpt>
   <trkpt lat="-37.88729" lon="145.35211">
    <ele>456.63000000000005</ele>
   </trkpt>
   <trkpt lat="-37.88727" lon="145.35205000000002">
    <ele>456.63000000000005</ele>
   </trkpt>
   <trkpt lat="-37.88727" lon="145.35185">
    <ele>455.79</ele>
   </trkpt>
   <trkpt lat="-37.88736" lon="145.35174">
    <ele>455.54</ele>
   </trkpt>
   <trkpt lat="-37.88783" lon="145.35185">
    <ele>449.1</ele>
   </trkpt>
   <trkpt lat="-37.88812" lon="145.35205000000002">
    <ele>445.87000000000006</ele>
   </trkpt>
   <trkpt lat="-37.88841" lon="145.35235">
    <ele>443.87000000000006</ele>
   </trkpt>
   <trkpt lat="-37.88882" lon="145.35269000000002">
    <ele>440.29</ele>
   </trkpt>
   <trkpt lat="-37.88915" lon="145.35287000000002">
    <ele>436.37</ele>
   </trkpt>
   <trkpt lat="-37.88935" lon="145.35294000000002">
    <ele>434.26000000000005</ele>
   </trkpt>
   <trkpt lat="-37.889790000000005" lon="145.35298">
    <ele>430.93</ele>
   </trkpt>
   <trkpt lat="-37.89052" lon="145.3531">
    <ele>423.65000000000003</ele>
   </trkpt>
   <trkpt lat="-37.890730000000005" lon="145.35311000000002">
    <ele>422.52000000000004</ele>
   </trkpt>
   <trkpt lat="-37.8909" lon="145.35308">
    <ele>421.63000000000005</ele>
   </trkpt>
   <trkpt lat="-37.89101" lon="145.35302000000001">
    <ele>420.94000000000005</ele>
   </trkpt>
   <trkpt lat="-37.89128" lon="145.35273">
    <ele>418.7</ele>
   </trkpt>
   <trkpt lat="-37.89139" lon="145.35214000000002">
    <ele>413.52000000000004</ele>
   </trkpt>
   <trkpt lat="-37.89137" lon="145.35187000000002">
    <ele>410.2</ele>
   </trkpt>
   <trkpt lat="-37.89120000210858" lon="145.35115999826206">
    <ele>407.64000000000004</ele>
   </trkpt>
   <trkpt lat="-37.89103" lon="145.35045000000002">
    <ele>401.76</ele>
   </trkpt>
   <trkpt lat="-37.89067" lon="145.34957">
    <ele>395.84000000000003</ele>
   </trkpt>
   <trkpt lat="-37.890620000000006" lon="145.34932">
    <ele>394.13000000000005</ele>
   </trkpt>
   <trkpt lat="-37.89054" lon="145.34882000000002">
    <ele>391.17</ele>
   </trkpt>
   <trkpt lat="-37.89054" lon="145.34848000000002">
    <ele>388.3</ele>
   </trkpt>
   <trkpt lat="-37.89052" lon="145.34830000000002">
    <ele>385.77000000000004</ele>
   </trkpt>
   <trkpt lat="-37.89043" lon="145.34805">
    <ele>383.20000000000005</ele>
   </trkpt>
   <trkpt lat="-37.89052" lon="145.34785000000002">
    <ele>383.20000000000005</ele>
   </trkpt>
   <trkpt lat="-37.890800000000006" lon="145.34763">
    <ele>379.25</ele>
   </trkpt>
   <trkpt lat="-37.89126" lon="145.34735">
    <ele>374.53000000000003</ele>
   </trkpt>
   <trkpt lat="-37.89172500036131" lon="145.34701000224078">
    <ele>368.32000000000005</ele>
   </trkpt>
   <trkpt lat="-37.89219000000001" lon="145.34667000000002">
    <ele>364.16</ele>
   </trkpt>
   <trkpt lat="-37.8922" lon="145.34667000000002">
    <ele>364.05</ele>
   </trkpt>
   <trkpt lat="-37.89235" lon="145.34657">
    <ele>362.13</ele>
   </trkpt>
   <trkpt lat="-37.89208" lon="145.34649000000002">
    <ele>366.28000000000003</ele>
   </trkpt>
   <trkpt lat="-37.891870000000004" lon="145.34645">
    <ele>371.41</ele>
   </trkpt>
   <trkpt lat="-37.89166" lon="145.34634">
    <ele>379.54</ele>
   </trkpt>
   <trkpt lat="-37.8915" lon="145.3462">
    <ele>379.54</ele>
   </trkpt>
   <trkpt lat="-37.89141" lon="145.34617">
    <ele>381.22</ele>
   </trkpt>
   <trkpt lat="-37.89099" lon="145.34611">
    <ele>387.78000000000003</ele>
   </trkpt>
   <trkpt lat="-37.89072" lon="145.34623000000002">
    <ele>396.77</ele>
   </trkpt>
   <trkpt lat="-37.89036" lon="145.34618">
    <ele>407.01000000000005</ele>
   </trkpt>
   <trkpt lat="-37.89016" lon="145.34611">
    <ele>410.64000000000004</ele>
   </trkpt>
   <trkpt lat="-37.89" lon="145.34609">
    <ele>414.51000000000005</ele>
   </trkpt>
   <trkpt lat="-37.88991" lon="145.34611">
    <ele>414.51000000000005</ele>
   </trkpt>
   <trkpt lat="-37.88973" lon="145.3462">
    <ele>426.42</ele>
   </trkpt>
   <trkpt lat="-37.88935" lon="145.34658000000002">
    <ele>437.99</ele>
   </trkpt>
   <trkpt lat="-37.88897" lon="145.34685000000002">
    <ele>450.97</ele>
   </trkpt>
   <trkpt lat="-37.88879" lon="145.34693000000001">
    <ele>456.17</ele>
   </trkpt>
   <trkpt lat="-37.88868" lon="145.34695000000002">
    <ele>459.84000000000003</ele>
   </trkpt>
   <trkpt lat="-37.888690000000004" lon="145.34695000000002">
    <ele>459.74</ele>
   </trkpt>
   <trkpt lat="-37.888180000000006" lon="145.34709">
    <ele>471.28000000000003</ele>
   </trkpt>
   <trkpt lat="-37.88796" lon="145.34717">
    <ele>472.82</ele>
   </trkpt>
   <trkpt lat="-37.88781" lon="145.34726">
    <ele>477.89000000000004</ele>
   </trkpt>
   <trkpt lat="-37.88749" lon="145.34755">
    <ele>484.71000000000004</ele>
   </trkpt>
   <trkpt lat="-37.88705" lon="145.34804000000003">
    <ele>491.27000000000004</ele>
   </trkpt>
   <trkpt lat="-37.8868" lon="145.34823">
    <ele>493.19</ele>
   </trkpt>
   <trkpt lat="-37.88669" lon="145.34829000000002">
    <ele>493.59000000000003</ele>
   </trkpt>
   <trkpt lat="-37.88664" lon="145.34829000000002">
    <ele>493.64</ele>
   </trkpt>
   <trkpt lat="-37.88658" lon="145.34825">
    <ele>493.63</ele>
   </trkpt>
   <trkpt lat="-37.88606" lon="145.3478">
    <ele>490.95000000000005</ele>
   </trkpt>
   <trkpt lat="-37.88564" lon="145.34753">
    <ele>489.66</ele>
   </trkpt>
   <trkpt lat="-37.88517" lon="145.34727">
    <ele>490.3500000000001</ele>
   </trkpt>
   <trkpt lat="-37.88492" lon="145.34708">
    <ele>491.39000000000004</ele>
   </trkpt>
   <trkpt lat="-37.88461" lon="145.34673">
    <ele>493.65000000000003</ele>
   </trkpt>
   <trkpt lat="-37.88454" lon="145.34662">
    <ele>493.90000000000003</ele>
   </trkpt>
   <trkpt lat="-37.88447" lon="145.34646">
    <ele>495.21000000000004</ele>
   </trkpt>
   <trkpt lat="-37.8842" lon="145.34558">
    <ele>503.97</ele>
   </trkpt>
   <trkpt lat="-37.88411" lon="145.34534000000002">
    <ele>506.69000000000005</ele>
   </trkpt>
   <trkpt lat="-37.88396" lon="145.34514000000001">
    <ele>508.41</ele>
   </trkpt>
   <trkpt lat="-37.88389" lon="145.34507000000002">
    <ele>509.07</ele>
   </trkpt>
   <trkpt lat="-37.88349" lon="145.34484">
    <ele>511.37</ele>
   </trkpt>
   <trkpt lat="-37.88317" lon="145.34475">
    <ele>513.73</ele>
   </trkpt>
   <trkpt lat="-37.883" lon="145.34471000000002">
    <ele>514.72</ele>
   </trkpt>
   <trkpt lat="-37.88275" lon="145.34470000000002">
    <ele>516.71</ele>
   </trkpt>
   <trkpt lat="-37.88228" lon="145.34477">
    <ele>520.15</ele>
   </trkpt>
   <trkpt lat="-37.881665000197465" lon="145.3446049986443">
    <ele>524.4100000000001</ele>
   </trkpt>
   <trkpt lat="-37.88105" lon="145.34444000000002">
    <ele>525.7400000000001</ele>
   </trkpt>
   <trkpt lat="-37.88067" lon="145.34424">
    <ele>524.0</ele>
   </trkpt>
   <trkpt lat="-37.880155000455446" lon="145.34397999826763">
    <ele>517.6700000000001</ele>
   </trkpt>
   <trkpt lat="-37.87964" lon="145.34372000000002">
    <ele>508.41</ele>
   </trkpt>
   <trkpt lat="-37.87955" lon="145.34361">
    <ele>505.6400000000001</ele>
   </trkpt>
   <trkpt lat="-37.87937" lon="145.34337000000002">
    <ele>501.92999999999995</ele>
   </trkpt>
   <trkpt lat="-37.87917" lon="145.34300000000002">
    <ele>499.21000000000004</ele>
   </trkpt>
   <trkpt lat="-37.87901" lon="145.34286">
    <ele>498.25</ele>
   </trkpt>
   <trkpt lat="-37.87892" lon="145.34284000000002">
    <ele>495.77000000000004</ele>
   </trkpt>
   <trkpt lat="-37.87877" lon="145.34292000000002">
    <ele>494.48</ele>
   </trkpt>
   <trkpt lat="-37.87892" lon="145.34343">
    <ele>498.84000000000003</ele>
   </trkpt>
   <trkpt lat="-37.87897" lon="145.34363000000002">
    <ele>499.78000000000003</ele>
   </trkpt>
   <trkpt lat="-37.87919" lon="145.34452000000002">
    <ele>501.99</ele>
   </trkpt>
   <trkpt lat="-37.87914" lon="145.34452000000002">
    <ele>500.27</ele>
   </trkpt>
   <trkpt lat="-37.8789" lon="145.34474">
    <ele>494.24000000000007</ele>
   </trkpt>
   <trkpt lat="-37.87888" lon="145.34482">
    <ele>493.26000000000005</ele>
   </trkpt>
   <trkpt lat="-37.878750000000004" lon="145.34495">
    <ele>492.21000000000004</ele>
   </trkpt>
   <trkpt lat="-37.87861" lon="145.34490000000002">
    <ele>493.47</ele>
   </trkpt>
   <trkpt lat="-37.87836" lon="145.34455">
    <ele>493.96000000000004</ele>
   </trkpt>
   <trkpt lat="-37.87827" lon="145.34451">
    <ele>494.28000000000003</ele>
   </trkpt>
   <trkpt lat="-37.87814" lon="145.34448">
    <ele>495.70000000000005</ele>
   </trkpt>
   <trkpt lat="-37.87807" lon="145.34451">
    <ele>496.11</ele>
   </trkpt>
   <trkpt lat="-37.87805" lon="145.34458">
    <ele>497.06000000000006</ele>
   </trkpt>
   <trkpt lat="-37.878040000000006" lon="145.34474">
    <ele>499.13</ele>
   </trkpt>
   <trkpt lat="-37.878" lon="145.34487000000001">
    <ele>500.12</ele>
   </trkpt>
   <trkpt lat="-37.87794" lon="145.34497000000002">
    <ele>500.56</ele>
   </trkpt>
   <trkpt lat="-37.87767" lon="145.34526000000002">
    <ele>502.17</ele>
   </trkpt>
   <trkpt lat="-37.877570000000006" lon="145.34542000000002">
    <ele>502.99000000000007</ele>
   </trkpt>
   <trkpt lat="-37.87726" lon="145.34634">
    <ele>506.45000000000005</ele>
   </trkpt>
   <trkpt lat="-37.87702" lon="145.34689">
    <ele>509.81000000000006</ele>
   </trkpt>
   <trkpt lat="-37.876850000000005" lon="145.34709">
    <ele>512.9200000000001</ele>
   </trkpt>
   <trkpt lat="-37.87686" lon="145.34709">
    <ele>512.93</ele>
   </trkpt>
   <trkpt lat="-37.876760000000004" lon="145.34722000000002">
    <ele>514.41</ele>
   </trkpt>
   <trkpt lat="-37.87648" lon="145.34716">
    <ele>514.09</ele>
   </trkpt>
   <trkpt lat="-37.8763" lon="145.34708">
    <ele>514.4300000000001</ele>
   </trkpt>
   <trkpt lat="-37.87621" lon="145.34698">
    <ele>515.14</ele>
   </trkpt>
   <trkpt lat="-37.87615" lon="145.34678000000002">
    <ele>517.02</ele>
   </trkpt>
   <trkpt lat="-37.87603" lon="145.34592">
    <ele>519.05</ele>
   </trkpt>
   <trkpt lat="-37.87603" lon="145.34573">
    <ele>519.0400000000001</ele>
   </trkpt>
   <trkpt lat="-37.87599" lon="145.3454">
    <ele>518.61</ele>
   </trkpt>
   <trkpt lat="-37.87599" lon="145.34493">
    <ele>517.27</ele>
   </trkpt>
   <trkpt lat="-37.8759" lon="145.34467">
    <ele>515.6</ele>
   </trkpt>
   <trkpt lat="-37.875690000000006" lon="145.34416000000002">
    <ele>513.38</ele>
   </trkpt>
   <trkpt lat="-37.87556" lon="145.34399000000002">
    <ele>512.7</ele>
   </trkpt>
   <trkpt lat="-37.875510000000006" lon="145.34384">
    <ele>512.09</ele>
   </trkpt>
   <trkpt lat="-37.87545" lon="145.3436">
    <ele>510.5200000000001</ele>
   </trkpt>
   <trkpt lat="-37.8755" lon="145.34335000000002">
    <ele>508.65000000000003</ele>
   </trkpt>
   <trkpt lat="-37.875510000000006" lon="145.34301000000002">
    <ele>504.53999999999996</ele>
   </trkpt>
   <trkpt lat="-37.875370000000004" lon="145.34295">
    <ele>502.86000000000007</ele>
   </trkpt>
   <trkpt lat="-37.875350000000005" lon="145.3428">
    <ele>502.44</ele>
   </trkpt>
   <trkpt lat="-37.8751" lon="145.34298">
    <ele>502.07</ele>
   </trkpt>
   <trkpt lat="-37.87505" lon="145.34289">
    <ele>502.27</ele>
   </trkpt>
   <trkpt lat="-37.8744" lon="145.34218">
    <ele>496.36</ele>
   </trkpt>
   <trkpt lat="-37.87406" lon="145.34185000000002">
    <ele>495.56000000000006</ele>
   </trkpt>
   <trkpt lat="-37.87375" lon="145.34154">
    <ele>492.2900000000001</ele>
   </trkpt>
   <trkpt lat="-37.87306" lon="145.34097">
    <ele>486.67</ele>
   </trkpt>
   <trkpt lat="-37.87263" lon="145.34077000000002">
    <ele>484.11</ele>
   </trkpt>
   <trkpt lat="-37.87241" lon="145.34055">
    <ele>481.51000000000005</ele>
   </trkpt>
   <trkpt lat="-37.87214" lon="145.34019">
    <ele>479.11</ele>
   </trkpt>
   <trkpt lat="-37.87185" lon="145.33992">
    <ele>476.71000000000004</ele>
   </trkpt>
   <trkpt lat="-37.87153" lon="145.33975">
    <ele>473.24000000000007</ele>
   </trkpt>
   <trkpt lat="-37.87131" lon="145.33968000000002">
    <ele>472.04</ele>
   </trkpt>
   <trkpt lat="-37.87109" lon="145.33964">
    <ele>469.31000000000006</ele>
   </trkpt>
   <trkpt lat="-37.87082" lon="145.33948">
    <ele>467.87000000000006</ele>
   </trkpt>
   <trkpt lat="-37.87059" lon="145.33917000000002">
    <ele>464.83</ele>
   </trkpt>
   <trkpt lat="-37.87037" lon="145.33894">
    <ele>463.78000000000003</ele>
   </trkpt>
   <trkpt lat="-37.87019" lon="145.33884">
    <ele>462.61</ele>
   </trkpt>
   <trkpt lat="-37.8701" lon="145.33884">
    <ele>462.45000000000005</ele>
   </trkpt>
   <trkpt lat="-37.86954" lon="145.33893">
    <ele>460.65000000000003</ele>
   </trkpt>
   <trkpt lat="-37.86941" lon="145.33893">
    <ele>460.65000000000003</ele>
   </trkpt>
   <trkpt lat="-37.86918" lon="145.33896000000001">
    <ele>458.46000000000004</ele>
   </trkpt>
   <trkpt lat="-37.86891" lon="145.33893">
    <ele>454.63000000000005</ele>
   </trkpt>
   <trkpt lat="-37.868660000000006" lon="145.33885">
    <ele>453.67</ele>
   </trkpt>
   <trkpt lat="-37.86849" lon="145.33881000000002">
    <ele>452.46000000000004</ele>
   </trkpt>
   <trkpt lat="-37.86822" lon="145.33868">
    <ele>450.57</ele>
   </trkpt>
   <trkpt lat="-37.86786" lon="145.33862000000002">
    <ele>447.29</ele>
   </trkpt>
   <trkpt lat="-37.86771" lon="145.33857">
    <ele>444.98</ele>
   </trkpt>
   <trkpt lat="-37.86755" lon="145.33847">
    <ele>444.00000000000006</ele>
   </trkpt>
   <trkpt lat="-37.867250000000006" lon="145.33818000000002">
    <ele>444.12</ele>
   </trkpt>
   <trkpt lat="-37.86679" lon="145.33809000000002">
    <ele>450.35</ele>
   </trkpt>
   <trkpt lat="-37.8667" lon="145.33810000000003">
    <ele>450.35</ele>
   </trkpt>
   <trkpt lat="-37.86663" lon="145.33813">
    <ele>452.13</ele>
   </trkpt>
   <trkpt lat="-37.86652" lon="145.33824">
    <ele>452.13</ele>
   </trkpt>
   <trkpt lat="-37.86647" lon="145.33834000000002">
    <ele>454.72</ele>
   </trkpt>
   <trkpt lat="-37.86639" lon="145.33861000000002">
    <ele>454.72</ele>
   </trkpt>
   <trkpt lat="-37.86612" lon="145.33962000000002">
    <ele>464.32</ele>
   </trkpt>
   <trkpt lat="-37.866" lon="145.33999">
    <ele>467.52000000000004</ele>
   </trkpt>
   <trkpt lat="-37.8659000013994" lon="145.34057000092133">
    <ele>471.82</ele>
   </trkpt>
   <trkpt lat="-37.8658" lon="145.34115">
    <ele>477.51000000000005</ele>
   </trkpt>
   <trkpt lat="-37.86571" lon="145.34146">
    <ele>481.01000000000005</ele>
   </trkpt>
   <trkpt lat="-37.86567" lon="145.3417">
    <ele>481.85</ele>
   </trkpt>
   <trkpt lat="-37.865610000000004" lon="145.34172">
    <ele>482.12000000000006</ele>
   </trkpt>
   <trkpt lat="-37.86565" lon="145.34188">
    <ele>481.62000000000006</ele>
   </trkpt>
   <trkpt lat="-37.86587" lon="145.34215">
    <ele>480.27000000000004</ele>
   </trkpt>
   <trkpt lat="-37.866290000000006" lon="145.34238000000002">
    <ele>479.07000000000005</ele>
   </trkpt>
   <trkpt lat="-37.86663" lon="145.34261">
    <ele>477.78000000000003</ele>
   </trkpt>
   <trkpt lat="-37.86717" lon="145.34283000000002">
    <ele>479.23</ele>
   </trkpt>
   <trkpt lat="-37.86741" lon="145.34287">
    <ele>481.94</ele>
   </trkpt>
   <trkpt lat="-37.86766" lon="145.34284000000002">
    <ele>485.76</ele>
   </trkpt>
   <trkpt lat="-37.86838" lon="145.34305">
    <ele>490.23</ele>
   </trkpt>
   <trkpt lat="-37.86891" lon="145.34316">
    <ele>493.45000000000005</ele>
   </trkpt>
   <trkpt lat="-37.86914" lon="145.34323">
    <ele>494.75</ele>
   </trkpt>
   <trkpt lat="-37.86979" lon="145.34337000000002">
    <ele>497.71000000000004</ele>
   </trkpt>
   <trkpt lat="-37.86985" lon="145.34342">
    <ele>497.87</ele>
   </trkpt>
   <trkpt lat="-37.87001" lon="145.34359">
    <ele>496.91</ele>
   </trkpt>
   <trkpt lat="-37.87026" lon="145.34375">
    <ele>493.71000000000004</ele>
   </trkpt>
   <trkpt lat="-37.87037" lon="145.34387">
    <ele>494.58</ele>
   </trkpt>
   <trkpt lat="-37.87066" lon="145.34400000000002">
    <ele>500.9100000000001</ele>
   </trkpt>
   <trkpt lat="-37.87088" lon="145.34415">
    <ele>505.61</ele>
   </trkpt>
   <trkpt lat="-37.871" lon="145.34419000000003">
    <ele>507.0300000000001</ele>
   </trkpt>
   <trkpt lat="-37.87109" lon="145.34422">
    <ele>508.61</ele>
   </trkpt>
   <trkpt lat="-37.87147" lon="145.34362000000002">
    <ele>511.12</ele>
   </trkpt>
   <trkpt lat="-37.8716" lon="145.34347000000002">
    <ele>511.82000000000005</ele>
   </trkpt>
   <trkpt lat="-37.871610000000004" lon="145.34347000000002">
    <ele>511.8400000000001</ele>
   </trkpt>
   <trkpt lat="-37.87169" lon="145.34336000000002">
    <ele>512.3100000000001</ele>
   </trkpt>
   <trkpt lat="-37.87221333520482" lon="145.34383332658751">
    <ele>516.42</ele>
   </trkpt>
   <trkpt lat="-37.87273666851472" lon="145.3443066598996">
    <ele>517.9100000000001</ele>
   </trkpt>
   <trkpt lat="-37.87326" lon="145.34478000000001">
    <ele>522.64</ele>
   </trkpt>
   <trkpt lat="-37.87367000090755" lon="145.34525499730245">
    <ele>524.8900000000001</ele>
   </trkpt>
   <trkpt lat="-37.874080000000006" lon="145.34573">
    <ele>526.25</ele>
   </trkpt>
   <trkpt lat="-37.87431" lon="145.34639">
    <ele>535.07</ele>
   </trkpt>
   <trkpt lat="-37.87433" lon="145.34638">
    <ele>527.47</ele>
   </trkpt>
   <trkpt lat="-37.87453" lon="145.34695000000002">
    <ele>525.0</ele>
   </trkpt>
   <trkpt lat="-37.87453" lon="145.34727">
    <ele>524.66</ele>
   </trkpt>
   <trkpt lat="-37.8742" lon="145.34820000000002">
    <ele>526.12</ele>
   </trkpt>
   <trkpt lat="-37.87397" lon="145.34874000000002">
    <ele>525.03</ele>
   </trkpt>
   <trkpt lat="-37.87397" lon="145.34883000000002">
    <ele>523.9</ele>
   </trkpt>
   <trkpt lat="-37.87413" lon="145.34910000000002">
    <ele>523.23</ele>
   </trkpt>
   <trkpt lat="-37.87433" lon="145.34928000000002">
    <ele>522.82</ele>
   </trkpt>
   <trkpt lat="-37.87438" lon="145.3494">
    <ele>522.7700000000001</ele>
   </trkpt>
   <trkpt lat="-37.874680000000005" lon="145.34962000000002">
    <ele>523.07</ele>
   </trkpt>
   <trkpt lat="-37.87482" lon="145.34974000000003">
    <ele>522.86</ele>
   </trkpt>
   <trkpt lat="-37.87518" lon="145.35024">
    <ele>519.51</ele>
   </trkpt>
   <trkpt lat="-37.87554" lon="145.35052000000002">
    <ele>517.15</ele>
   </trkpt>
   <trkpt lat="-37.87561" lon="145.35064">
    <ele>515.54</ele>
   </trkpt>
   <trkpt lat="-37.87576" lon="145.35080000000002">
    <ele>513.85</ele>
   </trkpt>
   <trkpt lat="-37.87581" lon="145.35093">
    <ele>511.37</ele>
   </trkpt>
   <trkpt lat="-37.87594" lon="145.35117000000002">
    <ele>508.6400000000001</ele>
   </trkpt>
   <trkpt lat="-37.875980000000006" lon="145.35139">
    <ele>504.9100000000001</ele>
   </trkpt>
   <trkpt lat="-37.87617" lon="145.35168000000002">
    <ele>500.30000000000007</ele>
   </trkpt>
   <trkpt lat="-37.87621" lon="145.35187000000002">
    <ele>498.25</ele>
   </trkpt>
   <trkpt lat="-37.87621" lon="145.35214000000002">
    <ele>495.28000000000003</ele>
   </trkpt>
   <trkpt lat="-37.87635" lon="145.35272">
    <ele>487.47</ele>
   </trkpt>
   <trkpt lat="-37.87635" lon="145.35294000000002">
    <ele>485.75</ele>
   </trkpt>
   <trkpt lat="-37.87619" lon="145.35323000000002">
    <ele>482.35</ele>
   </trkpt>
   <trkpt lat="-37.87599" lon="145.35412000000002">
    <ele>477.01000000000005</ele>
   </trkpt>
   <trkpt lat="-37.876090000000005" lon="145.35466000000002">
    <ele>471.27000000000004</ele>
   </trkpt>
   <trkpt lat="-37.8761" lon="145.35474000000002">
    <ele>471.28000000000003</ele>
   </trkpt>
   <trkpt lat="-37.876180000000005" lon="145.35491000000002">
    <ele>469.49</ele>
   </trkpt>
   <trkpt lat="-37.87608" lon="145.35506">
    <ele>469.4800000000001</ele>
   </trkpt>
   <trkpt lat="-37.876070000000006" lon="145.35523">
    <ele>469.41</ele>
   </trkpt>
   <trkpt lat="-37.87617" lon="145.35548">
    <ele>463.77</ele>
   </trkpt>
   <trkpt lat="-37.87639" lon="145.35572000000002">
    <ele>463.25000000000006</ele>
   </trkpt>
   <trkpt lat="-37.87664" lon="145.35614">
    <ele>462.19000000000005</ele>
   </trkpt>
   <trkpt lat="-37.876870000000004" lon="145.35659">
    <ele>463.51000000000005</ele>
   </trkpt>
   <trkpt lat="-37.876900000000006" lon="145.35659">
    <ele>460.02000000000004</ele>
   </trkpt>
   <trkpt lat="-37.87708000000001" lon="145.35653000000002">
    <ele>475.49</ele>
   </trkpt>
   <trkpt lat="-37.8772900013161" lon="145.35708999837638">
    <ele>476.46000000000004</ele>
   </trkpt>
   <trkpt lat="-37.877500000000005" lon="145.35765">
    <ele>479.72</ele>
   </trkpt>
   <trkpt lat="-37.877700000000004" lon="145.35781">
    <ele>480.69000000000005</ele>
   </trkpt>
   <trkpt lat="-37.877700000000004" lon="145.35782">
    <ele>480.69000000000005</ele>
   </trkpt>
   <trkpt lat="-37.8778" lon="145.35791">
    <ele>481.17</ele>
   </trkpt>
   <trkpt lat="-37.87798" lon="145.35797000000002">
    <ele>481.61</ele>
   </trkpt>
   <trkpt lat="-37.87818" lon="145.35801">
    <ele>482.40000000000003</ele>
   </trkpt>
   <trkpt lat="-37.878600000000006" lon="145.35829">
    <ele>483.95000000000005</ele>
   </trkpt>
   <trkpt lat="-37.87876" lon="145.35838">
    <ele>483.90000000000003</ele>
   </trkpt>
   <trkpt lat="-37.87919" lon="145.35846">
    <ele>482.49</ele>
   </trkpt>
   <trkpt lat="-37.87975" lon="145.35876000000002">
    <ele>479.48</ele>
   </trkpt>
   <trkpt lat="-37.87991" lon="145.35891">
    <ele>479.75000000000006</ele>
   </trkpt>
   <trkpt lat="-37.88006" lon="145.35903000000002">
    <ele>480.42</ele>
   </trkpt>
   <trkpt lat="-37.8802" lon="145.35908">
    <ele>480.54</ele>
   </trkpt>
   <trkpt lat="-37.88033" lon="145.3591">
    <ele>480.51000000000005</ele>
   </trkpt>
   <trkpt lat="-37.88051" lon="145.35909">
    <ele>480.01000000000005</ele>
   </trkpt>
   <trkpt lat="-37.8808" lon="145.35903000000002">
    <ele>485.24000000000007</ele>
   </trkpt>
   <trkpt lat="-37.88094" lon="145.35907">
    <ele>485.59000000000003</ele>
   </trkpt>
   <trkpt lat="-37.88103" lon="145.35904000000002">
    <ele>485.69000000000005</ele>
   </trkpt>
   <trkpt lat="-37.881190000000004" lon="145.35876000000002">
    <ele>485.55</ele>
   </trkpt>
   <trkpt lat="-37.8812" lon="145.35897">
    <ele>486.50000000000006</ele>
   </trkpt>
   <trkpt lat="-37.8811" lon="145.35928">
    <ele>480.15000000000003</ele>
   </trkpt>
   <trkpt lat="-37.88116" lon="145.35941000000003">
    <ele>482.32</ele>
   </trkpt>
   <trkpt lat="-37.88112" lon="145.35963">
    <ele>483.15000000000003</ele>
   </trkpt>
   <trkpt lat="-37.88163" lon="145.35975000000002">
    <ele>483.18000000000006</ele>
   </trkpt>
   <trkpt lat="-37.88208" lon="145.35974000000002">
    <ele>483.42</ele>
   </trkpt>
   <trkpt lat="-37.88219" lon="145.35976000000002">
    <ele>483.71000000000004</ele>
   </trkpt>
   <trkpt lat="-37.882490000000004" lon="145.35981">
    <ele>484.09000000000003</ele>
   </trkpt>
   <trkpt lat="-37.88297" lon="145.35958000000002">
    <ele>488.16</ele>
   </trkpt>
   <trkpt lat="-37.88347" lon="145.35923000000003">
    <ele>494.37</ele>
   </trkpt>
   <trkpt lat="-37.88371" lon="145.35887000000002">
    <ele>497.41</ele>
   </trkpt>
   <trkpt lat="-37.88391" lon="145.35863">
    <ele>501.0300000000001</ele>
   </trkpt>
   <trkpt lat="-37.88407" lon="145.35852">
    <ele>502.33000000000004</ele>
   </trkpt>
   <trkpt lat="-37.88441" lon="145.35840000000002">
    <ele>503.82000000000005</ele>
   </trkpt>
   <trkpt lat="-37.88456" lon="145.35838">
    <ele>504.44</ele>
   </trkpt>
   <trkpt lat="-37.88476" lon="145.35842000000002">
    <ele>504.44</ele>
   </trkpt>
   <trkpt lat="-37.88532" lon="145.35860000000002">
    <ele>507.39</ele>
   </trkpt>
   <trkpt lat="-37.885450000000006" lon="145.35868000000002">
    <ele>507.99000000000007</ele>
   </trkpt>
   <trkpt lat="-37.8858" lon="145.35913000000002">
    <ele>511.87000000000006</ele>
   </trkpt>
   <trkpt lat="-37.88591" lon="145.35922000000002">
    <ele>512.08</ele>
   </trkpt>
   <trkpt lat="-37.88595" lon="145.35933">
    <ele>512.1800000000001</ele>
   </trkpt>
   <trkpt lat="-37.88598" lon="145.35957000000002">
    <ele>512.12</ele>
   </trkpt>
   <trkpt lat="-37.88573" lon="145.36033">
    <ele>509.8400000000001</ele>
   </trkpt>
   <trkpt lat="-37.88568" lon="145.36059">
    <ele>508.72</ele>
   </trkpt>
   <trkpt lat="-37.88555" lon="145.36100000000002">
    <ele>506.05</ele>
   </trkpt>
   <trkpt lat="-37.88537" lon="145.36136000000002">
    <ele>501.11000000000007</ele>
   </trkpt>
   <trkpt lat="-37.88514" lon="145.36202">
    <ele>498.59000000000003</ele>
   </trkpt>
   <trkpt lat="-37.88503" lon="145.36224">
    <ele>496.57000000000005</ele>
   </trkpt>
   <trkpt lat="-37.88496000000001" lon="145.36231">
    <ele>496.57000000000005</ele>
   </trkpt>
   <trkpt lat="-37.8851" lon="145.36238">
    <ele>496.00000000000006</ele>
   </trkpt>
   <trkpt lat="-37.88514" lon="145.36243000000002">
    <ele>495.76000000000005</ele>
   </trkpt>
   <trkpt lat="-37.88514" lon="145.36251000000001">
    <ele>495.49</ele>
   </trkpt>
   <trkpt lat="-37.8849" lon="145.36279000000002">
    <ele>491.17</ele>
   </trkpt>
   <trkpt lat="-37.88479" lon="145.36302">
    <ele>487.93</ele>
   </trkpt>
   <trkpt lat="-37.88474" lon="145.36315000000002">
    <ele>483.30000000000007</ele>
   </trkpt>
   <trkpt lat="-37.88472" lon="145.36334000000002">
    <ele>481.66</ele>
   </trkpt>
   <trkpt lat="-37.8847" lon="145.36339">
    <ele>480.95000000000005</ele>
   </trkpt>
   <trkpt lat="-37.88456" lon="145.3634">
    <ele>478.66</ele>
   </trkpt>
   <trkpt lat="-37.88449" lon="145.36339">
    <ele>478.02000000000004</ele>
   </trkpt>
   <trkpt lat="-37.88443" lon="145.36341000000002">
    <ele>476.35</ele>
   </trkpt>
   <trkpt lat="-37.884420000000006" lon="145.36347">
    <ele>475.34000000000003</ele>
   </trkpt>
   <trkpt lat="-37.88445" lon="145.36369000000002">
    <ele>471.08000000000004</ele>
   </trkpt>
   <trkpt lat="-37.88463" lon="145.36419">
    <ele>462.57000000000005</ele>
   </trkpt>
   <trkpt lat="-37.88476" lon="145.36443">
    <ele>459.0400000000001</ele>
   </trkpt>
   <trkpt lat="-37.88479" lon="145.36451000000002">
    <ele>457.23</ele>
   </trkpt>
   <trkpt lat="-37.88476" lon="145.36459000000002">
    <ele>455.31000000000006</ele>
   </trkpt>
   <trkpt lat="-37.88477" lon="145.36461">
    <ele>455.31000000000006</ele>
   </trkpt>
   <trkpt lat="-37.88483" lon="145.36484000000002">
    <ele>451.44000000000005</ele>
   </trkpt>
   <trkpt lat="-37.88494" lon="145.36503000000002">
    <ele>449.85</ele>
   </trkpt>
   <trkpt lat="-37.88499" lon="145.36505000000002">
    <ele>449.74</ele>
   </trkpt>
   <trkpt lat="-37.88517" lon="145.36524">
    <ele>448.36</ele>
   </trkpt>
   <trkpt lat="-37.88519" lon="145.36531000000002">
    <ele>446.77000000000004</ele>
   </trkpt>
   <trkpt lat="-37.885360000000006" lon="145.36547000000002">
    <ele>442.85</ele>
   </trkpt>
   <trkpt lat="-37.88539" lon="145.36557000000002">
    <ele>440.92</ele>
   </trkpt>
   <trkpt lat="-37.88546" lon="145.36561">
    <ele>440.01</ele>
   </trkpt>
   <trkpt lat="-37.88548" lon="145.36577">
    <ele>436.49</ele>
   </trkpt>
   <trkpt lat="-37.88546" lon="145.36592000000002">
    <ele>433.27000000000004</ele>
   </trkpt>
   <trkpt lat="-37.885270000000006" lon="145.36607">
    <ele>427.7900000000001</ele>
   </trkpt>
   <trkpt lat="-37.884980000000006" lon="145.36612000000002">
    <ele>424.08</ele>
   </trkpt>
   <trkpt lat="-37.88474" lon="145.36611000000002">
    <ele>420.96000000000004</ele>
   </trkpt>
   <trkpt lat="-37.88463" lon="145.36617">
    <ele>418.30000000000007</ele>
   </trkpt>
   <trkpt lat="-37.88458" lon="145.36623">
    <ele>416.18000000000006</ele>
   </trkpt>
   <trkpt lat="-37.88461" lon="145.36635">
    <ele>416.18000000000006</ele>
   </trkpt>
   <trkpt lat="-37.88465" lon="145.36642">
    <ele>416.18000000000006</ele>
   </trkpt>
   <trkpt lat="-37.88465" lon="145.36651">
    <ele>406.03000000000003</ele>
   </trkpt>
   <trkpt lat="-37.8847" lon="145.36657000000002">
    <ele>406.03000000000003</ele>
   </trkpt>
   <trkpt lat="-37.8847" lon="145.36672000000002">
    <ele>406.03000000000003</ele>
   </trkpt>
   <trkpt lat="-37.88481" lon="145.36711000000003">
    <ele>396.77</ele>
   </trkpt>
   <trkpt lat="-37.88499" lon="145.36737000000002">
    <ele>391.76000000000005</ele>
   </trkpt>
   <trkpt lat="-37.88517" lon="145.36757">
    <ele>387.28000000000003</ele>
   </trkpt>
   <trkpt lat="-37.8855" lon="145.36785">
    <ele>379.39</ele>
   </trkpt>
   <trkpt lat="-37.88564" lon="145.36801">
    <ele>373.50000000000006</ele>
   </trkpt>
   <trkpt lat="-37.88602" lon="145.36834000000002">
    <ele>363.32000000000005</ele>
   </trkpt>
   <trkpt lat="-37.886100000000006" lon="145.36837">
    <ele>361.26</ele>
   </trkpt>
   <trkpt lat="-37.88611" lon="145.36851000000001">
    <ele>361.16</ele>
   </trkpt>
   <trkpt lat="-37.88642" lon="145.36872000000002">
    <ele>364.89000000000004</ele>
   </trkpt>
   <trkpt lat="-37.88667" lon="145.36906000000002">
    <ele>366.93</ele>
   </trkpt>
   <trkpt lat="-37.887220000000006" lon="145.36964">
    <ele>357.37</ele>
   </trkpt>
  </trkseg>
 </trk>
</gpx>
