<?xml version="1.0" encoding="UTF-8"?>
<gpx creator="StravaGPX" version="1.1" xmlns="http://www.topografix.com/GPX/1/1" xmlns:xsi="http://www.w3.org/2001/XMLSchema-instance" xsi:schemaLocation="http://www.topografix.com/GPX/1/1 http://www.topografix.com/GPX/1/1/gpx.xsd">
 <metadata>
  <name>DTR 20k Sunday 25-1-26</name>
  <author>
   <name>Adriaan Homburg</name>
   <link href="https://www.strava.com/athletes/16685153"/>
  </author>
  <copyright author="OpenStreetMap contributors">
   <year>2020</year>
   <license>https://www.openstreetmap.org/copyright</license>
  </copyright>
  <link href="https://www.strava.com/routes/3449331540921108384"/>
 </metadata>
 <trk>
  <name>DTR 20k Sunday 25-1-26</name>
  <link href="https://www.strava.com/routes/3449331540921108384"/>
  <type>trail_running</type>
  <trkseg>
   <trkpt lat="-37.89094" lon="145.31733">
    <ele>179.04</ele>
   </trkpt>
   <trkpt lat="-37.89076" lon="145.31708">
    <ele>180.45000000000002</ele>
   </trkpt>
   <trkpt lat="-37.890730000000005" lon="145.31686000000002">
    <ele>181.87</ele>
   </trkpt>
   <trkpt lat="-37.8909" lon="145.31665">
    <ele>181.46</ele>
   </trkpt>
   <trkpt lat="-37.89099" lon="145.31640000000002">
    <ele>181.66000000000003</ele>
   </trkpt>
   <trkpt lat="-37.89099" lon="145.31613000000002">
    <ele>181.72000000000003</ele>
   </trkpt>
   <trkpt lat="-37.89108" lon="145.31604000000002">
    <ele>181.72000000000003</ele>
   </trkpt>
   <trkpt lat="-37.89148" lon="145.31548">
    <ele>175.38</ele>
   </trkpt>
   <trkpt lat="-37.89159" lon="145.3153">
    <ele>173.90000000000003</ele>
   </trkpt>
   <trkpt lat="-37.89166" lon="145.31470000000002">
    <ele>178.03000000000003</ele>
   </trkpt>
   <trkpt lat="-37.8917" lon="145.3142">
    <ele>181.47000000000003</ele>
   </trkpt>
   <trkpt lat="-37.89168" lon="145.31405">
    <ele>182.23</ele>
   </trkpt>
   <trkpt lat="-37.89159" lon="145.31376">
    <ele>184.06</ele>
   </trkpt>
   <trkpt lat="-37.8915" lon="145.31358">
    <ele>186.16000000000003</ele>
   </trkpt>
   <trkpt lat="-37.89132" lon="145.3134">
    <ele>187.29000000000002</ele>
   </trkpt>
   <trkpt lat="-37.89092" lon="145.31309000000002">
    <ele>192.70000000000002</ele>
   </trkpt>
   <trkpt lat="-37.89074" lon="145.31299">
    <ele>193.68</ele>
   </trkpt>
   <trkpt lat="-37.890710000000006" lon="145.31292000000002">
    <ele>194.01000000000002</ele>
   </trkpt>
   <trkpt lat="-37.890710000000006" lon="145.31282000000002">
    <ele>194.08</ele>
   </trkpt>
   <trkpt lat="-37.89072" lon="145.31278">
    <ele>194.08</ele>
   </trkpt>
   <trkpt lat="-37.89101" lon="145.31248000000002">
    <ele>194.86</ele>
   </trkpt>
   <trkpt lat="-37.89105" lon="145.31242">
    <ele>195.36</ele>
   </trkpt>
   <trkpt lat="-37.891180000000006" lon="145.31198">
    <ele>198.39000000000001</ele>
   </trkpt>
   <trkpt lat="-37.89121" lon="145.31161">
    <ele>200.73000000000002</ele>
   </trkpt>
   <trkpt lat="-37.89119" lon="145.31122000000002">
    <ele>203.69</ele>
   </trkpt>
   <trkpt lat="-37.89092" lon="145.31052000000003">
    <ele>214.71</ele>
   </trkpt>
   <trkpt lat="-37.890370000000004" lon="145.30997000000002">
    <ele>227.26000000000002</ele>
   </trkpt>
   <trkpt lat="-37.89038" lon="145.30997000000002">
    <ele>227.26000000000002</ele>
   </trkpt>
   <trkpt lat="-37.890330000000006" lon="145.30995000000001">
    <ele>228.19000000000003</ele>
   </trkpt>
   <trkpt lat="-37.89027" lon="145.30997000000002">
    <ele>229.72</ele>
   </trkpt>
   <trkpt lat="-37.89025" lon="145.31002">
    <ele>229.72</ele>
   </trkpt>
   <trkpt lat="-37.89027" lon="145.31046">
    <ele>234.40000000000003</ele>
   </trkpt>
   <trkpt lat="-37.89025" lon="145.31066">
    <ele>238.02</ele>
   </trkpt>
   <trkpt lat="-37.89016" lon="145.31092">
    <ele>239.18000000000004</ele>
   </trkpt>
   <trkpt lat="-37.89002" lon="145.31111">
    <ele>243.08</ele>
   </trkpt>
   <trkpt lat="-37.88993" lon="145.31119">
    <ele>244.27</ele>
   </trkpt>
   <trkpt lat="-37.889680000000006" lon="145.31134">
    <ele>247.69000000000003</ele>
   </trkpt>
   <trkpt lat="-37.8896" lon="145.31134">
    <ele>251.58</ele>
   </trkpt>
   <trkpt lat="-37.88958" lon="145.31130000000002">
    <ele>251.58</ele>
   </trkpt>
   <trkpt lat="-37.88955" lon="145.31122000000002">
    <ele>251.58</ele>
   </trkpt>
   <trkpt lat="-37.88958" lon="145.31101">
    <ele>251.58</ele>
   </trkpt>
   <trkpt lat="-37.88958" lon="145.3109">
    <ele>251.58</ele>
   </trkpt>
   <trkpt lat="-37.88951" lon="145.31074">
    <ele>260.67</ele>
   </trkpt>
   <trkpt lat="-37.88931" lon="145.31038">
    <ele>264.8</ele>
   </trkpt>
   <trkpt lat="-37.889210000000006" lon="145.31025000000002">
    <ele>266.25000000000006</ele>
   </trkpt>
   <trkpt lat="-37.88908" lon="145.31016000000002">
    <ele>267.8</ele>
   </trkpt>
   <trkpt lat="-37.88902" lon="145.31014000000002">
    <ele>271.84000000000003</ele>
   </trkpt>
   <trkpt lat="-37.88893" lon="145.31018">
    <ele>271.84000000000003</ele>
   </trkpt>
   <trkpt lat="-37.88868" lon="145.31060000000002">
    <ele>279.23</ele>
   </trkpt>
   <trkpt lat="-37.88859" lon="145.31071">
    <ele>280.78000000000003</ele>
   </trkpt>
   <trkpt lat="-37.888450000000006" lon="145.31074">
    <ele>283.57000000000005</ele>
   </trkpt>
   <trkpt lat="-37.88794" lon="145.31068000000002">
    <ele>296.06000000000006</ele>
   </trkpt>
   <trkpt lat="-37.88779" lon="145.31063">
    <ele>299.4</ele>
   </trkpt>
   <trkpt lat="-37.887330000000006" lon="145.31040000000002">
    <ele>310.99000000000007</ele>
   </trkpt>
   <trkpt lat="-37.88705" lon="145.31019">
    <ele>314.37</ele>
   </trkpt>
   <trkpt lat="-37.88696" lon="145.31015000000002">
    <ele>315.65000000000003</ele>
   </trkpt>
   <trkpt lat="-37.88687" lon="145.31014000000002">
    <ele>316.42</ele>
   </trkpt>
   <trkpt lat="-37.88673" lon="145.31015000000002">
    <ele>317.55</ele>
   </trkpt>
   <trkpt lat="-37.8866" lon="145.3102">
    <ele>318.98</ele>
   </trkpt>
   <trkpt lat="-37.88629" lon="145.31038">
    <ele>324.87000000000006</ele>
   </trkpt>
   <trkpt lat="-37.8862" lon="145.31044">
    <ele>324.87000000000006</ele>
   </trkpt>
   <trkpt lat="-37.88611" lon="145.31055">
    <ele>329.23</ele>
   </trkpt>
   <trkpt lat="-37.88579500178934" lon="145.31120500285434">
    <ele>338.8</ele>
   </trkpt>
   <trkpt lat="-37.88548" lon="145.31186000000002">
    <ele>349.79</ele>
   </trkpt>
   <trkpt lat="-37.88541" lon="145.31207">
    <ele>354.75</ele>
   </trkpt>
   <trkpt lat="-37.8853" lon="145.31255000000002">
    <ele>364.42</ele>
   </trkpt>
   <trkpt lat="-37.885270000000006" lon="145.31266000000002">
    <ele>364.42</ele>
   </trkpt>
   <trkpt lat="-37.88519" lon="145.31273000000002">
    <ele>366.17</ele>
   </trkpt>
   <trkpt lat="-37.88501" lon="145.31279">
    <ele>371.02</ele>
   </trkpt>
   <trkpt lat="-37.88488" lon="145.3128">
    <ele>372.96</ele>
   </trkpt>
   <trkpt lat="-37.884640000000005" lon="145.31277">
    <ele>378.46000000000004</ele>
   </trkpt>
   <trkpt lat="-37.88429" lon="145.31272">
    <ele>386.71000000000004</ele>
   </trkpt>
   <trkpt lat="-37.88414" lon="145.31267000000003">
    <ele>388.94</ele>
   </trkpt>
   <trkpt lat="-37.88369" lon="145.31236">
    <ele>396.27</ele>
   </trkpt>
   <trkpt lat="-37.8834" lon="145.31222000000002">
    <ele>399.93</ele>
   </trkpt>
   <trkpt lat="-37.88308" lon="145.31215">
    <ele>405.81000000000006</ele>
   </trkpt>
   <trkpt lat="-37.882740000000005" lon="145.31214">
    <ele>408.81</ele>
   </trkpt>
   <trkpt lat="-37.88297" lon="145.31193000000002">
    <ele>404.31000000000006</ele>
   </trkpt>
   <trkpt lat="-37.88302" lon="145.31185000000002">
    <ele>403.63000000000005</ele>
   </trkpt>
   <trkpt lat="-37.88302" lon="145.31131000000002">
    <ele>398.91</ele>
   </trkpt>
   <trkpt lat="-37.88286" lon="145.31025000000002">
    <ele>388.11</ele>
   </trkpt>
   <trkpt lat="-37.88286" lon="145.31015000000002">
    <ele>388.11</ele>
   </trkpt>
   <trkpt lat="-37.88311" lon="145.30974">
    <ele>382.15000000000003</ele>
   </trkpt>
   <trkpt lat="-37.88311" lon="145.30958">
    <ele>380.20000000000005</ele>
   </trkpt>
   <trkpt lat="-37.88308" lon="145.30941">
    <ele>378.77000000000004</ele>
   </trkpt>
   <trkpt lat="-37.88302" lon="145.30928">
    <ele>375.28000000000003</ele>
   </trkpt>
   <trkpt lat="-37.88255" lon="145.30877">
    <ele>366.15000000000003</ele>
   </trkpt>
   <trkpt lat="-37.88244" lon="145.30873000000003">
    <ele>363.47</ele>
   </trkpt>
   <trkpt lat="-37.8823" lon="145.30873000000003">
    <ele>361.23</ele>
   </trkpt>
   <trkpt lat="-37.88221" lon="145.30869">
    <ele>361.23</ele>
   </trkpt>
   <trkpt lat="-37.88219" lon="145.30866">
    <ele>357.74</ele>
   </trkpt>
   <trkpt lat="-37.88223" lon="145.30856">
    <ele>357.74</ele>
   </trkpt>
   <trkpt lat="-37.88255" lon="145.30833">
    <ele>352.18000000000006</ele>
   </trkpt>
   <trkpt lat="-37.88275" lon="145.30824">
    <ele>347.36</ele>
   </trkpt>
   <trkpt lat="-37.88279" lon="145.3082">
    <ele>346.53</ele>
   </trkpt>
   <trkpt lat="-37.88277" lon="145.30814">
    <ele>345.64</ele>
   </trkpt>
   <trkpt lat="-37.88255" lon="145.30797">
    <ele>340.49</ele>
   </trkpt>
   <trkpt lat="-37.88214" lon="145.30780000000001">
    <ele>333.87</ele>
   </trkpt>
   <trkpt lat="-37.88185" lon="145.30775">
    <ele>329.84000000000003</ele>
   </trkpt>
   <trkpt lat="-37.88174" lon="145.3077">
    <ele>328.68</ele>
   </trkpt>
   <trkpt lat="-37.88167" lon="145.30778">
    <ele>327.93</ele>
   </trkpt>
   <trkpt lat="-37.88167" lon="145.30768">
    <ele>322.91</ele>
   </trkpt>
   <trkpt lat="-37.881640000000004" lon="145.30761">
    <ele>322.91</ele>
   </trkpt>
   <trkpt lat="-37.88109" lon="145.30728000000002">
    <ele>312.25</ele>
   </trkpt>
   <trkpt lat="-37.88089" lon="145.30704">
    <ele>307.28</ele>
   </trkpt>
   <trkpt lat="-37.880860000000006" lon="145.30694000000003">
    <ele>307.28</ele>
   </trkpt>
   <trkpt lat="-37.88083" lon="145.30677">
    <ele>304.53000000000003</ele>
   </trkpt>
   <trkpt lat="-37.88067" lon="145.30657000000002">
    <ele>298.28000000000003</ele>
   </trkpt>
   <trkpt lat="-37.880570000000006" lon="145.30649000000003">
    <ele>298.28000000000003</ele>
   </trkpt>
   <trkpt lat="-37.88049" lon="145.30645">
    <ele>293.08</ele>
   </trkpt>
   <trkpt lat="-37.88042" lon="145.30637000000002">
    <ele>290.62000000000006</ele>
   </trkpt>
   <trkpt lat="-37.88026" lon="145.30599">
    <ele>284.2</ele>
   </trkpt>
   <trkpt lat="-37.88011" lon="145.3058">
    <ele>277.41</ele>
   </trkpt>
   <trkpt lat="-37.88009" lon="145.30581">
    <ele>277.41</ele>
   </trkpt>
   <trkpt lat="-37.88002" lon="145.30575000000002">
    <ele>275.53</ele>
   </trkpt>
   <trkpt lat="-37.87997" lon="145.30569">
    <ele>274.71</ele>
   </trkpt>
   <trkpt lat="-37.87997" lon="145.30558000000002">
    <ele>272.41</ele>
   </trkpt>
   <trkpt lat="-37.87991" lon="145.30552">
    <ele>270.93</ele>
   </trkpt>
   <trkpt lat="-37.87979" lon="145.30550000000002">
    <ele>268.05</ele>
   </trkpt>
   <trkpt lat="-37.87968" lon="145.30556">
    <ele>265.05</ele>
   </trkpt>
   <trkpt lat="-37.87955" lon="145.30555">
    <ele>265.05</ele>
   </trkpt>
   <trkpt lat="-37.87937" lon="145.30573">
    <ele>257.59999999999997</ele>
   </trkpt>
   <trkpt lat="-37.87933" lon="145.30599">
    <ele>253.98000000000005</ele>
   </trkpt>
   <trkpt lat="-37.87964" lon="145.30682000000002">
    <ele>256.0</ele>
   </trkpt>
   <trkpt lat="-37.87982" lon="145.30745000000002">
    <ele>254.8</ele>
   </trkpt>
   <trkpt lat="-37.87982" lon="145.30782000000002">
    <ele>252.67</ele>
   </trkpt>
   <trkpt lat="-37.87975" lon="145.30798000000001">
    <ele>253.38</ele>
   </trkpt>
   <trkpt lat="-37.87968" lon="145.30800000000002">
    <ele>253.38</ele>
   </trkpt>
   <trkpt lat="-37.87955" lon="145.30796">
    <ele>255.09000000000003</ele>
   </trkpt>
   <trkpt lat="-37.8791" lon="145.3076">
    <ele>250.44</ele>
   </trkpt>
   <trkpt lat="-37.87897" lon="145.30756000000002">
    <ele>247.61</ele>
   </trkpt>
   <trkpt lat="-37.8785" lon="145.30751">
    <ele>241.90000000000003</ele>
   </trkpt>
   <trkpt lat="-37.87805" lon="145.30732">
    <ele>237.77</ele>
   </trkpt>
   <trkpt lat="-37.8778" lon="145.30725">
    <ele>236.97</ele>
   </trkpt>
   <trkpt lat="-37.87751" lon="145.30726">
    <ele>238.0</ele>
   </trkpt>
   <trkpt lat="-37.87685500049677" lon="145.30753500237103">
    <ele>240.96</ele>
   </trkpt>
   <trkpt lat="-37.876200000000004" lon="145.30781000000002">
    <ele>241.83</ele>
   </trkpt>
   <trkpt lat="-37.87597" lon="145.30773000000002">
    <ele>237.83</ele>
   </trkpt>
   <trkpt lat="-37.87561" lon="145.30773000000002">
    <ele>235.13</ele>
   </trkpt>
   <trkpt lat="-37.87525" lon="145.30781000000002">
    <ele>229.93</ele>
   </trkpt>
   <trkpt lat="-37.87498" lon="145.30769">
    <ele>227.78</ele>
   </trkpt>
   <trkpt lat="-37.87483" lon="145.30766">
    <ele>227.94000000000003</ele>
   </trkpt>
   <trkpt lat="-37.87478" lon="145.3082">
    <ele>235.56</ele>
   </trkpt>
   <trkpt lat="-37.87473" lon="145.30829">
    <ele>237.94</ele>
   </trkpt>
   <trkpt lat="-37.87458" lon="145.30846000000003">
    <ele>241.36</ele>
   </trkpt>
   <trkpt lat="-37.87424" lon="145.30875">
    <ele>249.37</ele>
   </trkpt>
   <trkpt lat="-37.87411" lon="145.30882000000003">
    <ele>251.82000000000005</ele>
   </trkpt>
   <trkpt lat="-37.87369" lon="145.30894">
    <ele>257.73</ele>
   </trkpt>
   <trkpt lat="-37.87357" lon="145.30935000000002">
    <ele>267.93</ele>
   </trkpt>
   <trkpt lat="-37.87353" lon="145.30943000000002">
    <ele>270.54</ele>
   </trkpt>
   <trkpt lat="-37.87326" lon="145.30966">
    <ele>277.54</ele>
   </trkpt>
   <trkpt lat="-37.87317" lon="145.30980000000002">
    <ele>282.81</ele>
   </trkpt>
   <trkpt lat="-37.87306" lon="145.31023000000002">
    <ele>294.37</ele>
   </trkpt>
   <trkpt lat="-37.87299" lon="145.31035">
    <ele>299.77000000000004</ele>
   </trkpt>
   <trkpt lat="-37.8727" lon="145.31074">
    <ele>315.45</ele>
   </trkpt>
   <trkpt lat="-37.87236" lon="145.31108">
    <ele>328.13000000000005</ele>
   </trkpt>
   <trkpt lat="-37.872130000000006" lon="145.31118">
    <ele>335.59000000000003</ele>
   </trkpt>
   <trkpt lat="-37.87205" lon="145.31123000000002">
    <ele>337.08000000000004</ele>
   </trkpt>
   <trkpt lat="-37.872" lon="145.31129">
    <ele>340.37</ele>
   </trkpt>
   <trkpt lat="-37.871930000000006" lon="145.31158000000002">
    <ele>349.19000000000005</ele>
   </trkpt>
   <trkpt lat="-37.87241" lon="145.3118">
    <ele>348.08000000000004</ele>
   </trkpt>
   <trkpt lat="-37.8725" lon="145.31188">
    <ele>348.04</ele>
   </trkpt>
   <trkpt lat="-37.87259" lon="145.31212000000002">
    <ele>348.74000000000007</ele>
   </trkpt>
   <trkpt lat="-37.87254" lon="145.31233">
    <ele>350.02000000000004</ele>
   </trkpt>
   <trkpt lat="-37.87229" lon="145.31288">
    <ele>356.12000000000006</ele>
   </trkpt>
   <trkpt lat="-37.87227" lon="145.31307">
    <ele>357.22</ele>
   </trkpt>
   <trkpt lat="-37.87229" lon="145.31326">
    <ele>360.32000000000005</ele>
   </trkpt>
   <trkpt lat="-37.872400000000006" lon="145.31349">
    <ele>361.76</ele>
   </trkpt>
   <trkpt lat="-37.872600000000006" lon="145.31367">
    <ele>364.04</ele>
   </trkpt>
   <trkpt lat="-37.87288" lon="145.31377">
    <ele>367.8</ele>
   </trkpt>
   <trkpt lat="-37.87344" lon="145.31381000000002">
    <ele>369.64000000000004</ele>
   </trkpt>
   <trkpt lat="-37.87366" lon="145.31386">
    <ele>370.25</ele>
   </trkpt>
   <trkpt lat="-37.8742" lon="145.31409000000002">
    <ele>372.15000000000003</ele>
   </trkpt>
   <trkpt lat="-37.87447" lon="145.31404">
    <ele>375.24</ele>
   </trkpt>
   <trkpt lat="-37.87489" lon="145.31387">
    <ele>378.55000000000007</ele>
   </trkpt>
   <trkpt lat="-37.87532" lon="145.31391000000002">
    <ele>381.22</ele>
   </trkpt>
   <trkpt lat="-37.8757" lon="145.31402">
    <ele>384.11</ele>
   </trkpt>
   <trkpt lat="-37.87585" lon="145.31401000000002">
    <ele>385.8</ele>
   </trkpt>
   <trkpt lat="-37.87635" lon="145.31387">
    <ele>390.92</ele>
   </trkpt>
   <trkpt lat="-37.87684" lon="145.31383000000002">
    <ele>397.96000000000004</ele>
   </trkpt>
   <trkpt lat="-37.87729" lon="145.31387">
    <ele>403.37</ele>
   </trkpt>
   <trkpt lat="-37.87753" lon="145.31387">
    <ele>407.95000000000005</ele>
   </trkpt>
   <trkpt lat="-37.87796" lon="145.31396">
    <ele>411.86000000000007</ele>
   </trkpt>
   <trkpt lat="-37.87838" lon="145.31409000000002">
    <ele>417.00000000000006</ele>
   </trkpt>
   <trkpt lat="-37.87883000008877" lon="145.31413999970323">
    <ele>421.99</ele>
   </trkpt>
   <trkpt lat="-37.87928" lon="145.31419000000002">
    <ele>424.66</ele>
   </trkpt>
   <trkpt lat="-37.87948" lon="145.31417000000002">
    <ele>426.17</ele>
   </trkpt>
   <trkpt lat="-37.879450000000006" lon="145.31428000000002">
    <ele>426.31</ele>
   </trkpt>
   <trkpt lat="-37.87946" lon="145.31427000000002">
    <ele>426.31</ele>
   </trkpt>
   <trkpt lat="-37.87939" lon="145.31436000000002">
    <ele>426.55</ele>
   </trkpt>
   <trkpt lat="-37.87885" lon="145.31461000000002">
    <ele>429.43</ele>
   </trkpt>
   <trkpt lat="-37.878600000000006" lon="145.31485">
    <ele>432.46</ele>
   </trkpt>
   <trkpt lat="-37.87829" lon="145.31506000000002">
    <ele>437.16</ele>
   </trkpt>
   <trkpt lat="-37.87791" lon="145.31546">
    <ele>443.63</ele>
   </trkpt>
   <trkpt lat="-37.87778" lon="145.31557">
    <ele>443.63</ele>
   </trkpt>
   <trkpt lat="-37.87753" lon="145.31569000000002">
    <ele>446.41</ele>
   </trkpt>
   <trkpt lat="-37.87735" lon="145.31589000000002">
    <ele>451.11</ele>
   </trkpt>
   <trkpt lat="-37.87693" lon="145.31661000000003">
    <ele>458.11</ele>
   </trkpt>
   <trkpt lat="-37.87682" lon="145.31683">
    <ele>460.34000000000003</ele>
   </trkpt>
   <trkpt lat="-37.8767" lon="145.31663">
    <ele>458.85</ele>
   </trkpt>
   <trkpt lat="-37.8765" lon="145.31646">
    <ele>457.22</ele>
   </trkpt>
   <trkpt lat="-37.87635" lon="145.31637">
    <ele>454.87000000000006</ele>
   </trkpt>
   <trkpt lat="-37.87583" lon="145.31617">
    <ele>449.32000000000005</ele>
   </trkpt>
   <trkpt lat="-37.87559" lon="145.31611">
    <ele>446.93000000000006</ele>
   </trkpt>
   <trkpt lat="-37.87503" lon="145.31621">
    <ele>442.32000000000005</ele>
   </trkpt>
   <trkpt lat="-37.87478" lon="145.3162">
    <ele>439.15000000000003</ele>
   </trkpt>
   <trkpt lat="-37.87465" lon="145.31616000000002">
    <ele>438.16</ele>
   </trkpt>
   <trkpt lat="-37.87435" lon="145.31603">
    <ele>433.11</ele>
   </trkpt>
   <trkpt lat="-37.87391" lon="145.31571000000002">
    <ele>429.82000000000005</ele>
   </trkpt>
   <trkpt lat="-37.873540000000006" lon="145.31558">
    <ele>426.23</ele>
   </trkpt>
   <trkpt lat="-37.87292" lon="145.31548">
    <ele>419.63000000000005</ele>
   </trkpt>
   <trkpt lat="-37.87209" lon="145.31541">
    <ele>413.87</ele>
   </trkpt>
   <trkpt lat="-37.87164000003769" lon="145.31544000018098">
    <ele>408.29</ele>
   </trkpt>
   <trkpt lat="-37.871190000000006" lon="145.31547">
    <ele>403.86000000000007</ele>
   </trkpt>
   <trkpt lat="-37.871" lon="145.31480000000002">
    <ele>395.16</ele>
   </trkpt>
   <trkpt lat="-37.87064" lon="145.31427000000002">
    <ele>388.25000000000006</ele>
   </trkpt>
   <trkpt lat="-37.87041" lon="145.31411">
    <ele>386.36</ele>
   </trkpt>
   <trkpt lat="-37.870340000000006" lon="145.31408000000002">
    <ele>385.26000000000005</ele>
   </trkpt>
   <trkpt lat="-37.87026" lon="145.31409000000002">
    <ele>384.64000000000004</ele>
   </trkpt>
   <trkpt lat="-37.87017" lon="145.31414">
    <ele>382.52000000000004</ele>
   </trkpt>
   <trkpt lat="-37.86997" lon="145.31447">
    <ele>377.39</ele>
   </trkpt>
   <trkpt lat="-37.86988" lon="145.31455000000003">
    <ele>377.39</ele>
   </trkpt>
   <trkpt lat="-37.86972" lon="145.31458">
    <ele>373.93</ele>
   </trkpt>
   <trkpt lat="-37.869020000000006" lon="145.31414">
    <ele>361.3</ele>
   </trkpt>
   <trkpt lat="-37.86898" lon="145.31477">
    <ele>355.28000000000003</ele>
   </trkpt>
   <trkpt lat="-37.869" lon="145.31505">
    <ele>351.69</ele>
   </trkpt>
   <trkpt lat="-37.86896" lon="145.31523">
    <ele>350.88</ele>
   </trkpt>
   <trkpt lat="-37.86889" lon="145.31538">
    <ele>349.91</ele>
   </trkpt>
   <trkpt lat="-37.86871" lon="145.31564">
    <ele>348.85</ele>
   </trkpt>
   <trkpt lat="-37.86842" lon="145.31596000000002">
    <ele>348.06</ele>
   </trkpt>
   <trkpt lat="-37.86811" lon="145.31645">
    <ele>346.36</ele>
   </trkpt>
   <trkpt lat="-37.86785000209512" lon="145.31716000260528">
    <ele>341.63000000000005</ele>
   </trkpt>
   <trkpt lat="-37.86759" lon="145.31787">
    <ele>339.49</ele>
   </trkpt>
   <trkpt lat="-37.86741" lon="145.31875000000002">
    <ele>336.15</ele>
   </trkpt>
   <trkpt lat="-37.86744" lon="145.31893000000002">
    <ele>334.58000000000004</ele>
   </trkpt>
   <trkpt lat="-37.86762" lon="145.31942">
    <ele>331.1</ele>
   </trkpt>
   <trkpt lat="-37.86782" lon="145.31976">
    <ele>328.89</ele>
   </trkpt>
   <trkpt lat="-37.86786" lon="145.31989000000002">
    <ele>328.67</ele>
   </trkpt>
   <trkpt lat="-37.86786" lon="145.31999000000002">
    <ele>328.66</ele>
   </trkpt>
   <trkpt lat="-37.867720000000006" lon="145.32028000000003">
    <ele>329.25000000000006</ele>
   </trkpt>
   <trkpt lat="-37.86737" lon="145.32079000000002">
    <ele>330.16</ele>
   </trkpt>
   <trkpt lat="-37.86712" lon="145.32127">
    <ele>329.08000000000004</ele>
   </trkpt>
   <trkpt lat="-37.86706" lon="145.32158">
    <ele>326.91</ele>
   </trkpt>
   <trkpt lat="-37.86715" lon="145.32185">
    <ele>324.89</ele>
   </trkpt>
   <trkpt lat="-37.86741" lon="145.32231000000002">
    <ele>321.98</ele>
   </trkpt>
   <trkpt lat="-37.86782500160754" lon="145.32293999634422">
    <ele>318.86</ele>
   </trkpt>
   <trkpt lat="-37.86824" lon="145.32357000000002">
    <ele>316.85</ele>
   </trkpt>
   <trkpt lat="-37.868280000000006" lon="145.32366000000002">
    <ele>316.85</ele>
   </trkpt>
   <trkpt lat="-37.86826000000001" lon="145.32378">
    <ele>316.36</ele>
   </trkpt>
   <trkpt lat="-37.86827" lon="145.32376000000002">
    <ele>316.36</ele>
   </trkpt>
   <trkpt lat="-37.868170000000006" lon="145.32392000000002">
    <ele>315.77000000000004</ele>
   </trkpt>
   <trkpt lat="-37.867715001552334" lon="145.32454000392826">
    <ele>310.69</ele>
   </trkpt>
   <trkpt lat="-37.86726" lon="145.32516">
    <ele>302.52</ele>
   </trkpt>
   <trkpt lat="-37.866920001763475" lon="145.32582500327686">
    <ele>297.08</ele>
   </trkpt>
   <trkpt lat="-37.866580000000006" lon="145.32649">
    <ele>291.8</ele>
   </trkpt>
   <trkpt lat="-37.86652" lon="145.32690000000002">
    <ele>294.01000000000005</ele>
   </trkpt>
   <trkpt lat="-37.866510000000005" lon="145.32752000000002">
    <ele>296.65000000000003</ele>
   </trkpt>
   <trkpt lat="-37.86641" lon="145.32750000000001">
    <ele>292.47</ele>
   </trkpt>
   <trkpt lat="-37.86634" lon="145.32726000000002">
    <ele>289.49</ele>
   </trkpt>
   <trkpt lat="-37.8663" lon="145.32718">
    <ele>288.45000000000005</ele>
   </trkpt>
   <trkpt lat="-37.86623" lon="145.32717000000002">
    <ele>284.04</ele>
   </trkpt>
   <trkpt lat="-37.86616" lon="145.32719">
    <ele>284.04</ele>
   </trkpt>
   <trkpt lat="-37.86596" lon="145.3273">
    <ele>276.43</ele>
   </trkpt>
   <trkpt lat="-37.86589" lon="145.3273">
    <ele>276.43</ele>
   </trkpt>
   <trkpt lat="-37.865610000000004" lon="145.3274">
    <ele>270.47</ele>
   </trkpt>
   <trkpt lat="-37.865" lon="145.32741000000001">
    <ele>250.88000000000005</ele>
   </trkpt>
   <trkpt lat="-37.86491" lon="145.32743000000002">
    <ele>249.06000000000003</ele>
   </trkpt>
   <trkpt lat="-37.86486" lon="145.32749">
    <ele>248.97000000000003</ele>
   </trkpt>
   <trkpt lat="-37.86482" lon="145.32749">
    <ele>248.97000000000003</ele>
   </trkpt>
   <trkpt lat="-37.864810000000006" lon="145.32766">
    <ele>246.1</ele>
   </trkpt>
   <trkpt lat="-37.86471" lon="145.32788000000002">
    <ele>242.26000000000002</ele>
   </trkpt>
   <trkpt lat="-37.86462" lon="145.3279">
    <ele>243.50000000000003</ele>
   </trkpt>
   <trkpt lat="-37.86453" lon="145.3279">
    <ele>247.54</ele>
   </trkpt>
   <trkpt lat="-37.86446" lon="145.32787000000002">
    <ele>248.64000000000001</ele>
   </trkpt>
   <trkpt lat="-37.8643" lon="145.32765">
    <ele>247.59000000000003</ele>
   </trkpt>
   <trkpt lat="-37.864180000000005" lon="145.32759000000001">
    <ele>247.09000000000003</ele>
   </trkpt>
   <trkpt lat="-37.86397" lon="145.32753000000002">
    <ele>246.93</ele>
   </trkpt>
   <trkpt lat="-37.86356" lon="145.32760000000002">
    <ele>247.45000000000002</ele>
   </trkpt>
   <trkpt lat="-37.86307" lon="145.32762000000002">
    <ele>249.59000000000003</ele>
   </trkpt>
   <trkpt lat="-37.86265" lon="145.32778000000002">
    <ele>249.65</ele>
   </trkpt>
   <trkpt lat="-37.86222" lon="145.32782">
    <ele>246.97000000000003</ele>
   </trkpt>
   <trkpt lat="-37.861990000000006" lon="145.32794">
    <ele>245.91000000000003</ele>
   </trkpt>
   <trkpt lat="-37.86177" lon="145.32821">
    <ele>245.8</ele>
   </trkpt>
   <trkpt lat="-37.86159" lon="145.32859000000002">
    <ele>245.00000000000003</ele>
   </trkpt>
   <trkpt lat="-37.86148" lon="145.32925">
    <ele>244.27</ele>
   </trkpt>
   <trkpt lat="-37.86137" lon="145.32948000000002">
    <ele>244.52</ele>
   </trkpt>
   <trkpt lat="-37.86121" lon="145.32951">
    <ele>245.14000000000001</ele>
   </trkpt>
   <trkpt lat="-37.86097" lon="145.32949000000002">
    <ele>245.93</ele>
   </trkpt>
   <trkpt lat="-37.86077" lon="145.32959000000002">
    <ele>247.41000000000003</ele>
   </trkpt>
   <trkpt lat="-37.86074" lon="145.32965000000002">
    <ele>247.97000000000003</ele>
   </trkpt>
   <trkpt lat="-37.86119" lon="145.33010000000002">
    <ele>255.92000000000004</ele>
   </trkpt>
   <trkpt lat="-37.86139" lon="145.33033">
    <ele>261.70000000000005</ele>
   </trkpt>
   <trkpt lat="-37.86177" lon="145.33062">
    <ele>267.15</ele>
   </trkpt>
   <trkpt lat="-37.86186" lon="145.33078">
    <ele>270.13000000000005</ele>
   </trkpt>
   <trkpt lat="-37.86193" lon="145.33104">
    <ele>276.45000000000005</ele>
   </trkpt>
   <trkpt lat="-37.86186" lon="145.33134">
    <ele>286.04</ele>
   </trkpt>
   <trkpt lat="-37.86184" lon="145.33163000000002">
    <ele>290.90000000000003</ele>
   </trkpt>
   <trkpt lat="-37.86186" lon="145.33180000000002">
    <ele>294.77000000000004</ele>
   </trkpt>
   <trkpt lat="-37.862320000000004" lon="145.33235000000002">
    <ele>304.36</ele>
   </trkpt>
   <trkpt lat="-37.86227" lon="145.33246000000003">
    <ele>304.29</ele>
   </trkpt>
   <trkpt lat="-37.86224" lon="145.33262000000002">
    <ele>304.14000000000004</ele>
   </trkpt>
   <trkpt lat="-37.86224" lon="145.33325000000002">
    <ele>304.18</ele>
   </trkpt>
   <trkpt lat="-37.86227" lon="145.33360000000002">
    <ele>304.54</ele>
   </trkpt>
   <trkpt lat="-37.86229" lon="145.33376">
    <ele>304.96</ele>
   </trkpt>
   <trkpt lat="-37.86242" lon="145.33416000000003">
    <ele>305.31</ele>
   </trkpt>
   <trkpt lat="-37.8628" lon="145.33489">
    <ele>305.57</ele>
   </trkpt>
   <trkpt lat="-37.86309" lon="145.33556000000002">
    <ele>306.27000000000004</ele>
   </trkpt>
   <trkpt lat="-37.86314" lon="145.3357">
    <ele>306.70000000000005</ele>
   </trkpt>
   <trkpt lat="-37.86314" lon="145.33569">
    <ele>306.70000000000005</ele>
   </trkpt>
   <trkpt lat="-37.86309" lon="145.33587">
    <ele>307.42</ele>
   </trkpt>
   <trkpt lat="-37.86303" lon="145.33592000000002">
    <ele>307.78</ele>
   </trkpt>
   <trkpt lat="-37.86292" lon="145.33596">
    <ele>307.9</ele>
   </trkpt>
   <trkpt lat="-37.86231" lon="145.33606">
    <ele>304.71000000000004</ele>
   </trkpt>
   <trkpt lat="-37.862080000000006" lon="145.33605">
    <ele>303.94000000000005</ele>
   </trkpt>
   <trkpt lat="-37.86164" lon="145.33602000000002">
    <ele>301.03000000000003</ele>
   </trkpt>
   <trkpt lat="-37.8609" lon="145.33604000000003">
    <ele>302.33000000000004</ele>
   </trkpt>
   <trkpt lat="-37.86065" lon="145.33601000000002">
    <ele>301.75</ele>
   </trkpt>
   <trkpt lat="-37.85996" lon="145.33583000000002">
    <ele>294.36</ele>
   </trkpt>
   <trkpt lat="-37.85965" lon="145.33569">
    <ele>290.76</ele>
   </trkpt>
   <trkpt lat="-37.85931" lon="145.33543">
    <ele>286.02</ele>
   </trkpt>
   <trkpt lat="-37.85887500127963" lon="145.33486999663535">
    <ele>280.41</ele>
   </trkpt>
   <trkpt lat="-37.85844" lon="145.33431000000002">
    <ele>276.01000000000005</ele>
   </trkpt>
   <trkpt lat="-37.85833" lon="145.33419">
    <ele>274.93</ele>
   </trkpt>
   <trkpt lat="-37.85821" lon="145.33414000000002">
    <ele>273.36</ele>
   </trkpt>
   <trkpt lat="-37.857960000000006" lon="145.33415000000002">
    <ele>271.94</ele>
   </trkpt>
   <trkpt lat="-37.857980000000005" lon="145.33416000000003">
    <ele>271.94</ele>
   </trkpt>
   <trkpt lat="-37.8581" lon="145.33454">
    <ele>277.98</ele>
   </trkpt>
   <trkpt lat="-37.85824" lon="145.33467000000002">
    <ele>280.27000000000004</ele>
   </trkpt>
   <trkpt lat="-37.85826" lon="145.33476000000002">
    <ele>284.32</ele>
   </trkpt>
   <trkpt lat="-37.85826" lon="145.3349">
    <ele>284.32</ele>
   </trkpt>
   <trkpt lat="-37.85828" lon="145.33501">
    <ele>286.22</ele>
   </trkpt>
   <trkpt lat="-37.85848" lon="145.33535">
    <ele>296.49</ele>
   </trkpt>
   <trkpt lat="-37.85862" lon="145.33563">
    <ele>296.49</ele>
   </trkpt>
   <trkpt lat="-37.85866" lon="145.33603000000002">
    <ele>315.78</ele>
   </trkpt>
   <trkpt lat="-37.85889" lon="145.33676">
    <ele>328.0</ele>
   </trkpt>
   <trkpt lat="-37.85909" lon="145.33724">
    <ele>338.64000000000004</ele>
   </trkpt>
   <trkpt lat="-37.85915" lon="145.33746000000002">
    <ele>351.17</ele>
   </trkpt>
   <trkpt lat="-37.85922" lon="145.33784">
    <ele>355.06000000000006</ele>
   </trkpt>
   <trkpt lat="-37.85929" lon="145.33801000000003">
    <ele>361.12000000000006</ele>
   </trkpt>
   <trkpt lat="-37.859370000000006" lon="145.33810000000003">
    <ele>361.12000000000006</ele>
   </trkpt>
   <trkpt lat="-37.8596" lon="145.3383">
    <ele>372.51</ele>
   </trkpt>
   <trkpt lat="-37.8598" lon="145.33852000000002">
    <ele>379.54</ele>
   </trkpt>
   <trkpt lat="-37.85989" lon="145.33858">
    <ele>379.54</ele>
   </trkpt>
   <trkpt lat="-37.8607" lon="145.33880000000002">
    <ele>390.68</ele>
   </trkpt>
   <trkpt lat="-37.8607" lon="145.33889000000002">
    <ele>390.51</ele>
   </trkpt>
   <trkpt lat="-37.86079" lon="145.33893">
    <ele>391.82000000000005</ele>
   </trkpt>
   <trkpt lat="-37.86095" lon="145.33902">
    <ele>394.59000000000003</ele>
   </trkpt>
   <trkpt lat="-37.86168" lon="145.33925000000002">
    <ele>410.89000000000004</ele>
   </trkpt>
   <trkpt lat="-37.8622" lon="145.33963">
    <ele>421.04</ele>
   </trkpt>
   <trkpt lat="-37.862860000000005" lon="145.34025000000003">
    <ele>439.70000000000005</ele>
   </trkpt>
   <trkpt lat="-37.863310000000006" lon="145.34074">
    <ele>455.38000000000005</ele>
   </trkpt>
   <trkpt lat="-37.8639" lon="145.34133">
    <ele>473.80000000000007</ele>
   </trkpt>
   <trkpt lat="-37.86433" lon="145.34163">
    <ele>480.90000000000003</ele>
   </trkpt>
   <trkpt lat="-37.86489" lon="145.34179">
    <ele>482.94</ele>
   </trkpt>
   <trkpt lat="-37.86515" lon="145.3418">
    <ele>481.83000000000004</ele>
   </trkpt>
   <trkpt lat="-37.865610000000004" lon="145.34172">
    <ele>482.12000000000006</ele>
   </trkpt>
   <trkpt lat="-37.86565" lon="145.34188">
    <ele>481.62000000000006</ele>
   </trkpt>
   <trkpt lat="-37.86587" lon="145.34215">
    <ele>480.27000000000004</ele>
   </trkpt>
   <trkpt lat="-37.86634" lon="145.34241">
    <ele>479.14000000000004</ele>
   </trkpt>
   <trkpt lat="-37.86663" lon="145.34261">
    <ele>477.78000000000003</ele>
   </trkpt>
   <trkpt lat="-37.86717" lon="145.34283000000002">
    <ele>479.23</ele>
   </trkpt>
   <trkpt lat="-37.86741" lon="145.34287">
    <ele>481.94</ele>
   </trkpt>
   <trkpt lat="-37.86766" lon="145.34284000000002">
    <ele>485.76</ele>
   </trkpt>
   <trkpt lat="-37.86838" lon="145.34305">
    <ele>490.23</ele>
   </trkpt>
   <trkpt lat="-37.86891" lon="145.34316">
    <ele>493.45000000000005</ele>
   </trkpt>
   <trkpt lat="-37.86914" lon="145.34323">
    <ele>494.75</ele>
   </trkpt>
   <trkpt lat="-37.86979" lon="145.34337000000002">
    <ele>497.71000000000004</ele>
   </trkpt>
   <trkpt lat="-37.86985" lon="145.34342">
    <ele>497.87</ele>
   </trkpt>
   <trkpt lat="-37.87001" lon="145.34359">
    <ele>496.91</ele>
   </trkpt>
   <trkpt lat="-37.87026" lon="145.34375">
    <ele>493.71000000000004</ele>
   </trkpt>
   <trkpt lat="-37.87037" lon="145.34387">
    <ele>494.58</ele>
   </trkpt>
   <trkpt lat="-37.87066" lon="145.34400000000002">
    <ele>500.9100000000001</ele>
   </trkpt>
   <trkpt lat="-37.87088" lon="145.34415">
    <ele>505.61</ele>
   </trkpt>
   <trkpt lat="-37.87109" lon="145.34422">
    <ele>508.61</ele>
   </trkpt>
   <trkpt lat="-37.87147" lon="145.34362000000002">
    <ele>511.12</ele>
   </trkpt>
   <trkpt lat="-37.87169" lon="145.34336000000002">
    <ele>512.3100000000001</ele>
   </trkpt>
   <trkpt lat="-37.87207500196024" lon="145.3426900033936">
    <ele>513.21</ele>
   </trkpt>
   <trkpt lat="-37.872460000000004" lon="145.34202000000002">
    <ele>508.32</ele>
   </trkpt>
   <trkpt lat="-37.87265" lon="145.34215">
    <ele>507.6</ele>
   </trkpt>
   <trkpt lat="-37.87274" lon="145.34218">
    <ele>507.29</ele>
   </trkpt>
   <trkpt lat="-37.87285" lon="145.34218">
    <ele>506.56</ele>
   </trkpt>
   <trkpt lat="-37.87329000007585" lon="145.3420400008384">
    <ele>503.04</ele>
   </trkpt>
   <trkpt lat="-37.87373" lon="145.3419">
    <ele>497.24</ele>
   </trkpt>
   <trkpt lat="-37.87406" lon="145.34185000000002">
    <ele>495.56000000000006</ele>
   </trkpt>
   <trkpt lat="-37.8744" lon="145.34218">
    <ele>496.36</ele>
   </trkpt>
   <trkpt lat="-37.87505" lon="145.34289">
    <ele>502.27</ele>
   </trkpt>
   <trkpt lat="-37.87509" lon="145.34286">
    <ele>502.27</ele>
   </trkpt>
   <trkpt lat="-37.875170000000004" lon="145.34285">
    <ele>502.11000000000007</ele>
   </trkpt>
   <trkpt lat="-37.87556" lon="145.34253">
    <ele>501.63</ele>
   </trkpt>
   <trkpt lat="-37.8757" lon="145.34247000000002">
    <ele>501.6400000000001</ele>
   </trkpt>
   <trkpt lat="-37.875870000000006" lon="145.34231000000003">
    <ele>501.96000000000004</ele>
   </trkpt>
   <trkpt lat="-37.87592" lon="145.34225">
    <ele>501.96000000000004</ele>
   </trkpt>
   <trkpt lat="-37.87634500042798" lon="145.3419300018501">
    <ele>505.50000000000006</ele>
   </trkpt>
   <trkpt lat="-37.87677" lon="145.34161">
    <ele>509.49</ele>
   </trkpt>
   <trkpt lat="-37.87706" lon="145.34135">
    <ele>512.8600000000001</ele>
   </trkpt>
   <trkpt lat="-37.877460005980254" lon="145.34066251122874">
    <ele>517.5200000000001</ele>
   </trkpt>
   <trkpt lat="-37.877860007962724" lon="145.33997501499064">
    <ele>520.7700000000001</ele>
   </trkpt>
   <trkpt lat="-37.87826000594729" lon="145.33928751128568">
    <ele>524.63</ele>
   </trkpt>
   <trkpt lat="-37.87866" lon="145.3386">
    <ele>531.88</ele>
   </trkpt>
   <trkpt lat="-37.87888" lon="145.33831">
    <ele>534.3</ele>
   </trkpt>
   <trkpt lat="-37.879365000971966" lon="145.33780000349293">
    <ele>541.8100000000001</ele>
   </trkpt>
   <trkpt lat="-37.879850000000005" lon="145.33729000000002">
    <ele>545.0500000000001</ele>
   </trkpt>
   <trkpt lat="-37.879900000000006" lon="145.33721">
    <ele>545.0200000000001</ele>
   </trkpt>
   <trkpt lat="-37.87995" lon="145.33709000000002">
    <ele>545.0200000000001</ele>
   </trkpt>
   <trkpt lat="-37.879996671889224" lon="145.33630333453166">
    <ele>549.59</ele>
   </trkpt>
   <trkpt lat="-37.88004333854395" lon="145.3355166680664">
    <ele>550.23</ele>
   </trkpt>
   <trkpt lat="-37.88009" lon="145.33473">
    <ele>551.1</ele>
   </trkpt>
   <trkpt lat="-37.880010001742335" lon="145.33409499960385">
    <ele>552.89</ele>
   </trkpt>
   <trkpt lat="-37.87993" lon="145.33346">
    <ele>552.39</ele>
   </trkpt>
   <trkpt lat="-37.879920000000006" lon="145.33341000000001">
    <ele>552.39</ele>
   </trkpt>
   <trkpt lat="-37.87997" lon="145.3334">
    <ele>552.03</ele>
   </trkpt>
   <trkpt lat="-37.87984001039537" lon="145.33249499523436">
    <ele>549.01</ele>
   </trkpt>
   <trkpt lat="-37.87971001386298" lon="145.33158999366324">
    <ele>545.2</ele>
   </trkpt>
   <trkpt lat="-37.87958001040289" lon="145.33068499528682">
    <ele>541.3800000000001</ele>
   </trkpt>
   <trkpt lat="-37.879450000000006" lon="145.32978">
    <ele>536.85</ele>
   </trkpt>
   <trkpt lat="-37.879360000000005" lon="145.32952">
    <ele>536.3100000000001</ele>
   </trkpt>
   <trkpt lat="-37.87908" lon="145.32977000000002">
    <ele>535.8900000000001</ele>
   </trkpt>
   <trkpt lat="-37.87881" lon="145.33017">
    <ele>534.3800000000001</ele>
   </trkpt>
   <trkpt lat="-37.87850000055462" lon="145.33060000212515">
    <ele>531.0400000000001</ele>
   </trkpt>
   <trkpt lat="-37.878190000000004" lon="145.33103">
    <ele>527.33</ele>
   </trkpt>
   <trkpt lat="-37.877950000000006" lon="145.33132">
    <ele>523.82</ele>
   </trkpt>
   <trkpt lat="-37.877480001605804" lon="145.33194500404943">
    <ele>519.4300000000001</ele>
   </trkpt>
   <trkpt lat="-37.877010000000006" lon="145.33257">
    <ele>514.6200000000001</ele>
   </trkpt>
   <trkpt lat="-37.87673" lon="145.33286">
    <ele>512.49</ele>
   </trkpt>
   <trkpt lat="-37.87655" lon="145.33302">
    <ele>511.87000000000006</ele>
   </trkpt>
   <trkpt lat="-37.87624" lon="145.33317000000002">
    <ele>512.15</ele>
   </trkpt>
   <trkpt lat="-37.87626" lon="145.33293">
    <ele>509.51</ele>
   </trkpt>
   <trkpt lat="-37.87635" lon="145.33251">
    <ele>504.14000000000004</ele>
   </trkpt>
   <trkpt lat="-37.87648" lon="145.33221">
    <ele>501.0300000000001</ele>
   </trkpt>
   <trkpt lat="-37.87659" lon="145.33210000000003">
    <ele>500.9100000000001</ele>
   </trkpt>
   <trkpt lat="-37.87684" lon="145.33137000000002">
    <ele>499.58000000000004</ele>
   </trkpt>
   <trkpt lat="-37.877010000000006" lon="145.33071">
    <ele>497.94000000000005</ele>
   </trkpt>
   <trkpt lat="-37.876870000000004" lon="145.33046000000002">
    <ele>497.40000000000003</ele>
   </trkpt>
   <trkpt lat="-37.87689" lon="145.33048000000002">
    <ele>497.40000000000003</ele>
   </trkpt>
   <trkpt lat="-37.876630000000006" lon="145.33026">
    <ele>497.52</ele>
   </trkpt>
   <trkpt lat="-37.87633000087543" lon="145.329814998244">
    <ele>501.88</ele>
   </trkpt>
   <trkpt lat="-37.87603" lon="145.32937">
    <ele>504.9100000000001</ele>
   </trkpt>
   <trkpt lat="-37.87558500317327" lon="145.32850499479204">
    <ele>512.09</ele>
   </trkpt>
   <trkpt lat="-37.87514" lon="145.32764">
    <ele>513.23</ele>
   </trkpt>
   <trkpt lat="-37.87489" lon="145.32745">
    <ele>510.30000000000007</ele>
   </trkpt>
   <trkpt lat="-37.87465" lon="145.32746">
    <ele>501.43</ele>
   </trkpt>
   <trkpt lat="-37.87435" lon="145.32763">
    <ele>489.47</ele>
   </trkpt>
   <trkpt lat="-37.874100000000006" lon="145.32791">
    <ele>482.2</ele>
   </trkpt>
   <trkpt lat="-37.873960000000004" lon="145.32809">
    <ele>474.90000000000003</ele>
   </trkpt>
   <trkpt lat="-37.87411" lon="145.32827">
    <ele>466.8</ele>
   </trkpt>
   <trkpt lat="-37.87429" lon="145.32840000000002">
    <ele>460.73</ele>
   </trkpt>
   <trkpt lat="-37.87447" lon="145.32865">
    <ele>454.94</ele>
   </trkpt>
   <trkpt lat="-37.87453" lon="145.32894000000002">
    <ele>451.51</ele>
   </trkpt>
   <trkpt lat="-37.87456" lon="145.32923000000002">
    <ele>443.16</ele>
   </trkpt>
   <trkpt lat="-37.87435" lon="145.32887000000002">
    <ele>446.92</ele>
   </trkpt>
   <trkpt lat="-37.87382" lon="145.32833000000002">
    <ele>454.06</ele>
   </trkpt>
   <trkpt lat="-37.87368" lon="145.32803">
    <ele>457.95</ele>
   </trkpt>
   <trkpt lat="-37.87366" lon="145.32778000000002">
    <ele>462.63000000000005</ele>
   </trkpt>
   <trkpt lat="-37.87359" lon="145.32762000000002">
    <ele>465.27</ele>
   </trkpt>
   <trkpt lat="-37.87315500148315" lon="145.32701999640304">
    <ele>472.27000000000004</ele>
   </trkpt>
   <trkpt lat="-37.87272" lon="145.32642">
    <ele>480.18000000000006</ele>
   </trkpt>
   <trkpt lat="-37.87261" lon="145.32628000000003">
    <ele>481.93</ele>
   </trkpt>
   <trkpt lat="-37.87238" lon="145.32607000000002">
    <ele>483.23</ele>
   </trkpt>
   <trkpt lat="-37.87182" lon="145.3257">
    <ele>483.69000000000005</ele>
   </trkpt>
   <trkpt lat="-37.871750000000006" lon="145.32557">
    <ele>483.87</ele>
   </trkpt>
   <trkpt lat="-37.87176" lon="145.32558">
    <ele>483.87</ele>
   </trkpt>
   <trkpt lat="-37.87171" lon="145.32548">
    <ele>484.15000000000003</ele>
   </trkpt>
   <trkpt lat="-37.87171" lon="145.32545000000002">
    <ele>484.15000000000003</ele>
   </trkpt>
   <trkpt lat="-37.871880000000004" lon="145.32536000000002">
    <ele>485.40000000000003</ele>
   </trkpt>
   <trkpt lat="-37.87187" lon="145.32511000000002">
    <ele>486.01000000000005</ele>
   </trkpt>
   <trkpt lat="-37.87194" lon="145.32494">
    <ele>486.08</ele>
   </trkpt>
   <trkpt lat="-37.87259" lon="145.32422000000003">
    <ele>484.91</ele>
   </trkpt>
   <trkpt lat="-37.8727" lon="145.3239">
    <ele>483.39000000000004</ele>
   </trkpt>
   <trkpt lat="-37.872690000000006" lon="145.32358000000002">
    <ele>478.33000000000004</ele>
   </trkpt>
   <trkpt lat="-37.87261" lon="145.32311">
    <ele>475.35</ele>
   </trkpt>
   <trkpt lat="-37.87263" lon="145.32264">
    <ele>476.4200000000001</ele>
   </trkpt>
   <trkpt lat="-37.87256" lon="145.32212">
    <ele>480.47</ele>
   </trkpt>
   <trkpt lat="-37.87261" lon="145.32164">
    <ele>487.51000000000005</ele>
   </trkpt>
   <trkpt lat="-37.8727" lon="145.32129">
    <ele>494.06000000000006</ele>
   </trkpt>
   <trkpt lat="-37.87259" lon="145.32068">
    <ele>506.02000000000004</ele>
   </trkpt>
   <trkpt lat="-37.87259" lon="145.32046000000003">
    <ele>506.02000000000004</ele>
   </trkpt>
   <trkpt lat="-37.872690000000006" lon="145.31988">
    <ele>513.83</ele>
   </trkpt>
   <trkpt lat="-37.87261" lon="145.31986">
    <ele>514.3000000000001</ele>
   </trkpt>
   <trkpt lat="-37.87263" lon="145.31965000000002">
    <ele>515.39</ele>
   </trkpt>
   <trkpt lat="-37.872640000000004" lon="145.31964000000002">
    <ele>515.39</ele>
   </trkpt>
   <trkpt lat="-37.87303" lon="145.31965000000002">
    <ele>513.7700000000001</ele>
   </trkpt>
   <trkpt lat="-37.87328" lon="145.3197">
    <ele>512.24</ele>
   </trkpt>
   <trkpt lat="-37.87355" lon="145.31979">
    <ele>508.9100000000001</ele>
   </trkpt>
   <trkpt lat="-37.874" lon="145.32000000000002">
    <ele>503.87</ele>
   </trkpt>
   <trkpt lat="-37.87415" lon="145.32003">
    <ele>503.87</ele>
   </trkpt>
   <trkpt lat="-37.87442" lon="145.32003">
    <ele>497.57000000000005</ele>
   </trkpt>
   <trkpt lat="-37.87473" lon="145.32017000000002">
    <ele>495.12000000000006</ele>
   </trkpt>
   <trkpt lat="-37.874880000000005" lon="145.3202">
    <ele>493.86</ele>
   </trkpt>
   <trkpt lat="-37.87501" lon="145.32019000000003">
    <ele>493.18000000000006</ele>
   </trkpt>
   <trkpt lat="-37.87521" lon="145.32021">
    <ele>490.49</ele>
   </trkpt>
   <trkpt lat="-37.87541" lon="145.32018000000002">
    <ele>487.18000000000006</ele>
   </trkpt>
   <trkpt lat="-37.87565" lon="145.32011">
    <ele>485.26</ele>
   </trkpt>
   <trkpt lat="-37.87572" lon="145.32013">
    <ele>483.74000000000007</ele>
   </trkpt>
   <trkpt lat="-37.87585" lon="145.32021">
    <ele>480.01000000000005</ele>
   </trkpt>
   <trkpt lat="-37.87613" lon="145.32041">
    <ele>473.14000000000004</ele>
   </trkpt>
   <trkpt lat="-37.87612" lon="145.32047">
    <ele>473.14000000000004</ele>
   </trkpt>
   <trkpt lat="-37.87619" lon="145.32080000000002">
    <ele>474.28000000000003</ele>
   </trkpt>
   <trkpt lat="-37.87632" lon="145.32108000000002">
    <ele>475.44</ele>
   </trkpt>
   <trkpt lat="-37.87684" lon="145.32166">
    <ele>480.41</ele>
   </trkpt>
   <trkpt lat="-37.87738" lon="145.32242000000002">
    <ele>484.45000000000005</ele>
   </trkpt>
   <trkpt lat="-37.87742" lon="145.32267000000002">
    <ele>486.44000000000005</ele>
   </trkpt>
   <trkpt lat="-37.8772" lon="145.32261000000003">
    <ele>486.44000000000005</ele>
   </trkpt>
   <trkpt lat="-37.87675" lon="145.32254">
    <ele>493.36</ele>
   </trkpt>
   <trkpt lat="-37.877" lon="145.32270000000003">
    <ele>494.39000000000004</ele>
   </trkpt>
   <trkpt lat="-37.87783" lon="145.32313000000002">
    <ele>498.06000000000006</ele>
   </trkpt>
   <trkpt lat="-37.8782" lon="145.32342">
    <ele>497.63</ele>
   </trkpt>
   <trkpt lat="-37.8787" lon="145.32406">
    <ele>498.35</ele>
   </trkpt>
   <trkpt lat="-37.87892" lon="145.32431000000003">
    <ele>499.08000000000004</ele>
   </trkpt>
   <trkpt lat="-37.87932" lon="145.32488">
    <ele>498.28000000000003</ele>
   </trkpt>
   <trkpt lat="-37.87993" lon="145.32551">
    <ele>493.25</ele>
   </trkpt>
   <trkpt lat="-37.88067" lon="145.32611">
    <ele>485.18000000000006</ele>
   </trkpt>
   <trkpt lat="-37.88132" lon="145.32653000000002">
    <ele>478.98</ele>
   </trkpt>
   <trkpt lat="-37.88172" lon="145.32688000000002">
    <ele>474.32</ele>
   </trkpt>
   <trkpt lat="-37.88181" lon="145.32698000000002">
    <ele>473.51000000000005</ele>
   </trkpt>
   <trkpt lat="-37.88201" lon="145.32736">
    <ele>470.66</ele>
   </trkpt>
   <trkpt lat="-37.88223" lon="145.32806000000002">
    <ele>465.40000000000003</ele>
   </trkpt>
   <trkpt lat="-37.88241" lon="145.32832000000002">
    <ele>462.5</ele>
   </trkpt>
   <trkpt lat="-37.88264" lon="145.32853">
    <ele>456.76000000000005</ele>
   </trkpt>
   <trkpt lat="-37.88284" lon="145.32863">
    <ele>451.78000000000003</ele>
   </trkpt>
   <trkpt lat="-37.88311" lon="145.32864">
    <ele>446.71000000000004</ele>
   </trkpt>
   <trkpt lat="-37.88342" lon="145.32859000000002">
    <ele>442.70000000000005</ele>
   </trkpt>
   <trkpt lat="-37.88378" lon="145.32857">
    <ele>436.93</ele>
   </trkpt>
   <trkpt lat="-37.88407" lon="145.32862">
    <ele>430.40000000000003</ele>
   </trkpt>
   <trkpt lat="-37.88447" lon="145.32879">
    <ele>424.65000000000003</ele>
   </trkpt>
   <trkpt lat="-37.88499" lon="145.32899">
    <ele>412.66</ele>
   </trkpt>
   <trkpt lat="-37.885540000000006" lon="145.32899">
    <ele>402.34000000000003</ele>
   </trkpt>
   <trkpt lat="-37.88584" lon="145.32891">
    <ele>396.07000000000005</ele>
   </trkpt>
   <trkpt lat="-37.88604" lon="145.32873">
    <ele>389.0</ele>
   </trkpt>
   <trkpt lat="-37.88624" lon="145.32841000000002">
    <ele>381.98</ele>
   </trkpt>
   <trkpt lat="-37.886390000000006" lon="145.32833000000002">
    <ele>380.87000000000006</ele>
   </trkpt>
   <trkpt lat="-37.88638" lon="145.32786000000002">
    <ele>378.08000000000004</ele>
   </trkpt>
   <trkpt lat="-37.88624" lon="145.32771000000002">
    <ele>377.64000000000004</ele>
   </trkpt>
   <trkpt lat="-37.8862" lon="145.3274">
    <ele>376.68</ele>
   </trkpt>
   <trkpt lat="-37.886190000000006" lon="145.32696">
    <ele>376.78</ele>
   </trkpt>
   <trkpt lat="-37.88608" lon="145.32707000000002">
    <ele>375.19</ele>
   </trkpt>
   <trkpt lat="-37.8857" lon="145.3273">
    <ele>371.1</ele>
   </trkpt>
   <trkpt lat="-37.88559" lon="145.32723000000001">
    <ele>369.9</ele>
   </trkpt>
   <trkpt lat="-37.88555" lon="145.32716000000002">
    <ele>368.98</ele>
   </trkpt>
   <trkpt lat="-37.88546" lon="145.32689000000002">
    <ele>366.09000000000003</ele>
   </trkpt>
   <trkpt lat="-37.88539" lon="145.32682">
    <ele>365.04</ele>
   </trkpt>
   <trkpt lat="-37.88532" lon="145.32677">
    <ele>363.66</ele>
   </trkpt>
   <trkpt lat="-37.88517" lon="145.32679000000002">
    <ele>361.7</ele>
   </trkpt>
   <trkpt lat="-37.8851" lon="145.32674">
    <ele>361.7</ele>
   </trkpt>
   <trkpt lat="-37.88503" lon="145.32657">
    <ele>360.31</ele>
   </trkpt>
   <trkpt lat="-37.88501" lon="145.32641">
    <ele>359.19</ele>
   </trkpt>
   <trkpt lat="-37.88481" lon="145.32615">
    <ele>355.34000000000003</ele>
   </trkpt>
   <trkpt lat="-37.88472" lon="145.32611">
    <ele>354.50000000000006</ele>
   </trkpt>
   <trkpt lat="-37.8847" lon="145.32606">
    <ele>353.74000000000007</ele>
   </trkpt>
   <trkpt lat="-37.88467" lon="145.32594">
    <ele>353.04</ele>
   </trkpt>
   <trkpt lat="-37.88472" lon="145.32581000000002">
    <ele>351.7</ele>
   </trkpt>
   <trkpt lat="-37.88483" lon="145.32566">
    <ele>350.39000000000004</ele>
   </trkpt>
   <trkpt lat="-37.8849" lon="145.32534">
    <ele>346.54</ele>
   </trkpt>
   <trkpt lat="-37.88494" lon="145.32504">
    <ele>341.51000000000005</ele>
   </trkpt>
   <trkpt lat="-37.88494" lon="145.32475000000002">
    <ele>337.79</ele>
   </trkpt>
   <trkpt lat="-37.8849" lon="145.32459">
    <ele>335.87</ele>
   </trkpt>
   <trkpt lat="-37.88481" lon="145.32436">
    <ele>333.63000000000005</ele>
   </trkpt>
   <trkpt lat="-37.88481" lon="145.32417">
    <ele>330.31000000000006</ele>
   </trkpt>
   <trkpt lat="-37.88483" lon="145.32404000000002">
    <ele>329.18</ele>
   </trkpt>
   <trkpt lat="-37.88481" lon="145.32355">
    <ele>318.07</ele>
   </trkpt>
   <trkpt lat="-37.8849" lon="145.32336">
    <ele>315.27000000000004</ele>
   </trkpt>
   <trkpt lat="-37.88488" lon="145.32315">
    <ele>313.8</ele>
   </trkpt>
   <trkpt lat="-37.88479" lon="145.32282">
    <ele>309.09000000000003</ele>
   </trkpt>
   <trkpt lat="-37.88465" lon="145.32261000000003">
    <ele>304.92</ele>
   </trkpt>
   <trkpt lat="-37.884570000000004" lon="145.32260000000002">
    <ele>304.91</ele>
   </trkpt>
   <trkpt lat="-37.88447" lon="145.32227">
    <ele>302.03000000000003</ele>
   </trkpt>
   <trkpt lat="-37.88443" lon="145.32186000000002">
    <ele>299.27000000000004</ele>
   </trkpt>
   <trkpt lat="-37.88432" lon="145.32141000000001">
    <ele>292.06000000000006</ele>
   </trkpt>
   <trkpt lat="-37.88423" lon="145.32127">
    <ele>290.3</ele>
   </trkpt>
   <trkpt lat="-37.88416" lon="145.3211">
    <ele>289.08</ele>
   </trkpt>
   <trkpt lat="-37.88416" lon="145.32099000000002">
    <ele>286.58</ele>
   </trkpt>
   <trkpt lat="-37.88425" lon="145.32069">
    <ele>284.31</ele>
   </trkpt>
   <trkpt lat="-37.88429" lon="145.32048">
    <ele>282.24000000000007</ele>
   </trkpt>
   <trkpt lat="-37.88425" lon="145.3202">
    <ele>279.43</ele>
   </trkpt>
   <trkpt lat="-37.88416" lon="145.31998000000002">
    <ele>277.81</ele>
   </trkpt>
   <trkpt lat="-37.88416" lon="145.31972000000002">
    <ele>274.44</ele>
   </trkpt>
   <trkpt lat="-37.88409" lon="145.31915">
    <ele>269.08000000000004</ele>
   </trkpt>
   <trkpt lat="-37.884" lon="145.31884000000002">
    <ele>266.57000000000005</ele>
   </trkpt>
   <trkpt lat="-37.88378" lon="145.31852">
    <ele>263.35</ele>
   </trkpt>
   <trkpt lat="-37.88373" lon="145.31835">
    <ele>262.02000000000004</ele>
   </trkpt>
   <trkpt lat="-37.88396" lon="145.31833">
    <ele>258.47</ele>
   </trkpt>
   <trkpt lat="-37.88429" lon="145.31839000000002">
    <ele>254.45000000000002</ele>
   </trkpt>
   <trkpt lat="-37.88479" lon="145.31835">
    <ele>247.84000000000003</ele>
   </trkpt>
   <trkpt lat="-37.88528" lon="145.31820000000002">
    <ele>237.13</ele>
   </trkpt>
   <trkpt lat="-37.88537" lon="145.31811000000002">
    <ele>236.40000000000003</ele>
   </trkpt>
   <trkpt lat="-37.88546" lon="145.31806">
    <ele>235.15000000000003</ele>
   </trkpt>
   <trkpt lat="-37.88553" lon="145.31806">
    <ele>235.0</ele>
   </trkpt>
   <trkpt lat="-37.885740000000006" lon="145.31805">
    <ele>232.4</ele>
   </trkpt>
   <trkpt lat="-37.885830000000006" lon="145.31797">
    <ele>231.27000000000004</ele>
   </trkpt>
   <trkpt lat="-37.88611" lon="145.31784000000002">
    <ele>229.39000000000001</ele>
   </trkpt>
   <trkpt lat="-37.88667" lon="145.31742">
    <ele>227.94000000000003</ele>
   </trkpt>
   <trkpt lat="-37.886880000000005" lon="145.31755">
    <ele>225.13000000000002</ele>
   </trkpt>
   <trkpt lat="-37.88712" lon="145.31764">
    <ele>220.62</ele>
   </trkpt>
   <trkpt lat="-37.88761" lon="145.31761">
    <ele>213.79</ele>
   </trkpt>
   <trkpt lat="-37.88772" lon="145.31759000000002">
    <ele>212.13</ele>
   </trkpt>
   <trkpt lat="-37.88781" lon="145.31755">
    <ele>210.61</ele>
   </trkpt>
   <trkpt lat="-37.88787000000001" lon="145.31756000000001">
    <ele>210.61</ele>
   </trkpt>
   <trkpt lat="-37.88808" lon="145.31744">
    <ele>208.27</ele>
   </trkpt>
   <trkpt lat="-37.888270000000006" lon="145.31747000000001">
    <ele>206.8</ele>
   </trkpt>
   <trkpt lat="-37.88828" lon="145.31748000000002">
    <ele>206.8</ele>
   </trkpt>
   <trkpt lat="-37.88839" lon="145.31750000000002">
    <ele>204.59</ele>
   </trkpt>
   <trkpt lat="-37.88846" lon="145.31753">
    <ele>204.59</ele>
   </trkpt>
   <trkpt lat="-37.88866" lon="145.31772">
    <ele>201.53</ele>
   </trkpt>
   <trkpt lat="-37.888830000000006" lon="145.31773">
    <ele>200.57000000000002</ele>
   </trkpt>
   <trkpt lat="-37.88884" lon="145.31775000000002">
    <ele>200.57000000000002</ele>
   </trkpt>
   <trkpt lat="-37.88893" lon="145.31777000000002">
    <ele>198.34</ele>
   </trkpt>
   <trkpt lat="-37.88895" lon="145.31774000000001">
    <ele>198.34</ele>
   </trkpt>
   <trkpt lat="-37.88931" lon="145.31776000000002">
    <ele>195.33</ele>
   </trkpt>
   <trkpt lat="-37.889410000000005" lon="145.31771">
    <ele>193.84</ele>
   </trkpt>
   <trkpt lat="-37.88967" lon="145.31767000000002">
    <ele>191.47000000000003</ele>
   </trkpt>
   <trkpt lat="-37.88974" lon="145.31771">
    <ele>190.95000000000002</ele>
   </trkpt>
   <trkpt lat="-37.88978" lon="145.31768000000002">
    <ele>190.41000000000003</ele>
   </trkpt>
   <trkpt lat="-37.88987" lon="145.31762">
    <ele>190.41000000000003</ele>
   </trkpt>
   <trkpt lat="-37.89031000000001" lon="145.31750000000002">
    <ele>185.12</ele>
   </trkpt>
   <trkpt lat="-37.89038" lon="145.31751">
    <ele>184.25000000000003</ele>
   </trkpt>
   <trkpt lat="-37.890440000000005" lon="145.31758000000002">
    <ele>184.25000000000003</ele>
   </trkpt>
   <trkpt lat="-37.89049" lon="145.31756000000001">
    <ele>184.17000000000002</ele>
   </trkpt>
   <trkpt lat="-37.8905" lon="145.31752">
    <ele>184.17000000000002</ele>
   </trkpt>
   <trkpt lat="-37.89058" lon="145.31753">
    <ele>183.29</ele>
   </trkpt>
   <trkpt lat="-37.89067" lon="145.31745">
    <ele>181.31000000000003</ele>
   </trkpt>
   <trkpt lat="-37.89083" lon="145.31740000000002">
    <ele>179.20000000000002</ele>
   </trkpt>
   <trkpt lat="-37.89092" lon="145.31734">
    <ele>179.20000000000002</ele>
   </trkpt>
  </trkseg>
 </trk>
</gpx>
