<?xml version="1.0" encoding="UTF-8"?>
<gpx creator="StravaGPX" version="1.1" xmlns="http://www.topografix.com/GPX/1/1" xmlns:xsi="http://www.w3.org/2001/XMLSchema-instance" xsi:schemaLocation="http://www.topografix.com/GPX/1/1 http://www.topografix.com/GPX/1/1/gpx.xsd">
 <metadata>
  <name>Sunday 4th January 2026 Olinda 8k</name>
  <author>
   <name>john csorgo</name>
   <link href="https://www.strava.com/athletes/61185584"/>
  </author>
  <copyright author="OpenStreetMap contributors">
   <year>2020</year>
   <license>https://www.openstreetmap.org/copyright</license>
  </copyright>
  <link href="https://www.strava.com/routes/3441741730257865924"/>
 </metadata>
 <trk>
  <name>Sunday 4th January 2026 Olinda 8k</name>
  <link href="https://www.strava.com/routes/3441741730257865924"/>
  <type>running</type>
  <trkseg>
   <trkpt lat="-37.85314" lon="145.36833000000001">
    <ele>578.37</ele>
   </trkpt>
   <trkpt lat="-37.853660000000005" lon="145.36857">
    <ele>579.07</ele>
   </trkpt>
   <trkpt lat="-37.85409000000001" lon="145.36882">
    <ele>576.34</ele>
   </trkpt>
   <trkpt lat="-37.85441" lon="145.36911">
    <ele>572.4100000000001</ele>
   </trkpt>
   <trkpt lat="-37.85421" lon="145.36937">
    <ele>572.8700000000001</ele>
   </trkpt>
   <trkpt lat="-37.85412500393108" lon="145.37033500118534">
    <ele>575.96</ele>
   </trkpt>
   <trkpt lat="-37.854040000000005" lon="145.37130000000002">
    <ele>579.0500000000001</ele>
   </trkpt>
   <trkpt lat="-37.854020000000006" lon="145.37182">
    <ele>579.33</ele>
   </trkpt>
   <trkpt lat="-37.85405" lon="145.37220000000002">
    <ele>579.73</ele>
   </trkpt>
   <trkpt lat="-37.85414" lon="145.37239000000002">
    <ele>579.62</ele>
   </trkpt>
   <trkpt lat="-37.8543" lon="145.37263000000002">
    <ele>579.35</ele>
   </trkpt>
   <trkpt lat="-37.85448" lon="145.37287">
    <ele>578.91</ele>
   </trkpt>
   <trkpt lat="-37.85484500071746" lon="145.3732699980644">
    <ele>578.3100000000001</ele>
   </trkpt>
   <trkpt lat="-37.85521" lon="145.37367">
    <ele>578.1500000000001</ele>
   </trkpt>
   <trkpt lat="-37.85531" lon="145.37379">
    <ele>578.2900000000001</ele>
   </trkpt>
   <trkpt lat="-37.85535" lon="145.37377">
    <ele>578.0500000000001</ele>
   </trkpt>
   <trkpt lat="-37.85567500077416" lon="145.37416499839765">
    <ele>578.3900000000001</ele>
   </trkpt>
   <trkpt lat="-37.856" lon="145.37456">
    <ele>576.76</ele>
   </trkpt>
   <trkpt lat="-37.856260000000006" lon="145.37480000000002">
    <ele>574.04</ele>
   </trkpt>
   <trkpt lat="-37.85622" lon="145.37490000000003">
    <ele>574.1</ele>
   </trkpt>
   <trkpt lat="-37.85683" lon="145.37527">
    <ele>567.46</ele>
   </trkpt>
   <trkpt lat="-37.85714" lon="145.37555">
    <ele>565.0200000000001</ele>
   </trkpt>
   <trkpt lat="-37.8575" lon="145.37597000000002">
    <ele>561.06</ele>
   </trkpt>
   <trkpt lat="-37.85786" lon="145.37659000000002">
    <ele>554.4300000000001</ele>
   </trkpt>
   <trkpt lat="-37.85822" lon="145.37729000000002">
    <ele>547.6800000000001</ele>
   </trkpt>
   <trkpt lat="-37.85854000173349" lon="145.37793499714812">
    <ele>542.5000000000001</ele>
   </trkpt>
   <trkpt lat="-37.85886" lon="145.37858">
    <ele>535.09</ele>
   </trkpt>
   <trkpt lat="-37.859" lon="145.37889">
    <ele>531.02</ele>
   </trkpt>
   <trkpt lat="-37.85922" lon="145.37926000000002">
    <ele>528.3500000000001</ele>
   </trkpt>
   <trkpt lat="-37.8595700005479" lon="145.37964999804194">
    <ele>525.7900000000001</ele>
   </trkpt>
   <trkpt lat="-37.85992" lon="145.38004">
    <ele>522.32</ele>
   </trkpt>
   <trkpt lat="-37.860330000000005" lon="145.38064">
    <ele>518.78</ele>
   </trkpt>
   <trkpt lat="-37.86032" lon="145.38089000000002">
    <ele>517.73</ele>
   </trkpt>
   <trkpt lat="-37.86027" lon="145.38124000000002">
    <ele>517.0100000000001</ele>
   </trkpt>
   <trkpt lat="-37.86021" lon="145.38127">
    <ele>516.95</ele>
   </trkpt>
   <trkpt lat="-37.86007" lon="145.38119">
    <ele>518.63</ele>
   </trkpt>
   <trkpt lat="-37.860020000000006" lon="145.38135000000003">
    <ele>519.21</ele>
   </trkpt>
   <trkpt lat="-37.85998" lon="145.38159000000002">
    <ele>519.0600000000001</ele>
   </trkpt>
   <trkpt lat="-37.859930000000006" lon="145.38259000000002">
    <ele>518.37</ele>
   </trkpt>
   <trkpt lat="-37.85983" lon="145.38273">
    <ele>517.26</ele>
   </trkpt>
   <trkpt lat="-37.859770000000005" lon="145.38287000000003">
    <ele>515.39</ele>
   </trkpt>
   <trkpt lat="-37.8598" lon="145.38292">
    <ele>514.1999999999999</ele>
   </trkpt>
   <trkpt lat="-37.85987" lon="145.38334">
    <ele>510.9600000000001</ele>
   </trkpt>
   <trkpt lat="-37.8598" lon="145.38387">
    <ele>507.2300000000001</ele>
   </trkpt>
   <trkpt lat="-37.85974" lon="145.38416">
    <ele>505.40000000000003</ele>
   </trkpt>
   <trkpt lat="-37.85974" lon="145.38429000000002">
    <ele>503.84000000000003</ele>
   </trkpt>
   <trkpt lat="-37.85971" lon="145.38439000000002">
    <ele>502.69000000000005</ele>
   </trkpt>
   <trkpt lat="-37.85965" lon="145.38445000000002">
    <ele>502.07</ele>
   </trkpt>
   <trkpt lat="-37.8594" lon="145.38458">
    <ele>497.44000000000005</ele>
   </trkpt>
   <trkpt lat="-37.85927" lon="145.38478">
    <ele>492.86</ele>
   </trkpt>
   <trkpt lat="-37.85924" lon="145.38524">
    <ele>486.78000000000003</ele>
   </trkpt>
   <trkpt lat="-37.8592" lon="145.3854">
    <ele>484.29</ele>
   </trkpt>
   <trkpt lat="-37.85891" lon="145.38586">
    <ele>476.38</ele>
   </trkpt>
   <trkpt lat="-37.85871" lon="145.38611">
    <ele>472.36000000000007</ele>
   </trkpt>
   <trkpt lat="-37.8586" lon="145.3862">
    <ele>471.86000000000007</ele>
   </trkpt>
   <trkpt lat="-37.85839" lon="145.38625000000002">
    <ele>468.46000000000004</ele>
   </trkpt>
   <trkpt lat="-37.85824" lon="145.38625000000002">
    <ele>466.55</ele>
   </trkpt>
   <trkpt lat="-37.85819" lon="145.38623">
    <ele>462.32000000000005</ele>
   </trkpt>
   <trkpt lat="-37.85817" lon="145.3862">
    <ele>462.32000000000005</ele>
   </trkpt>
   <trkpt lat="-37.85821" lon="145.38609000000002">
    <ele>461.29</ele>
   </trkpt>
   <trkpt lat="-37.85821" lon="145.38587">
    <ele>456.53000000000003</ele>
   </trkpt>
   <trkpt lat="-37.85815" lon="145.38567">
    <ele>452.64000000000004</ele>
   </trkpt>
   <trkpt lat="-37.858050000000006" lon="145.38551">
    <ele>450.14000000000004</ele>
   </trkpt>
   <trkpt lat="-37.85797" lon="145.38532">
    <ele>448.97</ele>
   </trkpt>
   <trkpt lat="-37.85772" lon="145.38498">
    <ele>447.09000000000003</ele>
   </trkpt>
   <trkpt lat="-37.8577" lon="145.38496">
    <ele>447.00000000000006</ele>
   </trkpt>
   <trkpt lat="-37.8575" lon="145.38472000000002">
    <ele>445.51</ele>
   </trkpt>
   <trkpt lat="-37.85741" lon="145.38446000000002">
    <ele>444.49000000000007</ele>
   </trkpt>
   <trkpt lat="-37.85739" lon="145.38424">
    <ele>444.13</ele>
   </trkpt>
   <trkpt lat="-37.85739" lon="145.38403000000002">
    <ele>442.87</ele>
   </trkpt>
   <trkpt lat="-37.8575" lon="145.38337">
    <ele>441.1700000000001</ele>
   </trkpt>
   <trkpt lat="-37.85752" lon="145.38283">
    <ele>439.75</ele>
   </trkpt>
   <trkpt lat="-37.8575" lon="145.38250000000002">
    <ele>439.20000000000005</ele>
   </trkpt>
   <trkpt lat="-37.857440000000004" lon="145.38230000000001">
    <ele>438.94000000000005</ele>
   </trkpt>
   <trkpt lat="-37.85736" lon="145.38193">
    <ele>438.73</ele>
   </trkpt>
   <trkpt lat="-37.857290000000006" lon="145.38182">
    <ele>438.69</ele>
   </trkpt>
   <trkpt lat="-37.85712" lon="145.38146">
    <ele>437.89000000000004</ele>
   </trkpt>
   <trkpt lat="-37.857020000000006" lon="145.38128">
    <ele>437.69</ele>
   </trkpt>
   <trkpt lat="-37.85687" lon="145.38117000000003">
    <ele>437.28000000000003</ele>
   </trkpt>
   <trkpt lat="-37.856790000000004" lon="145.38113">
    <ele>436.84000000000003</ele>
   </trkpt>
   <trkpt lat="-37.85669" lon="145.38112">
    <ele>436.26000000000005</ele>
   </trkpt>
   <trkpt lat="-37.8564" lon="145.38117000000003">
    <ele>436.44000000000005</ele>
   </trkpt>
   <trkpt lat="-37.856170000000006" lon="145.38129">
    <ele>436.93</ele>
   </trkpt>
   <trkpt lat="-37.85591" lon="145.38134000000002">
    <ele>437.45000000000005</ele>
   </trkpt>
   <trkpt lat="-37.85546" lon="145.38168000000002">
    <ele>430.98</ele>
   </trkpt>
   <trkpt lat="-37.85495" lon="145.38212000000001">
    <ele>418.83000000000004</ele>
   </trkpt>
   <trkpt lat="-37.85453500032642" lon="145.38244000188357">
    <ele>412.12000000000006</ele>
   </trkpt>
   <trkpt lat="-37.85412" lon="145.38276000000002">
    <ele>401.37000000000006</ele>
   </trkpt>
   <trkpt lat="-37.85376" lon="145.38289">
    <ele>395.20000000000005</ele>
   </trkpt>
   <trkpt lat="-37.85329" lon="145.38318">
    <ele>385.28000000000003</ele>
   </trkpt>
   <trkpt lat="-37.85282" lon="145.38353">
    <ele>373.94000000000005</ele>
   </trkpt>
   <trkpt lat="-37.852250000000005" lon="145.38383000000002">
    <ele>361.1</ele>
   </trkpt>
   <trkpt lat="-37.85224" lon="145.38383000000002">
    <ele>365.27000000000004</ele>
   </trkpt>
   <trkpt lat="-37.85195" lon="145.38403000000002">
    <ele>359.32</ele>
   </trkpt>
   <trkpt lat="-37.85181" lon="145.38418000000001">
    <ele>354.87</ele>
   </trkpt>
   <trkpt lat="-37.85168" lon="145.38429000000002">
    <ele>352.06000000000006</ele>
   </trkpt>
   <trkpt lat="-37.85145" lon="145.38439000000002">
    <ele>347.15000000000003</ele>
   </trkpt>
   <trkpt lat="-37.85094" lon="145.38438000000002">
    <ele>336.05</ele>
   </trkpt>
   <trkpt lat="-37.8506" lon="145.38444">
    <ele>329.44</ele>
   </trkpt>
   <trkpt lat="-37.84984" lon="145.38484000000003">
    <ele>316.61</ele>
   </trkpt>
   <trkpt lat="-37.849700000000006" lon="145.38484000000003">
    <ele>315.33</ele>
   </trkpt>
   <trkpt lat="-37.84962" lon="145.38474000000002">
    <ele>313.96000000000004</ele>
   </trkpt>
   <trkpt lat="-37.849500000000006" lon="145.38479">
    <ele>313.06</ele>
   </trkpt>
   <trkpt lat="-37.84951" lon="145.38479">
    <ele>313.06</ele>
   </trkpt>
   <trkpt lat="-37.84946" lon="145.38481000000002">
    <ele>313.06</ele>
   </trkpt>
   <trkpt lat="-37.84924" lon="145.38505">
    <ele>310.76000000000005</ele>
   </trkpt>
   <trkpt lat="-37.84908" lon="145.38527000000002">
    <ele>307.88000000000005</ele>
   </trkpt>
   <trkpt lat="-37.84886" lon="145.3855">
    <ele>304.76000000000005</ele>
   </trkpt>
   <trkpt lat="-37.84841" lon="145.38582000000002">
    <ele>301.35</ele>
   </trkpt>
   <trkpt lat="-37.84821" lon="145.38600000000002">
    <ele>297.85</ele>
   </trkpt>
   <trkpt lat="-37.84803" lon="145.38611">
    <ele>297.07</ele>
   </trkpt>
   <trkpt lat="-37.84774" lon="145.38622">
    <ele>295.37</ele>
   </trkpt>
   <trkpt lat="-37.84749" lon="145.38625000000002">
    <ele>294.66</ele>
   </trkpt>
   <trkpt lat="-37.84727" lon="145.38623">
    <ele>294.95000000000005</ele>
   </trkpt>
   <trkpt lat="-37.84655" lon="145.38557">
    <ele>302.07</ele>
   </trkpt>
   <trkpt lat="-37.84628" lon="145.3854">
    <ele>305.65000000000003</ele>
   </trkpt>
   <trkpt lat="-37.84601" lon="145.38532">
    <ele>309.48</ele>
   </trkpt>
   <trkpt lat="-37.84568" lon="145.38528000000002">
    <ele>315.0</ele>
   </trkpt>
   <trkpt lat="-37.84521" lon="145.38525">
    <ele>319.94</ele>
   </trkpt>
   <trkpt lat="-37.8451" lon="145.38520000000003">
    <ele>320.59000000000003</ele>
   </trkpt>
   <trkpt lat="-37.84507" lon="145.38525">
    <ele>320.55</ele>
   </trkpt>
   <trkpt lat="-37.844930000000005" lon="145.38529">
    <ele>320.3</ele>
   </trkpt>
   <trkpt lat="-37.84487" lon="145.3854">
    <ele>319.68</ele>
   </trkpt>
   <trkpt lat="-37.84483" lon="145.38562000000002">
    <ele>317.5</ele>
   </trkpt>
   <trkpt lat="-37.84445000127426" lon="145.38614000250016">
    <ele>312.71999999999997</ele>
   </trkpt>
   <trkpt lat="-37.84407" lon="145.38666">
    <ele>304.98</ele>
   </trkpt>
   <trkpt lat="-37.8438" lon="145.38695">
    <ele>300.66</ele>
   </trkpt>
   <trkpt lat="-37.84369" lon="145.38717000000003">
    <ele>297.94000000000005</ele>
   </trkpt>
   <trkpt lat="-37.84337" lon="145.38748">
    <ele>293.83000000000004</ele>
   </trkpt>
   <trkpt lat="-37.84317" lon="145.38776000000001">
    <ele>290.46000000000004</ele>
   </trkpt>
   <trkpt lat="-37.84297" lon="145.38794000000001">
    <ele>288.27000000000004</ele>
   </trkpt>
   <trkpt lat="-37.842830000000006" lon="145.38816">
    <ele>286.74000000000007</ele>
   </trkpt>
   <trkpt lat="-37.84243" lon="145.38848000000002">
    <ele>281.93</ele>
   </trkpt>
   <trkpt lat="-37.84237" lon="145.38848000000002">
    <ele>281.93</ele>
   </trkpt>
   <trkpt lat="-37.84237" lon="145.38825">
    <ele>281.07000000000005</ele>
   </trkpt>
   <trkpt lat="-37.842470000000006" lon="145.38771">
    <ele>278.74</ele>
   </trkpt>
   <trkpt lat="-37.84261" lon="145.38726">
    <ele>278.2</ele>
   </trkpt>
   <trkpt lat="-37.8427" lon="145.38637">
    <ele>277.41</ele>
   </trkpt>
   <trkpt lat="-37.84277" lon="145.38612">
    <ele>277.69000000000005</ele>
   </trkpt>
   <trkpt lat="-37.84286" lon="145.38585">
    <ele>278.61</ele>
   </trkpt>
   <trkpt lat="-37.84299" lon="145.38529">
    <ele>281.30000000000007</ele>
   </trkpt>
   <trkpt lat="-37.84304" lon="145.38501000000002">
    <ele>281.30000000000007</ele>
   </trkpt>
   <trkpt lat="-37.84299" lon="145.38485">
    <ele>281.6</ele>
   </trkpt>
   <trkpt lat="-37.84292000000001" lon="145.38473000000002">
    <ele>282.15000000000003</ele>
   </trkpt>
   <trkpt lat="-37.84297" lon="145.38451">
    <ele>283.43</ele>
   </trkpt>
   <trkpt lat="-37.84295" lon="145.38430000000002">
    <ele>286.8</ele>
   </trkpt>
   <trkpt lat="-37.84286" lon="145.38411000000002">
    <ele>288.37</ele>
   </trkpt>
   <trkpt lat="-37.84281" lon="145.38376000000002">
    <ele>291.15000000000003</ele>
   </trkpt>
   <trkpt lat="-37.84281" lon="145.38357000000002">
    <ele>292.66</ele>
   </trkpt>
   <trkpt lat="-37.84281" lon="145.38304000000002">
    <ele>296.28000000000003</ele>
   </trkpt>
   <trkpt lat="-37.84279" lon="145.38266000000002">
    <ele>299.61</ele>
   </trkpt>
   <trkpt lat="-37.84272" lon="145.38237">
    <ele>304.03000000000003</ele>
   </trkpt>
   <trkpt lat="-37.84263" lon="145.38217">
    <ele>305.26000000000005</ele>
   </trkpt>
   <trkpt lat="-37.84248" lon="145.38167">
    <ele>312.02000000000004</ele>
   </trkpt>
   <trkpt lat="-37.84248" lon="145.38133000000002">
    <ele>314.14000000000004</ele>
   </trkpt>
   <trkpt lat="-37.84243" lon="145.38109">
    <ele>316.17</ele>
   </trkpt>
   <trkpt lat="-37.8423" lon="145.38066">
    <ele>319.77</ele>
   </trkpt>
   <trkpt lat="-37.84205" lon="145.38012">
    <ele>324.81000000000006</ele>
   </trkpt>
   <trkpt lat="-37.84201" lon="145.38002">
    <ele>324.64000000000004</ele>
   </trkpt>
   <trkpt lat="-37.84185" lon="145.37971000000002">
    <ele>325.88</ele>
   </trkpt>
   <trkpt lat="-37.84154" lon="145.37922">
    <ele>328.32</ele>
   </trkpt>
   <trkpt lat="-37.84122" lon="145.37847000000002">
    <ele>330.15000000000003</ele>
   </trkpt>
   <trkpt lat="-37.84103" lon="145.37786">
    <ele>333.17</ele>
   </trkpt>
   <trkpt lat="-37.840990000000005" lon="145.37779">
    <ele>333.20000000000005</ele>
   </trkpt>
   <trkpt lat="-37.840970000000006" lon="145.37764">
    <ele>334.16</ele>
   </trkpt>
   <trkpt lat="-37.84089" lon="145.37754">
    <ele>334.99</ele>
   </trkpt>
   <trkpt lat="-37.84046" lon="145.37711000000002">
    <ele>343.96000000000004</ele>
   </trkpt>
   <trkpt lat="-37.84024" lon="145.37681">
    <ele>348.16</ele>
   </trkpt>
   <trkpt lat="-37.83999500117897" lon="145.37628499828548">
    <ele>355.12000000000006</ele>
   </trkpt>
   <trkpt lat="-37.83975" lon="145.37576">
    <ele>361.99</ele>
   </trkpt>
   <trkpt lat="-37.83948000276182" lon="145.37494999699896">
    <ele>370.64000000000004</ele>
   </trkpt>
   <trkpt lat="-37.83921" lon="145.37414">
    <ele>378.74</ele>
   </trkpt>
   <trkpt lat="-37.8391" lon="145.37399000000002">
    <ele>379.63</ele>
   </trkpt>
   <trkpt lat="-37.83883" lon="145.37376">
    <ele>380.3</ele>
   </trkpt>
   <trkpt lat="-37.83858" lon="145.37359">
    <ele>380.6</ele>
   </trkpt>
   <trkpt lat="-37.83847" lon="145.37354000000002">
    <ele>381.23</ele>
   </trkpt>
   <trkpt lat="-37.83822" lon="145.37348">
    <ele>385.1</ele>
   </trkpt>
   <trkpt lat="-37.83805" lon="145.37351">
    <ele>390.15000000000003</ele>
   </trkpt>
   <trkpt lat="-37.83791" lon="145.37358">
    <ele>393.40000000000003</ele>
   </trkpt>
   <trkpt lat="-37.837880000000006" lon="145.37362000000002">
    <ele>393.66</ele>
   </trkpt>
   <trkpt lat="-37.83784" lon="145.37368">
    <ele>395.59000000000003</ele>
   </trkpt>
   <trkpt lat="-37.83764" lon="145.37427000000002">
    <ele>404.66</ele>
   </trkpt>
   <trkpt lat="-37.83746" lon="145.37449">
    <ele>406.78000000000003</ele>
   </trkpt>
   <trkpt lat="-37.83735" lon="145.37466">
    <ele>407.17</ele>
   </trkpt>
   <trkpt lat="-37.83719" lon="145.37407000000002">
    <ele>408.52000000000004</ele>
   </trkpt>
   <trkpt lat="-37.83719" lon="145.37388">
    <ele>409.14000000000004</ele>
   </trkpt>
   <trkpt lat="-37.83708" lon="145.37331">
    <ele>413.13000000000005</ele>
   </trkpt>
   <trkpt lat="-37.83699" lon="145.37235">
    <ele>423.55</ele>
   </trkpt>
   <trkpt lat="-37.837030000000006" lon="145.3719">
    <ele>426.98</ele>
   </trkpt>
   <trkpt lat="-37.83699" lon="145.37133">
    <ele>429.99</ele>
   </trkpt>
   <trkpt lat="-37.837030000000006" lon="145.37094000000002">
    <ele>431.3</ele>
   </trkpt>
   <trkpt lat="-37.83701000000001" lon="145.37063">
    <ele>434.20000000000005</ele>
   </trkpt>
   <trkpt lat="-37.83737" lon="145.37053">
    <ele>434.00000000000006</ele>
   </trkpt>
   <trkpt lat="-37.83769" lon="145.37040000000002">
    <ele>430.39000000000004</ele>
   </trkpt>
   <trkpt lat="-37.83798" lon="145.37023000000002">
    <ele>430.36</ele>
   </trkpt>
   <trkpt lat="-37.83849" lon="145.36997000000002">
    <ele>436.29</ele>
   </trkpt>
   <trkpt lat="-37.83869" lon="145.36991">
    <ele>440.13</ele>
   </trkpt>
   <trkpt lat="-37.83885" lon="145.3698">
    <ele>442.1</ele>
   </trkpt>
   <trkpt lat="-37.8391" lon="145.36968000000002">
    <ele>445.18</ele>
   </trkpt>
   <trkpt lat="-37.839560000000006" lon="145.36941000000002">
    <ele>450.90000000000003</ele>
   </trkpt>
   <trkpt lat="-37.83975" lon="145.36926000000003">
    <ele>455.82000000000005</ele>
   </trkpt>
   <trkpt lat="-37.839940000000006" lon="145.36906000000002">
    <ele>460.43000000000006</ele>
   </trkpt>
   <trkpt lat="-37.83999" lon="145.36903">
    <ele>460.93000000000006</ele>
   </trkpt>
   <trkpt lat="-37.84022" lon="145.36902">
    <ele>463.11</ele>
   </trkpt>
   <trkpt lat="-37.84057" lon="145.36894">
    <ele>468.97</ele>
   </trkpt>
   <trkpt lat="-37.84087" lon="145.36892">
    <ele>472.08000000000004</ele>
   </trkpt>
   <trkpt lat="-37.840970000000006" lon="145.36842000000001">
    <ele>475.12</ele>
   </trkpt>
   <trkpt lat="-37.84096" lon="145.36811">
    <ele>476.03000000000003</ele>
   </trkpt>
   <trkpt lat="-37.84169" lon="145.36817000000002">
    <ele>484.65000000000003</ele>
   </trkpt>
   <trkpt lat="-37.84181" lon="145.36819">
    <ele>484.65000000000003</ele>
   </trkpt>
   <trkpt lat="-37.84223" lon="145.36838">
    <ele>492.17</ele>
   </trkpt>
   <trkpt lat="-37.84237" lon="145.36848">
    <ele>493.59000000000003</ele>
   </trkpt>
   <trkpt lat="-37.84299500170934" lon="145.3690999948293">
    <ele>501.65999999999997</ele>
   </trkpt>
   <trkpt lat="-37.84362" lon="145.36972">
    <ele>512.87</ele>
   </trkpt>
   <trkpt lat="-37.8438" lon="145.37016">
    <ele>517.11</ele>
   </trkpt>
   <trkpt lat="-37.84429" lon="145.37084000000002">
    <ele>520.93</ele>
   </trkpt>
   <trkpt lat="-37.84436" lon="145.37089">
    <ele>521.26</ele>
   </trkpt>
   <trkpt lat="-37.844300000000004" lon="145.37112000000002">
    <ele>513.1600000000001</ele>
   </trkpt>
   <trkpt lat="-37.844370000000005" lon="145.37138000000002">
    <ele>516.37</ele>
   </trkpt>
   <trkpt lat="-37.84449" lon="145.37144">
    <ele>517.03</ele>
   </trkpt>
   <trkpt lat="-37.84494" lon="145.37181">
    <ele>517.44</ele>
   </trkpt>
   <trkpt lat="-37.8449" lon="145.37178">
    <ele>517.46</ele>
   </trkpt>
   <trkpt lat="-37.84523" lon="145.37205">
    <ele>516.33</ele>
   </trkpt>
   <trkpt lat="-37.84544" lon="145.37217">
    <ele>514.85</ele>
   </trkpt>
   <trkpt lat="-37.84564" lon="145.37219000000002">
    <ele>514.63</ele>
   </trkpt>
   <trkpt lat="-37.84604" lon="145.37214">
    <ele>515.24</ele>
   </trkpt>
   <trkpt lat="-37.84628" lon="145.37214">
    <ele>515.38</ele>
   </trkpt>
   <trkpt lat="-37.84664" lon="145.37220000000002">
    <ele>515.72</ele>
   </trkpt>
   <trkpt lat="-37.84710999997619" lon="145.37235999893525">
    <ele>517.0600000000001</ele>
   </trkpt>
   <trkpt lat="-37.84758" lon="145.37252">
    <ele>518.0600000000001</ele>
   </trkpt>
   <trkpt lat="-37.84805" lon="145.37226">
    <ele>524.37</ele>
   </trkpt>
   <trkpt lat="-37.848290000000006" lon="145.37220000000002">
    <ele>526.32</ele>
   </trkpt>
   <trkpt lat="-37.8485" lon="145.37221000000002">
    <ele>528.21</ele>
   </trkpt>
   <trkpt lat="-37.84868" lon="145.37232">
    <ele>529.3800000000001</ele>
   </trkpt>
   <trkpt lat="-37.84886" lon="145.3725">
    <ele>529.82</ele>
   </trkpt>
   <trkpt lat="-37.84901" lon="145.37256000000002">
    <ele>530.48</ele>
   </trkpt>
   <trkpt lat="-37.84919" lon="145.37257000000002">
    <ele>532.15</ele>
   </trkpt>
   <trkpt lat="-37.84962" lon="145.37241">
    <ele>533.63</ele>
   </trkpt>
   <trkpt lat="-37.849830000000004" lon="145.37217">
    <ele>533.72</ele>
   </trkpt>
   <trkpt lat="-37.84985" lon="145.37202000000002">
    <ele>533.8000000000001</ele>
   </trkpt>
   <trkpt lat="-37.84991" lon="145.37107">
    <ele>537.63</ele>
   </trkpt>
   <trkpt lat="-37.84998" lon="145.37083">
    <ele>538.9200000000001</ele>
   </trkpt>
   <trkpt lat="-37.85007" lon="145.37069000000002">
    <ele>539.6899999999999</ele>
   </trkpt>
   <trkpt lat="-37.850170000000006" lon="145.37058000000002">
    <ele>541.36</ele>
   </trkpt>
   <trkpt lat="-37.85085" lon="145.37022000000002">
    <ele>545.46</ele>
   </trkpt>
   <trkpt lat="-37.85112" lon="145.37003">
    <ele>548.52</ele>
   </trkpt>
   <trkpt lat="-37.85117" lon="145.36996000000002">
    <ele>550.12</ele>
   </trkpt>
   <trkpt lat="-37.85139" lon="145.36960000000002">
    <ele>555.6000000000001</ele>
   </trkpt>
   <trkpt lat="-37.85152" lon="145.3692">
    <ele>558.9399999999999</ele>
   </trkpt>
   <trkpt lat="-37.85175" lon="145.36887000000002">
    <ele>561.15</ele>
   </trkpt>
   <trkpt lat="-37.85199" lon="145.36870000000002">
    <ele>563.76</ele>
   </trkpt>
   <trkpt lat="-37.852120000000006" lon="145.36866">
    <ele>565.79</ele>
   </trkpt>
   <trkpt lat="-37.85242" lon="145.36854000000002">
    <ele>572.11</ele>
   </trkpt>
   <trkpt lat="-37.85248" lon="145.36836000000002">
    <ele>573.96</ele>
   </trkpt>
   <trkpt lat="-37.852470000000004" lon="145.36822">
    <ele>573.77</ele>
   </trkpt>
   <trkpt lat="-37.85228" lon="145.36824000000001">
    <ele>570.88</ele>
   </trkpt>
   <trkpt lat="-37.8522" lon="145.36828">
    <ele>570.2900000000001</ele>
   </trkpt>
  </trkseg>
 </trk>
</gpx>
