<?xml version="1.0" encoding="UTF-8"?>
<gpx creator="StravaGPX" version="1.1" xmlns="http://www.topografix.com/GPX/1/1" xmlns:xsi="http://www.w3.org/2001/XMLSchema-instance" xsi:schemaLocation="http://www.topografix.com/GPX/1/1 http://www.topografix.com/GPX/1/1/gpx.xsd">
 <metadata>
  <name>DTR 8 Feb 20206 crazy 20k</name>
  <author>
   <name>Richard Jones</name>
   <link href="https://www.strava.com/athletes/38085969"/>
  </author>
  <copyright author="OpenStreetMap contributors">
   <year>2020</year>
   <license>https://www.openstreetmap.org/copyright</license>
  </copyright>
  <link href="https://www.strava.com/routes/3454387902682288604"/>
 </metadata>
 <trk>
  <name>DTR 8 Feb 20206 crazy 20k</name>
  <link href="https://www.strava.com/routes/3454387902682288604"/>
  <type>trail_running</type>
  <trkseg>
   <trkpt lat="-37.86269" lon="145.35319">
    <ele>478.86000000000007</ele>
   </trkpt>
   <trkpt lat="-37.86256" lon="145.35293000000001">
    <ele>477.39000000000004</ele>
   </trkpt>
   <trkpt lat="-37.86253" lon="145.35292">
    <ele>477.31</ele>
   </trkpt>
   <trkpt lat="-37.86253" lon="145.35285000000002">
    <ele>477.32</ele>
   </trkpt>
   <trkpt lat="-37.86242" lon="145.35278000000002">
    <ele>478.75000000000006</ele>
   </trkpt>
   <trkpt lat="-37.86222" lon="145.35236">
    <ele>473.19000000000005</ele>
   </trkpt>
   <trkpt lat="-37.86216" lon="145.35208">
    <ele>471.06</ele>
   </trkpt>
   <trkpt lat="-37.862140000000004" lon="145.35208">
    <ele>470.90000000000003</ele>
   </trkpt>
   <trkpt lat="-37.86216" lon="145.35208">
    <ele>471.06</ele>
   </trkpt>
   <trkpt lat="-37.86215" lon="145.35175">
    <ele>467.73</ele>
   </trkpt>
   <trkpt lat="-37.86222" lon="145.3514">
    <ele>466.59000000000003</ele>
   </trkpt>
   <trkpt lat="-37.86274" lon="145.35069000000001">
    <ele>458.27</ele>
   </trkpt>
   <trkpt lat="-37.86285" lon="145.35058">
    <ele>456.12</ele>
   </trkpt>
   <trkpt lat="-37.863130000000005" lon="145.34997">
    <ele>448.56</ele>
   </trkpt>
   <trkpt lat="-37.86321" lon="145.3496">
    <ele>443.78000000000003</ele>
   </trkpt>
   <trkpt lat="-37.86323" lon="145.3494">
    <ele>443.78000000000003</ele>
   </trkpt>
   <trkpt lat="-37.86318" lon="145.34895">
    <ele>438.39000000000004</ele>
   </trkpt>
   <trkpt lat="-37.86316" lon="145.34836">
    <ele>431.41</ele>
   </trkpt>
   <trkpt lat="-37.86312" lon="145.34826">
    <ele>429.84000000000003</ele>
   </trkpt>
   <trkpt lat="-37.86296" lon="145.34810000000002">
    <ele>427.81</ele>
   </trkpt>
   <trkpt lat="-37.86256" lon="145.34787">
    <ele>424.58</ele>
   </trkpt>
   <trkpt lat="-37.86245" lon="145.34777000000003">
    <ele>422.62000000000006</ele>
   </trkpt>
   <trkpt lat="-37.8622" lon="145.34749000000002">
    <ele>419.27000000000004</ele>
   </trkpt>
   <trkpt lat="-37.86206" lon="145.34726">
    <ele>416.17</ele>
   </trkpt>
   <trkpt lat="-37.86202" lon="145.34712000000002">
    <ele>414.34000000000003</ele>
   </trkpt>
   <trkpt lat="-37.86193" lon="145.34642000000002">
    <ele>406.48</ele>
   </trkpt>
   <trkpt lat="-37.86186" lon="145.34658000000002">
    <ele>406.90000000000003</ele>
   </trkpt>
   <trkpt lat="-37.861790000000006" lon="145.34698">
    <ele>407.67</ele>
   </trkpt>
   <trkpt lat="-37.86162" lon="145.34737">
    <ele>402.97</ele>
   </trkpt>
   <trkpt lat="-37.86162" lon="145.34753">
    <ele>401.86000000000007</ele>
   </trkpt>
   <trkpt lat="-37.86168" lon="145.34779">
    <ele>399.75000000000006</ele>
   </trkpt>
   <trkpt lat="-37.86164" lon="145.34794000000002">
    <ele>398.90000000000003</ele>
   </trkpt>
   <trkpt lat="-37.86159" lon="145.34802000000002">
    <ele>398.51000000000005</ele>
   </trkpt>
   <trkpt lat="-37.86128" lon="145.34822">
    <ele>394.53000000000003</ele>
   </trkpt>
   <trkpt lat="-37.86121" lon="145.34824">
    <ele>394.53000000000003</ele>
   </trkpt>
   <trkpt lat="-37.86112" lon="145.34822">
    <ele>392.14000000000004</ele>
   </trkpt>
   <trkpt lat="-37.86104" lon="145.34814">
    <ele>390.16</ele>
   </trkpt>
   <trkpt lat="-37.86097" lon="145.34804000000003">
    <ele>389.19000000000005</ele>
   </trkpt>
   <trkpt lat="-37.86097" lon="145.34788">
    <ele>388.01</ele>
   </trkpt>
   <trkpt lat="-37.86101" lon="145.34771">
    <ele>386.67</ele>
   </trkpt>
   <trkpt lat="-37.86101" lon="145.34763">
    <ele>385.56</ele>
   </trkpt>
   <trkpt lat="-37.86097" lon="145.34757000000002">
    <ele>384.89</ele>
   </trkpt>
   <trkpt lat="-37.86068" lon="145.34759000000003">
    <ele>378.71000000000004</ele>
   </trkpt>
   <trkpt lat="-37.86032" lon="145.34775000000002">
    <ele>373.27000000000004</ele>
   </trkpt>
   <trkpt lat="-37.86027" lon="145.34776000000002">
    <ele>373.27000000000004</ele>
   </trkpt>
   <trkpt lat="-37.859500000000004" lon="145.34782">
    <ele>365.53000000000003</ele>
   </trkpt>
   <trkpt lat="-37.85942" lon="145.34772">
    <ele>351.74000000000007</ele>
   </trkpt>
   <trkpt lat="-37.859370000000006" lon="145.34754">
    <ele>351.74000000000007</ele>
   </trkpt>
   <trkpt lat="-37.85931" lon="145.34758000000002">
    <ele>352.49</ele>
   </trkpt>
   <trkpt lat="-37.85918" lon="145.3476">
    <ele>353.68000000000006</ele>
   </trkpt>
   <trkpt lat="-37.8586" lon="145.34761">
    <ele>357.64</ele>
   </trkpt>
   <trkpt lat="-37.85853" lon="145.34743">
    <ele>354.78000000000003</ele>
   </trkpt>
   <trkpt lat="-37.85833" lon="145.34725">
    <ele>352.35</ele>
   </trkpt>
   <trkpt lat="-37.85819" lon="145.34719">
    <ele>350.64</ele>
   </trkpt>
   <trkpt lat="-37.857960000000006" lon="145.34694000000002">
    <ele>347.21000000000004</ele>
   </trkpt>
   <trkpt lat="-37.85765" lon="145.34672">
    <ele>343.83000000000004</ele>
   </trkpt>
   <trkpt lat="-37.857580000000006" lon="145.34655">
    <ele>341.1</ele>
   </trkpt>
   <trkpt lat="-37.85743" lon="145.34651000000002">
    <ele>339.21</ele>
   </trkpt>
   <trkpt lat="-37.85727" lon="145.34652">
    <ele>338.23</ele>
   </trkpt>
   <trkpt lat="-37.85703" lon="145.34650000000002">
    <ele>337.0</ele>
   </trkpt>
   <trkpt lat="-37.85696" lon="145.34644">
    <ele>336.76</ele>
   </trkpt>
   <trkpt lat="-37.85687" lon="145.34644">
    <ele>336.78000000000003</ele>
   </trkpt>
   <trkpt lat="-37.8566" lon="145.34635">
    <ele>341.02000000000004</ele>
   </trkpt>
   <trkpt lat="-37.85638" lon="145.34613000000002">
    <ele>346.1</ele>
   </trkpt>
   <trkpt lat="-37.85629" lon="145.34596000000002">
    <ele>346.87</ele>
   </trkpt>
   <trkpt lat="-37.85616" lon="145.34582">
    <ele>351.15000000000003</ele>
   </trkpt>
   <trkpt lat="-37.85607" lon="145.34561000000002">
    <ele>353.87</ele>
   </trkpt>
   <trkpt lat="-37.85562" lon="145.34508000000002">
    <ele>359.32</ele>
   </trkpt>
   <trkpt lat="-37.85553" lon="145.34492">
    <ele>359.58</ele>
   </trkpt>
   <trkpt lat="-37.85535" lon="145.34470000000002">
    <ele>360.42</ele>
   </trkpt>
   <trkpt lat="-37.85528" lon="145.34457">
    <ele>361.66</ele>
   </trkpt>
   <trkpt lat="-37.855250000000005" lon="145.34447">
    <ele>361.75</ele>
   </trkpt>
   <trkpt lat="-37.85515" lon="145.34415">
    <ele>360.02</ele>
   </trkpt>
   <trkpt lat="-37.8551" lon="145.34404">
    <ele>359.7</ele>
   </trkpt>
   <trkpt lat="-37.855050000000006" lon="145.34368">
    <ele>355.83000000000004</ele>
   </trkpt>
   <trkpt lat="-37.85492" lon="145.34354000000002">
    <ele>352.84000000000003</ele>
   </trkpt>
   <trkpt lat="-37.8549" lon="145.34348">
    <ele>352.16</ele>
   </trkpt>
   <trkpt lat="-37.85488" lon="145.34337000000002">
    <ele>350.34000000000003</ele>
   </trkpt>
   <trkpt lat="-37.85492" lon="145.34293000000002">
    <ele>345.12</ele>
   </trkpt>
   <trkpt lat="-37.85474" lon="145.3426">
    <ele>339.03000000000003</ele>
   </trkpt>
   <trkpt lat="-37.85472" lon="145.34233">
    <ele>335.35</ele>
   </trkpt>
   <trkpt lat="-37.85468" lon="145.34225">
    <ele>332.43</ele>
   </trkpt>
   <trkpt lat="-37.85448" lon="145.34206">
    <ele>322.65000000000003</ele>
   </trkpt>
   <trkpt lat="-37.85419" lon="145.34158000000002">
    <ele>312.83000000000004</ele>
   </trkpt>
   <trkpt lat="-37.85387" lon="145.34123000000002">
    <ele>315.86</ele>
   </trkpt>
   <trkpt lat="-37.85374" lon="145.34099">
    <ele>315.75</ele>
   </trkpt>
   <trkpt lat="-37.85365" lon="145.34067000000002">
    <ele>313.12</ele>
   </trkpt>
   <trkpt lat="-37.85358" lon="145.33991">
    <ele>302.83000000000004</ele>
   </trkpt>
   <trkpt lat="-37.853460000000005" lon="145.33943000000002">
    <ele>301.72</ele>
   </trkpt>
   <trkpt lat="-37.8534" lon="145.33894">
    <ele>298.35</ele>
   </trkpt>
   <trkpt lat="-37.85333" lon="145.33871000000002">
    <ele>296.56000000000006</ele>
   </trkpt>
   <trkpt lat="-37.85333" lon="145.33833">
    <ele>291.78000000000003</ele>
   </trkpt>
   <trkpt lat="-37.85327" lon="145.33823">
    <ele>291.14</ele>
   </trkpt>
   <trkpt lat="-37.85313" lon="145.33813">
    <ele>292.86</ele>
   </trkpt>
   <trkpt lat="-37.85304" lon="145.33812">
    <ele>295.1</ele>
   </trkpt>
   <trkpt lat="-37.85293" lon="145.33818000000002">
    <ele>297.84000000000003</ele>
   </trkpt>
   <trkpt lat="-37.85242" lon="145.33856">
    <ele>316.89</ele>
   </trkpt>
   <trkpt lat="-37.85233" lon="145.33851">
    <ele>318.36</ele>
   </trkpt>
   <trkpt lat="-37.85215" lon="145.33823">
    <ele>319.93000000000006</ele>
   </trkpt>
   <trkpt lat="-37.85206" lon="145.33798000000002">
    <ele>319.67</ele>
   </trkpt>
   <trkpt lat="-37.8519" lon="145.33773000000002">
    <ele>319.93000000000006</ele>
   </trkpt>
   <trkpt lat="-37.85177" lon="145.33761">
    <ele>319.94</ele>
   </trkpt>
   <trkpt lat="-37.85172" lon="145.33751">
    <ele>319.51</ele>
   </trkpt>
   <trkpt lat="-37.85168" lon="145.33735000000001">
    <ele>318.69</ele>
   </trkpt>
   <trkpt lat="-37.85139" lon="145.33696">
    <ele>317.21000000000004</ele>
   </trkpt>
   <trkpt lat="-37.85107" lon="145.33635">
    <ele>312.4</ele>
   </trkpt>
   <trkpt lat="-37.85096" lon="145.33634">
    <ele>312.44000000000005</ele>
   </trkpt>
   <trkpt lat="-37.85085" lon="145.33637000000002">
    <ele>312.81</ele>
   </trkpt>
   <trkpt lat="-37.85074" lon="145.33634">
    <ele>312.87</ele>
   </trkpt>
   <trkpt lat="-37.85063" lon="145.33599">
    <ele>308.48</ele>
   </trkpt>
   <trkpt lat="-37.85051" lon="145.33530000000002">
    <ele>296.55</ele>
   </trkpt>
   <trkpt lat="-37.85051" lon="145.33468000000002">
    <ele>279.52000000000004</ele>
   </trkpt>
   <trkpt lat="-37.850645001564736" lon="145.33407000115557">
    <ele>269.27</ele>
   </trkpt>
   <trkpt lat="-37.85078" lon="145.33346">
    <ele>256.38</ele>
   </trkpt>
   <trkpt lat="-37.8508" lon="145.33325000000002">
    <ele>255.3</ele>
   </trkpt>
   <trkpt lat="-37.85076" lon="145.33294">
    <ele>248.03000000000003</ele>
   </trkpt>
   <trkpt lat="-37.85085" lon="145.33266">
    <ele>241.58</ele>
   </trkpt>
   <trkpt lat="-37.850860000000004" lon="145.33245000000002">
    <ele>238.93000000000004</ele>
   </trkpt>
   <trkpt lat="-37.85083" lon="145.33255">
    <ele>239.25</ele>
   </trkpt>
   <trkpt lat="-37.85038" lon="145.33280000000002">
    <ele>242.34000000000003</ele>
   </trkpt>
   <trkpt lat="-37.85" lon="145.33321">
    <ele>244.22000000000003</ele>
   </trkpt>
   <trkpt lat="-37.84982" lon="145.33328">
    <ele>244.6</ele>
   </trkpt>
   <trkpt lat="-37.84939" lon="145.33314000000001">
    <ele>246.53000000000003</ele>
   </trkpt>
   <trkpt lat="-37.84915" lon="145.33314000000001">
    <ele>247.05</ele>
   </trkpt>
   <trkpt lat="-37.84892" lon="145.33322">
    <ele>248.29</ele>
   </trkpt>
   <trkpt lat="-37.848870000000005" lon="145.33331">
    <ele>248.44000000000003</ele>
   </trkpt>
   <trkpt lat="-37.84857" lon="145.33327">
    <ele>244.13</ele>
   </trkpt>
   <trkpt lat="-37.84848" lon="145.3333">
    <ele>243.37000000000003</ele>
   </trkpt>
   <trkpt lat="-37.84839" lon="145.33338">
    <ele>242.46</ele>
   </trkpt>
   <trkpt lat="-37.84792" lon="145.33391">
    <ele>239.23000000000002</ele>
   </trkpt>
   <trkpt lat="-37.84778" lon="145.33398000000003">
    <ele>237.73000000000002</ele>
   </trkpt>
   <trkpt lat="-37.84772" lon="145.33393">
    <ele>236.53</ele>
   </trkpt>
   <trkpt lat="-37.84767" lon="145.33385">
    <ele>234.59</ele>
   </trkpt>
   <trkpt lat="-37.8476" lon="145.33334000000002">
    <ele>229.47</ele>
   </trkpt>
   <trkpt lat="-37.84754" lon="145.3331">
    <ele>227.4</ele>
   </trkpt>
   <trkpt lat="-37.84745" lon="145.33298000000002">
    <ele>224.71</ele>
   </trkpt>
   <trkpt lat="-37.847390000000004" lon="145.33296">
    <ele>224.71</ele>
   </trkpt>
   <trkpt lat="-37.84731" lon="145.33297000000002">
    <ele>224.71</ele>
   </trkpt>
   <trkpt lat="-37.84713" lon="145.33309">
    <ele>222.08</ele>
   </trkpt>
   <trkpt lat="-37.84664" lon="145.33361000000002">
    <ele>218.95</ele>
   </trkpt>
   <trkpt lat="-37.84599" lon="145.33424000000002">
    <ele>214.95000000000002</ele>
   </trkpt>
   <trkpt lat="-37.84593" lon="145.33428">
    <ele>214.69000000000003</ele>
   </trkpt>
   <trkpt lat="-37.84586" lon="145.33431000000002">
    <ele>213.9</ele>
   </trkpt>
   <trkpt lat="-37.84566" lon="145.33428">
    <ele>209.72000000000003</ele>
   </trkpt>
   <trkpt lat="-37.84545" lon="145.33419">
    <ele>208.53000000000003</ele>
   </trkpt>
   <trkpt lat="-37.84485" lon="145.33372">
    <ele>202.06</ele>
   </trkpt>
   <trkpt lat="-37.84463" lon="145.33361000000002">
    <ele>202.72</ele>
   </trkpt>
   <trkpt lat="-37.84451" lon="145.33359000000002">
    <ele>203.34</ele>
   </trkpt>
   <trkpt lat="-37.84431" lon="145.33359000000002">
    <ele>204.66</ele>
   </trkpt>
   <trkpt lat="-37.84409" lon="145.33361000000002">
    <ele>206.57</ele>
   </trkpt>
   <trkpt lat="-37.84416" lon="145.33384">
    <ele>207.0</ele>
   </trkpt>
   <trkpt lat="-37.84422" lon="145.33398000000003">
    <ele>206.98000000000002</ele>
   </trkpt>
   <trkpt lat="-37.84431" lon="145.33408">
    <ele>206.72</ele>
   </trkpt>
   <trkpt lat="-37.84458" lon="145.33425000000003">
    <ele>207.09000000000003</ele>
   </trkpt>
   <trkpt lat="-37.84465" lon="145.33432000000002">
    <ele>207.6</ele>
   </trkpt>
   <trkpt lat="-37.84469" lon="145.33442000000002">
    <ele>208.66</ele>
   </trkpt>
   <trkpt lat="-37.84469" lon="145.33455">
    <ele>209.47</ele>
   </trkpt>
   <trkpt lat="-37.84458" lon="145.3348">
    <ele>211.9</ele>
   </trkpt>
   <trkpt lat="-37.84451" lon="145.33489">
    <ele>213.07</ele>
   </trkpt>
   <trkpt lat="-37.84438" lon="145.33501">
    <ele>214.35</ele>
   </trkpt>
   <trkpt lat="-37.84411" lon="145.33519">
    <ele>222.09</ele>
   </trkpt>
   <trkpt lat="-37.84386000000001" lon="145.33541000000002">
    <ele>225.0</ele>
   </trkpt>
   <trkpt lat="-37.843900000000005" lon="145.33537">
    <ele>224.56</ele>
   </trkpt>
   <trkpt lat="-37.84344" lon="145.33578">
    <ele>234.12</ele>
   </trkpt>
   <trkpt lat="-37.84322" lon="145.33603000000002">
    <ele>236.84000000000003</ele>
   </trkpt>
   <trkpt lat="-37.84297" lon="145.33640000000003">
    <ele>245.36</ele>
   </trkpt>
   <trkpt lat="-37.84288" lon="145.33671">
    <ele>250.5</ele>
   </trkpt>
   <trkpt lat="-37.84272" lon="145.33701000000002">
    <ele>253.02</ele>
   </trkpt>
   <trkpt lat="-37.84264" lon="145.3374">
    <ele>259.86</ele>
   </trkpt>
   <trkpt lat="-37.8427" lon="145.33763000000002">
    <ele>264.5</ele>
   </trkpt>
   <trkpt lat="-37.842850000000006" lon="145.33771000000002">
    <ele>262.14000000000004</ele>
   </trkpt>
   <trkpt lat="-37.84304" lon="145.33775">
    <ele>259.18</ele>
   </trkpt>
   <trkpt lat="-37.84317" lon="145.33780000000002">
    <ele>257.26000000000005</ele>
   </trkpt>
   <trkpt lat="-37.84357" lon="145.33804">
    <ele>256.17</ele>
   </trkpt>
   <trkpt lat="-37.84382" lon="145.33804">
    <ele>255.04000000000005</ele>
   </trkpt>
   <trkpt lat="-37.84398" lon="145.33810000000003">
    <ele>256.15999999999997</ele>
   </trkpt>
   <trkpt lat="-37.84422" lon="145.33827000000002">
    <ele>259.43</ele>
   </trkpt>
   <trkpt lat="-37.84458" lon="145.33867">
    <ele>260.45</ele>
   </trkpt>
   <trkpt lat="-37.8451" lon="145.33901">
    <ele>253.75000000000003</ele>
   </trkpt>
   <trkpt lat="-37.845600000000005" lon="145.33958">
    <ele>254.65000000000003</ele>
   </trkpt>
   <trkpt lat="-37.845580000000005" lon="145.33955">
    <ele>254.65000000000003</ele>
   </trkpt>
   <trkpt lat="-37.8457" lon="145.33971000000003">
    <ele>255.48999999999998</ele>
   </trkpt>
   <trkpt lat="-37.84595" lon="145.34006000000002">
    <ele>258.34000000000003</ele>
   </trkpt>
   <trkpt lat="-37.84617" lon="145.34048">
    <ele>259.13</ele>
   </trkpt>
   <trkpt lat="-37.84635" lon="145.34071">
    <ele>259.32</ele>
   </trkpt>
   <trkpt lat="-37.84646" lon="145.34082">
    <ele>259.79</ele>
   </trkpt>
   <trkpt lat="-37.84673" lon="145.34095000000002">
    <ele>262.0</ele>
   </trkpt>
   <trkpt lat="-37.84693" lon="145.3411">
    <ele>264.70000000000005</ele>
   </trkpt>
   <trkpt lat="-37.84713" lon="145.34135">
    <ele>266.53000000000003</ele>
   </trkpt>
   <trkpt lat="-37.84756" lon="145.34195000000003">
    <ele>275.26</ele>
   </trkpt>
   <trkpt lat="-37.84767" lon="145.34217">
    <ele>278.38</ele>
   </trkpt>
   <trkpt lat="-37.847730000000006" lon="145.34234">
    <ele>279.89000000000004</ele>
   </trkpt>
   <trkpt lat="-37.847730000000006" lon="145.34262">
    <ele>286.05</ele>
   </trkpt>
   <trkpt lat="-37.84767" lon="145.34276">
    <ele>286.90999999999997</ele>
   </trkpt>
   <trkpt lat="-37.84756" lon="145.34290000000001">
    <ele>289.26</ele>
   </trkpt>
   <trkpt lat="-37.84751" lon="145.34300000000002">
    <ele>291.31</ele>
   </trkpt>
   <trkpt lat="-37.84751" lon="145.34332">
    <ele>293.48</ele>
   </trkpt>
   <trkpt lat="-37.847460000000005" lon="145.34342">
    <ele>293.98</ele>
   </trkpt>
   <trkpt lat="-37.84745" lon="145.34349">
    <ele>293.97</ele>
   </trkpt>
   <trkpt lat="-37.84745" lon="145.34394">
    <ele>294.71000000000004</ele>
   </trkpt>
   <trkpt lat="-37.84736" lon="145.34413">
    <ele>295.81</ele>
   </trkpt>
   <trkpt lat="-37.84716" lon="145.34429">
    <ele>295.01000000000005</ele>
   </trkpt>
   <trkpt lat="-37.84707" lon="145.3443">
    <ele>295.22</ele>
   </trkpt>
   <trkpt lat="-37.84698" lon="145.34445000000002">
    <ele>295.59000000000003</ele>
   </trkpt>
   <trkpt lat="-37.846880000000006" lon="145.34483">
    <ele>298.4</ele>
   </trkpt>
   <trkpt lat="-37.84675" lon="145.34558">
    <ele>305.53000000000003</ele>
   </trkpt>
   <trkpt lat="-37.84666" lon="145.3459">
    <ele>308.42</ele>
   </trkpt>
   <trkpt lat="-37.84666" lon="145.34591">
    <ele>308.51</ele>
   </trkpt>
   <trkpt lat="-37.846410000000006" lon="145.34633000000002">
    <ele>314.82000000000005</ele>
   </trkpt>
   <trkpt lat="-37.84619" lon="145.34649000000002">
    <ele>318.01</ele>
   </trkpt>
   <trkpt lat="-37.84592" lon="145.34679">
    <ele>327.24</ele>
   </trkpt>
   <trkpt lat="-37.84575" lon="145.3469">
    <ele>329.44</ele>
   </trkpt>
   <trkpt lat="-37.84579" lon="145.34645">
    <ele>331.29</ele>
   </trkpt>
   <trkpt lat="-37.84586" lon="145.34611">
    <ele>331.64000000000004</ele>
   </trkpt>
   <trkpt lat="-37.84583000000001" lon="145.34565">
    <ele>332.49</ele>
   </trkpt>
   <trkpt lat="-37.84564" lon="145.34588000000002">
    <ele>337.33</ele>
   </trkpt>
   <trkpt lat="-37.84559" lon="145.34591">
    <ele>339.37</ele>
   </trkpt>
   <trkpt lat="-37.84548" lon="145.34592">
    <ele>342.12</ele>
   </trkpt>
   <trkpt lat="-37.84543" lon="145.3459">
    <ele>342.12</ele>
   </trkpt>
   <trkpt lat="-37.84519" lon="145.34607000000003">
    <ele>348.04</ele>
   </trkpt>
   <trkpt lat="-37.845060000000004" lon="145.34613000000002">
    <ele>351.72</ele>
   </trkpt>
   <trkpt lat="-37.84445" lon="145.34615000000002">
    <ele>365.41</ele>
   </trkpt>
   <trkpt lat="-37.84418" lon="145.34607000000003">
    <ele>369.32000000000005</ele>
   </trkpt>
   <trkpt lat="-37.844" lon="145.34587000000002">
    <ele>372.86</ele>
   </trkpt>
   <trkpt lat="-37.84393" lon="145.34585">
    <ele>373.81</ele>
   </trkpt>
   <trkpt lat="-37.84389" lon="145.34585">
    <ele>374.82000000000005</ele>
   </trkpt>
   <trkpt lat="-37.84393" lon="145.34544000000002">
    <ele>372.74</ele>
   </trkpt>
   <trkpt lat="-37.84391" lon="145.34490000000002">
    <ele>372.50000000000006</ele>
   </trkpt>
   <trkpt lat="-37.84404" lon="145.34428">
    <ele>372.3</ele>
   </trkpt>
   <trkpt lat="-37.844" lon="145.34427000000002">
    <ele>372.3</ele>
   </trkpt>
   <trkpt lat="-37.84391" lon="145.34429">
    <ele>376.42</ele>
   </trkpt>
   <trkpt lat="-37.84389" lon="145.34429">
    <ele>376.69</ele>
   </trkpt>
   <trkpt lat="-37.843790000000006" lon="145.34432">
    <ele>380.89</ele>
   </trkpt>
   <trkpt lat="-37.84373" lon="145.34419000000003">
    <ele>383.21999999999997</ele>
   </trkpt>
   <trkpt lat="-37.84378" lon="145.34388">
    <ele>388.64000000000004</ele>
   </trkpt>
   <trkpt lat="-37.843720000000005" lon="145.34375">
    <ele>390.39</ele>
   </trkpt>
   <trkpt lat="-37.84364" lon="145.34381000000002">
    <ele>390.39</ele>
   </trkpt>
   <trkpt lat="-37.84353" lon="145.34413">
    <ele>395.41</ele>
   </trkpt>
   <trkpt lat="-37.84333" lon="145.3444">
    <ele>398.21</ele>
   </trkpt>
   <trkpt lat="-37.84328" lon="145.34459">
    <ele>399.39</ele>
   </trkpt>
   <trkpt lat="-37.843270000000004" lon="145.34484">
    <ele>402.88</ele>
   </trkpt>
   <trkpt lat="-37.843270000000004" lon="145.34486">
    <ele>402.88</ele>
   </trkpt>
   <trkpt lat="-37.84328" lon="145.34499000000002">
    <ele>402.88</ele>
   </trkpt>
   <trkpt lat="-37.84317" lon="145.34537">
    <ele>407.24000000000007</ele>
   </trkpt>
   <trkpt lat="-37.84331" lon="145.34614000000002">
    <ele>406.89000000000004</ele>
   </trkpt>
   <trkpt lat="-37.84342" lon="145.34661">
    <ele>405.33000000000004</ele>
   </trkpt>
   <trkpt lat="-37.84342" lon="145.34677000000002">
    <ele>405.52000000000004</ele>
   </trkpt>
   <trkpt lat="-37.84357" lon="145.34719">
    <ele>404.73</ele>
   </trkpt>
   <trkpt lat="-37.84362" lon="145.34750000000003">
    <ele>403.5</ele>
   </trkpt>
   <trkpt lat="-37.84337" lon="145.34801000000002">
    <ele>409.52000000000004</ele>
   </trkpt>
   <trkpt lat="-37.843320000000006" lon="145.34844">
    <ele>411.79</ele>
   </trkpt>
   <trkpt lat="-37.84315" lon="145.34874000000002">
    <ele>413.73</ele>
   </trkpt>
   <trkpt lat="-37.84306" lon="145.34874000000002">
    <ele>414.99</ele>
   </trkpt>
   <trkpt lat="-37.84286" lon="145.34865000000002">
    <ele>418.92</ele>
   </trkpt>
   <trkpt lat="-37.842760000000006" lon="145.34866000000002">
    <ele>421.63000000000005</ele>
   </trkpt>
   <trkpt lat="-37.84263" lon="145.34873000000002">
    <ele>423.36</ele>
   </trkpt>
   <trkpt lat="-37.84237" lon="145.3488">
    <ele>428.16</ele>
   </trkpt>
   <trkpt lat="-37.84219" lon="145.34892000000002">
    <ele>433.77000000000004</ele>
   </trkpt>
   <trkpt lat="-37.8421" lon="145.34902000000002">
    <ele>433.77000000000004</ele>
   </trkpt>
   <trkpt lat="-37.84201" lon="145.34906">
    <ele>437.70000000000005</ele>
   </trkpt>
   <trkpt lat="-37.84192" lon="145.34903">
    <ele>439.53000000000003</ele>
   </trkpt>
   <trkpt lat="-37.84185" lon="145.34889">
    <ele>441.69</ele>
   </trkpt>
   <trkpt lat="-37.84183" lon="145.34872000000001">
    <ele>442.22</ele>
   </trkpt>
   <trkpt lat="-37.84194" lon="145.34835">
    <ele>443.03000000000003</ele>
   </trkpt>
   <trkpt lat="-37.84201" lon="145.34824">
    <ele>443.32000000000005</ele>
   </trkpt>
   <trkpt lat="-37.84219" lon="145.34804000000003">
    <ele>444.51</ele>
   </trkpt>
   <trkpt lat="-37.84225" lon="145.34794000000002">
    <ele>444.51</ele>
   </trkpt>
   <trkpt lat="-37.8423" lon="145.34775000000002">
    <ele>444.99000000000007</ele>
   </trkpt>
   <trkpt lat="-37.8423" lon="145.34731000000002">
    <ele>448.0</ele>
   </trkpt>
   <trkpt lat="-37.84228" lon="145.3468">
    <ele>449.75000000000006</ele>
   </trkpt>
   <trkpt lat="-37.8423" lon="145.34661">
    <ele>451.16</ele>
   </trkpt>
   <trkpt lat="-37.84239" lon="145.34612">
    <ele>452.37000000000006</ele>
   </trkpt>
   <trkpt lat="-37.84241" lon="145.34594">
    <ele>453.38000000000005</ele>
   </trkpt>
   <trkpt lat="-37.84239" lon="145.34554">
    <ele>454.79</ele>
   </trkpt>
   <trkpt lat="-37.8423" lon="145.34518">
    <ele>456.05</ele>
   </trkpt>
   <trkpt lat="-37.84221" lon="145.34493">
    <ele>456.67</ele>
   </trkpt>
   <trkpt lat="-37.842040000000004" lon="145.34463000000002">
    <ele>457.01</ele>
   </trkpt>
   <trkpt lat="-37.84179" lon="145.34437">
    <ele>457.94</ele>
   </trkpt>
   <trkpt lat="-37.84163" lon="145.34426000000002">
    <ele>458.37000000000006</ele>
   </trkpt>
   <trkpt lat="-37.84125" lon="145.34408000000002">
    <ele>461.41</ele>
   </trkpt>
   <trkpt lat="-37.84091" lon="145.34394">
    <ele>463.67</ele>
   </trkpt>
   <trkpt lat="-37.84057" lon="145.34386">
    <ele>466.23</ele>
   </trkpt>
   <trkpt lat="-37.84024" lon="145.34384">
    <ele>468.64000000000004</ele>
   </trkpt>
   <trkpt lat="-37.84028" lon="145.34392000000003">
    <ele>470.03000000000003</ele>
   </trkpt>
   <trkpt lat="-37.84051" lon="145.34409000000002">
    <ele>473.27000000000004</ele>
   </trkpt>
   <trkpt lat="-37.84091" lon="145.34454000000002">
    <ele>484.86</ele>
   </trkpt>
   <trkpt lat="-37.84109" lon="145.34479000000002">
    <ele>489.15000000000003</ele>
   </trkpt>
   <trkpt lat="-37.8412" lon="145.34501">
    <ele>492.26000000000005</ele>
   </trkpt>
   <trkpt lat="-37.84127" lon="145.34522">
    <ele>496.56000000000006</ele>
   </trkpt>
   <trkpt lat="-37.84127" lon="145.34528">
    <ele>496.56000000000006</ele>
   </trkpt>
   <trkpt lat="-37.84122" lon="145.34528">
    <ele>496.56000000000006</ele>
   </trkpt>
   <trkpt lat="-37.84082" lon="145.34512">
    <ele>503.85</ele>
   </trkpt>
   <trkpt lat="-37.84055" lon="145.34504">
    <ele>508.93</ele>
   </trkpt>
   <trkpt lat="-37.839850000000006" lon="145.34493">
    <ele>518.1999999999999</ele>
   </trkpt>
   <trkpt lat="-37.83979" lon="145.34494">
    <ele>518.1999999999999</ele>
   </trkpt>
   <trkpt lat="-37.83977" lon="145.34496000000001">
    <ele>518.1999999999999</ele>
   </trkpt>
   <trkpt lat="-37.83977" lon="145.34502">
    <ele>518.1999999999999</ele>
   </trkpt>
   <trkpt lat="-37.84004" lon="145.34539">
    <ele>530.59</ele>
   </trkpt>
   <trkpt lat="-37.84035" lon="145.34608">
    <ele>539.3800000000001</ele>
   </trkpt>
   <trkpt lat="-37.84035" lon="145.34613000000002">
    <ele>539.3800000000001</ele>
   </trkpt>
   <trkpt lat="-37.84024" lon="145.34614000000002">
    <ele>541.6899999999999</ele>
   </trkpt>
   <trkpt lat="-37.84013" lon="145.34609">
    <ele>543.72</ele>
   </trkpt>
   <trkpt lat="-37.84004" lon="145.34607000000003">
    <ele>546.1100000000001</ele>
   </trkpt>
   <trkpt lat="-37.83979" lon="145.34606000000002">
    <ele>550.4100000000001</ele>
   </trkpt>
   <trkpt lat="-37.83961" lon="145.34607000000003">
    <ele>552.2900000000001</ele>
   </trkpt>
   <trkpt lat="-37.83912" lon="145.34615000000002">
    <ele>563.76</ele>
   </trkpt>
   <trkpt lat="-37.83896" lon="145.34608">
    <ele>566.0400000000001</ele>
   </trkpt>
   <trkpt lat="-37.83872" lon="145.34589000000003">
    <ele>565.2</ele>
   </trkpt>
   <trkpt lat="-37.83856" lon="145.34584">
    <ele>566.58</ele>
   </trkpt>
   <trkpt lat="-37.83843" lon="145.34587000000002">
    <ele>569.6800000000001</ele>
   </trkpt>
   <trkpt lat="-37.83834" lon="145.34596000000002">
    <ele>570.98</ele>
   </trkpt>
   <trkpt lat="-37.83813" lon="145.34605000000002">
    <ele>580.3600000000001</ele>
   </trkpt>
   <trkpt lat="-37.83791" lon="145.34608">
    <ele>584.62</ele>
   </trkpt>
   <trkpt lat="-37.83766" lon="145.34623000000002">
    <ele>592.7</ele>
   </trkpt>
   <trkpt lat="-37.83738" lon="145.34625">
    <ele>597.99</ele>
   </trkpt>
   <trkpt lat="-37.837410000000006" lon="145.34625">
    <ele>597.5100000000001</ele>
   </trkpt>
   <trkpt lat="-37.83733" lon="145.34626">
    <ele>599.0000000000001</ele>
   </trkpt>
   <trkpt lat="-37.83726" lon="145.34629">
    <ele>599.97</ele>
   </trkpt>
   <trkpt lat="-37.83693" lon="145.34661">
    <ele>609.92</ele>
   </trkpt>
   <trkpt lat="-37.836940000000006" lon="145.34661">
    <ele>609.89</ele>
   </trkpt>
   <trkpt lat="-37.83686" lon="145.34624000000002">
    <ele>604.99</ele>
   </trkpt>
   <trkpt lat="-37.837" lon="145.34574">
    <ele>588.1700000000001</ele>
   </trkpt>
   <trkpt lat="-37.83664" lon="145.34538">
    <ele>568.59</ele>
   </trkpt>
   <trkpt lat="-37.836710000000004" lon="145.34479000000002">
    <ele>548.62</ele>
   </trkpt>
   <trkpt lat="-37.836940000000006" lon="145.34466">
    <ele>546.07</ele>
   </trkpt>
   <trkpt lat="-37.836650000000006" lon="145.34436000000002">
    <ele>525.5300000000001</ele>
   </trkpt>
   <trkpt lat="-37.83677" lon="145.34422">
    <ele>519.12</ele>
   </trkpt>
   <trkpt lat="-37.836580000000005" lon="145.34417000000002">
    <ele>513.1300000000001</ele>
   </trkpt>
   <trkpt lat="-37.83663000000001" lon="145.34406">
    <ele>509.57000000000005</ele>
   </trkpt>
   <trkpt lat="-37.835980000000006" lon="145.34366">
    <ele>485.58000000000004</ele>
   </trkpt>
   <trkpt lat="-37.83597" lon="145.34346000000002">
    <ele>479.22</ele>
   </trkpt>
   <trkpt lat="-37.83578" lon="145.34345000000002">
    <ele>474.76</ele>
   </trkpt>
   <trkpt lat="-37.835640000000005" lon="145.34328000000002">
    <ele>465.14000000000004</ele>
   </trkpt>
   <trkpt lat="-37.835750000000004" lon="145.34298">
    <ele>450.53000000000003</ele>
   </trkpt>
   <trkpt lat="-37.835660000000004" lon="145.34278">
    <ele>439.15000000000003</ele>
   </trkpt>
   <trkpt lat="-37.8354" lon="145.34276">
    <ele>435.55</ele>
   </trkpt>
   <trkpt lat="-37.835" lon="145.34276">
    <ele>429.76000000000005</ele>
   </trkpt>
   <trkpt lat="-37.83471" lon="145.34282000000002">
    <ele>425.37</ele>
   </trkpt>
   <trkpt lat="-37.83449" lon="145.34293000000002">
    <ele>421.91</ele>
   </trkpt>
   <trkpt lat="-37.83428" lon="145.34307">
    <ele>420.37</ele>
   </trkpt>
   <trkpt lat="-37.83408" lon="145.34327000000002">
    <ele>417.32</ele>
   </trkpt>
   <trkpt lat="-37.8339" lon="145.34354000000002">
    <ele>415.53000000000003</ele>
   </trkpt>
   <trkpt lat="-37.83381" lon="145.34364000000002">
    <ele>414.31</ele>
   </trkpt>
   <trkpt lat="-37.83375" lon="145.34368">
    <ele>413.78000000000003</ele>
   </trkpt>
   <trkpt lat="-37.8335" lon="145.34375">
    <ele>410.27000000000004</ele>
   </trkpt>
   <trkpt lat="-37.83334" lon="145.34378">
    <ele>408.88</ele>
   </trkpt>
   <trkpt lat="-37.833180000000006" lon="145.34378">
    <ele>406.26</ele>
   </trkpt>
   <trkpt lat="-37.83272" lon="145.3436">
    <ele>393.98</ele>
   </trkpt>
   <trkpt lat="-37.83258" lon="145.34358">
    <ele>387.63</ele>
   </trkpt>
   <trkpt lat="-37.832240000000006" lon="145.34348">
    <ele>375.28000000000003</ele>
   </trkpt>
   <trkpt lat="-37.83202" lon="145.34352">
    <ele>370.1</ele>
   </trkpt>
   <trkpt lat="-37.83175" lon="145.34362000000002">
    <ele>363.34000000000003</ele>
   </trkpt>
   <trkpt lat="-37.83151" lon="145.34382000000002">
    <ele>354.52</ele>
   </trkpt>
   <trkpt lat="-37.83144" lon="145.34383000000003">
    <ele>354.52</ele>
   </trkpt>
   <trkpt lat="-37.83142" lon="145.34377">
    <ele>354.52</ele>
   </trkpt>
   <trkpt lat="-37.8316" lon="145.34351">
    <ele>350.33000000000004</ele>
   </trkpt>
   <trkpt lat="-37.83162" lon="145.34344000000002">
    <ele>350.33000000000004</ele>
   </trkpt>
   <trkpt lat="-37.83169" lon="145.34243">
    <ele>333.21</ele>
   </trkpt>
   <trkpt lat="-37.83164" lon="145.34225">
    <ele>330.87000000000006</ele>
   </trkpt>
   <trkpt lat="-37.83153" lon="145.3424">
    <ele>330.83</ele>
   </trkpt>
   <trkpt lat="-37.83144" lon="145.34259">
    <ele>331.48</ele>
   </trkpt>
   <trkpt lat="-37.83124" lon="145.34334">
    <ele>332.26</ele>
   </trkpt>
   <trkpt lat="-37.83113" lon="145.34359">
    <ele>333.36</ele>
   </trkpt>
   <trkpt lat="-37.83095" lon="145.34385">
    <ele>333.64000000000004</ele>
   </trkpt>
   <trkpt lat="-37.83034" lon="145.34411">
    <ele>335.95000000000005</ele>
   </trkpt>
   <trkpt lat="-37.829930000000004" lon="145.34408000000002">
    <ele>329.88</ele>
   </trkpt>
   <trkpt lat="-37.829620000000006" lon="145.34424">
    <ele>326.26000000000005</ele>
   </trkpt>
   <trkpt lat="-37.82929" lon="145.34414">
    <ele>323.01</ele>
   </trkpt>
   <trkpt lat="-37.82912" lon="145.34417000000002">
    <ele>324.16</ele>
   </trkpt>
   <trkpt lat="-37.82891" lon="145.3443">
    <ele>330.05</ele>
   </trkpt>
   <trkpt lat="-37.82862" lon="145.34468">
    <ele>339.01000000000005</ele>
   </trkpt>
   <trkpt lat="-37.82844" lon="145.34486">
    <ele>340.83000000000004</ele>
   </trkpt>
   <trkpt lat="-37.82797" lon="145.34504">
    <ele>339.22</ele>
   </trkpt>
   <trkpt lat="-37.82755" lon="145.34513">
    <ele>341.49</ele>
   </trkpt>
   <trkpt lat="-37.826800000000006" lon="145.34566">
    <ele>352.06000000000006</ele>
   </trkpt>
   <trkpt lat="-37.82656" lon="145.34569000000002">
    <ele>357.98</ele>
   </trkpt>
   <trkpt lat="-37.82627" lon="145.34583">
    <ele>361.43</ele>
   </trkpt>
   <trkpt lat="-37.82569" lon="145.34635">
    <ele>370.68</ele>
   </trkpt>
   <trkpt lat="-37.82531" lon="145.34704000000002">
    <ele>385.69</ele>
   </trkpt>
   <trkpt lat="-37.82506" lon="145.34728">
    <ele>395.26000000000005</ele>
   </trkpt>
   <trkpt lat="-37.824555002667815" lon="145.3480750054461">
    <ele>417.37</ele>
   </trkpt>
   <trkpt lat="-37.82405" lon="145.34887">
    <ele>423.96000000000004</ele>
   </trkpt>
   <trkpt lat="-37.823875002051466" lon="145.34956000148267">
    <ele>431.50000000000006</ele>
   </trkpt>
   <trkpt lat="-37.8237" lon="145.35025000000002">
    <ele>444.00000000000006</ele>
   </trkpt>
   <trkpt lat="-37.82343" lon="145.35046">
    <ele>444.98</ele>
   </trkpt>
   <trkpt lat="-37.823" lon="145.35069000000001">
    <ele>448.28000000000003</ele>
   </trkpt>
   <trkpt lat="-37.822590000000005" lon="145.35107000000002">
    <ele>450.75000000000006</ele>
   </trkpt>
   <trkpt lat="-37.82276" lon="145.35129">
    <ele>461.0</ele>
   </trkpt>
   <trkpt lat="-37.822860000000006" lon="145.35153000000003">
    <ele>465.79</ele>
   </trkpt>
   <trkpt lat="-37.822950000000006" lon="145.35162000000003">
    <ele>469.27000000000004</ele>
   </trkpt>
   <trkpt lat="-37.82305" lon="145.35166">
    <ele>478.47</ele>
   </trkpt>
   <trkpt lat="-37.82323" lon="145.35186000000002">
    <ele>483.74000000000007</ele>
   </trkpt>
   <trkpt lat="-37.82336" lon="145.3521">
    <ele>493.74000000000007</ele>
   </trkpt>
   <trkpt lat="-37.82352" lon="145.35215000000002">
    <ele>502.05</ele>
   </trkpt>
   <trkpt lat="-37.82365" lon="145.35215000000002">
    <ele>502.05</ele>
   </trkpt>
   <trkpt lat="-37.82372" lon="145.35218">
    <ele>506.88</ele>
   </trkpt>
   <trkpt lat="-37.82383" lon="145.35227">
    <ele>510.50000000000006</ele>
   </trkpt>
   <trkpt lat="-37.82399" lon="145.35247">
    <ele>518.09</ele>
   </trkpt>
   <trkpt lat="-37.82439" lon="145.35239">
    <ele>536.35</ele>
   </trkpt>
   <trkpt lat="-37.82455" lon="145.35246">
    <ele>543.9200000000001</ele>
   </trkpt>
   <trkpt lat="-37.82475" lon="145.35263">
    <ele>553.8700000000001</ele>
   </trkpt>
   <trkpt lat="-37.82547" lon="145.35287000000002">
    <ele>585.74</ele>
   </trkpt>
   <trkpt lat="-37.825520000000004" lon="145.35319">
    <ele>586.8800000000001</ele>
   </trkpt>
   <trkpt lat="-37.8256" lon="145.35319">
    <ele>589.38</ele>
   </trkpt>
   <trkpt lat="-37.82564" lon="145.35313000000002">
    <ele>590.74</ele>
   </trkpt>
   <trkpt lat="-37.8258" lon="145.35314000000002">
    <ele>598.5</ele>
   </trkpt>
   <trkpt lat="-37.82589" lon="145.35312000000002">
    <ele>598.5</ele>
   </trkpt>
   <trkpt lat="-37.82602" lon="145.35317">
    <ele>608.62</ele>
   </trkpt>
   <trkpt lat="-37.826220000000006" lon="145.35317">
    <ele>613.47</ele>
   </trkpt>
   <trkpt lat="-37.826440000000005" lon="145.35313000000002">
    <ele>622.1600000000001</ele>
   </trkpt>
   <trkpt lat="-37.82667" lon="145.35407">
    <ele>618.51</ele>
   </trkpt>
   <trkpt lat="-37.82668" lon="145.35426">
    <ele>616.0300000000001</ele>
   </trkpt>
   <trkpt lat="-37.82656" lon="145.35434">
    <ele>614.5500000000001</ele>
   </trkpt>
   <trkpt lat="-37.826510000000006" lon="145.35443">
    <ele>612.4200000000001</ele>
   </trkpt>
   <trkpt lat="-37.8265" lon="145.35443">
    <ele>612.4200000000001</ele>
   </trkpt>
   <trkpt lat="-37.826240000000006" lon="145.35487">
    <ele>604.14</ele>
   </trkpt>
   <trkpt lat="-37.82598" lon="145.35515">
    <ele>593.58</ele>
   </trkpt>
   <trkpt lat="-37.82573" lon="145.35558">
    <ele>588.57</ele>
   </trkpt>
   <trkpt lat="-37.82562" lon="145.35584">
    <ele>580.74</ele>
   </trkpt>
   <trkpt lat="-37.82549" lon="145.35604">
    <ele>574.4</ele>
   </trkpt>
   <trkpt lat="-37.82536" lon="145.35629">
    <ele>568.9399999999999</ele>
   </trkpt>
   <trkpt lat="-37.82526" lon="145.35688000000002">
    <ele>564.9399999999999</ele>
   </trkpt>
   <trkpt lat="-37.82524" lon="145.35717000000002">
    <ele>564.11</ele>
   </trkpt>
   <trkpt lat="-37.825250000000004" lon="145.35765">
    <ele>555.9300000000001</ele>
   </trkpt>
   <trkpt lat="-37.82531" lon="145.35758">
    <ele>552.7</ele>
   </trkpt>
   <trkpt lat="-37.82549" lon="145.35781">
    <ele>559.32</ele>
   </trkpt>
   <trkpt lat="-37.82555" lon="145.35802">
    <ele>556.11</ele>
   </trkpt>
   <trkpt lat="-37.82567" lon="145.35817">
    <ele>553.35</ele>
   </trkpt>
   <trkpt lat="-37.82587" lon="145.35828">
    <ele>551.2600000000001</ele>
   </trkpt>
   <trkpt lat="-37.82614" lon="145.35836">
    <ele>549.52</ele>
   </trkpt>
   <trkpt lat="-37.82645" lon="145.35860000000002">
    <ele>545.8900000000001</ele>
   </trkpt>
   <trkpt lat="-37.82667" lon="145.35872">
    <ele>544.2800000000001</ele>
   </trkpt>
   <trkpt lat="-37.82678000000001" lon="145.35874">
    <ele>542.96</ele>
   </trkpt>
   <trkpt lat="-37.82681" lon="145.35894000000002">
    <ele>539.7700000000001</ele>
   </trkpt>
   <trkpt lat="-37.82687" lon="145.35904000000002">
    <ele>538.34</ele>
   </trkpt>
   <trkpt lat="-37.82694" lon="145.35909">
    <ele>537.2</ele>
   </trkpt>
   <trkpt lat="-37.82705" lon="145.35911000000002">
    <ele>536.74</ele>
   </trkpt>
   <trkpt lat="-37.827180000000006" lon="145.35917">
    <ele>535.13</ele>
   </trkpt>
   <trkpt lat="-37.82728" lon="145.35929000000002">
    <ele>534.2300000000001</ele>
   </trkpt>
   <trkpt lat="-37.82772000000001" lon="145.35955">
    <ele>527.25</ele>
   </trkpt>
   <trkpt lat="-37.82786" lon="145.3596">
    <ele>517.12</ele>
   </trkpt>
   <trkpt lat="-37.82797" lon="145.35967000000002">
    <ele>515.14</ele>
   </trkpt>
   <trkpt lat="-37.82802" lon="145.35974000000002">
    <ele>511.69000000000005</ele>
   </trkpt>
   <trkpt lat="-37.828030000000005" lon="145.35981">
    <ele>510.2</ele>
   </trkpt>
   <trkpt lat="-37.82788" lon="145.35998">
    <ele>510.28000000000003</ele>
   </trkpt>
   <trkpt lat="-37.82804" lon="145.36018">
    <ele>516.0100000000001</ele>
   </trkpt>
   <trkpt lat="-37.828210000000006" lon="145.36031">
    <ele>511.3500000000001</ele>
   </trkpt>
   <trkpt lat="-37.828300000000006" lon="145.36042">
    <ele>508.16</ele>
   </trkpt>
   <trkpt lat="-37.82831" lon="145.36051">
    <ele>507.17</ele>
   </trkpt>
   <trkpt lat="-37.82831" lon="145.36064000000002">
    <ele>505.39</ele>
   </trkpt>
   <trkpt lat="-37.82824" lon="145.36102000000002">
    <ele>500.65999999999997</ele>
   </trkpt>
   <trkpt lat="-37.82826" lon="145.36134">
    <ele>496.06000000000006</ele>
   </trkpt>
   <trkpt lat="-37.828210000000006" lon="145.3615">
    <ele>494.93</ele>
   </trkpt>
   <trkpt lat="-37.82824" lon="145.36177">
    <ele>494.19</ele>
   </trkpt>
   <trkpt lat="-37.82831" lon="145.36178">
    <ele>494.08</ele>
   </trkpt>
   <trkpt lat="-37.8284" lon="145.36201">
    <ele>494.49</ele>
   </trkpt>
   <trkpt lat="-37.82842" lon="145.3622">
    <ele>495.19</ele>
   </trkpt>
   <trkpt lat="-37.8284" lon="145.36231">
    <ele>495.15000000000003</ele>
   </trkpt>
   <trkpt lat="-37.82842" lon="145.36245000000002">
    <ele>494.2300000000001</ele>
   </trkpt>
   <trkpt lat="-37.8286" lon="145.36275">
    <ele>494.2900000000001</ele>
   </trkpt>
   <trkpt lat="-37.828860000000006" lon="145.36302">
    <ele>493.71000000000004</ele>
   </trkpt>
   <trkpt lat="-37.82945" lon="145.36360000000002">
    <ele>492.49</ele>
   </trkpt>
   <trkpt lat="-37.82967" lon="145.3639">
    <ele>490.24000000000007</ele>
   </trkpt>
   <trkpt lat="-37.830180000000006" lon="145.36430000000001">
    <ele>488.17</ele>
   </trkpt>
   <trkpt lat="-37.83034" lon="145.36452">
    <ele>487.57000000000005</ele>
   </trkpt>
   <trkpt lat="-37.8305" lon="145.36453">
    <ele>487.66</ele>
   </trkpt>
   <trkpt lat="-37.83059" lon="145.36461">
    <ele>487.52000000000004</ele>
   </trkpt>
   <trkpt lat="-37.83113" lon="145.36483">
    <ele>487.15000000000003</ele>
   </trkpt>
   <trkpt lat="-37.83124" lon="145.36485000000002">
    <ele>486.22</ele>
   </trkpt>
   <trkpt lat="-37.83144" lon="145.36499">
    <ele>483.56000000000006</ele>
   </trkpt>
   <trkpt lat="-37.83151" lon="145.36502000000002">
    <ele>482.69000000000005</ele>
   </trkpt>
   <trkpt lat="-37.83164" lon="145.365">
    <ele>481.85</ele>
   </trkpt>
   <trkpt lat="-37.83196" lon="145.36511000000002">
    <ele>478.62000000000006</ele>
   </trkpt>
   <trkpt lat="-37.83207" lon="145.36518">
    <ele>476.22</ele>
   </trkpt>
   <trkpt lat="-37.8324" lon="145.36562">
    <ele>467.76000000000005</ele>
   </trkpt>
   <trkpt lat="-37.83252" lon="145.36566000000002">
    <ele>466.01000000000005</ele>
   </trkpt>
   <trkpt lat="-37.832710000000006" lon="145.36564">
    <ele>464.75000000000006</ele>
   </trkpt>
   <trkpt lat="-37.83276" lon="145.3656">
    <ele>464.0400000000001</ele>
   </trkpt>
   <trkpt lat="-37.833090000000006" lon="145.36562">
    <ele>458.25000000000006</ele>
   </trkpt>
   <trkpt lat="-37.83341" lon="145.3658">
    <ele>453.85</ele>
   </trkpt>
   <trkpt lat="-37.8337" lon="145.36607">
    <ele>450.70000000000005</ele>
   </trkpt>
   <trkpt lat="-37.83419" lon="145.36644">
    <ele>443.00000000000006</ele>
   </trkpt>
   <trkpt lat="-37.83431" lon="145.36658">
    <ele>440.99000000000007</ele>
   </trkpt>
   <trkpt lat="-37.8344" lon="145.36679">
    <ele>439.1</ele>
   </trkpt>
   <trkpt lat="-37.83469" lon="145.36711000000003">
    <ele>433.06000000000006</ele>
   </trkpt>
   <trkpt lat="-37.83482" lon="145.36722">
    <ele>431.17</ele>
   </trkpt>
   <trkpt lat="-37.83509" lon="145.3673">
    <ele>427.11</ele>
   </trkpt>
   <trkpt lat="-37.835190000000004" lon="145.36743">
    <ele>425.8500000000001</ele>
   </trkpt>
   <trkpt lat="-37.83527" lon="145.36734">
    <ele>425.47</ele>
   </trkpt>
   <trkpt lat="-37.83536" lon="145.36729000000003">
    <ele>425.38000000000005</ele>
   </trkpt>
   <trkpt lat="-37.83545" lon="145.36728000000002">
    <ele>425.58</ele>
   </trkpt>
   <trkpt lat="-37.83554" lon="145.36737000000002">
    <ele>425.97</ele>
   </trkpt>
   <trkpt lat="-37.835770000000004" lon="145.36789000000002">
    <ele>428.72</ele>
   </trkpt>
   <trkpt lat="-37.835770000000004" lon="145.36788">
    <ele>428.67</ele>
   </trkpt>
   <trkpt lat="-37.83583" lon="145.36804">
    <ele>429.64</ele>
   </trkpt>
   <trkpt lat="-37.83628" lon="145.36864">
    <ele>435.91</ele>
   </trkpt>
   <trkpt lat="-37.8367" lon="145.36918">
    <ele>440.49000000000007</ele>
   </trkpt>
   <trkpt lat="-37.8369" lon="145.36938">
    <ele>442.54</ele>
   </trkpt>
   <trkpt lat="-37.83708" lon="145.36950000000002">
    <ele>444.02000000000004</ele>
   </trkpt>
   <trkpt lat="-37.83719" lon="145.36952000000002">
    <ele>444.48</ele>
   </trkpt>
   <trkpt lat="-37.83719" lon="145.36971">
    <ele>442.95</ele>
   </trkpt>
   <trkpt lat="-37.83706" lon="145.3701">
    <ele>437.64000000000004</ele>
   </trkpt>
   <trkpt lat="-37.83701000000001" lon="145.37063">
    <ele>434.20000000000005</ele>
   </trkpt>
   <trkpt lat="-37.837030000000006" lon="145.37094000000002">
    <ele>431.3</ele>
   </trkpt>
   <trkpt lat="-37.83699" lon="145.37133">
    <ele>429.99</ele>
   </trkpt>
   <trkpt lat="-37.837030000000006" lon="145.3719">
    <ele>426.98</ele>
   </trkpt>
   <trkpt lat="-37.83699" lon="145.37235">
    <ele>423.55</ele>
   </trkpt>
   <trkpt lat="-37.83708" lon="145.37331">
    <ele>413.13000000000005</ele>
   </trkpt>
   <trkpt lat="-37.83719" lon="145.37388">
    <ele>409.14000000000004</ele>
   </trkpt>
   <trkpt lat="-37.83719" lon="145.37407000000002">
    <ele>408.52000000000004</ele>
   </trkpt>
   <trkpt lat="-37.83735" lon="145.37466">
    <ele>407.17</ele>
   </trkpt>
   <trkpt lat="-37.83746" lon="145.37449">
    <ele>406.78000000000003</ele>
   </trkpt>
   <trkpt lat="-37.83764" lon="145.37427000000002">
    <ele>401.81000000000006</ele>
   </trkpt>
   <trkpt lat="-37.83784" lon="145.37368">
    <ele>394.65000000000003</ele>
   </trkpt>
   <trkpt lat="-37.837880000000006" lon="145.37362000000002">
    <ele>393.66</ele>
   </trkpt>
   <trkpt lat="-37.83791" lon="145.37358">
    <ele>393.40000000000003</ele>
   </trkpt>
   <trkpt lat="-37.83805" lon="145.37351">
    <ele>390.15000000000003</ele>
   </trkpt>
   <trkpt lat="-37.83822" lon="145.37348">
    <ele>385.1</ele>
   </trkpt>
   <trkpt lat="-37.83847" lon="145.37354000000002">
    <ele>381.23</ele>
   </trkpt>
   <trkpt lat="-37.83858" lon="145.37359">
    <ele>380.45</ele>
   </trkpt>
   <trkpt lat="-37.83883" lon="145.37376">
    <ele>380.3</ele>
   </trkpt>
   <trkpt lat="-37.8391" lon="145.37399000000002">
    <ele>379.63</ele>
   </trkpt>
   <trkpt lat="-37.83921" lon="145.37414">
    <ele>378.74</ele>
   </trkpt>
   <trkpt lat="-37.83925" lon="145.37425000000002">
    <ele>378.03000000000003</ele>
   </trkpt>
   <trkpt lat="-37.83950000240526" lon="145.37500499742703">
    <ele>370.64000000000004</ele>
   </trkpt>
   <trkpt lat="-37.83975" lon="145.37576">
    <ele>361.99</ele>
   </trkpt>
   <trkpt lat="-37.839995001151586" lon="145.37628499822682">
    <ele>355.12000000000006</ele>
   </trkpt>
   <trkpt lat="-37.84024" lon="145.37681">
    <ele>348.16</ele>
   </trkpt>
   <trkpt lat="-37.84046" lon="145.37711000000002">
    <ele>343.96000000000004</ele>
   </trkpt>
   <trkpt lat="-37.84089" lon="145.37754">
    <ele>334.99</ele>
   </trkpt>
   <trkpt lat="-37.840970000000006" lon="145.37764">
    <ele>333.82</ele>
   </trkpt>
   <trkpt lat="-37.840990000000005" lon="145.37779">
    <ele>333.20000000000005</ele>
   </trkpt>
   <trkpt lat="-37.84103" lon="145.37786">
    <ele>333.17</ele>
   </trkpt>
   <trkpt lat="-37.84122" lon="145.37847000000002">
    <ele>330.15000000000003</ele>
   </trkpt>
   <trkpt lat="-37.84154" lon="145.37922">
    <ele>328.32</ele>
   </trkpt>
   <trkpt lat="-37.84185" lon="145.37971000000002">
    <ele>325.88</ele>
   </trkpt>
   <trkpt lat="-37.84201" lon="145.38002">
    <ele>324.64000000000004</ele>
   </trkpt>
   <trkpt lat="-37.84205" lon="145.38012">
    <ele>324.81000000000006</ele>
   </trkpt>
   <trkpt lat="-37.84223" lon="145.38017000000002">
    <ele>329.38</ele>
   </trkpt>
   <trkpt lat="-37.842380000000006" lon="145.38016000000002">
    <ele>330.16</ele>
   </trkpt>
   <trkpt lat="-37.8425" lon="145.38008000000002">
    <ele>333.06</ele>
   </trkpt>
   <trkpt lat="-37.84257" lon="145.37998000000002">
    <ele>334.64000000000004</ele>
   </trkpt>
   <trkpt lat="-37.84277" lon="145.37985">
    <ele>339.18</ele>
   </trkpt>
   <trkpt lat="-37.84297" lon="145.37982000000002">
    <ele>342.44</ele>
   </trkpt>
   <trkpt lat="-37.84315" lon="145.37983">
    <ele>345.80000000000007</ele>
   </trkpt>
   <trkpt lat="-37.843590000000006" lon="145.38004">
    <ele>351.64</ele>
   </trkpt>
   <trkpt lat="-37.84396" lon="145.38022">
    <ele>358.98</ele>
   </trkpt>
   <trkpt lat="-37.84431" lon="145.38042000000002">
    <ele>363.64</ele>
   </trkpt>
   <trkpt lat="-37.844440000000006" lon="145.3804">
    <ele>365.19</ele>
   </trkpt>
   <trkpt lat="-37.84449" lon="145.38033000000001">
    <ele>366.8</ele>
   </trkpt>
   <trkpt lat="-37.84451" lon="145.3802">
    <ele>368.36</ele>
   </trkpt>
   <trkpt lat="-37.84451" lon="145.38000000000002">
    <ele>370.45000000000005</ele>
   </trkpt>
   <trkpt lat="-37.8444" lon="145.37967">
    <ele>375.8</ele>
   </trkpt>
   <trkpt lat="-37.84427" lon="145.37936000000002">
    <ele>378.45</ele>
   </trkpt>
   <trkpt lat="-37.84411" lon="145.37913">
    <ele>383.33</ele>
   </trkpt>
   <trkpt lat="-37.84375" lon="145.37878">
    <ele>388.5</ele>
   </trkpt>
   <trkpt lat="-37.84333" lon="145.37800000000001">
    <ele>398.5</ele>
   </trkpt>
   <trkpt lat="-37.84326" lon="145.3778">
    <ele>399.78000000000003</ele>
   </trkpt>
   <trkpt lat="-37.84324" lon="145.37767000000002">
    <ele>401.25000000000006</ele>
   </trkpt>
   <trkpt lat="-37.84326" lon="145.37756000000002">
    <ele>402.4800000000001</ele>
   </trkpt>
   <trkpt lat="-37.84333" lon="145.37742">
    <ele>404.77000000000004</ele>
   </trkpt>
   <trkpt lat="-37.84346" lon="145.37734">
    <ele>407.53000000000003</ele>
   </trkpt>
   <trkpt lat="-37.8436" lon="145.37728">
    <ele>407.53000000000003</ele>
   </trkpt>
   <trkpt lat="-37.84384" lon="145.37723000000003">
    <ele>415.39000000000004</ele>
   </trkpt>
   <trkpt lat="-37.84431" lon="145.37730000000002">
    <ele>425.99</ele>
   </trkpt>
   <trkpt lat="-37.84492" lon="145.37729000000002">
    <ele>436.6700000000001</ele>
   </trkpt>
   <trkpt lat="-37.84523" lon="145.37737">
    <ele>441.52000000000004</ele>
   </trkpt>
   <trkpt lat="-37.84582" lon="145.37730000000002">
    <ele>455.40000000000003</ele>
   </trkpt>
   <trkpt lat="-37.8459" lon="145.37727">
    <ele>457.23</ele>
   </trkpt>
   <trkpt lat="-37.8461" lon="145.37725">
    <ele>463.4800000000001</ele>
   </trkpt>
   <trkpt lat="-37.84633" lon="145.37718">
    <ele>466.20000000000005</ele>
   </trkpt>
   <trkpt lat="-37.84646" lon="145.37716">
    <ele>467.89000000000004</ele>
   </trkpt>
   <trkpt lat="-37.84666" lon="145.37718">
    <ele>471.02000000000004</ele>
   </trkpt>
   <trkpt lat="-37.8468" lon="145.37722000000002">
    <ele>475.85</ele>
   </trkpt>
   <trkpt lat="-37.84729" lon="145.37757000000002">
    <ele>483.34000000000003</ele>
   </trkpt>
   <trkpt lat="-37.84742" lon="145.3778">
    <ele>484.51000000000005</ele>
   </trkpt>
   <trkpt lat="-37.84747" lon="145.37811000000002">
    <ele>484.25</ele>
   </trkpt>
   <trkpt lat="-37.8476" lon="145.37832">
    <ele>483.52000000000004</ele>
   </trkpt>
   <trkpt lat="-37.84774" lon="145.37846000000002">
    <ele>483.71000000000004</ele>
   </trkpt>
   <trkpt lat="-37.84794" lon="145.37849">
    <ele>484.96000000000004</ele>
   </trkpt>
   <trkpt lat="-37.84825" lon="145.37846000000002">
    <ele>486.02000000000004</ele>
   </trkpt>
   <trkpt lat="-37.84848" lon="145.3784">
    <ele>487.14</ele>
   </trkpt>
   <trkpt lat="-37.8491" lon="145.37814">
    <ele>492.32000000000005</ele>
   </trkpt>
   <trkpt lat="-37.84951" lon="145.37792000000002">
    <ele>499.93</ele>
   </trkpt>
   <trkpt lat="-37.84964" lon="145.37782">
    <ele>501.0800000000001</ele>
   </trkpt>
   <trkpt lat="-37.85029" lon="145.3775">
    <ele>507.09000000000003</ele>
   </trkpt>
   <trkpt lat="-37.85047" lon="145.37738000000002">
    <ele>508.9600000000001</ele>
   </trkpt>
   <trkpt lat="-37.85085" lon="145.37730000000002">
    <ele>511.74000000000007</ele>
   </trkpt>
   <trkpt lat="-37.85121" lon="145.37741000000003">
    <ele>512.42</ele>
   </trkpt>
   <trkpt lat="-37.85157" lon="145.3776">
    <ele>509.43000000000006</ele>
   </trkpt>
   <trkpt lat="-37.85172" lon="145.37773">
    <ele>509.13000000000005</ele>
   </trkpt>
   <trkpt lat="-37.85188" lon="145.37808">
    <ele>506.07</ele>
   </trkpt>
   <trkpt lat="-37.85201" lon="145.37857000000002">
    <ele>504.21999999999997</ele>
   </trkpt>
   <trkpt lat="-37.85228" lon="145.37909000000002">
    <ele>506.69000000000005</ele>
   </trkpt>
   <trkpt lat="-37.85251" lon="145.37935000000002">
    <ele>507.92</ele>
   </trkpt>
   <trkpt lat="-37.85282" lon="145.3796">
    <ele>510.41</ele>
   </trkpt>
   <trkpt lat="-37.85293" lon="145.37962000000002">
    <ele>510.97</ele>
   </trkpt>
   <trkpt lat="-37.853080000000006" lon="145.37959">
    <ele>511.49</ele>
   </trkpt>
   <trkpt lat="-37.853350000000006" lon="145.37931">
    <ele>511.65000000000003</ele>
   </trkpt>
   <trkpt lat="-37.85351" lon="145.37909000000002">
    <ele>514.1800000000001</ele>
   </trkpt>
   <trkpt lat="-37.85387" lon="145.37866000000002">
    <ele>520.1</ele>
   </trkpt>
   <trkpt lat="-37.85423" lon="145.37800000000001">
    <ele>531.66</ele>
   </trkpt>
   <trkpt lat="-37.854240000000004" lon="145.37800000000001">
    <ele>531.72</ele>
   </trkpt>
   <trkpt lat="-37.85468" lon="145.37728">
    <ele>545.73</ele>
   </trkpt>
   <trkpt lat="-37.85501" lon="145.37684000000002">
    <ele>551.89</ele>
   </trkpt>
   <trkpt lat="-37.85533" lon="145.37614000000002">
    <ele>563.23</ele>
   </trkpt>
   <trkpt lat="-37.85571" lon="145.37552000000002">
    <ele>569.1</ele>
   </trkpt>
   <trkpt lat="-37.85604" lon="145.37508000000003">
    <ele>572.33</ele>
   </trkpt>
   <trkpt lat="-37.85622" lon="145.37490000000003">
    <ele>574.1</ele>
   </trkpt>
   <trkpt lat="-37.856260000000006" lon="145.37480000000002">
    <ele>574.04</ele>
   </trkpt>
   <trkpt lat="-37.856" lon="145.37456">
    <ele>576.76</ele>
   </trkpt>
   <trkpt lat="-37.8556750005453" lon="145.37416499811948">
    <ele>578.3900000000001</ele>
   </trkpt>
   <trkpt lat="-37.85535" lon="145.37377">
    <ele>578.0500000000001</ele>
   </trkpt>
   <trkpt lat="-37.85531" lon="145.37379">
    <ele>578.2900000000001</ele>
   </trkpt>
   <trkpt lat="-37.85521" lon="145.37367">
    <ele>578.1500000000001</ele>
   </trkpt>
   <trkpt lat="-37.854845000635606" lon="145.37326999797466">
    <ele>578.3100000000001</ele>
   </trkpt>
   <trkpt lat="-37.85448" lon="145.37287">
    <ele>579.04</ele>
   </trkpt>
   <trkpt lat="-37.8543" lon="145.37263000000002">
    <ele>579.35</ele>
   </trkpt>
   <trkpt lat="-37.85414" lon="145.37239000000002">
    <ele>579.62</ele>
   </trkpt>
   <trkpt lat="-37.85405" lon="145.37220000000002">
    <ele>579.73</ele>
   </trkpt>
   <trkpt lat="-37.854020000000006" lon="145.37182">
    <ele>579.33</ele>
   </trkpt>
   <trkpt lat="-37.854020000000006" lon="145.3717">
    <ele>579.2900000000001</ele>
   </trkpt>
   <trkpt lat="-37.8541050050113" lon="145.3706100014149">
    <ele>576.64</ele>
   </trkpt>
   <trkpt lat="-37.85419" lon="145.36952000000002">
    <ele>573.1200000000001</ele>
   </trkpt>
   <trkpt lat="-37.85421" lon="145.36937">
    <ele>572.8700000000001</ele>
   </trkpt>
   <trkpt lat="-37.85445" lon="145.36905000000002">
    <ele>572.4100000000001</ele>
   </trkpt>
   <trkpt lat="-37.854580000000006" lon="145.36896000000002">
    <ele>572.21</ele>
   </trkpt>
   <trkpt lat="-37.85499" lon="145.36845000000002">
    <ele>572.3600000000001</ele>
   </trkpt>
   <trkpt lat="-37.85519" lon="145.36803">
    <ele>573.21</ele>
   </trkpt>
   <trkpt lat="-37.85536751067608" lon="145.36711250663902">
    <ele>573.3900000000001</ele>
   </trkpt>
   <trkpt lat="-37.855545014233364" lon="145.36619500885953">
    <ele>572.64</ele>
   </trkpt>
   <trkpt lat="-37.85572251067177" lon="145.36527750666164">
    <ele>571.0</ele>
   </trkpt>
   <trkpt lat="-37.855900000000005" lon="145.36436">
    <ele>571.32</ele>
   </trkpt>
   <trkpt lat="-37.856010000000005" lon="145.36439000000001">
    <ele>572.0500000000001</ele>
   </trkpt>
   <trkpt lat="-37.856010000000005" lon="145.36421">
    <ele>573.38</ele>
   </trkpt>
   <trkpt lat="-37.85596" lon="145.36408">
    <ele>574.49</ele>
   </trkpt>
   <trkpt lat="-37.85611500271802" lon="145.36327500180724">
    <ele>577.47</ele>
   </trkpt>
   <trkpt lat="-37.85627" lon="145.36247">
    <ele>581.61</ele>
   </trkpt>
   <trkpt lat="-37.856460000000006" lon="145.36180000000002">
    <ele>588.34</ele>
   </trkpt>
   <trkpt lat="-37.856550000000006" lon="145.36110000000002">
    <ele>596.33</ele>
   </trkpt>
   <trkpt lat="-37.85663" lon="145.36082000000002">
    <ele>599.5600000000001</ele>
   </trkpt>
   <trkpt lat="-37.85665" lon="145.36064000000002">
    <ele>601.0300000000001</ele>
   </trkpt>
   <trkpt lat="-37.85678" lon="145.3599">
    <ele>600.48</ele>
   </trkpt>
   <trkpt lat="-37.85683" lon="145.35981">
    <ele>599.45</ele>
   </trkpt>
   <trkpt lat="-37.856930000000006" lon="145.35983000000002">
    <ele>599.4</ele>
   </trkpt>
   <trkpt lat="-37.85701" lon="145.35941000000003">
    <ele>594.89</ele>
   </trkpt>
   <trkpt lat="-37.857020000000006" lon="145.35939000000002">
    <ele>594.57</ele>
   </trkpt>
   <trkpt lat="-37.857135001491976" lon="145.35880000081747">
    <ele>587.64</ele>
   </trkpt>
   <trkpt lat="-37.85725" lon="145.35821">
    <ele>581.77</ele>
   </trkpt>
   <trkpt lat="-37.85727" lon="145.35793">
    <ele>577.87</ele>
   </trkpt>
   <trkpt lat="-37.85725" lon="145.35781">
    <ele>577.26</ele>
   </trkpt>
   <trkpt lat="-37.857290000000006" lon="145.35757">
    <ele>575.73</ele>
   </trkpt>
   <trkpt lat="-37.857260000000004" lon="145.35754">
    <ele>576.2900000000001</ele>
   </trkpt>
   <trkpt lat="-37.85745" lon="145.35684">
    <ele>576.61</ele>
   </trkpt>
   <trkpt lat="-37.85752" lon="145.35642">
    <ele>576.46</ele>
   </trkpt>
   <trkpt lat="-37.85736" lon="145.35603">
    <ele>575.9399999999999</ele>
   </trkpt>
   <trkpt lat="-37.8573" lon="145.35580000000002">
    <ele>575.28</ele>
   </trkpt>
   <trkpt lat="-37.8573" lon="145.35575">
    <ele>575.0500000000001</ele>
   </trkpt>
   <trkpt lat="-37.857330000000005" lon="145.35569">
    <ele>574.7800000000001</ele>
   </trkpt>
   <trkpt lat="-37.85736" lon="145.35574000000003">
    <ele>574.99</ele>
   </trkpt>
   <trkpt lat="-37.85743" lon="145.35574000000003">
    <ele>575.76</ele>
   </trkpt>
   <trkpt lat="-37.85745" lon="145.35580000000002">
    <ele>575.76</ele>
   </trkpt>
   <trkpt lat="-37.85774" lon="145.3557">
    <ele>574.55</ele>
   </trkpt>
   <trkpt lat="-37.85792" lon="145.35547000000003">
    <ele>571.2600000000001</ele>
   </trkpt>
   <trkpt lat="-37.85826" lon="145.35524">
    <ele>560.6800000000001</ele>
   </trkpt>
   <trkpt lat="-37.85846" lon="145.35508000000002">
    <ele>557.37</ele>
   </trkpt>
   <trkpt lat="-37.85866" lon="145.35498">
    <ele>549.03</ele>
   </trkpt>
   <trkpt lat="-37.85877" lon="145.35487">
    <ele>545.23</ele>
   </trkpt>
   <trkpt lat="-37.85891" lon="145.35462">
    <ele>539.98</ele>
   </trkpt>
   <trkpt lat="-37.859300000000005" lon="145.35426">
    <ele>525.93</ele>
   </trkpt>
   <trkpt lat="-37.85931" lon="145.35425">
    <ele>525.33</ele>
   </trkpt>
   <trkpt lat="-37.85938" lon="145.35420000000002">
    <ele>525.33</ele>
   </trkpt>
   <trkpt lat="-37.85956" lon="145.35410000000002">
    <ele>518.5500000000001</ele>
   </trkpt>
   <trkpt lat="-37.85969" lon="145.35413">
    <ele>516.07</ele>
   </trkpt>
   <trkpt lat="-37.859930000000006" lon="145.35424">
    <ele>513.69</ele>
   </trkpt>
   <trkpt lat="-37.86016" lon="145.35452">
    <ele>513.78</ele>
   </trkpt>
   <trkpt lat="-37.860600000000005" lon="145.35546000000002">
    <ele>507.71</ele>
   </trkpt>
   <trkpt lat="-37.86061" lon="145.35558">
    <ele>505.2000000000001</ele>
   </trkpt>
   <trkpt lat="-37.86059" lon="145.35571000000002">
    <ele>498.66</ele>
   </trkpt>
   <trkpt lat="-37.86059" lon="145.35592000000003">
    <ele>494.91</ele>
   </trkpt>
   <trkpt lat="-37.860640000000004" lon="145.35598000000002">
    <ele>494.91</ele>
   </trkpt>
   <trkpt lat="-37.86072" lon="145.35566">
    <ele>493.71000000000004</ele>
   </trkpt>
   <trkpt lat="-37.86081" lon="145.35551">
    <ele>493.41</ele>
   </trkpt>
   <trkpt lat="-37.861260001004666" lon="145.35500000322173">
    <ele>490.34000000000003</ele>
   </trkpt>
   <trkpt lat="-37.86171" lon="145.35449">
    <ele>486.03000000000003</ele>
   </trkpt>
   <trkpt lat="-37.862" lon="145.35422">
    <ele>484.11</ele>
   </trkpt>
   <trkpt lat="-37.86243000031808" lon="145.3538950019934">
    <ele>481.50000000000006</ele>
   </trkpt>
   <trkpt lat="-37.862860000000005" lon="145.35357000000002">
    <ele>480.43</ele>
   </trkpt>
   <trkpt lat="-37.86269" lon="145.35319">
    <ele>478.86000000000007</ele>
   </trkpt>
  </trkseg>
 </trk>
</gpx>
