<?xml version="1.0" encoding="UTF-8"?>
<gpx creator="StravaGPX" version="1.1" xmlns="http://www.topografix.com/GPX/1/1" xmlns:xsi="http://www.w3.org/2001/XMLSchema-instance" xsi:schemaLocation="http://www.topografix.com/GPX/1/1 http://www.topografix.com/GPX/1/1/gpx.xsd">
 <metadata>
  <name>DTR 8 Feb 2026 14k</name>
  <author>
   <name>Richard Jones</name>
   <link href="https://www.strava.com/athletes/38085969"/>
  </author>
  <copyright author="OpenStreetMap contributors">
   <year>2020</year>
   <license>https://www.openstreetmap.org/copyright</license>
  </copyright>
  <link href="https://www.strava.com/routes/3454429399272140892"/>
 </metadata>
 <trk>
  <name>DTR 8 Feb 2026 14k</name>
  <link href="https://www.strava.com/routes/3454429399272140892"/>
  <type>trail_running</type>
  <trkseg>
   <trkpt lat="-37.86269" lon="145.35319">
    <ele>478.86000000000007</ele>
   </trkpt>
   <trkpt lat="-37.86256" lon="145.35293000000001">
    <ele>477.39000000000004</ele>
   </trkpt>
   <trkpt lat="-37.86253" lon="145.35292">
    <ele>477.31</ele>
   </trkpt>
   <trkpt lat="-37.86253" lon="145.35285000000002">
    <ele>477.32</ele>
   </trkpt>
   <trkpt lat="-37.86242" lon="145.35278000000002">
    <ele>478.75000000000006</ele>
   </trkpt>
   <trkpt lat="-37.86222" lon="145.35236">
    <ele>473.19000000000005</ele>
   </trkpt>
   <trkpt lat="-37.86216" lon="145.35208">
    <ele>471.06</ele>
   </trkpt>
   <trkpt lat="-37.86215" lon="145.35175">
    <ele>469.86000000000007</ele>
   </trkpt>
   <trkpt lat="-37.862210000000005" lon="145.35146">
    <ele>466.90000000000003</ele>
   </trkpt>
   <trkpt lat="-37.86222" lon="145.3514">
    <ele>466.18</ele>
   </trkpt>
   <trkpt lat="-37.86274" lon="145.35069000000001">
    <ele>458.27</ele>
   </trkpt>
   <trkpt lat="-37.86285" lon="145.35058">
    <ele>456.12</ele>
   </trkpt>
   <trkpt lat="-37.863130000000005" lon="145.34997">
    <ele>448.56</ele>
   </trkpt>
   <trkpt lat="-37.86321" lon="145.3496">
    <ele>445.07</ele>
   </trkpt>
   <trkpt lat="-37.86323" lon="145.3494">
    <ele>443.78000000000003</ele>
   </trkpt>
   <trkpt lat="-37.86318" lon="145.34895">
    <ele>438.39000000000004</ele>
   </trkpt>
   <trkpt lat="-37.86316" lon="145.34836">
    <ele>431.41</ele>
   </trkpt>
   <trkpt lat="-37.86312" lon="145.34826">
    <ele>429.84000000000003</ele>
   </trkpt>
   <trkpt lat="-37.86296" lon="145.34810000000002">
    <ele>427.81</ele>
   </trkpt>
   <trkpt lat="-37.86256" lon="145.34787">
    <ele>424.58</ele>
   </trkpt>
   <trkpt lat="-37.86245" lon="145.34777000000003">
    <ele>422.62000000000006</ele>
   </trkpt>
   <trkpt lat="-37.8622" lon="145.34749000000002">
    <ele>419.27000000000004</ele>
   </trkpt>
   <trkpt lat="-37.86206" lon="145.34726">
    <ele>416.17</ele>
   </trkpt>
   <trkpt lat="-37.86202" lon="145.34712000000002">
    <ele>414.34000000000003</ele>
   </trkpt>
   <trkpt lat="-37.86193" lon="145.34642000000002">
    <ele>406.48</ele>
   </trkpt>
   <trkpt lat="-37.86186" lon="145.34658000000002">
    <ele>406.67</ele>
   </trkpt>
   <trkpt lat="-37.861790000000006" lon="145.34698">
    <ele>407.67</ele>
   </trkpt>
   <trkpt lat="-37.86186" lon="145.34747000000002">
    <ele>408.02000000000004</ele>
   </trkpt>
   <trkpt lat="-37.862115001274674" lon="145.34800999821977">
    <ele>407.48</ele>
   </trkpt>
   <trkpt lat="-37.862370000000006" lon="145.34855000000002">
    <ele>412.17</ele>
   </trkpt>
   <trkpt lat="-37.86238" lon="145.34883000000002">
    <ele>414.57000000000005</ele>
   </trkpt>
   <trkpt lat="-37.86236" lon="145.34893000000002">
    <ele>415.12000000000006</ele>
   </trkpt>
   <trkpt lat="-37.86224" lon="145.34912">
    <ele>419.29</ele>
   </trkpt>
   <trkpt lat="-37.86184" lon="145.34957">
    <ele>426.85</ele>
   </trkpt>
   <trkpt lat="-37.861850000000004" lon="145.34956000000003">
    <ele>426.90000000000003</ele>
   </trkpt>
   <trkpt lat="-37.86166" lon="145.34982000000002">
    <ele>429.91</ele>
   </trkpt>
   <trkpt lat="-37.86135" lon="145.35045000000002">
    <ele>439.58000000000004</ele>
   </trkpt>
   <trkpt lat="-37.86115" lon="145.3511">
    <ele>444.67</ele>
   </trkpt>
   <trkpt lat="-37.861050000000006" lon="145.35133000000002">
    <ele>448.42</ele>
   </trkpt>
   <trkpt lat="-37.860960000000006" lon="145.35146">
    <ele>451.29</ele>
   </trkpt>
   <trkpt lat="-37.860490000000006" lon="145.35181">
    <ele>461.33</ele>
   </trkpt>
   <trkpt lat="-37.86023" lon="145.35196000000002">
    <ele>464.01000000000005</ele>
   </trkpt>
   <trkpt lat="-37.85994" lon="145.35221">
    <ele>468.94</ele>
   </trkpt>
   <trkpt lat="-37.8596" lon="145.35241000000002">
    <ele>472.63000000000005</ele>
   </trkpt>
   <trkpt lat="-37.85945" lon="145.35244">
    <ele>475.57000000000005</ele>
   </trkpt>
   <trkpt lat="-37.8592" lon="145.35248">
    <ele>479.62000000000006</ele>
   </trkpt>
   <trkpt lat="-37.85851" lon="145.35268000000002">
    <ele>488.63000000000005</ele>
   </trkpt>
   <trkpt lat="-37.85815" lon="145.35273">
    <ele>494.57000000000005</ele>
   </trkpt>
   <trkpt lat="-37.85768999978042" lon="145.3527049998319">
    <ele>500.01000000000005</ele>
   </trkpt>
   <trkpt lat="-37.85723" lon="145.35268000000002">
    <ele>504.28000000000003</ele>
   </trkpt>
   <trkpt lat="-37.857220000000005" lon="145.35268000000002">
    <ele>504.28000000000003</ele>
   </trkpt>
   <trkpt lat="-37.85701" lon="145.35266000000001">
    <ele>506.76</ele>
   </trkpt>
   <trkpt lat="-37.85683" lon="145.35260000000002">
    <ele>508.02000000000004</ele>
   </trkpt>
   <trkpt lat="-37.85636" lon="145.35252">
    <ele>509.82000000000005</ele>
   </trkpt>
   <trkpt lat="-37.85622" lon="145.35247">
    <ele>508.4200000000001</ele>
   </trkpt>
   <trkpt lat="-37.85614" lon="145.35240000000002">
    <ele>507.24</ele>
   </trkpt>
   <trkpt lat="-37.85580500091417" lon="145.35193999793628">
    <ele>496.47</ele>
   </trkpt>
   <trkpt lat="-37.855470000000004" lon="145.35148">
    <ele>490.74000000000007</ele>
   </trkpt>
   <trkpt lat="-37.85528" lon="145.35168000000002">
    <ele>488.34000000000003</ele>
   </trkpt>
   <trkpt lat="-37.85526" lon="145.35179000000002">
    <ele>487.62000000000006</ele>
   </trkpt>
   <trkpt lat="-37.85521" lon="145.35193">
    <ele>486.08</ele>
   </trkpt>
   <trkpt lat="-37.855140000000006" lon="145.35198000000003">
    <ele>484.50000000000006</ele>
   </trkpt>
   <trkpt lat="-37.85486" lon="145.3523">
    <ele>476.62000000000006</ele>
   </trkpt>
   <trkpt lat="-37.85472" lon="145.3527">
    <ele>470.95000000000005</ele>
   </trkpt>
   <trkpt lat="-37.85466" lon="145.35276000000002">
    <ele>468.5</ele>
   </trkpt>
   <trkpt lat="-37.85461" lon="145.35294000000002">
    <ele>467.03000000000003</ele>
   </trkpt>
   <trkpt lat="-37.85461" lon="145.35309">
    <ele>465.85</ele>
   </trkpt>
   <trkpt lat="-37.854580000000006" lon="145.35319">
    <ele>464.34000000000003</ele>
   </trkpt>
   <trkpt lat="-37.85452" lon="145.35320000000002">
    <ele>463.27</ele>
   </trkpt>
   <trkpt lat="-37.85439" lon="145.35299">
    <ele>460.20000000000005</ele>
   </trkpt>
   <trkpt lat="-37.854350000000004" lon="145.35299">
    <ele>460.20000000000005</ele>
   </trkpt>
   <trkpt lat="-37.854110000000006" lon="145.35328">
    <ele>457.37000000000006</ele>
   </trkpt>
   <trkpt lat="-37.85396" lon="145.35339000000002">
    <ele>453.99000000000007</ele>
   </trkpt>
   <trkpt lat="-37.85342" lon="145.35415">
    <ele>447.36</ele>
   </trkpt>
   <trkpt lat="-37.85331" lon="145.35443">
    <ele>443.6</ele>
   </trkpt>
   <trkpt lat="-37.853" lon="145.35505">
    <ele>442.6700000000001</ele>
   </trkpt>
   <trkpt lat="-37.85298" lon="145.3556">
    <ele>445.23</ele>
   </trkpt>
   <trkpt lat="-37.85289" lon="145.35602">
    <ele>446.22</ele>
   </trkpt>
   <trkpt lat="-37.85284" lon="145.3561">
    <ele>446.14000000000004</ele>
   </trkpt>
   <trkpt lat="-37.8526" lon="145.35617000000002">
    <ele>442.62</ele>
   </trkpt>
   <trkpt lat="-37.85195" lon="145.35605">
    <ele>423.91</ele>
   </trkpt>
   <trkpt lat="-37.85147999996115" lon="145.35608500022641">
    <ele>418.69</ele>
   </trkpt>
   <trkpt lat="-37.85101" lon="145.35612">
    <ele>419.30000000000007</ele>
   </trkpt>
   <trkpt lat="-37.85083" lon="145.35617000000002">
    <ele>419.68000000000006</ele>
   </trkpt>
   <trkpt lat="-37.85054" lon="145.35639">
    <ele>420.04</ele>
   </trkpt>
   <trkpt lat="-37.85009" lon="145.35676">
    <ele>416.19000000000005</ele>
   </trkpt>
   <trkpt lat="-37.84998" lon="145.35682">
    <ele>417.00000000000006</ele>
   </trkpt>
   <trkpt lat="-37.849700000000006" lon="145.35709">
    <ele>423.91</ele>
   </trkpt>
   <trkpt lat="-37.84951" lon="145.35711">
    <ele>428.19</ele>
   </trkpt>
   <trkpt lat="-37.84895" lon="145.35702">
    <ele>437.65000000000003</ele>
   </trkpt>
   <trkpt lat="-37.84886" lon="145.35699000000002">
    <ele>440.41</ele>
   </trkpt>
   <trkpt lat="-37.84877" lon="145.35692">
    <ele>441.88000000000005</ele>
   </trkpt>
   <trkpt lat="-37.84872" lon="145.35680000000002">
    <ele>442.72</ele>
   </trkpt>
   <trkpt lat="-37.8487" lon="145.35663000000002">
    <ele>443.33000000000004</ele>
   </trkpt>
   <trkpt lat="-37.84866" lon="145.35649">
    <ele>444.29</ele>
   </trkpt>
   <trkpt lat="-37.84859" lon="145.35638">
    <ele>446.05000000000007</ele>
   </trkpt>
   <trkpt lat="-37.84821" lon="145.35601">
    <ele>447.61000000000007</ele>
   </trkpt>
   <trkpt lat="-37.84814" lon="145.35590000000002">
    <ele>446.96000000000004</ele>
   </trkpt>
   <trkpt lat="-37.84812" lon="145.35582000000002">
    <ele>446.04</ele>
   </trkpt>
   <trkpt lat="-37.84814" lon="145.3557">
    <ele>445.42</ele>
   </trkpt>
   <trkpt lat="-37.84839" lon="145.35525">
    <ele>447.63</ele>
   </trkpt>
   <trkpt lat="-37.848440000000004" lon="145.35498">
    <ele>450.26000000000005</ele>
   </trkpt>
   <trkpt lat="-37.848440000000004" lon="145.35496">
    <ele>450.3</ele>
   </trkpt>
   <trkpt lat="-37.84852" lon="145.35456000000002">
    <ele>453.02000000000004</ele>
   </trkpt>
   <trkpt lat="-37.84863" lon="145.35433">
    <ele>452.59000000000003</ele>
   </trkpt>
   <trkpt lat="-37.84881" lon="145.35385000000002">
    <ele>447.81000000000006</ele>
   </trkpt>
   <trkpt lat="-37.84884" lon="145.35374000000002">
    <ele>446.72</ele>
   </trkpt>
   <trkpt lat="-37.84877" lon="145.35304000000002">
    <ele>442.93000000000006</ele>
   </trkpt>
   <trkpt lat="-37.848670000000006" lon="145.35243">
    <ele>438.02000000000004</ele>
   </trkpt>
   <trkpt lat="-37.8485" lon="145.35187000000002">
    <ele>431.99</ele>
   </trkpt>
   <trkpt lat="-37.84845" lon="145.35175">
    <ele>431.31</ele>
   </trkpt>
   <trkpt lat="-37.84819" lon="145.35123000000002">
    <ele>426.32000000000005</ele>
   </trkpt>
   <trkpt lat="-37.84792" lon="145.35087000000001">
    <ele>423.79</ele>
   </trkpt>
   <trkpt lat="-37.84767" lon="145.35063000000002">
    <ele>423.51000000000005</ele>
   </trkpt>
   <trkpt lat="-37.8472" lon="145.35029">
    <ele>419.61</ele>
   </trkpt>
   <trkpt lat="-37.84695" lon="145.35014">
    <ele>417.98</ele>
   </trkpt>
   <trkpt lat="-37.84678" lon="145.35007000000002">
    <ele>418.11</ele>
   </trkpt>
   <trkpt lat="-37.84653" lon="145.35004">
    <ele>419.67</ele>
   </trkpt>
   <trkpt lat="-37.845980000089995" lon="145.35005500010948">
    <ele>425.37</ele>
   </trkpt>
   <trkpt lat="-37.84543" lon="145.35007000000002">
    <ele>426.46000000000004</ele>
   </trkpt>
   <trkpt lat="-37.844934999841115" lon="145.35014000049526">
    <ele>430.41</ele>
   </trkpt>
   <trkpt lat="-37.844440000000006" lon="145.35021">
    <ele>435.69</ele>
   </trkpt>
   <trkpt lat="-37.84409" lon="145.35022">
    <ele>437.65000000000003</ele>
   </trkpt>
   <trkpt lat="-37.84355" lon="145.35018000000002">
    <ele>440.69</ele>
   </trkpt>
   <trkpt lat="-37.84306" lon="145.35005">
    <ele>443.18</ele>
   </trkpt>
   <trkpt lat="-37.84262500001824" lon="145.3498699988892">
    <ele>446.15000000000003</ele>
   </trkpt>
   <trkpt lat="-37.84219" lon="145.34969">
    <ele>450.36</ele>
   </trkpt>
   <trkpt lat="-37.84196" lon="145.34958">
    <ele>452.46000000000004</ele>
   </trkpt>
   <trkpt lat="-37.84179" lon="145.34944000000002">
    <ele>452.75000000000006</ele>
   </trkpt>
   <trkpt lat="-37.84176" lon="145.34928000000002">
    <ele>448.12</ele>
   </trkpt>
   <trkpt lat="-37.84185" lon="145.34889">
    <ele>441.69</ele>
   </trkpt>
   <trkpt lat="-37.84192" lon="145.34903">
    <ele>439.53000000000003</ele>
   </trkpt>
   <trkpt lat="-37.84201" lon="145.34906">
    <ele>437.70000000000005</ele>
   </trkpt>
   <trkpt lat="-37.8421" lon="145.34902000000002">
    <ele>437.70000000000005</ele>
   </trkpt>
   <trkpt lat="-37.84219" lon="145.34892000000002">
    <ele>430.87</ele>
   </trkpt>
   <trkpt lat="-37.84237" lon="145.3488">
    <ele>429.03000000000003</ele>
   </trkpt>
   <trkpt lat="-37.84263" lon="145.34873000000002">
    <ele>423.36</ele>
   </trkpt>
   <trkpt lat="-37.842760000000006" lon="145.34866000000002">
    <ele>421.63000000000005</ele>
   </trkpt>
   <trkpt lat="-37.84286" lon="145.34865000000002">
    <ele>418.92</ele>
   </trkpt>
   <trkpt lat="-37.84306" lon="145.34874000000002">
    <ele>414.99</ele>
   </trkpt>
   <trkpt lat="-37.84315" lon="145.34874000000002">
    <ele>413.73</ele>
   </trkpt>
   <trkpt lat="-37.843320000000006" lon="145.34844">
    <ele>411.79</ele>
   </trkpt>
   <trkpt lat="-37.84337" lon="145.34801000000002">
    <ele>409.52000000000004</ele>
   </trkpt>
   <trkpt lat="-37.84362" lon="145.34750000000003">
    <ele>403.5</ele>
   </trkpt>
   <trkpt lat="-37.84357" lon="145.34719">
    <ele>404.73</ele>
   </trkpt>
   <trkpt lat="-37.84342" lon="145.34677000000002">
    <ele>405.52000000000004</ele>
   </trkpt>
   <trkpt lat="-37.84342" lon="145.34661">
    <ele>405.33000000000004</ele>
   </trkpt>
   <trkpt lat="-37.84331" lon="145.34614000000002">
    <ele>406.89000000000004</ele>
   </trkpt>
   <trkpt lat="-37.84317" lon="145.34537">
    <ele>407.46000000000004</ele>
   </trkpt>
   <trkpt lat="-37.84328" lon="145.34499000000002">
    <ele>402.38</ele>
   </trkpt>
   <trkpt lat="-37.84326" lon="145.34479000000002">
    <ele>402.38</ele>
   </trkpt>
   <trkpt lat="-37.843300000000006" lon="145.34455">
    <ele>399.63000000000005</ele>
   </trkpt>
   <trkpt lat="-37.843300000000006" lon="145.34452000000002">
    <ele>399.6</ele>
   </trkpt>
   <trkpt lat="-37.84333" lon="145.3444">
    <ele>398.21</ele>
   </trkpt>
   <trkpt lat="-37.84353" lon="145.34413">
    <ele>395.41</ele>
   </trkpt>
   <trkpt lat="-37.84364" lon="145.34381000000002">
    <ele>390.39</ele>
   </trkpt>
   <trkpt lat="-37.843720000000005" lon="145.34375">
    <ele>390.39</ele>
   </trkpt>
   <trkpt lat="-37.84378" lon="145.34388">
    <ele>388.64000000000004</ele>
   </trkpt>
   <trkpt lat="-37.84373" lon="145.34419000000003">
    <ele>383.21999999999997</ele>
   </trkpt>
   <trkpt lat="-37.843790000000006" lon="145.34432">
    <ele>380.89</ele>
   </trkpt>
   <trkpt lat="-37.844" lon="145.34427000000002">
    <ele>372.3</ele>
   </trkpt>
   <trkpt lat="-37.84404" lon="145.34428">
    <ele>372.3</ele>
   </trkpt>
   <trkpt lat="-37.84409" lon="145.34425000000002">
    <ele>372.3</ele>
   </trkpt>
   <trkpt lat="-37.84422" lon="145.3443">
    <ele>368.35</ele>
   </trkpt>
   <trkpt lat="-37.84416" lon="145.34442">
    <ele>366.85</ele>
   </trkpt>
   <trkpt lat="-37.84416" lon="145.34455">
    <ele>365.17</ele>
   </trkpt>
   <trkpt lat="-37.8442" lon="145.34464">
    <ele>363.64</ele>
   </trkpt>
   <trkpt lat="-37.84427" lon="145.34468">
    <ele>362.66</ele>
   </trkpt>
   <trkpt lat="-37.84436" lon="145.34470000000002">
    <ele>360.46</ele>
   </trkpt>
   <trkpt lat="-37.84451" lon="145.34465">
    <ele>355.76</ele>
   </trkpt>
   <trkpt lat="-37.84469" lon="145.34469">
    <ele>350.0</ele>
   </trkpt>
   <trkpt lat="-37.8446" lon="145.34483">
    <ele>350.33000000000004</ele>
   </trkpt>
   <trkpt lat="-37.84456" lon="145.34508000000002">
    <ele>350.56000000000006</ele>
   </trkpt>
   <trkpt lat="-37.8446" lon="145.34527">
    <ele>350.6</ele>
   </trkpt>
   <trkpt lat="-37.84483" lon="145.34551000000002">
    <ele>351.27000000000004</ele>
   </trkpt>
   <trkpt lat="-37.8449" lon="145.34559000000002">
    <ele>351.3</ele>
   </trkpt>
   <trkpt lat="-37.84505" lon="145.34582">
    <ele>350.02000000000004</ele>
   </trkpt>
   <trkpt lat="-37.8451" lon="145.34592">
    <ele>350.30000000000007</ele>
   </trkpt>
   <trkpt lat="-37.845060000000004" lon="145.34613000000002">
    <ele>351.72</ele>
   </trkpt>
   <trkpt lat="-37.84519" lon="145.34607000000003">
    <ele>348.04</ele>
   </trkpt>
   <trkpt lat="-37.84543" lon="145.3459">
    <ele>342.12</ele>
   </trkpt>
   <trkpt lat="-37.84548" lon="145.34592">
    <ele>340.33000000000004</ele>
   </trkpt>
   <trkpt lat="-37.84559" lon="145.34591">
    <ele>337.33</ele>
   </trkpt>
   <trkpt lat="-37.84564" lon="145.34588000000002">
    <ele>337.33</ele>
   </trkpt>
   <trkpt lat="-37.84583000000001" lon="145.34565">
    <ele>332.49</ele>
   </trkpt>
   <trkpt lat="-37.84586" lon="145.34611">
    <ele>331.64000000000004</ele>
   </trkpt>
   <trkpt lat="-37.84579" lon="145.34645">
    <ele>331.29</ele>
   </trkpt>
   <trkpt lat="-37.84575" lon="145.3469">
    <ele>329.44</ele>
   </trkpt>
   <trkpt lat="-37.84592" lon="145.34679">
    <ele>324.88</ele>
   </trkpt>
   <trkpt lat="-37.846140000000005" lon="145.34655">
    <ele>320.70000000000005</ele>
   </trkpt>
   <trkpt lat="-37.84619" lon="145.34649000000002">
    <ele>318.01</ele>
   </trkpt>
   <trkpt lat="-37.846410000000006" lon="145.34633000000002">
    <ele>314.82000000000005</ele>
   </trkpt>
   <trkpt lat="-37.84666" lon="145.3459">
    <ele>307.57</ele>
   </trkpt>
   <trkpt lat="-37.84677000000001" lon="145.34547">
    <ele>304.49</ele>
   </trkpt>
   <trkpt lat="-37.84677000000001" lon="145.34549">
    <ele>304.68</ele>
   </trkpt>
   <trkpt lat="-37.846880000000006" lon="145.34483">
    <ele>298.4</ele>
   </trkpt>
   <trkpt lat="-37.84698" lon="145.34445000000002">
    <ele>295.46</ele>
   </trkpt>
   <trkpt lat="-37.84707" lon="145.3443">
    <ele>295.22</ele>
   </trkpt>
   <trkpt lat="-37.84716" lon="145.34429">
    <ele>295.01000000000005</ele>
   </trkpt>
   <trkpt lat="-37.8472" lon="145.34408000000002">
    <ele>295.93</ele>
   </trkpt>
   <trkpt lat="-37.84718" lon="145.34387">
    <ele>296.96</ele>
   </trkpt>
   <trkpt lat="-37.847170000000006" lon="145.34381000000002">
    <ele>297.62000000000006</ele>
   </trkpt>
   <trkpt lat="-37.84709" lon="145.34374000000003">
    <ele>297.87</ele>
   </trkpt>
   <trkpt lat="-37.84702" lon="145.34371000000002">
    <ele>298.16</ele>
   </trkpt>
   <trkpt lat="-37.84691" lon="145.34377">
    <ele>299.29</ele>
   </trkpt>
   <trkpt lat="-37.84666" lon="145.3442">
    <ele>304.87</ele>
   </trkpt>
   <trkpt lat="-37.84657" lon="145.34428">
    <ele>306.15000000000003</ele>
   </trkpt>
   <trkpt lat="-37.84642" lon="145.34432">
    <ele>308.86</ele>
   </trkpt>
   <trkpt lat="-37.84599" lon="145.34422">
    <ele>316.51</ele>
   </trkpt>
   <trkpt lat="-37.845690000000005" lon="145.34410000000003">
    <ele>320.0</ele>
   </trkpt>
   <trkpt lat="-37.8457" lon="145.34397">
    <ele>321.29</ele>
   </trkpt>
   <trkpt lat="-37.8457" lon="145.34371000000002">
    <ele>324.48</ele>
   </trkpt>
   <trkpt lat="-37.84548" lon="145.34309000000002">
    <ele>327.79</ele>
   </trkpt>
   <trkpt lat="-37.84532" lon="145.34259">
    <ele>327.37000000000006</ele>
   </trkpt>
   <trkpt lat="-37.8451" lon="145.34224">
    <ele>324.82000000000005</ele>
   </trkpt>
   <trkpt lat="-37.84496" lon="145.34209">
    <ele>324.32000000000005</ele>
   </trkpt>
   <trkpt lat="-37.84451500060959" lon="145.3417299978776">
    <ele>323.01</ele>
   </trkpt>
   <trkpt lat="-37.84407" lon="145.34137">
    <ele>320.97</ele>
   </trkpt>
   <trkpt lat="-37.8438" lon="145.34104000000002">
    <ele>319.76000000000005</ele>
   </trkpt>
   <trkpt lat="-37.84369" lon="145.34098">
    <ele>319.76000000000005</ele>
   </trkpt>
   <trkpt lat="-37.84348" lon="145.34089">
    <ele>318.41</ele>
   </trkpt>
   <trkpt lat="-37.84297" lon="145.34079">
    <ele>318.15000000000003</ele>
   </trkpt>
   <trkpt lat="-37.84275" lon="145.3407">
    <ele>317.62</ele>
   </trkpt>
   <trkpt lat="-37.84252" lon="145.34050000000002">
    <ele>314.16</ele>
   </trkpt>
   <trkpt lat="-37.84225" lon="145.34014000000002">
    <ele>311.31</ele>
   </trkpt>
   <trkpt lat="-37.8421" lon="145.33983">
    <ele>310.9</ele>
   </trkpt>
   <trkpt lat="-37.841950000000004" lon="145.33969000000002">
    <ele>310.17</ele>
   </trkpt>
   <trkpt lat="-37.84178" lon="145.33959000000002">
    <ele>310.18</ele>
   </trkpt>
   <trkpt lat="-37.8416" lon="145.33959000000002">
    <ele>310.99000000000007</ele>
   </trkpt>
   <trkpt lat="-37.84143" lon="145.33965">
    <ele>312.44000000000005</ele>
   </trkpt>
   <trkpt lat="-37.84098" lon="145.33985">
    <ele>318.27000000000004</ele>
   </trkpt>
   <trkpt lat="-37.84069" lon="145.33977000000002">
    <ele>319.99000000000007</ele>
   </trkpt>
   <trkpt lat="-37.84042" lon="145.33958">
    <ele>322.25000000000006</ele>
   </trkpt>
   <trkpt lat="-37.84015" lon="145.33934000000002">
    <ele>327.29</ele>
   </trkpt>
   <trkpt lat="-37.83977" lon="145.33871000000002">
    <ele>336.05</ele>
   </trkpt>
   <trkpt lat="-37.83961" lon="145.33852000000002">
    <ele>336.88</ele>
   </trkpt>
   <trkpt lat="-37.839400000000005" lon="145.33832">
    <ele>336.9200000000001</ele>
   </trkpt>
   <trkpt lat="-37.83928" lon="145.33822">
    <ele>336.39000000000004</ele>
   </trkpt>
   <trkpt lat="-37.83885" lon="145.33808000000002">
    <ele>332.91</ele>
   </trkpt>
   <trkpt lat="-37.83847" lon="145.33802">
    <ele>333.22</ele>
   </trkpt>
   <trkpt lat="-37.83809" lon="145.33800000000002">
    <ele>336.83</ele>
   </trkpt>
   <trkpt lat="-37.83766" lon="145.33823">
    <ele>345.6</ele>
   </trkpt>
   <trkpt lat="-37.83721500047108" lon="145.33861500245715">
    <ele>354.27000000000004</ele>
   </trkpt>
   <trkpt lat="-37.83677" lon="145.339">
    <ele>359.59000000000003</ele>
   </trkpt>
   <trkpt lat="-37.83625" lon="145.33926000000002">
    <ele>360.19</ele>
   </trkpt>
   <trkpt lat="-37.83576" lon="145.33959000000002">
    <ele>357.01000000000005</ele>
   </trkpt>
   <trkpt lat="-37.83543" lon="145.33977000000002">
    <ele>351.06000000000006</ele>
   </trkpt>
   <trkpt lat="-37.835150000000006" lon="145.33989000000003">
    <ele>347.57000000000005</ele>
   </trkpt>
   <trkpt lat="-37.83475" lon="145.34023000000002">
    <ele>339.44</ele>
   </trkpt>
   <trkpt lat="-37.83442" lon="145.34049000000002">
    <ele>345.21000000000004</ele>
   </trkpt>
   <trkpt lat="-37.83415" lon="145.34074">
    <ele>347.83000000000004</ele>
   </trkpt>
   <trkpt lat="-37.83397" lon="145.34079">
    <ele>344.15</ele>
   </trkpt>
   <trkpt lat="-37.83357" lon="145.34077000000002">
    <ele>333.78000000000003</ele>
   </trkpt>
   <trkpt lat="-37.83337" lon="145.34082">
    <ele>330.6</ele>
   </trkpt>
   <trkpt lat="-37.83323" lon="145.34098">
    <ele>329.47</ele>
   </trkpt>
   <trkpt lat="-37.83301" lon="145.34152">
    <ele>329.44</ele>
   </trkpt>
   <trkpt lat="-37.8327" lon="145.34184000000002">
    <ele>326.27</ele>
   </trkpt>
   <trkpt lat="-37.832330000000006" lon="145.34193000000002">
    <ele>328.97</ele>
   </trkpt>
   <trkpt lat="-37.83178" lon="145.34217">
    <ele>331.03000000000003</ele>
   </trkpt>
   <trkpt lat="-37.83164" lon="145.34225">
    <ele>330.87000000000006</ele>
   </trkpt>
   <trkpt lat="-37.83169" lon="145.34243">
    <ele>333.21</ele>
   </trkpt>
   <trkpt lat="-37.83165" lon="145.34294">
    <ele>344.5</ele>
   </trkpt>
   <trkpt lat="-37.83166000000001" lon="145.34293000000002">
    <ele>344.32</ele>
   </trkpt>
   <trkpt lat="-37.83162" lon="145.34344000000002">
    <ele>350.33000000000004</ele>
   </trkpt>
   <trkpt lat="-37.8316" lon="145.34351">
    <ele>350.33000000000004</ele>
   </trkpt>
   <trkpt lat="-37.83142" lon="145.34377">
    <ele>354.52</ele>
   </trkpt>
   <trkpt lat="-37.83144" lon="145.34383000000003">
    <ele>354.52</ele>
   </trkpt>
   <trkpt lat="-37.83151" lon="145.34382000000002">
    <ele>359.28000000000003</ele>
   </trkpt>
   <trkpt lat="-37.83175" lon="145.34362000000002">
    <ele>363.34000000000003</ele>
   </trkpt>
   <trkpt lat="-37.83202" lon="145.34352">
    <ele>370.1</ele>
   </trkpt>
   <trkpt lat="-37.832240000000006" lon="145.34348">
    <ele>375.28000000000003</ele>
   </trkpt>
   <trkpt lat="-37.83258" lon="145.34358">
    <ele>387.63</ele>
   </trkpt>
   <trkpt lat="-37.83272" lon="145.3436">
    <ele>393.98</ele>
   </trkpt>
   <trkpt lat="-37.833180000000006" lon="145.34378">
    <ele>406.26</ele>
   </trkpt>
   <trkpt lat="-37.83334" lon="145.34378">
    <ele>408.88</ele>
   </trkpt>
   <trkpt lat="-37.83375" lon="145.34368">
    <ele>413.78000000000003</ele>
   </trkpt>
   <trkpt lat="-37.83381" lon="145.34364000000002">
    <ele>414.77000000000004</ele>
   </trkpt>
   <trkpt lat="-37.8339" lon="145.34354000000002">
    <ele>415.53000000000003</ele>
   </trkpt>
   <trkpt lat="-37.83408" lon="145.34327000000002">
    <ele>417.65000000000003</ele>
   </trkpt>
   <trkpt lat="-37.83428" lon="145.34307">
    <ele>420.37</ele>
   </trkpt>
   <trkpt lat="-37.83449" lon="145.34293000000002">
    <ele>422.32</ele>
   </trkpt>
   <trkpt lat="-37.83471" lon="145.34282000000002">
    <ele>425.37</ele>
   </trkpt>
   <trkpt lat="-37.835" lon="145.34276">
    <ele>429.76000000000005</ele>
   </trkpt>
   <trkpt lat="-37.8354" lon="145.34276">
    <ele>435.55</ele>
   </trkpt>
   <trkpt lat="-37.83578" lon="145.34279">
    <ele>441.71000000000004</ele>
   </trkpt>
   <trkpt lat="-37.8361" lon="145.34279">
    <ele>444.83000000000004</ele>
   </trkpt>
   <trkpt lat="-37.83659" lon="145.34271">
    <ele>448.51</ele>
   </trkpt>
   <trkpt lat="-37.83666" lon="145.34268">
    <ele>449.65000000000003</ele>
   </trkpt>
   <trkpt lat="-37.83679" lon="145.34257000000002">
    <ele>450.72</ele>
   </trkpt>
   <trkpt lat="-37.83684" lon="145.34255000000002">
    <ele>451.53000000000003</ele>
   </trkpt>
   <trkpt lat="-37.83699" lon="145.34254">
    <ele>453.17</ele>
   </trkpt>
   <trkpt lat="-37.83746" lon="145.34274000000002">
    <ele>460.23</ele>
   </trkpt>
   <trkpt lat="-37.8376" lon="145.34282000000002">
    <ele>462.78000000000003</ele>
   </trkpt>
   <trkpt lat="-37.83789" lon="145.34306">
    <ele>467.27</ele>
   </trkpt>
   <trkpt lat="-37.83807" lon="145.34326000000001">
    <ele>471.26</ele>
   </trkpt>
   <trkpt lat="-37.83818" lon="145.34336000000002">
    <ele>473.12</ele>
   </trkpt>
   <trkpt lat="-37.8384" lon="145.34348">
    <ele>475.01000000000005</ele>
   </trkpt>
   <trkpt lat="-37.83854" lon="145.34353000000002">
    <ele>474.91</ele>
   </trkpt>
   <trkpt lat="-37.83874" lon="145.34358">
    <ele>474.16</ele>
   </trkpt>
   <trkpt lat="-37.8391" lon="145.34374000000003">
    <ele>470.37000000000006</ele>
   </trkpt>
   <trkpt lat="-37.83966" lon="145.34384">
    <ele>468.83000000000004</ele>
   </trkpt>
   <trkpt lat="-37.84024" lon="145.34384">
    <ele>468.23</ele>
   </trkpt>
   <trkpt lat="-37.84057" lon="145.34386">
    <ele>466.23</ele>
   </trkpt>
   <trkpt lat="-37.84091" lon="145.34394">
    <ele>463.67</ele>
   </trkpt>
   <trkpt lat="-37.84125" lon="145.34408000000002">
    <ele>461.41</ele>
   </trkpt>
   <trkpt lat="-37.84163" lon="145.34426000000002">
    <ele>458.37000000000006</ele>
   </trkpt>
   <trkpt lat="-37.84183" lon="145.34441">
    <ele>457.59000000000003</ele>
   </trkpt>
   <trkpt lat="-37.842040000000004" lon="145.34463000000002">
    <ele>457.01</ele>
   </trkpt>
   <trkpt lat="-37.84221" lon="145.34493">
    <ele>456.67</ele>
   </trkpt>
   <trkpt lat="-37.8423" lon="145.34518">
    <ele>456.05</ele>
   </trkpt>
   <trkpt lat="-37.84239" lon="145.34554">
    <ele>454.79</ele>
   </trkpt>
   <trkpt lat="-37.84241" lon="145.34594">
    <ele>453.38000000000005</ele>
   </trkpt>
   <trkpt lat="-37.84239" lon="145.34612">
    <ele>452.37000000000006</ele>
   </trkpt>
   <trkpt lat="-37.8423" lon="145.34661">
    <ele>450.93000000000006</ele>
   </trkpt>
   <trkpt lat="-37.84228" lon="145.3468">
    <ele>449.75000000000006</ele>
   </trkpt>
   <trkpt lat="-37.8423" lon="145.34731000000002">
    <ele>448.0</ele>
   </trkpt>
   <trkpt lat="-37.8423" lon="145.34775000000002">
    <ele>444.99000000000007</ele>
   </trkpt>
   <trkpt lat="-37.84225" lon="145.34794000000002">
    <ele>444.51</ele>
   </trkpt>
   <trkpt lat="-37.84219" lon="145.34804000000003">
    <ele>443.91</ele>
   </trkpt>
   <trkpt lat="-37.84201" lon="145.34824">
    <ele>443.32000000000005</ele>
   </trkpt>
   <trkpt lat="-37.84194" lon="145.34835">
    <ele>443.03000000000003</ele>
   </trkpt>
   <trkpt lat="-37.84183" lon="145.34872000000001">
    <ele>442.06</ele>
   </trkpt>
   <trkpt lat="-37.84185" lon="145.34889">
    <ele>441.69</ele>
   </trkpt>
   <trkpt lat="-37.84176" lon="145.34928000000002">
    <ele>448.12</ele>
   </trkpt>
   <trkpt lat="-37.84179" lon="145.34944000000002">
    <ele>452.75000000000006</ele>
   </trkpt>
   <trkpt lat="-37.84172" lon="145.3495">
    <ele>456.66</ele>
   </trkpt>
   <trkpt lat="-37.84152" lon="145.34975">
    <ele>468.90000000000003</ele>
   </trkpt>
   <trkpt lat="-37.84113" lon="145.34991000000002">
    <ele>478.41</ele>
   </trkpt>
   <trkpt lat="-37.84102" lon="145.35001000000003">
    <ele>482.51000000000005</ele>
   </trkpt>
   <trkpt lat="-37.84098" lon="145.35009000000002">
    <ele>484.78000000000003</ele>
   </trkpt>
   <trkpt lat="-37.84098" lon="145.35017000000002">
    <ele>485.59000000000003</ele>
   </trkpt>
   <trkpt lat="-37.84127" lon="145.35051">
    <ele>488.27000000000004</ele>
   </trkpt>
   <trkpt lat="-37.84185" lon="145.35098000000002">
    <ele>496.96000000000004</ele>
   </trkpt>
   <trkpt lat="-37.84201" lon="145.35107000000002">
    <ele>499.2900000000001</ele>
   </trkpt>
   <trkpt lat="-37.84207" lon="145.35114000000002">
    <ele>501.0300000000001</ele>
   </trkpt>
   <trkpt lat="-37.84223" lon="145.35143000000002">
    <ele>509.97999999999996</ele>
   </trkpt>
   <trkpt lat="-37.842470000000006" lon="145.35169000000002">
    <ele>516.09</ele>
   </trkpt>
   <trkpt lat="-37.84275" lon="145.35187000000002">
    <ele>519.19</ele>
   </trkpt>
   <trkpt lat="-37.84306" lon="145.35212">
    <ele>523.98</ele>
   </trkpt>
   <trkpt lat="-37.84335" lon="145.35238">
    <ele>526.03</ele>
   </trkpt>
   <trkpt lat="-37.84348" lon="145.3523">
    <ele>525.47</ele>
   </trkpt>
   <trkpt lat="-37.8436" lon="145.35240000000002">
    <ele>525.5000000000001</ele>
   </trkpt>
   <trkpt lat="-37.843790000000006" lon="145.35248">
    <ele>524.7</ele>
   </trkpt>
   <trkpt lat="-37.84407" lon="145.35236">
    <ele>520.57</ele>
   </trkpt>
   <trkpt lat="-37.844350000000006" lon="145.35216">
    <ele>513.7400000000001</ele>
   </trkpt>
   <trkpt lat="-37.84454" lon="145.35216">
    <ele>510.97</ele>
   </trkpt>
   <trkpt lat="-37.84476" lon="145.35224000000002">
    <ele>510.70000000000005</ele>
   </trkpt>
   <trkpt lat="-37.84503" lon="145.3523">
    <ele>511.02000000000004</ele>
   </trkpt>
   <trkpt lat="-37.84557" lon="145.35234">
    <ele>511.55000000000007</ele>
   </trkpt>
   <trkpt lat="-37.84568" lon="145.35239">
    <ele>511.83</ele>
   </trkpt>
   <trkpt lat="-37.845850000000006" lon="145.35258000000002">
    <ele>513.6500000000001</ele>
   </trkpt>
   <trkpt lat="-37.84601" lon="145.35263">
    <ele>514.1800000000001</ele>
   </trkpt>
   <trkpt lat="-37.846230000000006" lon="145.35278000000002">
    <ele>513.83</ele>
   </trkpt>
   <trkpt lat="-37.84633" lon="145.35282">
    <ele>513.5200000000001</ele>
   </trkpt>
   <trkpt lat="-37.84657" lon="145.35303000000002">
    <ele>511.76</ele>
   </trkpt>
   <trkpt lat="-37.84671" lon="145.35329000000002">
    <ele>510.8400000000001</ele>
   </trkpt>
   <trkpt lat="-37.84682" lon="145.35361">
    <ele>509.07</ele>
   </trkpt>
   <trkpt lat="-37.84693" lon="145.35409">
    <ele>505.63</ele>
   </trkpt>
   <trkpt lat="-37.846810000000005" lon="145.35467">
    <ele>500.55000000000007</ele>
   </trkpt>
   <trkpt lat="-37.84673" lon="145.35492000000002">
    <ele>499.28000000000003</ele>
   </trkpt>
   <trkpt lat="-37.84662" lon="145.35509000000002">
    <ele>499.21000000000004</ele>
   </trkpt>
   <trkpt lat="-37.84631" lon="145.3554">
    <ele>501.17</ele>
   </trkpt>
   <trkpt lat="-37.84624" lon="145.35552">
    <ele>501.81000000000006</ele>
   </trkpt>
   <trkpt lat="-37.84626" lon="145.35571000000002">
    <ele>501.7600000000001</ele>
   </trkpt>
   <trkpt lat="-37.84635" lon="145.35591000000002">
    <ele>499.7300000000001</ele>
   </trkpt>
   <trkpt lat="-37.84651" lon="145.3563">
    <ele>497.07000000000005</ele>
   </trkpt>
   <trkpt lat="-37.84682" lon="145.35668">
    <ele>492.93</ele>
   </trkpt>
   <trkpt lat="-37.84713" lon="145.35719">
    <ele>495.71000000000004</ele>
   </trkpt>
   <trkpt lat="-37.84772" lon="145.35768000000002">
    <ele>495.06000000000006</ele>
   </trkpt>
   <trkpt lat="-37.84783" lon="145.35772">
    <ele>494.01000000000005</ele>
   </trkpt>
   <trkpt lat="-37.84836" lon="145.35825">
    <ele>491.51000000000005</ele>
   </trkpt>
   <trkpt lat="-37.84874500087952" lon="145.35868999777225">
    <ele>495.7900000000001</ele>
   </trkpt>
   <trkpt lat="-37.84913" lon="145.35913000000002">
    <ele>497.08</ele>
   </trkpt>
   <trkpt lat="-37.84942" lon="145.35956000000002">
    <ele>495.46000000000004</ele>
   </trkpt>
   <trkpt lat="-37.84978" lon="145.35994000000002">
    <ele>490.40000000000003</ele>
   </trkpt>
   <trkpt lat="-37.84998" lon="145.35999">
    <ele>487.1</ele>
   </trkpt>
   <trkpt lat="-37.85013" lon="145.35996">
    <ele>482.55</ele>
   </trkpt>
   <trkpt lat="-37.850480000000005" lon="145.35993000000002">
    <ele>475.51000000000005</ele>
   </trkpt>
   <trkpt lat="-37.850500000000004" lon="145.35993000000002">
    <ele>475.68000000000006</ele>
   </trkpt>
   <trkpt lat="-37.850640000000006" lon="145.35994000000002">
    <ele>472.81000000000006</ele>
   </trkpt>
   <trkpt lat="-37.850730000000006" lon="145.35992000000002">
    <ele>472.11</ele>
   </trkpt>
   <trkpt lat="-37.85085" lon="145.35979">
    <ele>469.72</ele>
   </trkpt>
   <trkpt lat="-37.85092" lon="145.35967000000002">
    <ele>465.75000000000006</ele>
   </trkpt>
   <trkpt lat="-37.851110000000006" lon="145.35914000000002">
    <ele>463.37000000000006</ele>
   </trkpt>
   <trkpt lat="-37.85121" lon="145.35867000000002">
    <ele>466.6</ele>
   </trkpt>
   <trkpt lat="-37.85132" lon="145.35802">
    <ele>464.05</ele>
   </trkpt>
   <trkpt lat="-37.8515" lon="145.35757">
    <ele>460.22</ele>
   </trkpt>
   <trkpt lat="-37.85157" lon="145.35757">
    <ele>460.57000000000005</ele>
   </trkpt>
   <trkpt lat="-37.85177" lon="145.35780000000003">
    <ele>468.15</ele>
   </trkpt>
   <trkpt lat="-37.851890000000004" lon="145.35781">
    <ele>471.38</ele>
   </trkpt>
   <trkpt lat="-37.85195" lon="145.3579">
    <ele>473.27000000000004</ele>
   </trkpt>
   <trkpt lat="-37.852050000000006" lon="145.35793">
    <ele>474.45000000000005</ele>
   </trkpt>
   <trkpt lat="-37.852140000000006" lon="145.35791">
    <ele>474.79</ele>
   </trkpt>
   <trkpt lat="-37.85262" lon="145.35772">
    <ele>474.03000000000003</ele>
   </trkpt>
   <trkpt lat="-37.852790000000006" lon="145.35760000000002">
    <ele>472.67</ele>
   </trkpt>
   <trkpt lat="-37.852790000000006" lon="145.35759000000002">
    <ele>472.54</ele>
   </trkpt>
   <trkpt lat="-37.85295" lon="145.35742000000002">
    <ele>469.04</ele>
   </trkpt>
   <trkpt lat="-37.85302" lon="145.35724000000002">
    <ele>467.44</ele>
   </trkpt>
   <trkpt lat="-37.85311" lon="145.35713">
    <ele>467.21</ele>
   </trkpt>
   <trkpt lat="-37.85351" lon="145.35703">
    <ele>472.83000000000004</ele>
   </trkpt>
   <trkpt lat="-37.85374" lon="145.35714000000002">
    <ele>477.55</ele>
   </trkpt>
   <trkpt lat="-37.8538" lon="145.35702">
    <ele>477.48</ele>
   </trkpt>
   <trkpt lat="-37.85412" lon="145.35674">
    <ele>474.87</ele>
   </trkpt>
   <trkpt lat="-37.85421" lon="145.35660000000001">
    <ele>474.11</ele>
   </trkpt>
   <trkpt lat="-37.85423" lon="145.35635000000002">
    <ele>473.39000000000004</ele>
   </trkpt>
   <trkpt lat="-37.85421" lon="145.35626000000002">
    <ele>472.97</ele>
   </trkpt>
   <trkpt lat="-37.854310000000005" lon="145.3562">
    <ele>484.18000000000006</ele>
   </trkpt>
   <trkpt lat="-37.85434" lon="145.35638">
    <ele>485.08000000000004</ele>
   </trkpt>
   <trkpt lat="-37.85432" lon="145.35672000000002">
    <ele>488.45000000000005</ele>
   </trkpt>
   <trkpt lat="-37.85432" lon="145.35671000000002">
    <ele>488.25</ele>
   </trkpt>
   <trkpt lat="-37.8543" lon="145.35694">
    <ele>491.45000000000005</ele>
   </trkpt>
   <trkpt lat="-37.854200000000006" lon="145.35747">
    <ele>501.70000000000005</ele>
   </trkpt>
   <trkpt lat="-37.85407" lon="145.35779000000002">
    <ele>506.9100000000001</ele>
   </trkpt>
   <trkpt lat="-37.85389" lon="145.35817">
    <ele>512.84</ele>
   </trkpt>
   <trkpt lat="-37.85367" lon="145.35837">
    <ele>511.5200000000001</ele>
   </trkpt>
   <trkpt lat="-37.85356" lon="145.35836">
    <ele>509.72</ele>
   </trkpt>
   <trkpt lat="-37.85345" lon="145.35829">
    <ele>506.63</ele>
   </trkpt>
   <trkpt lat="-37.85336" lon="145.3583">
    <ele>505.0800000000001</ele>
   </trkpt>
   <trkpt lat="-37.85322" lon="145.35838">
    <ele>504.2300000000001</ele>
   </trkpt>
   <trkpt lat="-37.85313" lon="145.35853">
    <ele>505.90000000000003</ele>
   </trkpt>
   <trkpt lat="-37.85316" lon="145.35866000000001">
    <ele>507.89000000000004</ele>
   </trkpt>
   <trkpt lat="-37.85311" lon="145.35873">
    <ele>510.15</ele>
   </trkpt>
   <trkpt lat="-37.85309" lon="145.35899">
    <ele>515.03</ele>
   </trkpt>
   <trkpt lat="-37.85316" lon="145.35923000000003">
    <ele>524.6200000000001</ele>
   </trkpt>
   <trkpt lat="-37.85323" lon="145.35930000000002">
    <ele>524.6200000000001</ele>
   </trkpt>
   <trkpt lat="-37.85369" lon="145.3598">
    <ele>542.37</ele>
   </trkpt>
   <trkpt lat="-37.85389" lon="145.35997">
    <ele>546.3</ele>
   </trkpt>
   <trkpt lat="-37.85394" lon="145.35982">
    <ele>546.3</ele>
   </trkpt>
   <trkpt lat="-37.85398" lon="145.35959000000003">
    <ele>543.5500000000001</ele>
   </trkpt>
   <trkpt lat="-37.85399" lon="145.35959000000003">
    <ele>543.5000000000001</ele>
   </trkpt>
   <trkpt lat="-37.854020000000006" lon="145.35943">
    <ele>542.12</ele>
   </trkpt>
   <trkpt lat="-37.85403" lon="145.35922000000002">
    <ele>539.81</ele>
   </trkpt>
   <trkpt lat="-37.85405" lon="145.35908">
    <ele>537.71</ele>
   </trkpt>
   <trkpt lat="-37.85421" lon="145.35869000000002">
    <ele>532.7</ele>
   </trkpt>
   <trkpt lat="-37.85423" lon="145.35841000000002">
    <ele>525.34</ele>
   </trkpt>
   <trkpt lat="-37.85432" lon="145.3581">
    <ele>522.2800000000001</ele>
   </trkpt>
   <trkpt lat="-37.8545" lon="145.35797000000002">
    <ele>524.0799999999999</ele>
   </trkpt>
   <trkpt lat="-37.85461" lon="145.35797000000002">
    <ele>527.46</ele>
   </trkpt>
   <trkpt lat="-37.85492" lon="145.35791">
    <ele>533.4300000000001</ele>
   </trkpt>
   <trkpt lat="-37.85513" lon="145.358">
    <ele>540.39</ele>
   </trkpt>
   <trkpt lat="-37.8553" lon="145.35817">
    <ele>548.2600000000001</ele>
   </trkpt>
   <trkpt lat="-37.85553" lon="145.35828">
    <ele>553.64</ele>
   </trkpt>
   <trkpt lat="-37.85571" lon="145.35829">
    <ele>556.5500000000001</ele>
   </trkpt>
   <trkpt lat="-37.85618" lon="145.35822000000002">
    <ele>560.98</ele>
   </trkpt>
   <trkpt lat="-37.85633" lon="145.35812">
    <ele>561.5300000000001</ele>
   </trkpt>
   <trkpt lat="-37.85661" lon="145.35785">
    <ele>560.7800000000001</ele>
   </trkpt>
   <trkpt lat="-37.85661" lon="145.35784">
    <ele>560.77</ele>
   </trkpt>
   <trkpt lat="-37.85671" lon="145.35748">
    <ele>561.35</ele>
   </trkpt>
   <trkpt lat="-37.85698" lon="145.35725000000002">
    <ele>567.1700000000001</ele>
   </trkpt>
   <trkpt lat="-37.85703" lon="145.35715000000002">
    <ele>567.73</ele>
   </trkpt>
   <trkpt lat="-37.85705" lon="145.35702">
    <ele>567.98</ele>
   </trkpt>
   <trkpt lat="-37.85718" lon="145.35671000000002">
    <ele>570.12</ele>
   </trkpt>
   <trkpt lat="-37.85727" lon="145.35627000000002">
    <ele>573.38</ele>
   </trkpt>
   <trkpt lat="-37.85727" lon="145.35607000000002">
    <ele>574.2900000000001</ele>
   </trkpt>
   <trkpt lat="-37.8573" lon="145.35599000000002">
    <ele>574.61</ele>
   </trkpt>
   <trkpt lat="-37.85725" lon="145.35582000000002">
    <ele>574.77</ele>
   </trkpt>
   <trkpt lat="-37.8573" lon="145.35565000000003">
    <ele>574.59</ele>
   </trkpt>
   <trkpt lat="-37.85736" lon="145.35574000000003">
    <ele>574.99</ele>
   </trkpt>
   <trkpt lat="-37.85743" lon="145.35574000000003">
    <ele>575.76</ele>
   </trkpt>
   <trkpt lat="-37.85745" lon="145.35580000000002">
    <ele>575.76</ele>
   </trkpt>
   <trkpt lat="-37.85774" lon="145.3557">
    <ele>574.55</ele>
   </trkpt>
   <trkpt lat="-37.85792" lon="145.35547000000003">
    <ele>571.2600000000001</ele>
   </trkpt>
   <trkpt lat="-37.85826" lon="145.35524">
    <ele>563.86</ele>
   </trkpt>
   <trkpt lat="-37.85846" lon="145.35508000000002">
    <ele>557.37</ele>
   </trkpt>
   <trkpt lat="-37.85866" lon="145.35498">
    <ele>549.03</ele>
   </trkpt>
   <trkpt lat="-37.85877" lon="145.35487">
    <ele>545.58</ele>
   </trkpt>
   <trkpt lat="-37.8588" lon="145.35482000000002">
    <ele>545.58</ele>
   </trkpt>
   <trkpt lat="-37.858810000000005" lon="145.35481000000001">
    <ele>545.3800000000001</ele>
   </trkpt>
   <trkpt lat="-37.85891" lon="145.35462">
    <ele>539.98</ele>
   </trkpt>
   <trkpt lat="-37.85938" lon="145.35420000000002">
    <ele>521.93</ele>
   </trkpt>
   <trkpt lat="-37.85956" lon="145.35410000000002">
    <ele>518.5500000000001</ele>
   </trkpt>
   <trkpt lat="-37.85969" lon="145.35413">
    <ele>516.07</ele>
   </trkpt>
   <trkpt lat="-37.859930000000006" lon="145.35424">
    <ele>513.69</ele>
   </trkpt>
   <trkpt lat="-37.86016" lon="145.35452">
    <ele>513.78</ele>
   </trkpt>
   <trkpt lat="-37.860600000000005" lon="145.35546000000002">
    <ele>507.71</ele>
   </trkpt>
   <trkpt lat="-37.86061" lon="145.35558">
    <ele>505.2000000000001</ele>
   </trkpt>
   <trkpt lat="-37.86059" lon="145.35571000000002">
    <ele>498.66</ele>
   </trkpt>
   <trkpt lat="-37.86059" lon="145.35592000000003">
    <ele>498.66</ele>
   </trkpt>
   <trkpt lat="-37.860640000000004" lon="145.35598000000002">
    <ele>494.91</ele>
   </trkpt>
   <trkpt lat="-37.86072" lon="145.35566">
    <ele>493.71000000000004</ele>
   </trkpt>
   <trkpt lat="-37.86081" lon="145.35551">
    <ele>493.41</ele>
   </trkpt>
   <trkpt lat="-37.861260001004666" lon="145.35500000322173">
    <ele>490.34000000000003</ele>
   </trkpt>
   <trkpt lat="-37.86171" lon="145.35449">
    <ele>486.03000000000003</ele>
   </trkpt>
   <trkpt lat="-37.862" lon="145.35422">
    <ele>484.11</ele>
   </trkpt>
   <trkpt lat="-37.86243000031808" lon="145.3538950019934">
    <ele>481.50000000000006</ele>
   </trkpt>
   <trkpt lat="-37.862860000000005" lon="145.35357000000002">
    <ele>480.43</ele>
   </trkpt>
   <trkpt lat="-37.862770000000005" lon="145.35336">
    <ele>479.68000000000006</ele>
   </trkpt>
  </trkseg>
 </trk>
</gpx>
