<?xml version="1.0" encoding="UTF-8"?>
<gpx creator="StravaGPX" version="1.1" xmlns="http://www.topografix.com/GPX/1/1" xmlns:xsi="http://www.w3.org/2001/XMLSchema-instance" xsi:schemaLocation="http://www.topografix.com/GPX/1/1 http://www.topografix.com/GPX/1/1/gpx.xsd">
 <metadata>
  <name>Sunday 29 March 26 - 14k</name>
  <author>
   <name>Majid Nazem 🇦🇺</name>
   <link href="https://www.strava.com/athletes/5612969"/>
  </author>
  <copyright author="OpenStreetMap contributors">
   <year>2020</year>
   <license>https://www.openstreetmap.org/copyright</license>
  </copyright>
  <link href="https://www.strava.com/routes/3471829523971676640"/>
 </metadata>
 <trk>
  <name>Sunday 29 March 26 - 14k</name>
  <link href="https://www.strava.com/routes/3471829523971676640"/>
  <type>running</type>
  <trkseg>
   <trkpt lat="-37.85282" lon="145.36821">
    <ele>576.5400000000001</ele>
   </trkpt>
   <trkpt lat="-37.85264" lon="145.36819">
    <ele>574.73</ele>
   </trkpt>
   <trkpt lat="-37.85228" lon="145.36824000000001">
    <ele>570.88</ele>
   </trkpt>
   <trkpt lat="-37.852070000000005" lon="145.36833000000001">
    <ele>569.5400000000001</ele>
   </trkpt>
   <trkpt lat="-37.851760000000006" lon="145.36859">
    <ele>565.5600000000001</ele>
   </trkpt>
   <trkpt lat="-37.85159" lon="145.36880000000002">
    <ele>564.08</ele>
   </trkpt>
   <trkpt lat="-37.85105" lon="145.36917000000003">
    <ele>561.8100000000001</ele>
   </trkpt>
   <trkpt lat="-37.85072" lon="145.36927">
    <ele>560.89</ele>
   </trkpt>
   <trkpt lat="-37.850370000000005" lon="145.36927">
    <ele>557.82</ele>
   </trkpt>
   <trkpt lat="-37.849726003710735" lon="145.3687999835615">
    <ele>549.71</ele>
   </trkpt>
   <trkpt lat="-37.849082005553385" lon="145.36832997533335">
    <ele>540.25</ele>
   </trkpt>
   <trkpt lat="-37.84843800552803" lon="145.3678599753152">
    <ele>534.98</ele>
   </trkpt>
   <trkpt lat="-37.847794003634746" lon="145.3673899835068">
    <ele>534.22</ele>
   </trkpt>
   <trkpt lat="-37.847150000000006" lon="145.36692000000002">
    <ele>533.0</ele>
   </trkpt>
   <trkpt lat="-37.84709" lon="145.36679">
    <ele>532.4300000000001</ele>
   </trkpt>
   <trkpt lat="-37.84700000200787" lon="145.36609499888638">
    <ele>526.93</ele>
   </trkpt>
   <trkpt lat="-37.84691" lon="145.36540000000002">
    <ele>517.63</ele>
   </trkpt>
   <trkpt lat="-37.84693" lon="145.36513000000002">
    <ele>513.08</ele>
   </trkpt>
   <trkpt lat="-37.84687" lon="145.36482">
    <ele>510.21000000000004</ele>
   </trkpt>
   <trkpt lat="-37.84678000163085" lon="145.36420499946612">
    <ele>501.7900000000001</ele>
   </trkpt>
   <trkpt lat="-37.84669" lon="145.36359000000002">
    <ele>487.76</ele>
   </trkpt>
   <trkpt lat="-37.84655000177262" lon="145.36294499883846">
    <ele>486.78000000000003</ele>
   </trkpt>
   <trkpt lat="-37.846410000000006" lon="145.3623">
    <ele>499.85</ele>
   </trkpt>
   <trkpt lat="-37.84630000000001" lon="145.3617">
    <ele>507.34</ele>
   </trkpt>
   <trkpt lat="-37.84619" lon="145.36064000000002">
    <ele>511.78000000000003</ele>
   </trkpt>
   <trkpt lat="-37.84655" lon="145.36054000000001">
    <ele>511.5200000000001</ele>
   </trkpt>
   <trkpt lat="-37.84682" lon="145.36052">
    <ele>511.3500000000001</ele>
   </trkpt>
   <trkpt lat="-37.84698" lon="145.36054000000001">
    <ele>511.2</ele>
   </trkpt>
   <trkpt lat="-37.84707" lon="145.3604">
    <ele>512.3100000000001</ele>
   </trkpt>
   <trkpt lat="-37.84713" lon="145.36037000000002">
    <ele>512.3100000000001</ele>
   </trkpt>
   <trkpt lat="-37.84738" lon="145.36030000000002">
    <ele>511.65999999999997</ele>
   </trkpt>
   <trkpt lat="-37.84716" lon="145.35931000000002">
    <ele>515.99</ele>
   </trkpt>
   <trkpt lat="-37.84704" lon="145.35884000000001">
    <ele>517.25</ele>
   </trkpt>
   <trkpt lat="-37.84709" lon="145.35882">
    <ele>518.25</ele>
   </trkpt>
   <trkpt lat="-37.847170000000006" lon="145.35911000000002">
    <ele>517.64</ele>
   </trkpt>
   <trkpt lat="-37.84716" lon="145.3591">
    <ele>517.6700000000001</ele>
   </trkpt>
   <trkpt lat="-37.84709" lon="145.35882">
    <ele>518.25</ele>
   </trkpt>
   <trkpt lat="-37.84695" lon="145.35840000000002">
    <ele>516.57</ele>
   </trkpt>
   <trkpt lat="-37.84664" lon="145.35795000000002">
    <ele>512.49</ele>
   </trkpt>
   <trkpt lat="-37.846540000000005" lon="145.35771000000003">
    <ele>510.21999999999997</ele>
   </trkpt>
   <trkpt lat="-37.84644" lon="145.35760000000002">
    <ele>509.85</ele>
   </trkpt>
   <trkpt lat="-37.846360000000004" lon="145.35734000000002">
    <ele>508.99000000000007</ele>
   </trkpt>
   <trkpt lat="-37.846006670389734" lon="145.35667666031446">
    <ele>509.11000000000007</ele>
   </trkpt>
   <trkpt lat="-37.84565333705871" lon="145.35601332698553">
    <ele>510.33000000000004</ele>
   </trkpt>
   <trkpt lat="-37.8453" lon="145.35535000000002">
    <ele>510.9600000000001</ele>
   </trkpt>
   <trkpt lat="-37.845220000000005" lon="145.35527000000002">
    <ele>511.36</ele>
   </trkpt>
   <trkpt lat="-37.845746668159556" lon="145.35486000580076">
    <ele>510.38000000000005</ele>
   </trkpt>
   <trkpt lat="-37.84627333489767" lon="145.35445000574518">
    <ele>509.27</ele>
   </trkpt>
   <trkpt lat="-37.8468" lon="145.35404">
    <ele>506.9100000000001</ele>
   </trkpt>
   <trkpt lat="-37.846830000000004" lon="145.35398">
    <ele>506.5900000000001</ele>
   </trkpt>
   <trkpt lat="-37.846900000000005" lon="145.35394000000002">
    <ele>506.69000000000005</ele>
   </trkpt>
   <trkpt lat="-37.84682" lon="145.35361">
    <ele>509.07</ele>
   </trkpt>
   <trkpt lat="-37.84671" lon="145.35329000000002">
    <ele>510.8400000000001</ele>
   </trkpt>
   <trkpt lat="-37.84657" lon="145.35303000000002">
    <ele>511.76</ele>
   </trkpt>
   <trkpt lat="-37.84633" lon="145.35282">
    <ele>513.36</ele>
   </trkpt>
   <trkpt lat="-37.846230000000006" lon="145.35278000000002">
    <ele>513.6400000000001</ele>
   </trkpt>
   <trkpt lat="-37.84601" lon="145.35263">
    <ele>514.15</ele>
   </trkpt>
   <trkpt lat="-37.845850000000006" lon="145.35258000000002">
    <ele>513.6500000000001</ele>
   </trkpt>
   <trkpt lat="-37.84568" lon="145.35239">
    <ele>511.83</ele>
   </trkpt>
   <trkpt lat="-37.845620000000004" lon="145.35236">
    <ele>511.61</ele>
   </trkpt>
   <trkpt lat="-37.84557" lon="145.35234">
    <ele>511.55000000000007</ele>
   </trkpt>
   <trkpt lat="-37.84503" lon="145.3523">
    <ele>511.02000000000004</ele>
   </trkpt>
   <trkpt lat="-37.84476" lon="145.35224000000002">
    <ele>510.70000000000005</ele>
   </trkpt>
   <trkpt lat="-37.84454" lon="145.35216">
    <ele>510.97</ele>
   </trkpt>
   <trkpt lat="-37.844350000000006" lon="145.35216">
    <ele>512.9200000000001</ele>
   </trkpt>
   <trkpt lat="-37.84407" lon="145.35236">
    <ele>520.57</ele>
   </trkpt>
   <trkpt lat="-37.843790000000006" lon="145.35248">
    <ele>524.7</ele>
   </trkpt>
   <trkpt lat="-37.8436" lon="145.35240000000002">
    <ele>525.5000000000001</ele>
   </trkpt>
   <trkpt lat="-37.84348" lon="145.3523">
    <ele>525.47</ele>
   </trkpt>
   <trkpt lat="-37.84335" lon="145.35238">
    <ele>526.03</ele>
   </trkpt>
   <trkpt lat="-37.84364" lon="145.35284000000001">
    <ele>530.5500000000001</ele>
   </trkpt>
   <trkpt lat="-37.84366" lon="145.35302000000001">
    <ele>532.24</ele>
   </trkpt>
   <trkpt lat="-37.843560000000004" lon="145.35325">
    <ele>533.12</ele>
   </trkpt>
   <trkpt lat="-37.84307500040495" lon="145.35308499901353">
    <ele>535.91</ele>
   </trkpt>
   <trkpt lat="-37.84259" lon="145.35292">
    <ele>538.94</ele>
   </trkpt>
   <trkpt lat="-37.84199" lon="145.35289">
    <ele>543.79</ele>
   </trkpt>
   <trkpt lat="-37.84185" lon="145.35291">
    <ele>544.42</ele>
   </trkpt>
   <trkpt lat="-37.841440000000006" lon="145.35304000000002">
    <ele>545.59</ele>
   </trkpt>
   <trkpt lat="-37.84116" lon="145.35311000000002">
    <ele>545.94</ele>
   </trkpt>
   <trkpt lat="-37.84062" lon="145.35322000000002">
    <ele>547.9300000000001</ele>
   </trkpt>
   <trkpt lat="-37.84055" lon="145.35266000000001">
    <ele>548.5600000000001</ele>
   </trkpt>
   <trkpt lat="-37.84051" lon="145.35259000000002">
    <ele>548.62</ele>
   </trkpt>
   <trkpt lat="-37.83972500076495" lon="145.35218499572662">
    <ele>551.6</ele>
   </trkpt>
   <trkpt lat="-37.83894" lon="145.35178000000002">
    <ele>556.27</ele>
   </trkpt>
   <trkpt lat="-37.83878" lon="145.35166">
    <ele>557.5300000000001</ele>
   </trkpt>
   <trkpt lat="-37.83867" lon="145.35154">
    <ele>558.64</ele>
   </trkpt>
   <trkpt lat="-37.83851000000001" lon="145.35122">
    <ele>560.58</ele>
   </trkpt>
   <trkpt lat="-37.83811" lon="145.35049">
    <ele>564.7800000000001</ele>
   </trkpt>
   <trkpt lat="-37.837740000000004" lon="145.34965000000003">
    <ele>569.09</ele>
   </trkpt>
   <trkpt lat="-37.83773" lon="145.34956000000003">
    <ele>569.4100000000001</ele>
   </trkpt>
   <trkpt lat="-37.8378" lon="145.34934">
    <ele>569.91</ele>
   </trkpt>
   <trkpt lat="-37.83782" lon="145.34913">
    <ele>570.72</ele>
   </trkpt>
   <trkpt lat="-37.83789" lon="145.34899000000001">
    <ele>572.03</ele>
   </trkpt>
   <trkpt lat="-37.83793" lon="145.34877">
    <ele>574.4100000000001</ele>
   </trkpt>
   <trkpt lat="-37.83811" lon="145.34829000000002">
    <ele>577.07</ele>
   </trkpt>
   <trkpt lat="-37.83825" lon="145.34805">
    <ele>579.58</ele>
   </trkpt>
   <trkpt lat="-37.83831" lon="145.34782">
    <ele>583.2</ele>
   </trkpt>
   <trkpt lat="-37.83822" lon="145.34768000000003">
    <ele>587.84</ele>
   </trkpt>
   <trkpt lat="-37.8382" lon="145.34754">
    <ele>589.7</ele>
   </trkpt>
   <trkpt lat="-37.83858" lon="145.34734">
    <ele>584.8100000000001</ele>
   </trkpt>
   <trkpt lat="-37.83885" lon="145.34699">
    <ele>581.95</ele>
   </trkpt>
   <trkpt lat="-37.8391" lon="145.34675000000001">
    <ele>576.0200000000001</ele>
   </trkpt>
   <trkpt lat="-37.83914" lon="145.34669000000002">
    <ele>573.57</ele>
   </trkpt>
   <trkpt lat="-37.83914" lon="145.34647">
    <ele>572.0200000000001</ele>
   </trkpt>
   <trkpt lat="-37.8391" lon="145.34637">
    <ele>570.64</ele>
   </trkpt>
   <trkpt lat="-37.83894" lon="145.3462">
    <ele>566.0400000000001</ele>
   </trkpt>
   <trkpt lat="-37.83896" lon="145.34608">
    <ele>566.0400000000001</ele>
   </trkpt>
   <trkpt lat="-37.83872" lon="145.34589000000003">
    <ele>565.24</ele>
   </trkpt>
   <trkpt lat="-37.83856" lon="145.34584">
    <ele>566.58</ele>
   </trkpt>
   <trkpt lat="-37.83843" lon="145.34587000000002">
    <ele>569.6800000000001</ele>
   </trkpt>
   <trkpt lat="-37.83834" lon="145.34596000000002">
    <ele>570.98</ele>
   </trkpt>
   <trkpt lat="-37.83813" lon="145.34605000000002">
    <ele>580.3600000000001</ele>
   </trkpt>
   <trkpt lat="-37.83791" lon="145.34608">
    <ele>584.62</ele>
   </trkpt>
   <trkpt lat="-37.83766" lon="145.34623000000002">
    <ele>592.7</ele>
   </trkpt>
   <trkpt lat="-37.83733" lon="145.34626">
    <ele>599.0000000000001</ele>
   </trkpt>
   <trkpt lat="-37.83726" lon="145.34629">
    <ele>602.1</ele>
   </trkpt>
   <trkpt lat="-37.83693" lon="145.34661">
    <ele>609.92</ele>
   </trkpt>
   <trkpt lat="-37.83681" lon="145.34659000000002">
    <ele>610.71</ele>
   </trkpt>
   <trkpt lat="-37.83668" lon="145.34660000000002">
    <ele>610.4000000000001</ele>
   </trkpt>
   <trkpt lat="-37.836560000000006" lon="145.34659000000002">
    <ele>609.62</ele>
   </trkpt>
   <trkpt lat="-37.8363" lon="145.34654">
    <ele>605.96</ele>
   </trkpt>
   <trkpt lat="-37.8359" lon="145.34656">
    <ele>601.7900000000001</ele>
   </trkpt>
   <trkpt lat="-37.83574" lon="145.34658000000002">
    <ele>600.1500000000001</ele>
   </trkpt>
   <trkpt lat="-37.835150000000006" lon="145.34676000000002">
    <ele>596.82</ele>
   </trkpt>
   <trkpt lat="-37.83491" lon="145.3468">
    <ele>596.25</ele>
   </trkpt>
   <trkpt lat="-37.8344" lon="145.34703000000002">
    <ele>596.26</ele>
   </trkpt>
   <trkpt lat="-37.83413" lon="145.34727">
    <ele>596.8</ele>
   </trkpt>
   <trkpt lat="-37.83379500086186" lon="145.3476750016354">
    <ele>596.75</ele>
   </trkpt>
   <trkpt lat="-37.83346" lon="145.34808">
    <ele>594.7300000000001</ele>
   </trkpt>
   <trkpt lat="-37.83339" lon="145.34822">
    <ele>594.86</ele>
   </trkpt>
   <trkpt lat="-37.83328" lon="145.3487">
    <ele>594.5400000000001</ele>
   </trkpt>
   <trkpt lat="-37.83321" lon="145.34907">
    <ele>592.21</ele>
   </trkpt>
   <trkpt lat="-37.83316000000001" lon="145.34919000000002">
    <ele>590.7600000000001</ele>
   </trkpt>
   <trkpt lat="-37.83274" lon="145.34954000000002">
    <ele>587.16</ele>
   </trkpt>
   <trkpt lat="-37.83267" lon="145.34969">
    <ele>586.5</ele>
   </trkpt>
   <trkpt lat="-37.83231" lon="145.35010000000003">
    <ele>578.95</ele>
   </trkpt>
   <trkpt lat="-37.83196" lon="145.35046">
    <ele>571.1400000000001</ele>
   </trkpt>
   <trkpt lat="-37.83162" lon="145.35071000000002">
    <ele>561.9300000000001</ele>
   </trkpt>
   <trkpt lat="-37.83122" lon="145.35091">
    <ele>557.11</ele>
   </trkpt>
   <trkpt lat="-37.83093" lon="145.35097000000002">
    <ele>557.39</ele>
   </trkpt>
   <trkpt lat="-37.83066" lon="145.35092">
    <ele>559.45</ele>
   </trkpt>
   <trkpt lat="-37.83032" lon="145.35069000000001">
    <ele>561.36</ele>
   </trkpt>
   <trkpt lat="-37.82999" lon="145.35055">
    <ele>564.72</ele>
   </trkpt>
   <trkpt lat="-37.82963" lon="145.35047">
    <ele>567.46</ele>
   </trkpt>
   <trkpt lat="-37.82943" lon="145.35047">
    <ele>569.38</ele>
   </trkpt>
   <trkpt lat="-37.82911" lon="145.35060000000001">
    <ele>576.1800000000001</ele>
   </trkpt>
   <trkpt lat="-37.828629999903704" lon="145.35060500003354">
    <ele>577.9300000000001</ele>
   </trkpt>
   <trkpt lat="-37.82815" lon="145.35061000000002">
    <ele>574.9300000000001</ele>
   </trkpt>
   <trkpt lat="-37.82758000003291" lon="145.35072500089296">
    <ele>575.9300000000001</ele>
   </trkpt>
   <trkpt lat="-37.82701" lon="145.35084">
    <ele>577.9300000000001</ele>
   </trkpt>
   <trkpt lat="-37.82658" lon="145.35101">
    <ele>577.04</ele>
   </trkpt>
   <trkpt lat="-37.82625" lon="145.35123000000002">
    <ele>579.0300000000001</ele>
   </trkpt>
   <trkpt lat="-37.825970000000005" lon="145.35159000000002">
    <ele>581.71</ele>
   </trkpt>
   <trkpt lat="-37.82593" lon="145.35167">
    <ele>582.37</ele>
   </trkpt>
   <trkpt lat="-37.82558" lon="145.35231000000002">
    <ele>584.6600000000001</ele>
   </trkpt>
   <trkpt lat="-37.82551" lon="145.35260000000002">
    <ele>585.44</ele>
   </trkpt>
   <trkpt lat="-37.82547" lon="145.35287000000002">
    <ele>585.74</ele>
   </trkpt>
   <trkpt lat="-37.82555" lon="145.35337">
    <ele>585.89</ele>
   </trkpt>
   <trkpt lat="-37.82544" lon="145.35431">
    <ele>577.99</ele>
   </trkpt>
   <trkpt lat="-37.82535" lon="145.35486">
    <ele>574.2400000000001</ele>
   </trkpt>
   <trkpt lat="-37.82531" lon="145.35505">
    <ele>573.23</ele>
   </trkpt>
   <trkpt lat="-37.82529" lon="145.35529000000002">
    <ele>572.8199999999999</ele>
   </trkpt>
   <trkpt lat="-37.82529" lon="145.35569">
    <ele>572.3600000000001</ele>
   </trkpt>
   <trkpt lat="-37.825320000000005" lon="145.35603">
    <ele>570.59</ele>
   </trkpt>
   <trkpt lat="-37.82536" lon="145.35629">
    <ele>568.9399999999999</ele>
   </trkpt>
   <trkpt lat="-37.82526" lon="145.35688000000002">
    <ele>564.9399999999999</ele>
   </trkpt>
   <trkpt lat="-37.82524" lon="145.35717000000002">
    <ele>564.11</ele>
   </trkpt>
   <trkpt lat="-37.825250000000004" lon="145.35765">
    <ele>555.9300000000001</ele>
   </trkpt>
   <trkpt lat="-37.82531" lon="145.35758">
    <ele>552.7</ele>
   </trkpt>
   <trkpt lat="-37.82549" lon="145.35781">
    <ele>559.32</ele>
   </trkpt>
   <trkpt lat="-37.82555" lon="145.35802">
    <ele>556.11</ele>
   </trkpt>
   <trkpt lat="-37.82567" lon="145.35817">
    <ele>553.35</ele>
   </trkpt>
   <trkpt lat="-37.82587" lon="145.35828">
    <ele>551.2600000000001</ele>
   </trkpt>
   <trkpt lat="-37.82614" lon="145.35836">
    <ele>549.52</ele>
   </trkpt>
   <trkpt lat="-37.82645" lon="145.35860000000002">
    <ele>545.8900000000001</ele>
   </trkpt>
   <trkpt lat="-37.82667" lon="145.35872">
    <ele>544.2800000000001</ele>
   </trkpt>
   <trkpt lat="-37.82678000000001" lon="145.35874">
    <ele>542.96</ele>
   </trkpt>
   <trkpt lat="-37.82681" lon="145.35894000000002">
    <ele>539.7700000000001</ele>
   </trkpt>
   <trkpt lat="-37.82687" lon="145.35904000000002">
    <ele>538.34</ele>
   </trkpt>
   <trkpt lat="-37.82694" lon="145.35909">
    <ele>537.2</ele>
   </trkpt>
   <trkpt lat="-37.82705" lon="145.35911000000002">
    <ele>536.74</ele>
   </trkpt>
   <trkpt lat="-37.827180000000006" lon="145.35917">
    <ele>535.13</ele>
   </trkpt>
   <trkpt lat="-37.82728" lon="145.35929000000002">
    <ele>534.2300000000001</ele>
   </trkpt>
   <trkpt lat="-37.82772000000001" lon="145.35955">
    <ele>527.25</ele>
   </trkpt>
   <trkpt lat="-37.82786" lon="145.3596">
    <ele>523.36</ele>
   </trkpt>
   <trkpt lat="-37.82797" lon="145.35967000000002">
    <ele>515.14</ele>
   </trkpt>
   <trkpt lat="-37.82802" lon="145.35974000000002">
    <ele>511.69000000000005</ele>
   </trkpt>
   <trkpt lat="-37.828030000000005" lon="145.35981">
    <ele>510.2</ele>
   </trkpt>
   <trkpt lat="-37.82788" lon="145.35998">
    <ele>510.28000000000003</ele>
   </trkpt>
   <trkpt lat="-37.82804" lon="145.36018">
    <ele>516.0100000000001</ele>
   </trkpt>
   <trkpt lat="-37.828210000000006" lon="145.36031">
    <ele>511.3500000000001</ele>
   </trkpt>
   <trkpt lat="-37.828300000000006" lon="145.36042">
    <ele>508.16</ele>
   </trkpt>
   <trkpt lat="-37.82831" lon="145.36051">
    <ele>507.17</ele>
   </trkpt>
   <trkpt lat="-37.82831" lon="145.36064000000002">
    <ele>505.39</ele>
   </trkpt>
   <trkpt lat="-37.82824" lon="145.36102000000002">
    <ele>500.65999999999997</ele>
   </trkpt>
   <trkpt lat="-37.82826" lon="145.36134">
    <ele>496.06000000000006</ele>
   </trkpt>
   <trkpt lat="-37.828210000000006" lon="145.3615">
    <ele>494.93</ele>
   </trkpt>
   <trkpt lat="-37.82824" lon="145.36177">
    <ele>494.19</ele>
   </trkpt>
   <trkpt lat="-37.82831" lon="145.36178">
    <ele>494.08</ele>
   </trkpt>
   <trkpt lat="-37.8284" lon="145.36201">
    <ele>494.49</ele>
   </trkpt>
   <trkpt lat="-37.82842" lon="145.3622">
    <ele>495.19</ele>
   </trkpt>
   <trkpt lat="-37.8284" lon="145.36231">
    <ele>495.15000000000003</ele>
   </trkpt>
   <trkpt lat="-37.82842" lon="145.36245000000002">
    <ele>494.2300000000001</ele>
   </trkpt>
   <trkpt lat="-37.8286" lon="145.36275">
    <ele>494.2900000000001</ele>
   </trkpt>
   <trkpt lat="-37.828860000000006" lon="145.36302">
    <ele>493.71000000000004</ele>
   </trkpt>
   <trkpt lat="-37.82945" lon="145.36360000000002">
    <ele>492.49</ele>
   </trkpt>
   <trkpt lat="-37.82967" lon="145.3639">
    <ele>490.24000000000007</ele>
   </trkpt>
   <trkpt lat="-37.830180000000006" lon="145.36430000000001">
    <ele>488.17</ele>
   </trkpt>
   <trkpt lat="-37.83034" lon="145.36452">
    <ele>487.57000000000005</ele>
   </trkpt>
   <trkpt lat="-37.8305" lon="145.36453">
    <ele>487.66</ele>
   </trkpt>
   <trkpt lat="-37.83059" lon="145.36461">
    <ele>487.52000000000004</ele>
   </trkpt>
   <trkpt lat="-37.83113" lon="145.36483">
    <ele>487.15000000000003</ele>
   </trkpt>
   <trkpt lat="-37.83124" lon="145.36485000000002">
    <ele>486.22</ele>
   </trkpt>
   <trkpt lat="-37.83144" lon="145.36499">
    <ele>483.56000000000006</ele>
   </trkpt>
   <trkpt lat="-37.83151" lon="145.36502000000002">
    <ele>482.69000000000005</ele>
   </trkpt>
   <trkpt lat="-37.83164" lon="145.365">
    <ele>481.85</ele>
   </trkpt>
   <trkpt lat="-37.83196" lon="145.36511000000002">
    <ele>478.62000000000006</ele>
   </trkpt>
   <trkpt lat="-37.83207" lon="145.36518">
    <ele>476.22</ele>
   </trkpt>
   <trkpt lat="-37.8324" lon="145.36562">
    <ele>467.76000000000005</ele>
   </trkpt>
   <trkpt lat="-37.83252" lon="145.36566000000002">
    <ele>466.01000000000005</ele>
   </trkpt>
   <trkpt lat="-37.832710000000006" lon="145.36564">
    <ele>464.75000000000006</ele>
   </trkpt>
   <trkpt lat="-37.83276" lon="145.3656">
    <ele>464.0400000000001</ele>
   </trkpt>
   <trkpt lat="-37.833090000000006" lon="145.36562">
    <ele>458.76000000000005</ele>
   </trkpt>
   <trkpt lat="-37.83341" lon="145.3658">
    <ele>453.85</ele>
   </trkpt>
   <trkpt lat="-37.8337" lon="145.36607">
    <ele>450.70000000000005</ele>
   </trkpt>
   <trkpt lat="-37.83419" lon="145.36644">
    <ele>443.00000000000006</ele>
   </trkpt>
   <trkpt lat="-37.83431" lon="145.36658">
    <ele>440.99000000000007</ele>
   </trkpt>
   <trkpt lat="-37.8344" lon="145.36679">
    <ele>439.1</ele>
   </trkpt>
   <trkpt lat="-37.83465" lon="145.36706">
    <ele>433.82000000000005</ele>
   </trkpt>
   <trkpt lat="-37.83482" lon="145.36722">
    <ele>431.17</ele>
   </trkpt>
   <trkpt lat="-37.83509" lon="145.3673">
    <ele>427.11</ele>
   </trkpt>
   <trkpt lat="-37.835190000000004" lon="145.36743">
    <ele>426.09000000000003</ele>
   </trkpt>
   <trkpt lat="-37.83527" lon="145.36734">
    <ele>425.47</ele>
   </trkpt>
   <trkpt lat="-37.83536" lon="145.36729000000003">
    <ele>425.38000000000005</ele>
   </trkpt>
   <trkpt lat="-37.83545" lon="145.36728000000002">
    <ele>425.58</ele>
   </trkpt>
   <trkpt lat="-37.83554" lon="145.36737000000002">
    <ele>425.97</ele>
   </trkpt>
   <trkpt lat="-37.83583" lon="145.36804">
    <ele>429.64</ele>
   </trkpt>
   <trkpt lat="-37.83628" lon="145.36864">
    <ele>435.91</ele>
   </trkpt>
   <trkpt lat="-37.8367" lon="145.36918">
    <ele>439.63</ele>
   </trkpt>
   <trkpt lat="-37.8369" lon="145.36938">
    <ele>442.54</ele>
   </trkpt>
   <trkpt lat="-37.83708" lon="145.36950000000002">
    <ele>444.02000000000004</ele>
   </trkpt>
   <trkpt lat="-37.83719" lon="145.36952000000002">
    <ele>444.48</ele>
   </trkpt>
   <trkpt lat="-37.83719" lon="145.36971">
    <ele>442.95</ele>
   </trkpt>
   <trkpt lat="-37.83706" lon="145.3701">
    <ele>437.64000000000004</ele>
   </trkpt>
   <trkpt lat="-37.83701000000001" lon="145.37063">
    <ele>434.20000000000005</ele>
   </trkpt>
   <trkpt lat="-37.837030000000006" lon="145.37094000000002">
    <ele>431.3</ele>
   </trkpt>
   <trkpt lat="-37.83699" lon="145.37133">
    <ele>429.99</ele>
   </trkpt>
   <trkpt lat="-37.837030000000006" lon="145.3719">
    <ele>426.27000000000004</ele>
   </trkpt>
   <trkpt lat="-37.83699" lon="145.37235">
    <ele>423.55</ele>
   </trkpt>
   <trkpt lat="-37.83708" lon="145.37331">
    <ele>413.13000000000005</ele>
   </trkpt>
   <trkpt lat="-37.83719" lon="145.37388">
    <ele>409.14000000000004</ele>
   </trkpt>
   <trkpt lat="-37.83719" lon="145.37407000000002">
    <ele>408.52000000000004</ele>
   </trkpt>
   <trkpt lat="-37.83738" lon="145.37475">
    <ele>407.17</ele>
   </trkpt>
   <trkpt lat="-37.8376" lon="145.37522">
    <ele>406.54</ele>
   </trkpt>
   <trkpt lat="-37.83773" lon="145.37587000000002">
    <ele>407.87</ele>
   </trkpt>
   <trkpt lat="-37.83816" lon="145.37661">
    <ele>401.37000000000006</ele>
   </trkpt>
   <trkpt lat="-37.83834" lon="145.37685000000002">
    <ele>399.3</ele>
   </trkpt>
   <trkpt lat="-37.83838" lon="145.37712000000002">
    <ele>396.96000000000004</ele>
   </trkpt>
   <trkpt lat="-37.83838" lon="145.37723000000003">
    <ele>396.16</ele>
   </trkpt>
   <trkpt lat="-37.83825" lon="145.37757000000002">
    <ele>393.23</ele>
   </trkpt>
   <trkpt lat="-37.83825" lon="145.37769">
    <ele>393.23</ele>
   </trkpt>
   <trkpt lat="-37.83829" lon="145.37793000000002">
    <ele>391.29</ele>
   </trkpt>
   <trkpt lat="-37.83849" lon="145.37836000000001">
    <ele>389.08000000000004</ele>
   </trkpt>
   <trkpt lat="-37.83858" lon="145.37865000000002">
    <ele>388.04</ele>
   </trkpt>
   <trkpt lat="-37.83867" lon="145.3788">
    <ele>387.57</ele>
   </trkpt>
   <trkpt lat="-37.8391" lon="145.37933">
    <ele>382.93000000000006</ele>
   </trkpt>
   <trkpt lat="-37.83921" lon="145.37961">
    <ele>378.88000000000005</ele>
   </trkpt>
   <trkpt lat="-37.83923" lon="145.37973000000002">
    <ele>378.88000000000005</ele>
   </trkpt>
   <trkpt lat="-37.83921" lon="145.37984">
    <ele>378.88000000000005</ele>
   </trkpt>
   <trkpt lat="-37.83912" lon="145.37999000000002">
    <ele>378.09000000000003</ele>
   </trkpt>
   <trkpt lat="-37.83867" lon="145.38033000000001">
    <ele>372.31</ele>
   </trkpt>
   <trkpt lat="-37.838420000000006" lon="145.38066">
    <ele>369.79</ele>
   </trkpt>
   <trkpt lat="-37.83845" lon="145.38077">
    <ele>367.28000000000003</ele>
   </trkpt>
   <trkpt lat="-37.83863" lon="145.38101">
    <ele>364.49</ele>
   </trkpt>
   <trkpt lat="-37.83885" lon="145.38114000000002">
    <ele>362.94000000000005</ele>
   </trkpt>
   <trkpt lat="-37.83894" lon="145.38115000000002">
    <ele>362.74</ele>
   </trkpt>
   <trkpt lat="-37.83919" lon="145.38108000000003">
    <ele>361.86</ele>
   </trkpt>
   <trkpt lat="-37.83928" lon="145.38109">
    <ele>360.63</ele>
   </trkpt>
   <trkpt lat="-37.839380000000006" lon="145.38116000000002">
    <ele>358.85</ele>
   </trkpt>
   <trkpt lat="-37.839510000000004" lon="145.38152000000002">
    <ele>351.62000000000006</ele>
   </trkpt>
   <trkpt lat="-37.839510000000004" lon="145.38151000000002">
    <ele>351.59000000000003</ele>
   </trkpt>
   <trkpt lat="-37.8397" lon="145.38205000000002">
    <ele>337.85</ele>
   </trkpt>
   <trkpt lat="-37.8399" lon="145.38273">
    <ele>322.77</ele>
   </trkpt>
   <trkpt lat="-37.83993" lon="145.383">
    <ele>319.69</ele>
   </trkpt>
   <trkpt lat="-37.83968" lon="145.38363">
    <ele>312.68</ele>
   </trkpt>
   <trkpt lat="-37.83928" lon="145.38444">
    <ele>305.55</ele>
   </trkpt>
   <trkpt lat="-37.83906" lon="145.38516">
    <ele>298.46</ele>
   </trkpt>
   <trkpt lat="-37.8395" lon="145.38522">
    <ele>295.48</ele>
   </trkpt>
   <trkpt lat="-37.83975" lon="145.38520000000003">
    <ele>294.42</ele>
   </trkpt>
   <trkpt lat="-37.83997" lon="145.38510000000002">
    <ele>294.42</ele>
   </trkpt>
   <trkpt lat="-37.84022" lon="145.38496">
    <ele>295.13</ele>
   </trkpt>
   <trkpt lat="-37.84073" lon="145.38456000000002">
    <ele>297.19</ele>
   </trkpt>
   <trkpt lat="-37.84089" lon="145.38447000000002">
    <ele>297.05</ele>
   </trkpt>
   <trkpt lat="-37.841" lon="145.38444">
    <ele>296.59000000000003</ele>
   </trkpt>
   <trkpt lat="-37.84129" lon="145.38446000000002">
    <ele>293.67</ele>
   </trkpt>
   <trkpt lat="-37.841370000000005" lon="145.38448000000002">
    <ele>293.03000000000003</ele>
   </trkpt>
   <trkpt lat="-37.84134" lon="145.38447000000002">
    <ele>293.31</ele>
   </trkpt>
   <trkpt lat="-37.841440000000006" lon="145.38451">
    <ele>291.86</ele>
   </trkpt>
   <trkpt lat="-37.84154" lon="145.38462">
    <ele>290.46000000000004</ele>
   </trkpt>
   <trkpt lat="-37.84165" lon="145.38485">
    <ele>285.96999999999997</ele>
   </trkpt>
   <trkpt lat="-37.84178" lon="145.38521">
    <ele>281.85</ele>
   </trkpt>
   <trkpt lat="-37.84196" lon="145.38561">
    <ele>275.47</ele>
   </trkpt>
   <trkpt lat="-37.84205" lon="145.38577">
    <ele>274.26</ele>
   </trkpt>
   <trkpt lat="-37.84216" lon="145.38590000000002">
    <ele>273.87</ele>
   </trkpt>
   <trkpt lat="-37.84223" lon="145.38594">
    <ele>273.91</ele>
   </trkpt>
   <trkpt lat="-37.84237" lon="145.38589000000002">
    <ele>274.6</ele>
   </trkpt>
   <trkpt lat="-37.842470000000006" lon="145.38578">
    <ele>275.17</ele>
   </trkpt>
   <trkpt lat="-37.84254" lon="145.38564000000002">
    <ele>275.58000000000004</ele>
   </trkpt>
   <trkpt lat="-37.84266" lon="145.38509000000002">
    <ele>279.81</ele>
   </trkpt>
   <trkpt lat="-37.84272" lon="145.38490000000002">
    <ele>280.52000000000004</ele>
   </trkpt>
   <trkpt lat="-37.84281" lon="145.38477">
    <ele>281.37</ele>
   </trkpt>
   <trkpt lat="-37.84288" lon="145.38473000000002">
    <ele>281.82</ele>
   </trkpt>
   <trkpt lat="-37.84292000000001" lon="145.38473000000002">
    <ele>281.82</ele>
   </trkpt>
   <trkpt lat="-37.84297" lon="145.38451">
    <ele>283.43</ele>
   </trkpt>
   <trkpt lat="-37.84295" lon="145.38430000000002">
    <ele>286.8</ele>
   </trkpt>
   <trkpt lat="-37.84286" lon="145.38411000000002">
    <ele>288.37</ele>
   </trkpt>
   <trkpt lat="-37.84281" lon="145.38376000000002">
    <ele>291.15000000000003</ele>
   </trkpt>
   <trkpt lat="-37.84281" lon="145.38304000000002">
    <ele>296.28000000000003</ele>
   </trkpt>
   <trkpt lat="-37.84279" lon="145.38266000000002">
    <ele>300.83000000000004</ele>
   </trkpt>
   <trkpt lat="-37.84272" lon="145.38237">
    <ele>304.03000000000003</ele>
   </trkpt>
   <trkpt lat="-37.84263" lon="145.38217">
    <ele>306.98</ele>
   </trkpt>
   <trkpt lat="-37.84248" lon="145.38167">
    <ele>311.03000000000003</ele>
   </trkpt>
   <trkpt lat="-37.84248" lon="145.38133000000002">
    <ele>314.14000000000004</ele>
   </trkpt>
   <trkpt lat="-37.84243" lon="145.38109">
    <ele>316.17</ele>
   </trkpt>
   <trkpt lat="-37.8423" lon="145.38066">
    <ele>321.21000000000004</ele>
   </trkpt>
   <trkpt lat="-37.84205" lon="145.38012">
    <ele>324.81000000000006</ele>
   </trkpt>
   <trkpt lat="-37.84223" lon="145.38017000000002">
    <ele>329.38</ele>
   </trkpt>
   <trkpt lat="-37.842380000000006" lon="145.38016000000002">
    <ele>330.16</ele>
   </trkpt>
   <trkpt lat="-37.8425" lon="145.38008000000002">
    <ele>333.06</ele>
   </trkpt>
   <trkpt lat="-37.84257" lon="145.37998000000002">
    <ele>334.64000000000004</ele>
   </trkpt>
   <trkpt lat="-37.84277" lon="145.37985">
    <ele>339.18</ele>
   </trkpt>
   <trkpt lat="-37.84297" lon="145.37982000000002">
    <ele>342.44</ele>
   </trkpt>
   <trkpt lat="-37.84315" lon="145.37983">
    <ele>345.80000000000007</ele>
   </trkpt>
   <trkpt lat="-37.84396" lon="145.38022">
    <ele>358.98</ele>
   </trkpt>
   <trkpt lat="-37.84431" lon="145.38042000000002">
    <ele>363.64</ele>
   </trkpt>
   <trkpt lat="-37.844440000000006" lon="145.3804">
    <ele>365.19</ele>
   </trkpt>
   <trkpt lat="-37.84449" lon="145.38033000000001">
    <ele>366.8</ele>
   </trkpt>
   <trkpt lat="-37.84451" lon="145.3802">
    <ele>369.1</ele>
   </trkpt>
   <trkpt lat="-37.84451" lon="145.38000000000002">
    <ele>370.45000000000005</ele>
   </trkpt>
   <trkpt lat="-37.8444" lon="145.37967">
    <ele>375.8</ele>
   </trkpt>
   <trkpt lat="-37.84427" lon="145.37936000000002">
    <ele>378.45</ele>
   </trkpt>
   <trkpt lat="-37.84411" lon="145.37913">
    <ele>383.33</ele>
   </trkpt>
   <trkpt lat="-37.84375" lon="145.37878">
    <ele>388.5</ele>
   </trkpt>
   <trkpt lat="-37.84333" lon="145.37800000000001">
    <ele>398.5</ele>
   </trkpt>
   <trkpt lat="-37.84326" lon="145.3778">
    <ele>400.23</ele>
   </trkpt>
   <trkpt lat="-37.84324" lon="145.37767000000002">
    <ele>401.25000000000006</ele>
   </trkpt>
   <trkpt lat="-37.84326" lon="145.37756000000002">
    <ele>402.4800000000001</ele>
   </trkpt>
   <trkpt lat="-37.84333" lon="145.37742">
    <ele>404.77000000000004</ele>
   </trkpt>
   <trkpt lat="-37.84346" lon="145.37734">
    <ele>407.53000000000003</ele>
   </trkpt>
   <trkpt lat="-37.8436" lon="145.37728">
    <ele>407.53000000000003</ele>
   </trkpt>
   <trkpt lat="-37.84384" lon="145.37723000000003">
    <ele>415.39000000000004</ele>
   </trkpt>
   <trkpt lat="-37.84431" lon="145.37730000000002">
    <ele>425.99</ele>
   </trkpt>
   <trkpt lat="-37.84492" lon="145.37729000000002">
    <ele>436.6700000000001</ele>
   </trkpt>
   <trkpt lat="-37.84523" lon="145.37737">
    <ele>442.44000000000005</ele>
   </trkpt>
   <trkpt lat="-37.84582" lon="145.37730000000002">
    <ele>455.40000000000003</ele>
   </trkpt>
   <trkpt lat="-37.8459" lon="145.37727">
    <ele>457.23</ele>
   </trkpt>
   <trkpt lat="-37.8461" lon="145.37725">
    <ele>463.4800000000001</ele>
   </trkpt>
   <trkpt lat="-37.84633" lon="145.37718">
    <ele>467.06</ele>
   </trkpt>
   <trkpt lat="-37.84646" lon="145.37716">
    <ele>467.89000000000004</ele>
   </trkpt>
   <trkpt lat="-37.84666" lon="145.37718">
    <ele>471.02000000000004</ele>
   </trkpt>
   <trkpt lat="-37.8468" lon="145.37722000000002">
    <ele>475.85</ele>
   </trkpt>
   <trkpt lat="-37.84729" lon="145.37757000000002">
    <ele>483.34000000000003</ele>
   </trkpt>
   <trkpt lat="-37.84742" lon="145.3778">
    <ele>484.58000000000004</ele>
   </trkpt>
   <trkpt lat="-37.84747" lon="145.37811000000002">
    <ele>484.25</ele>
   </trkpt>
   <trkpt lat="-37.8476" lon="145.37832">
    <ele>483.52000000000004</ele>
   </trkpt>
   <trkpt lat="-37.84774" lon="145.37846000000002">
    <ele>483.71000000000004</ele>
   </trkpt>
   <trkpt lat="-37.84794" lon="145.37849">
    <ele>484.96000000000004</ele>
   </trkpt>
   <trkpt lat="-37.84825" lon="145.37846000000002">
    <ele>486.53000000000003</ele>
   </trkpt>
   <trkpt lat="-37.84848" lon="145.3784">
    <ele>487.40000000000003</ele>
   </trkpt>
   <trkpt lat="-37.8491" lon="145.37814">
    <ele>493.37</ele>
   </trkpt>
   <trkpt lat="-37.84951" lon="145.37792000000002">
    <ele>499.93</ele>
   </trkpt>
   <trkpt lat="-37.84964" lon="145.37782">
    <ele>501.0800000000001</ele>
   </trkpt>
   <trkpt lat="-37.85029" lon="145.3775">
    <ele>507.09000000000003</ele>
   </trkpt>
   <trkpt lat="-37.85047" lon="145.37738000000002">
    <ele>508.9600000000001</ele>
   </trkpt>
   <trkpt lat="-37.85085" lon="145.37730000000002">
    <ele>511.74000000000007</ele>
   </trkpt>
   <trkpt lat="-37.85121" lon="145.37741000000003">
    <ele>512.3000000000001</ele>
   </trkpt>
   <trkpt lat="-37.85157" lon="145.3776">
    <ele>509.43000000000006</ele>
   </trkpt>
   <trkpt lat="-37.85172" lon="145.37773">
    <ele>508.8</ele>
   </trkpt>
   <trkpt lat="-37.85188" lon="145.37808">
    <ele>505.70000000000005</ele>
   </trkpt>
   <trkpt lat="-37.85201" lon="145.37857000000002">
    <ele>504.21999999999997</ele>
   </trkpt>
   <trkpt lat="-37.85228" lon="145.37909000000002">
    <ele>506.69000000000005</ele>
   </trkpt>
   <trkpt lat="-37.85251" lon="145.37935000000002">
    <ele>507.92</ele>
   </trkpt>
   <trkpt lat="-37.85282" lon="145.3796">
    <ele>510.41</ele>
   </trkpt>
   <trkpt lat="-37.85293" lon="145.37962000000002">
    <ele>511.17</ele>
   </trkpt>
   <trkpt lat="-37.853080000000006" lon="145.37959">
    <ele>511.49</ele>
   </trkpt>
   <trkpt lat="-37.853350000000006" lon="145.37931">
    <ele>512.38</ele>
   </trkpt>
   <trkpt lat="-37.85351" lon="145.37909000000002">
    <ele>514.1800000000001</ele>
   </trkpt>
   <trkpt lat="-37.85387" lon="145.37866000000002">
    <ele>521.5000000000001</ele>
   </trkpt>
   <trkpt lat="-37.85427" lon="145.37793000000002">
    <ele>533.7700000000001</ele>
   </trkpt>
   <trkpt lat="-37.85468" lon="145.37728">
    <ele>546.46</ele>
   </trkpt>
   <trkpt lat="-37.85502" lon="145.37683">
    <ele>552.22</ele>
   </trkpt>
   <trkpt lat="-37.85533" lon="145.37614000000002">
    <ele>562.7</ele>
   </trkpt>
   <trkpt lat="-37.85571" lon="145.37552000000002">
    <ele>569.1</ele>
   </trkpt>
   <trkpt lat="-37.85604" lon="145.37508000000003">
    <ele>572.33</ele>
   </trkpt>
   <trkpt lat="-37.85622" lon="145.37490000000003">
    <ele>574.1</ele>
   </trkpt>
   <trkpt lat="-37.856260000000006" lon="145.37480000000002">
    <ele>574.04</ele>
   </trkpt>
   <trkpt lat="-37.856" lon="145.37456">
    <ele>576.76</ele>
   </trkpt>
   <trkpt lat="-37.8556750005453" lon="145.37416499811948">
    <ele>578.3900000000001</ele>
   </trkpt>
   <trkpt lat="-37.85535" lon="145.37377">
    <ele>578.0500000000001</ele>
   </trkpt>
   <trkpt lat="-37.85531" lon="145.37379">
    <ele>578.2900000000001</ele>
   </trkpt>
   <trkpt lat="-37.85521" lon="145.37367">
    <ele>578.1500000000001</ele>
   </trkpt>
   <trkpt lat="-37.854845000635606" lon="145.37326999797466">
    <ele>578.3100000000001</ele>
   </trkpt>
   <trkpt lat="-37.85448" lon="145.37287">
    <ele>579.04</ele>
   </trkpt>
   <trkpt lat="-37.8543" lon="145.37263000000002">
    <ele>579.35</ele>
   </trkpt>
   <trkpt lat="-37.85414" lon="145.37239000000002">
    <ele>579.62</ele>
   </trkpt>
   <trkpt lat="-37.85405" lon="145.37220000000002">
    <ele>579.73</ele>
   </trkpt>
   <trkpt lat="-37.854020000000006" lon="145.37182">
    <ele>579.33</ele>
   </trkpt>
   <trkpt lat="-37.854020000000006" lon="145.3717">
    <ele>579.2900000000001</ele>
   </trkpt>
   <trkpt lat="-37.8541050050113" lon="145.3706100014149">
    <ele>576.64</ele>
   </trkpt>
   <trkpt lat="-37.85419" lon="145.36952000000002">
    <ele>573.1200000000001</ele>
   </trkpt>
   <trkpt lat="-37.85421" lon="145.36937">
    <ele>572.8700000000001</ele>
   </trkpt>
   <trkpt lat="-37.85441" lon="145.36911">
    <ele>572.4100000000001</ele>
   </trkpt>
   <trkpt lat="-37.85409000000001" lon="145.36882">
    <ele>576.34</ele>
   </trkpt>
   <trkpt lat="-37.853660000000005" lon="145.36857">
    <ele>579.07</ele>
   </trkpt>
   <trkpt lat="-37.85314" lon="145.36833000000001">
    <ele>578.37</ele>
   </trkpt>
   <trkpt lat="-37.85295" lon="145.36823">
    <ele>577.3000000000001</ele>
   </trkpt>
   <trkpt lat="-37.85264" lon="145.36819">
    <ele>574.73</ele>
   </trkpt>
   <trkpt lat="-37.852470000000004" lon="145.36822">
    <ele>573.77</ele>
   </trkpt>
  </trkseg>
 </trk>
</gpx>
