<?xml version="1.0" encoding="UTF-8"?>
<gpx creator="StravaGPX" version="1.1" xmlns="http://www.topografix.com/GPX/1/1" xmlns:xsi="http://www.w3.org/2001/XMLSchema-instance" xsi:schemaLocation="http://www.topografix.com/GPX/1/1 http://www.topografix.com/GPX/1/1/gpx.xsd">
 <metadata>
  <name>DTR Easter 2026 14k</name>
  <author>
   <name>Richard Jones</name>
   <link href="https://www.strava.com/athletes/38085969"/>
  </author>
  <copyright author="OpenStreetMap contributors">
   <year>2020</year>
   <license>https://www.openstreetmap.org/copyright</license>
  </copyright>
  <link href="https://www.strava.com/routes/3474922010130889856"/>
 </metadata>
 <trk>
  <name>DTR Easter 2026 14k</name>
  <link href="https://www.strava.com/routes/3474922010130889856"/>
  <type>trail_running</type>
  <trkseg>
   <trkpt lat="-37.862790000000004" lon="145.35353">
    <ele>480.38</ele>
   </trkpt>
   <trkpt lat="-37.862860000000005" lon="145.35369">
    <ele>480.74000000000007</ele>
   </trkpt>
   <trkpt lat="-37.862840000000006" lon="145.35371">
    <ele>480.84000000000003</ele>
   </trkpt>
   <trkpt lat="-37.86287" lon="145.3538">
    <ele>480.96000000000004</ele>
   </trkpt>
   <trkpt lat="-37.86316" lon="145.35444">
    <ele>485.95000000000005</ele>
   </trkpt>
   <trkpt lat="-37.86334" lon="145.35477">
    <ele>476.57000000000005</ele>
   </trkpt>
   <trkpt lat="-37.86345" lon="145.35489">
    <ele>475.56</ele>
   </trkpt>
   <trkpt lat="-37.863600000000005" lon="145.35494">
    <ele>472.75000000000006</ele>
   </trkpt>
   <trkpt lat="-37.86415" lon="145.35496">
    <ele>463.9200000000001</ele>
   </trkpt>
   <trkpt lat="-37.86435" lon="145.35499000000002">
    <ele>461.0</ele>
   </trkpt>
   <trkpt lat="-37.8645" lon="145.35506">
    <ele>455.6</ele>
   </trkpt>
   <trkpt lat="-37.864850000000004" lon="145.35513">
    <ele>448.28000000000003</ele>
   </trkpt>
   <trkpt lat="-37.86502" lon="145.35512">
    <ele>446.27000000000004</ele>
   </trkpt>
   <trkpt lat="-37.8652" lon="145.35519000000002">
    <ele>442.48</ele>
   </trkpt>
   <trkpt lat="-37.86547" lon="145.35535000000002">
    <ele>440.11000000000007</ele>
   </trkpt>
   <trkpt lat="-37.86591000000001" lon="145.35539">
    <ele>435.07</ele>
   </trkpt>
   <trkpt lat="-37.86598" lon="145.35542">
    <ele>434.7300000000001</ele>
   </trkpt>
   <trkpt lat="-37.865990000000004" lon="145.35551">
    <ele>434.7300000000001</ele>
   </trkpt>
   <trkpt lat="-37.866" lon="145.35554000000002">
    <ele>434.7300000000001</ele>
   </trkpt>
   <trkpt lat="-37.86596" lon="145.35572000000002">
    <ele>434.42</ele>
   </trkpt>
   <trkpt lat="-37.865860000000005" lon="145.35572000000002">
    <ele>414.39000000000004</ele>
   </trkpt>
   <trkpt lat="-37.86589" lon="145.35592000000003">
    <ele>432.65000000000003</ele>
   </trkpt>
   <trkpt lat="-37.86585" lon="145.35607000000002">
    <ele>431.14</ele>
   </trkpt>
   <trkpt lat="-37.866" lon="145.35656">
    <ele>427.8</ele>
   </trkpt>
   <trkpt lat="-37.86623" lon="145.35682">
    <ele>425.63</ele>
   </trkpt>
   <trkpt lat="-37.86632" lon="145.35688000000002">
    <ele>424.86</ele>
   </trkpt>
   <trkpt lat="-37.86654" lon="145.35708000000002">
    <ele>421.90000000000003</ele>
   </trkpt>
   <trkpt lat="-37.86672" lon="145.35738">
    <ele>419.88</ele>
   </trkpt>
   <trkpt lat="-37.86675" lon="145.35739">
    <ele>419.88</ele>
   </trkpt>
   <trkpt lat="-37.86688" lon="145.35736">
    <ele>419.73</ele>
   </trkpt>
   <trkpt lat="-37.86715" lon="145.35776">
    <ele>420.13000000000005</ele>
   </trkpt>
   <trkpt lat="-37.86728" lon="145.35787000000002">
    <ele>418.98</ele>
   </trkpt>
   <trkpt lat="-37.86737" lon="145.35797000000002">
    <ele>418.76</ele>
   </trkpt>
   <trkpt lat="-37.86748" lon="145.35804000000002">
    <ele>418.76</ele>
   </trkpt>
   <trkpt lat="-37.86755" lon="145.35812">
    <ele>418.57000000000005</ele>
   </trkpt>
   <trkpt lat="-37.86766" lon="145.35817">
    <ele>418.54</ele>
   </trkpt>
   <trkpt lat="-37.86771" lon="145.35824000000002">
    <ele>418.6</ele>
   </trkpt>
   <trkpt lat="-37.86768" lon="145.35852">
    <ele>418.15000000000003</ele>
   </trkpt>
   <trkpt lat="-37.86773" lon="145.35860000000002">
    <ele>418.38</ele>
   </trkpt>
   <trkpt lat="-37.86793" lon="145.35878000000002">
    <ele>419.37</ele>
   </trkpt>
   <trkpt lat="-37.86806" lon="145.35901">
    <ele>418.73</ele>
   </trkpt>
   <trkpt lat="-37.8682" lon="145.35908">
    <ele>418.46000000000004</ele>
   </trkpt>
   <trkpt lat="-37.86871" lon="145.35917">
    <ele>418.77000000000004</ele>
   </trkpt>
   <trkpt lat="-37.86887" lon="145.35943">
    <ele>416.73</ele>
   </trkpt>
   <trkpt lat="-37.869220000000006" lon="145.35977000000003">
    <ele>415.27000000000004</ele>
   </trkpt>
   <trkpt lat="-37.8695" lon="145.36015">
    <ele>414.58000000000004</ele>
   </trkpt>
   <trkpt lat="-37.86963" lon="145.36053">
    <ele>412.48</ele>
   </trkpt>
   <trkpt lat="-37.86972" lon="145.36065000000002">
    <ele>411.98</ele>
   </trkpt>
   <trkpt lat="-37.86999" lon="145.36083000000002">
    <ele>412.11</ele>
   </trkpt>
   <trkpt lat="-37.87071" lon="145.36105">
    <ele>410.58000000000004</ele>
   </trkpt>
   <trkpt lat="-37.87113" lon="145.36123">
    <ele>409.49</ele>
   </trkpt>
   <trkpt lat="-37.87182" lon="145.36126000000002">
    <ele>409.64000000000004</ele>
   </trkpt>
   <trkpt lat="-37.87205" lon="145.36114">
    <ele>409.64000000000004</ele>
   </trkpt>
   <trkpt lat="-37.87221" lon="145.36118000000002">
    <ele>408.57000000000005</ele>
   </trkpt>
   <trkpt lat="-37.87234" lon="145.36127000000002">
    <ele>408.57000000000005</ele>
   </trkpt>
   <trkpt lat="-37.87243" lon="145.36129000000003">
    <ele>407.56</ele>
   </trkpt>
   <trkpt lat="-37.87292" lon="145.36119000000002">
    <ele>405.81000000000006</ele>
   </trkpt>
   <trkpt lat="-37.87322" lon="145.36120000000003">
    <ele>403.24</ele>
   </trkpt>
   <trkpt lat="-37.873360000000005" lon="145.36122">
    <ele>401.15</ele>
   </trkpt>
   <trkpt lat="-37.873400000000004" lon="145.36126000000002">
    <ele>400.71</ele>
   </trkpt>
   <trkpt lat="-37.873490000000004" lon="145.36143">
    <ele>399.81000000000006</ele>
   </trkpt>
   <trkpt lat="-37.873540000000006" lon="145.3614">
    <ele>399.44</ele>
   </trkpt>
   <trkpt lat="-37.873560000000005" lon="145.36141">
    <ele>399.44</ele>
   </trkpt>
   <trkpt lat="-37.87357" lon="145.36146000000002">
    <ele>399.32</ele>
   </trkpt>
   <trkpt lat="-37.87355" lon="145.36154000000002">
    <ele>399.22</ele>
   </trkpt>
   <trkpt lat="-37.87368" lon="145.36174000000003">
    <ele>396.95</ele>
   </trkpt>
   <trkpt lat="-37.87377" lon="145.36196">
    <ele>393.52000000000004</ele>
   </trkpt>
   <trkpt lat="-37.87377" lon="145.36206">
    <ele>377.21000000000004</ele>
   </trkpt>
   <trkpt lat="-37.873740000000005" lon="145.36213">
    <ele>377.21000000000004</ele>
   </trkpt>
   <trkpt lat="-37.87373" lon="145.36223">
    <ele>377.62</ele>
   </trkpt>
   <trkpt lat="-37.87382" lon="145.36244000000002">
    <ele>379.03000000000003</ele>
   </trkpt>
   <trkpt lat="-37.87402" lon="145.36301">
    <ele>381.47</ele>
   </trkpt>
   <trkpt lat="-37.87404" lon="145.36343000000002">
    <ele>384.70000000000005</ele>
   </trkpt>
   <trkpt lat="-37.87426" lon="145.36375">
    <ele>384.32000000000005</ele>
   </trkpt>
   <trkpt lat="-37.87438" lon="145.36402">
    <ele>384.16</ele>
   </trkpt>
   <trkpt lat="-37.87438" lon="145.3642">
    <ele>384.65000000000003</ele>
   </trkpt>
   <trkpt lat="-37.87435" lon="145.36442000000002">
    <ele>385.66</ele>
   </trkpt>
   <trkpt lat="-37.87435" lon="145.36469000000002">
    <ele>386.36</ele>
   </trkpt>
   <trkpt lat="-37.874660000000006" lon="145.36564">
    <ele>383.91</ele>
   </trkpt>
   <trkpt lat="-37.8748" lon="145.366">
    <ele>382.78000000000003</ele>
   </trkpt>
   <trkpt lat="-37.87482" lon="145.36644">
    <ele>384.33</ele>
   </trkpt>
   <trkpt lat="-37.87489" lon="145.36658">
    <ele>383.52000000000004</ele>
   </trkpt>
   <trkpt lat="-37.87514" lon="145.36678">
    <ele>380.35</ele>
   </trkpt>
   <trkpt lat="-37.87523" lon="145.36692000000002">
    <ele>380.11</ele>
   </trkpt>
   <trkpt lat="-37.87559" lon="145.36734">
    <ele>377.31</ele>
   </trkpt>
   <trkpt lat="-37.8757" lon="145.3675">
    <ele>375.28000000000003</ele>
   </trkpt>
   <trkpt lat="-37.875690000000006" lon="145.36763000000002">
    <ele>374.37</ele>
   </trkpt>
   <trkpt lat="-37.87561" lon="145.36791000000002">
    <ele>372.73</ele>
   </trkpt>
   <trkpt lat="-37.875510000000006" lon="145.36811">
    <ele>372.50000000000006</ele>
   </trkpt>
   <trkpt lat="-37.87545" lon="145.3683">
    <ele>372.36</ele>
   </trkpt>
   <trkpt lat="-37.87554" lon="145.36892">
    <ele>369.1</ele>
   </trkpt>
   <trkpt lat="-37.87554" lon="145.36915000000002">
    <ele>369.57</ele>
   </trkpt>
   <trkpt lat="-37.87545" lon="145.36945">
    <ele>371.65000000000003</ele>
   </trkpt>
   <trkpt lat="-37.87541" lon="145.36953000000003">
    <ele>373.19</ele>
   </trkpt>
   <trkpt lat="-37.87536" lon="145.36978000000002">
    <ele>374.04</ele>
   </trkpt>
   <trkpt lat="-37.87541" lon="145.37033000000002">
    <ele>368.3</ele>
   </trkpt>
   <trkpt lat="-37.875490000000006" lon="145.37057000000001">
    <ele>365.15000000000003</ele>
   </trkpt>
   <trkpt lat="-37.8755" lon="145.37059000000002">
    <ele>365.15000000000003</ele>
   </trkpt>
   <trkpt lat="-37.875600000000006" lon="145.37072">
    <ele>364.06000000000006</ele>
   </trkpt>
   <trkpt lat="-37.87608" lon="145.37106">
    <ele>357.73</ele>
   </trkpt>
   <trkpt lat="-37.87614000000001" lon="145.37109">
    <ele>357.67</ele>
   </trkpt>
   <trkpt lat="-37.87635" lon="145.37115">
    <ele>344.15</ele>
   </trkpt>
   <trkpt lat="-37.8765" lon="145.37138000000002">
    <ele>334.93</ele>
   </trkpt>
   <trkpt lat="-37.87675" lon="145.37167000000002">
    <ele>334.41</ele>
   </trkpt>
   <trkpt lat="-37.876850000000005" lon="145.37126">
    <ele>335.14000000000004</ele>
   </trkpt>
   <trkpt lat="-37.87691" lon="145.37124">
    <ele>350.76</ele>
   </trkpt>
   <trkpt lat="-37.87693" lon="145.37134">
    <ele>349.98</ele>
   </trkpt>
   <trkpt lat="-37.87713" lon="145.37159000000003">
    <ele>348.16</ele>
   </trkpt>
   <trkpt lat="-37.877570000000006" lon="145.37197">
    <ele>346.35</ele>
   </trkpt>
   <trkpt lat="-37.87773" lon="145.37208">
    <ele>346.02000000000004</ele>
   </trkpt>
   <trkpt lat="-37.87778" lon="145.37220000000002">
    <ele>345.42</ele>
   </trkpt>
   <trkpt lat="-37.87782" lon="145.37237000000002">
    <ele>343.96000000000004</ele>
   </trkpt>
   <trkpt lat="-37.87791" lon="145.37255000000002">
    <ele>343.2</ele>
   </trkpt>
   <trkpt lat="-37.87807" lon="145.37275000000002">
    <ele>342.39000000000004</ele>
   </trkpt>
   <trkpt lat="-37.878310000000006" lon="145.37275000000002">
    <ele>343.69000000000005</ele>
   </trkpt>
   <trkpt lat="-37.87838" lon="145.37277">
    <ele>344.09</ele>
   </trkpt>
   <trkpt lat="-37.87843" lon="145.37283000000002">
    <ele>338.11</ele>
   </trkpt>
   <trkpt lat="-37.878460000000004" lon="145.37306">
    <ele>327.97</ele>
   </trkpt>
   <trkpt lat="-37.87836" lon="145.37346000000002">
    <ele>325.12</ele>
   </trkpt>
   <trkpt lat="-37.87829" lon="145.37361">
    <ele>323.65000000000003</ele>
   </trkpt>
   <trkpt lat="-37.87829" lon="145.37389000000002">
    <ele>330.87000000000006</ele>
   </trkpt>
   <trkpt lat="-37.87823" lon="145.37415000000001">
    <ele>334.42</ele>
   </trkpt>
   <trkpt lat="-37.87816" lon="145.37472000000002">
    <ele>341.48</ele>
   </trkpt>
   <trkpt lat="-37.87825" lon="145.375">
    <ele>344.7</ele>
   </trkpt>
   <trkpt lat="-37.87843" lon="145.37523000000002">
    <ele>350.61</ele>
   </trkpt>
   <trkpt lat="-37.87854" lon="145.37534000000002">
    <ele>355.46000000000004</ele>
   </trkpt>
   <trkpt lat="-37.87861" lon="145.37571">
    <ele>358.05</ele>
   </trkpt>
   <trkpt lat="-37.87872" lon="145.37596000000002">
    <ele>360.35</ele>
   </trkpt>
   <trkpt lat="-37.878710000000005" lon="145.37606000000002">
    <ele>360.97</ele>
   </trkpt>
   <trkpt lat="-37.8787" lon="145.37637">
    <ele>358.49</ele>
   </trkpt>
   <trkpt lat="-37.87861" lon="145.37649000000002">
    <ele>356.85</ele>
   </trkpt>
   <trkpt lat="-37.87854" lon="145.37655">
    <ele>356.01000000000005</ele>
   </trkpt>
   <trkpt lat="-37.878510000000006" lon="145.37664">
    <ele>355.52</ele>
   </trkpt>
   <trkpt lat="-37.87841" lon="145.3767">
    <ele>355.53000000000003</ele>
   </trkpt>
   <trkpt lat="-37.87841" lon="145.37688">
    <ele>356.44000000000005</ele>
   </trkpt>
   <trkpt lat="-37.87852" lon="145.37720000000002">
    <ele>360.55</ele>
   </trkpt>
   <trkpt lat="-37.87894" lon="145.37752">
    <ele>359.71000000000004</ele>
   </trkpt>
   <trkpt lat="-37.87912" lon="145.37754">
    <ele>357.86</ele>
   </trkpt>
   <trkpt lat="-37.87948" lon="145.37797">
    <ele>348.48</ele>
   </trkpt>
   <trkpt lat="-37.87966" lon="145.37843">
    <ele>341.24</ele>
   </trkpt>
   <trkpt lat="-37.87975" lon="145.37853">
    <ele>338.99</ele>
   </trkpt>
   <trkpt lat="-37.87982" lon="145.37881000000002">
    <ele>338.2</ele>
   </trkpt>
   <trkpt lat="-37.87997" lon="145.37905">
    <ele>338.82</ele>
   </trkpt>
   <trkpt lat="-37.88013" lon="145.37941">
    <ele>339.21</ele>
   </trkpt>
   <trkpt lat="-37.88026" lon="145.37994">
    <ele>333.16</ele>
   </trkpt>
   <trkpt lat="-37.88033" lon="145.3801">
    <ele>330.69000000000005</ele>
   </trkpt>
   <trkpt lat="-37.88029" lon="145.38036000000002">
    <ele>328.38</ele>
   </trkpt>
   <trkpt lat="-37.88029" lon="145.38060000000002">
    <ele>327.97</ele>
   </trkpt>
   <trkpt lat="-37.8804" lon="145.38083">
    <ele>329.25000000000006</ele>
   </trkpt>
   <trkpt lat="-37.88078" lon="145.38125000000002">
    <ele>323.61</ele>
   </trkpt>
   <trkpt lat="-37.88123" lon="145.38188000000002">
    <ele>315.73</ele>
   </trkpt>
   <trkpt lat="-37.88114" lon="145.38207">
    <ele>313.29</ele>
   </trkpt>
   <trkpt lat="-37.88098" lon="145.38230000000001">
    <ele>312.18</ele>
   </trkpt>
   <trkpt lat="-37.88094" lon="145.38244">
    <ele>310.9</ele>
   </trkpt>
   <trkpt lat="-37.881" lon="145.38254">
    <ele>310.54</ele>
   </trkpt>
   <trkpt lat="-37.88123" lon="145.38276000000002">
    <ele>307.73</ele>
   </trkpt>
   <trkpt lat="-37.88145" lon="145.38292">
    <ele>306.26000000000005</ele>
   </trkpt>
   <trkpt lat="-37.88156" lon="145.38291">
    <ele>305.28000000000003</ele>
   </trkpt>
   <trkpt lat="-37.88163" lon="145.38285000000002">
    <ele>304.79</ele>
   </trkpt>
   <trkpt lat="-37.88174" lon="145.38281">
    <ele>304.56</ele>
   </trkpt>
   <trkpt lat="-37.88183" lon="145.3829">
    <ele>304.28000000000003</ele>
   </trkpt>
   <trkpt lat="-37.88181" lon="145.38306">
    <ele>303.56000000000006</ele>
   </trkpt>
   <trkpt lat="-37.881980000000006" lon="145.38336">
    <ele>300.65000000000003</ele>
   </trkpt>
   <trkpt lat="-37.8823" lon="145.38363">
    <ele>298.61</ele>
   </trkpt>
   <trkpt lat="-37.88241" lon="145.38392000000002">
    <ele>295.98</ele>
   </trkpt>
   <trkpt lat="-37.88241" lon="145.38393000000002">
    <ele>295.98</ele>
   </trkpt>
   <trkpt lat="-37.88239" lon="145.38424">
    <ele>294.1</ele>
   </trkpt>
   <trkpt lat="-37.88277" lon="145.38517000000002">
    <ele>288.99</ele>
   </trkpt>
   <trkpt lat="-37.88277" lon="145.38558">
    <ele>286.95000000000005</ele>
   </trkpt>
   <trkpt lat="-37.88286" lon="145.38613">
    <ele>285.0</ele>
   </trkpt>
   <trkpt lat="-37.88313" lon="145.38674">
    <ele>283.14</ele>
   </trkpt>
   <trkpt lat="-37.88311" lon="145.38696000000002">
    <ele>282.31</ele>
   </trkpt>
   <trkpt lat="-37.88295" lon="145.38770000000002">
    <ele>279.79</ele>
   </trkpt>
   <trkpt lat="-37.882830000000006" lon="145.38811">
    <ele>277.80000000000007</ele>
   </trkpt>
   <trkpt lat="-37.882670000000005" lon="145.38839000000002">
    <ele>276.2</ele>
   </trkpt>
   <trkpt lat="-37.88255" lon="145.38872">
    <ele>275.77</ele>
   </trkpt>
   <trkpt lat="-37.88244" lon="145.38894000000002">
    <ele>275.23</ele>
   </trkpt>
   <trkpt lat="-37.88243000000001" lon="145.38895000000002">
    <ele>275.23</ele>
   </trkpt>
   <trkpt lat="-37.882490000000004" lon="145.38882">
    <ele>275.58000000000004</ele>
   </trkpt>
   <trkpt lat="-37.88257" lon="145.38882">
    <ele>272.2</ele>
   </trkpt>
   <trkpt lat="-37.882830000000006" lon="145.38894000000002">
    <ele>261.92</ele>
   </trkpt>
   <trkpt lat="-37.8827" lon="145.38922000000002">
    <ele>260.95</ele>
   </trkpt>
   <trkpt lat="-37.88264" lon="145.38944">
    <ele>260.02000000000004</ele>
   </trkpt>
   <trkpt lat="-37.88264" lon="145.38963">
    <ele>259.12</ele>
   </trkpt>
   <trkpt lat="-37.882690000000004" lon="145.39007">
    <ele>257.98</ele>
   </trkpt>
   <trkpt lat="-37.88306" lon="145.39053">
    <ele>276.0</ele>
   </trkpt>
   <trkpt lat="-37.88317" lon="145.39061">
    <ele>277.19000000000005</ele>
   </trkpt>
   <trkpt lat="-37.88342" lon="145.39067">
    <ele>281.12</ele>
   </trkpt>
   <trkpt lat="-37.88396" lon="145.39089">
    <ele>287.82</ele>
   </trkpt>
   <trkpt lat="-37.88418" lon="145.39105">
    <ele>289.00000000000006</ele>
   </trkpt>
   <trkpt lat="-37.88492000094855" lon="145.39151499534864">
    <ele>286.15000000000003</ele>
   </trkpt>
   <trkpt lat="-37.88566" lon="145.39198000000002">
    <ele>275.3</ele>
   </trkpt>
   <trkpt lat="-37.8856933399832" lon="145.39109333414584">
    <ele>292.26</ele>
   </trkpt>
   <trkpt lat="-37.88572667331618" lon="145.39020666748883">
    <ele>301.27000000000004</ele>
   </trkpt>
   <trkpt lat="-37.885760000000005" lon="145.38932">
    <ele>305.98</ele>
   </trkpt>
   <trkpt lat="-37.88580667489797" lon="145.38833333465965">
    <ele>317.73</ele>
   </trkpt>
   <trkpt lat="-37.88585334156106" lon="145.38734666806863">
    <ele>333.70000000000005</ele>
   </trkpt>
   <trkpt lat="-37.88590000000001" lon="145.38636000000002">
    <ele>358.00000000000006</ele>
   </trkpt>
   <trkpt lat="-37.885920000000006" lon="145.38592">
    <ele>362.82000000000005</ele>
   </trkpt>
   <trkpt lat="-37.886" lon="145.38581000000002">
    <ele>359.87</ele>
   </trkpt>
   <trkpt lat="-37.88599" lon="145.38580000000002">
    <ele>359.87</ele>
   </trkpt>
   <trkpt lat="-37.88595" lon="145.38580000000002">
    <ele>359.87</ele>
   </trkpt>
   <trkpt lat="-37.885850000000005" lon="145.38562000000002">
    <ele>371.00000000000006</ele>
   </trkpt>
   <trkpt lat="-37.88564" lon="145.38502000000003">
    <ele>374.75</ele>
   </trkpt>
   <trkpt lat="-37.8855" lon="145.38451">
    <ele>379.38000000000005</ele>
   </trkpt>
   <trkpt lat="-37.88541" lon="145.38381">
    <ele>385.1</ele>
   </trkpt>
   <trkpt lat="-37.88541" lon="145.38352">
    <ele>385.32000000000005</ele>
   </trkpt>
   <trkpt lat="-37.88546" lon="145.38329000000002">
    <ele>385.33</ele>
   </trkpt>
   <trkpt lat="-37.88566" lon="145.38265">
    <ele>386.58000000000004</ele>
   </trkpt>
   <trkpt lat="-37.8857" lon="145.38243">
    <ele>387.64000000000004</ele>
   </trkpt>
   <trkpt lat="-37.88566" lon="145.38173">
    <ele>390.34000000000003</ele>
   </trkpt>
   <trkpt lat="-37.88573" lon="145.38116000000002">
    <ele>392.40000000000003</ele>
   </trkpt>
   <trkpt lat="-37.88554500118323" lon="145.3806199984972">
    <ele>390.23</ele>
   </trkpt>
   <trkpt lat="-37.885360000000006" lon="145.38008000000002">
    <ele>391.02000000000004</ele>
   </trkpt>
   <trkpt lat="-37.88526" lon="145.37989000000002">
    <ele>391.13000000000005</ele>
   </trkpt>
   <trkpt lat="-37.88508" lon="145.37972000000002">
    <ele>391.16</ele>
   </trkpt>
   <trkpt lat="-37.88494" lon="145.37961">
    <ele>391.1</ele>
   </trkpt>
   <trkpt lat="-37.88479" lon="145.37959">
    <ele>390.88</ele>
   </trkpt>
   <trkpt lat="-37.88467" lon="145.37961">
    <ele>390.65000000000003</ele>
   </trkpt>
   <trkpt lat="-37.88449" lon="145.3797">
    <ele>390.21000000000004</ele>
   </trkpt>
   <trkpt lat="-37.88432" lon="145.37973000000002">
    <ele>390.0</ele>
   </trkpt>
   <trkpt lat="-37.88411" lon="145.37969">
    <ele>392.29</ele>
   </trkpt>
   <trkpt lat="-37.884" lon="145.37962000000002">
    <ele>393.01</ele>
   </trkpt>
   <trkpt lat="-37.88378" lon="145.37941">
    <ele>394.71</ele>
   </trkpt>
   <trkpt lat="-37.88355" lon="145.37913">
    <ele>397.29</ele>
   </trkpt>
   <trkpt lat="-37.8843450001291" lon="145.37897500166795">
    <ele>394.43000000000006</ele>
   </trkpt>
   <trkpt lat="-37.88514" lon="145.37882000000002">
    <ele>394.05</ele>
   </trkpt>
   <trkpt lat="-37.88541" lon="145.37883000000002">
    <ele>395.89</ele>
   </trkpt>
   <trkpt lat="-37.88552" lon="145.37887">
    <ele>396.11</ele>
   </trkpt>
   <trkpt lat="-37.88624" lon="145.37927000000002">
    <ele>399.57000000000005</ele>
   </trkpt>
   <trkpt lat="-37.886320000000005" lon="145.37939">
    <ele>401.11</ele>
   </trkpt>
   <trkpt lat="-37.8864" lon="145.37868">
    <ele>404.13000000000005</ele>
   </trkpt>
   <trkpt lat="-37.8866" lon="145.3778">
    <ele>404.52000000000004</ele>
   </trkpt>
   <trkpt lat="-37.886720000000004" lon="145.37794000000002">
    <ele>403.86000000000007</ele>
   </trkpt>
   <trkpt lat="-37.887240000000006" lon="145.3779">
    <ele>403.57000000000005</ele>
   </trkpt>
   <trkpt lat="-37.8877" lon="145.37814">
    <ele>407.55</ele>
   </trkpt>
   <trkpt lat="-37.888505000150154" lon="145.37797500179676">
    <ele>399.95000000000005</ele>
   </trkpt>
   <trkpt lat="-37.88931" lon="145.37781">
    <ele>393.71000000000004</ele>
   </trkpt>
   <trkpt lat="-37.89016" lon="145.37795">
    <ele>390.68</ele>
   </trkpt>
   <trkpt lat="-37.89085" lon="145.37794000000002">
    <ele>388.13</ele>
   </trkpt>
   <trkpt lat="-37.89112" lon="145.3779">
    <ele>386.07</ele>
   </trkpt>
   <trkpt lat="-37.89123" lon="145.37791">
    <ele>385.64000000000004</ele>
   </trkpt>
   <trkpt lat="-37.89139" lon="145.37794000000002">
    <ele>384.90000000000003</ele>
   </trkpt>
   <trkpt lat="-37.89177" lon="145.37807">
    <ele>382.57</ele>
   </trkpt>
   <trkpt lat="-37.89222" lon="145.37835">
    <ele>380.79</ele>
   </trkpt>
   <trkpt lat="-37.89229" lon="145.37834">
    <ele>379.86</ele>
   </trkpt>
   <trkpt lat="-37.89235" lon="145.37830000000002">
    <ele>379.23</ele>
   </trkpt>
   <trkpt lat="-37.89249" lon="145.37814">
    <ele>376.82000000000005</ele>
   </trkpt>
   <trkpt lat="-37.89262" lon="145.37792000000002">
    <ele>370.71000000000004</ele>
   </trkpt>
   <trkpt lat="-37.89266000000001" lon="145.37769">
    <ele>368.89000000000004</ele>
   </trkpt>
   <trkpt lat="-37.89266000000001" lon="145.37772">
    <ele>368.89000000000004</ele>
   </trkpt>
   <trkpt lat="-37.89264" lon="145.37733">
    <ele>364.17</ele>
   </trkpt>
   <trkpt lat="-37.89258" lon="145.37708">
    <ele>363.08</ele>
   </trkpt>
   <trkpt lat="-37.892350001316714" lon="145.37650499799926">
    <ele>357.40000000000003</ele>
   </trkpt>
   <trkpt lat="-37.892120000000006" lon="145.37593">
    <ele>351.51000000000005</ele>
   </trkpt>
   <trkpt lat="-37.89166" lon="145.37524000000002">
    <ele>345.43</ele>
   </trkpt>
   <trkpt lat="-37.89146" lon="145.37505000000002">
    <ele>343.86000000000007</ele>
   </trkpt>
   <trkpt lat="-37.89137" lon="145.37499000000003">
    <ele>343.6</ele>
   </trkpt>
   <trkpt lat="-37.89114" lon="145.37492">
    <ele>344.14</ele>
   </trkpt>
   <trkpt lat="-37.89079" lon="145.37492">
    <ele>344.75</ele>
   </trkpt>
   <trkpt lat="-37.89052" lon="145.37509">
    <ele>345.01000000000005</ele>
   </trkpt>
   <trkpt lat="-37.89025" lon="145.37519">
    <ele>345.6</ele>
   </trkpt>
   <trkpt lat="-37.89007" lon="145.37515000000002">
    <ele>344.90000000000003</ele>
   </trkpt>
   <trkpt lat="-37.88996" lon="145.37504">
    <ele>343.61</ele>
   </trkpt>
   <trkpt lat="-37.88993" lon="145.37490000000003">
    <ele>343.35</ele>
   </trkpt>
   <trkpt lat="-37.89" lon="145.37468">
    <ele>343.85</ele>
   </trkpt>
   <trkpt lat="-37.89009" lon="145.37448">
    <ele>344.33000000000004</ele>
   </trkpt>
   <trkpt lat="-37.89011" lon="145.37428">
    <ele>345.89000000000004</ele>
   </trkpt>
   <trkpt lat="-37.89007" lon="145.37402">
    <ele>347.01000000000005</ele>
   </trkpt>
   <trkpt lat="-37.88998" lon="145.37389000000002">
    <ele>347.86</ele>
   </trkpt>
   <trkpt lat="-37.889500000758154" lon="145.3734749973202">
    <ele>352.51000000000005</ele>
   </trkpt>
   <trkpt lat="-37.88902" lon="145.37306">
    <ele>356.47</ele>
   </trkpt>
   <trkpt lat="-37.88893" lon="145.37276">
    <ele>353.7</ele>
   </trkpt>
   <trkpt lat="-37.88873" lon="145.37243">
    <ele>350.89000000000004</ele>
   </trkpt>
   <trkpt lat="-37.888360000715416" lon="145.37203499807435">
    <ele>351.57000000000005</ele>
   </trkpt>
   <trkpt lat="-37.88799" lon="145.37164">
    <ele>354.44</ele>
   </trkpt>
   <trkpt lat="-37.88781" lon="145.37142">
    <ele>357.47</ele>
   </trkpt>
   <trkpt lat="-37.88763" lon="145.37134">
    <ele>362.67</ele>
   </trkpt>
   <trkpt lat="-37.88743" lon="145.37131000000002">
    <ele>366.54</ele>
   </trkpt>
   <trkpt lat="-37.8872" lon="145.37132000000003">
    <ele>369.91</ele>
   </trkpt>
   <trkpt lat="-37.88694" lon="145.37120000000002">
    <ele>371.58000000000004</ele>
   </trkpt>
   <trkpt lat="-37.88689" lon="145.37069000000002">
    <ele>371.02</ele>
   </trkpt>
   <trkpt lat="-37.8872" lon="145.37041000000002">
    <ele>370.25</ele>
   </trkpt>
   <trkpt lat="-37.88725" lon="145.37041000000002">
    <ele>370.26000000000005</ele>
   </trkpt>
   <trkpt lat="-37.88739" lon="145.37014000000002">
    <ele>364.33000000000004</ele>
   </trkpt>
   <trkpt lat="-37.887350000000005" lon="145.37013000000002">
    <ele>362.82000000000005</ele>
   </trkpt>
   <trkpt lat="-37.88738" lon="145.37008">
    <ele>362.82000000000005</ele>
   </trkpt>
   <trkpt lat="-37.88732" lon="145.36981">
    <ele>350.72</ele>
   </trkpt>
   <trkpt lat="-37.88736" lon="145.36978000000002">
    <ele>350.72</ele>
   </trkpt>
   <trkpt lat="-37.88667" lon="145.36906000000002">
    <ele>366.93</ele>
   </trkpt>
   <trkpt lat="-37.88642" lon="145.36872000000002">
    <ele>363.62000000000006</ele>
   </trkpt>
   <trkpt lat="-37.88611" lon="145.36851000000001">
    <ele>361.16</ele>
   </trkpt>
   <trkpt lat="-37.886100000000006" lon="145.36837">
    <ele>363.32000000000005</ele>
   </trkpt>
   <trkpt lat="-37.88602" lon="145.36834000000002">
    <ele>364.42</ele>
   </trkpt>
   <trkpt lat="-37.88564" lon="145.36801">
    <ele>377.15000000000003</ele>
   </trkpt>
   <trkpt lat="-37.8855" lon="145.36785">
    <ele>381.24</ele>
   </trkpt>
   <trkpt lat="-37.88517" lon="145.36757">
    <ele>387.28000000000003</ele>
   </trkpt>
   <trkpt lat="-37.88499" lon="145.36737000000002">
    <ele>391.76000000000005</ele>
   </trkpt>
   <trkpt lat="-37.884820000000005" lon="145.36712">
    <ele>397.5</ele>
   </trkpt>
   <trkpt lat="-37.88481" lon="145.36710000000002">
    <ele>397.5</ele>
   </trkpt>
   <trkpt lat="-37.8847" lon="145.36672000000002">
    <ele>406.03000000000003</ele>
   </trkpt>
   <trkpt lat="-37.8847" lon="145.36657000000002">
    <ele>406.03000000000003</ele>
   </trkpt>
   <trkpt lat="-37.88465" lon="145.36651">
    <ele>406.03000000000003</ele>
   </trkpt>
   <trkpt lat="-37.88465" lon="145.36642">
    <ele>416.18000000000006</ele>
   </trkpt>
   <trkpt lat="-37.88461" lon="145.36635">
    <ele>416.18000000000006</ele>
   </trkpt>
   <trkpt lat="-37.88458" lon="145.36623">
    <ele>416.18000000000006</ele>
   </trkpt>
   <trkpt lat="-37.88463" lon="145.36617">
    <ele>418.30000000000007</ele>
   </trkpt>
   <trkpt lat="-37.88474" lon="145.36611000000002">
    <ele>420.96000000000004</ele>
   </trkpt>
   <trkpt lat="-37.884980000000006" lon="145.36612000000002">
    <ele>424.08</ele>
   </trkpt>
   <trkpt lat="-37.885270000000006" lon="145.36607">
    <ele>427.7900000000001</ele>
   </trkpt>
   <trkpt lat="-37.88546" lon="145.36592000000002">
    <ele>433.27000000000004</ele>
   </trkpt>
   <trkpt lat="-37.88548" lon="145.36577">
    <ele>436.49</ele>
   </trkpt>
   <trkpt lat="-37.88546" lon="145.36561">
    <ele>440.01</ele>
   </trkpt>
   <trkpt lat="-37.88539" lon="145.36557000000002">
    <ele>440.92</ele>
   </trkpt>
   <trkpt lat="-37.885360000000006" lon="145.36547000000002">
    <ele>442.85</ele>
   </trkpt>
   <trkpt lat="-37.88519" lon="145.36531000000002">
    <ele>446.77000000000004</ele>
   </trkpt>
   <trkpt lat="-37.88517" lon="145.36524">
    <ele>448.36</ele>
   </trkpt>
   <trkpt lat="-37.88499" lon="145.36505000000002">
    <ele>449.74</ele>
   </trkpt>
   <trkpt lat="-37.88494" lon="145.36503000000002">
    <ele>449.85</ele>
   </trkpt>
   <trkpt lat="-37.88483" lon="145.36484000000002">
    <ele>451.44000000000005</ele>
   </trkpt>
   <trkpt lat="-37.88476" lon="145.36459000000002">
    <ele>457.23</ele>
   </trkpt>
   <trkpt lat="-37.88479" lon="145.36451000000002">
    <ele>458.17</ele>
   </trkpt>
   <trkpt lat="-37.88476" lon="145.36443">
    <ele>459.0400000000001</ele>
   </trkpt>
   <trkpt lat="-37.88463" lon="145.36419">
    <ele>462.57000000000005</ele>
   </trkpt>
   <trkpt lat="-37.88445" lon="145.36369000000002">
    <ele>471.08000000000004</ele>
   </trkpt>
   <trkpt lat="-37.884420000000006" lon="145.36347">
    <ele>476.35</ele>
   </trkpt>
   <trkpt lat="-37.88443" lon="145.36341000000002">
    <ele>477.25000000000006</ele>
   </trkpt>
   <trkpt lat="-37.88449" lon="145.36339">
    <ele>478.02000000000004</ele>
   </trkpt>
   <trkpt lat="-37.88456" lon="145.3634">
    <ele>478.66</ele>
   </trkpt>
   <trkpt lat="-37.8847" lon="145.36339">
    <ele>480.95000000000005</ele>
   </trkpt>
   <trkpt lat="-37.88472" lon="145.36334000000002">
    <ele>481.66</ele>
   </trkpt>
   <trkpt lat="-37.88474" lon="145.36315000000002">
    <ele>483.30000000000007</ele>
   </trkpt>
   <trkpt lat="-37.88479" lon="145.36302">
    <ele>487.93</ele>
   </trkpt>
   <trkpt lat="-37.8849" lon="145.36279000000002">
    <ele>491.17</ele>
   </trkpt>
   <trkpt lat="-37.88514" lon="145.36251000000001">
    <ele>495.49</ele>
   </trkpt>
   <trkpt lat="-37.88514" lon="145.36243000000002">
    <ele>495.76000000000005</ele>
   </trkpt>
   <trkpt lat="-37.8851" lon="145.36238">
    <ele>496.20000000000005</ele>
   </trkpt>
   <trkpt lat="-37.88496000000001" lon="145.36231">
    <ele>496.57000000000005</ele>
   </trkpt>
   <trkpt lat="-37.88503" lon="145.36224">
    <ele>496.57000000000005</ele>
   </trkpt>
   <trkpt lat="-37.88514" lon="145.36202">
    <ele>498.59000000000003</ele>
   </trkpt>
   <trkpt lat="-37.88537" lon="145.36136000000002">
    <ele>504.45000000000005</ele>
   </trkpt>
   <trkpt lat="-37.88555" lon="145.36100000000002">
    <ele>506.05</ele>
   </trkpt>
   <trkpt lat="-37.88568" lon="145.36059">
    <ele>508.72</ele>
   </trkpt>
   <trkpt lat="-37.88573" lon="145.36033">
    <ele>510.16</ele>
   </trkpt>
   <trkpt lat="-37.88598" lon="145.35957000000002">
    <ele>512.12</ele>
   </trkpt>
   <trkpt lat="-37.88595" lon="145.35933">
    <ele>512.1800000000001</ele>
   </trkpt>
   <trkpt lat="-37.88590000000001" lon="145.35921000000002">
    <ele>512.0600000000001</ele>
   </trkpt>
   <trkpt lat="-37.8858" lon="145.35913000000002">
    <ele>511.87000000000006</ele>
   </trkpt>
   <trkpt lat="-37.885450000000006" lon="145.35868000000002">
    <ele>507.99000000000007</ele>
   </trkpt>
   <trkpt lat="-37.88532" lon="145.35860000000002">
    <ele>507.39</ele>
   </trkpt>
   <trkpt lat="-37.88476" lon="145.35842000000002">
    <ele>504.44</ele>
   </trkpt>
   <trkpt lat="-37.88456" lon="145.35838">
    <ele>503.82000000000005</ele>
   </trkpt>
   <trkpt lat="-37.88441" lon="145.35840000000002">
    <ele>503.82000000000005</ele>
   </trkpt>
   <trkpt lat="-37.88407" lon="145.35852">
    <ele>502.33000000000004</ele>
   </trkpt>
   <trkpt lat="-37.88402" lon="145.35827">
    <ele>502.04</ele>
   </trkpt>
   <trkpt lat="-37.884" lon="145.35808">
    <ele>501.2300000000001</ele>
   </trkpt>
   <trkpt lat="-37.88385" lon="145.35776">
    <ele>498.95000000000005</ele>
   </trkpt>
   <trkpt lat="-37.8838" lon="145.35725000000002">
    <ele>497.02</ele>
   </trkpt>
   <trkpt lat="-37.883790000000005" lon="145.35711">
    <ele>495.94000000000005</ele>
   </trkpt>
   <trkpt lat="-37.88389" lon="145.35675">
    <ele>494.74</ele>
   </trkpt>
   <trkpt lat="-37.88391" lon="145.35645000000002">
    <ele>493.40000000000003</ele>
   </trkpt>
   <trkpt lat="-37.88391" lon="145.35613">
    <ele>490.54</ele>
   </trkpt>
   <trkpt lat="-37.88387" lon="145.35593">
    <ele>489.22</ele>
   </trkpt>
   <trkpt lat="-37.8838" lon="145.35575">
    <ele>488.54</ele>
   </trkpt>
   <trkpt lat="-37.88351" lon="145.3553">
    <ele>487.46000000000004</ele>
   </trkpt>
   <trkpt lat="-37.88318" lon="145.3554">
    <ele>488.77000000000004</ele>
   </trkpt>
   <trkpt lat="-37.88302" lon="145.35574000000003">
    <ele>490.52000000000004</ele>
   </trkpt>
   <trkpt lat="-37.88288" lon="145.35593">
    <ele>491.49</ele>
   </trkpt>
   <trkpt lat="-37.88266" lon="145.35619">
    <ele>491.91</ele>
   </trkpt>
   <trkpt lat="-37.88244" lon="145.35639">
    <ele>491.49</ele>
   </trkpt>
   <trkpt lat="-37.88226" lon="145.35667">
    <ele>490.74000000000007</ele>
   </trkpt>
   <trkpt lat="-37.88212" lon="145.35702">
    <ele>491.19</ele>
   </trkpt>
   <trkpt lat="-37.88183" lon="145.35763">
    <ele>491.18000000000006</ele>
   </trkpt>
   <trkpt lat="-37.88138" lon="145.35829">
    <ele>486.16</ele>
   </trkpt>
   <trkpt lat="-37.88123" lon="145.35861">
    <ele>485.52000000000004</ele>
   </trkpt>
   <trkpt lat="-37.881190000000004" lon="145.35876000000002">
    <ele>485.55</ele>
   </trkpt>
   <trkpt lat="-37.88103" lon="145.35904000000002">
    <ele>485.69000000000005</ele>
   </trkpt>
   <trkpt lat="-37.88094" lon="145.35907">
    <ele>485.59000000000003</ele>
   </trkpt>
   <trkpt lat="-37.8808" lon="145.35903000000002">
    <ele>485.24000000000007</ele>
   </trkpt>
   <trkpt lat="-37.88051" lon="145.35909">
    <ele>480.01000000000005</ele>
   </trkpt>
   <trkpt lat="-37.88033" lon="145.3591">
    <ele>480.51000000000005</ele>
   </trkpt>
   <trkpt lat="-37.8802" lon="145.35908">
    <ele>480.54</ele>
   </trkpt>
   <trkpt lat="-37.88006" lon="145.35903000000002">
    <ele>480.42</ele>
   </trkpt>
   <trkpt lat="-37.87991" lon="145.35891">
    <ele>479.75000000000006</ele>
   </trkpt>
   <trkpt lat="-37.87975" lon="145.35876000000002">
    <ele>479.48</ele>
   </trkpt>
   <trkpt lat="-37.87919" lon="145.35846">
    <ele>482.49</ele>
   </trkpt>
   <trkpt lat="-37.87876" lon="145.35838">
    <ele>483.90000000000003</ele>
   </trkpt>
   <trkpt lat="-37.878600000000006" lon="145.35829">
    <ele>483.95000000000005</ele>
   </trkpt>
   <trkpt lat="-37.87818" lon="145.35801">
    <ele>482.40000000000003</ele>
   </trkpt>
   <trkpt lat="-37.87798" lon="145.35797000000002">
    <ele>481.61</ele>
   </trkpt>
   <trkpt lat="-37.8778" lon="145.35791">
    <ele>481.17</ele>
   </trkpt>
   <trkpt lat="-37.877500000000005" lon="145.35765">
    <ele>479.72</ele>
   </trkpt>
   <trkpt lat="-37.87726" lon="145.357">
    <ele>476.46000000000004</ele>
   </trkpt>
   <trkpt lat="-37.87711" lon="145.3571">
    <ele>461.20000000000005</ele>
   </trkpt>
   <trkpt lat="-37.876900000000006" lon="145.35659">
    <ele>460.02000000000004</ele>
   </trkpt>
   <trkpt lat="-37.87675" lon="145.35619">
    <ele>457.94</ele>
   </trkpt>
   <trkpt lat="-37.87635" lon="145.35549">
    <ele>459.39</ele>
   </trkpt>
   <trkpt lat="-37.8763" lon="145.35531">
    <ele>462.51000000000005</ele>
   </trkpt>
   <trkpt lat="-37.876290000000004" lon="145.35504">
    <ele>463.37000000000006</ele>
   </trkpt>
   <trkpt lat="-37.876180000000005" lon="145.35491000000002">
    <ele>469.49</ele>
   </trkpt>
   <trkpt lat="-37.8761" lon="145.35474000000002">
    <ele>470.97</ele>
   </trkpt>
   <trkpt lat="-37.87599" lon="145.35412000000002">
    <ele>477.01000000000005</ele>
   </trkpt>
   <trkpt lat="-37.87619" lon="145.35323000000002">
    <ele>482.35</ele>
   </trkpt>
   <trkpt lat="-37.87635" lon="145.35294000000002">
    <ele>486.30000000000007</ele>
   </trkpt>
   <trkpt lat="-37.87635" lon="145.35272">
    <ele>487.47</ele>
   </trkpt>
   <trkpt lat="-37.87621" lon="145.35214000000002">
    <ele>495.28000000000003</ele>
   </trkpt>
   <trkpt lat="-37.87621" lon="145.35187000000002">
    <ele>498.97</ele>
   </trkpt>
   <trkpt lat="-37.87617" lon="145.35168000000002">
    <ele>500.30000000000007</ele>
   </trkpt>
   <trkpt lat="-37.875980000000006" lon="145.35139">
    <ele>504.9100000000001</ele>
   </trkpt>
   <trkpt lat="-37.87594" lon="145.35117000000002">
    <ele>508.6400000000001</ele>
   </trkpt>
   <trkpt lat="-37.87581" lon="145.35093">
    <ele>512.6500000000001</ele>
   </trkpt>
   <trkpt lat="-37.87576" lon="145.35080000000002">
    <ele>513.85</ele>
   </trkpt>
   <trkpt lat="-37.87561" lon="145.35064">
    <ele>515.54</ele>
   </trkpt>
   <trkpt lat="-37.87554" lon="145.35052000000002">
    <ele>517.15</ele>
   </trkpt>
   <trkpt lat="-37.87518" lon="145.35024">
    <ele>519.51</ele>
   </trkpt>
   <trkpt lat="-37.87482" lon="145.34974000000003">
    <ele>522.86</ele>
   </trkpt>
   <trkpt lat="-37.8746" lon="145.34956000000003">
    <ele>523.03</ele>
   </trkpt>
   <trkpt lat="-37.87438" lon="145.3494">
    <ele>522.7700000000001</ele>
   </trkpt>
   <trkpt lat="-37.87433" lon="145.34928000000002">
    <ele>522.82</ele>
   </trkpt>
   <trkpt lat="-37.87413" lon="145.34910000000002">
    <ele>523.23</ele>
   </trkpt>
   <trkpt lat="-37.87397" lon="145.34883000000002">
    <ele>525.03</ele>
   </trkpt>
   <trkpt lat="-37.87397" lon="145.34874000000002">
    <ele>525.03</ele>
   </trkpt>
   <trkpt lat="-37.8742" lon="145.34820000000002">
    <ele>526.12</ele>
   </trkpt>
   <trkpt lat="-37.87453" lon="145.34727">
    <ele>524.66</ele>
   </trkpt>
   <trkpt lat="-37.87453" lon="145.34695000000002">
    <ele>525.0</ele>
   </trkpt>
   <trkpt lat="-37.87432500137439" lon="145.34637499833306">
    <ele>527.5500000000001</ele>
   </trkpt>
   <trkpt lat="-37.874120000000005" lon="145.34580000000003">
    <ele>526.36</ele>
   </trkpt>
   <trkpt lat="-37.874080000000006" lon="145.34573">
    <ele>526.36</ele>
   </trkpt>
   <trkpt lat="-37.87366" lon="145.34601">
    <ele>532.44</ele>
   </trkpt>
   <trkpt lat="-37.87292" lon="145.34658000000002">
    <ele>537.1600000000001</ele>
   </trkpt>
   <trkpt lat="-37.87254" lon="145.34681">
    <ele>537.19</ele>
   </trkpt>
   <trkpt lat="-37.872059999990576" lon="145.3469850011908">
    <ele>535.0600000000001</ele>
   </trkpt>
   <trkpt lat="-37.87158" lon="145.34716">
    <ele>531.45</ele>
   </trkpt>
   <trkpt lat="-37.87075" lon="145.34751">
    <ele>526.44</ele>
   </trkpt>
   <trkpt lat="-37.87017" lon="145.34773">
    <ele>526.0799999999999</ele>
   </trkpt>
   <trkpt lat="-37.870140000000006" lon="145.34777000000003">
    <ele>526.03</ele>
   </trkpt>
   <trkpt lat="-37.87008" lon="145.3477">
    <ele>525.14</ele>
   </trkpt>
   <trkpt lat="-37.86946500252455" lon="145.34847500648823">
    <ele>523.57</ele>
   </trkpt>
   <trkpt lat="-37.86885" lon="145.34925">
    <ele>520.7700000000001</ele>
   </trkpt>
   <trkpt lat="-37.86867" lon="145.34957">
    <ele>518.85</ele>
   </trkpt>
   <trkpt lat="-37.86846000110641" lon="145.35010500178967">
    <ele>515.5600000000001</ele>
   </trkpt>
   <trkpt lat="-37.86825" lon="145.35064">
    <ele>513.22</ele>
   </trkpt>
   <trkpt lat="-37.86824" lon="145.35085">
    <ele>510.73</ele>
   </trkpt>
   <trkpt lat="-37.86829" lon="145.35101">
    <ele>510.73</ele>
   </trkpt>
   <trkpt lat="-37.86862" lon="145.35204000000002">
    <ele>505.26000000000005</ele>
   </trkpt>
   <trkpt lat="-37.86865" lon="145.35217">
    <ele>504.62000000000006</ele>
   </trkpt>
   <trkpt lat="-37.86858" lon="145.35242000000002">
    <ele>502.75</ele>
   </trkpt>
   <trkpt lat="-37.86851" lon="145.35256">
    <ele>501.9</ele>
   </trkpt>
   <trkpt lat="-37.86842" lon="145.35266000000001">
    <ele>500.09000000000003</ele>
   </trkpt>
   <trkpt lat="-37.868280000000006" lon="145.35275000000001">
    <ele>498.8</ele>
   </trkpt>
   <trkpt lat="-37.868120000000005" lon="145.35282">
    <ele>500.21999999999997</ele>
   </trkpt>
   <trkpt lat="-37.867960000000004" lon="145.35287000000002">
    <ele>500.26000000000005</ele>
   </trkpt>
   <trkpt lat="-37.867470000000004" lon="145.3529">
    <ele>495.6</ele>
   </trkpt>
   <trkpt lat="-37.8675" lon="145.35296000000002">
    <ele>494.91</ele>
   </trkpt>
   <trkpt lat="-37.86706" lon="145.35299">
    <ele>492.94000000000005</ele>
   </trkpt>
   <trkpt lat="-37.86683" lon="145.35296000000002">
    <ele>490.81</ele>
   </trkpt>
   <trkpt lat="-37.86661" lon="145.3529">
    <ele>489.86</ele>
   </trkpt>
   <trkpt lat="-37.86598" lon="145.35257000000001">
    <ele>487.13000000000005</ele>
   </trkpt>
   <trkpt lat="-37.86567" lon="145.35250000000002">
    <ele>485.85</ele>
   </trkpt>
   <trkpt lat="-37.86543" lon="145.35247">
    <ele>484.84000000000003</ele>
   </trkpt>
   <trkpt lat="-37.865230000000004" lon="145.35247">
    <ele>484.54</ele>
   </trkpt>
   <trkpt lat="-37.86504" lon="145.35240000000002">
    <ele>485.6</ele>
   </trkpt>
   <trkpt lat="-37.865030000000004" lon="145.35241000000002">
    <ele>485.6</ele>
   </trkpt>
   <trkpt lat="-37.864850000000004" lon="145.35246">
    <ele>483.62000000000006</ele>
   </trkpt>
   <trkpt lat="-37.86439" lon="145.35256">
    <ele>481.53000000000003</ele>
   </trkpt>
   <trkpt lat="-37.86421" lon="145.35266000000001">
    <ele>480.29</ele>
   </trkpt>
   <trkpt lat="-37.86415" lon="145.35265">
    <ele>480.29</ele>
   </trkpt>
   <trkpt lat="-37.86365" lon="145.35302000000001">
    <ele>479.72</ele>
   </trkpt>
   <trkpt lat="-37.86325500040701" lon="145.35329500141324">
    <ele>479.37</ele>
   </trkpt>
   <trkpt lat="-37.862860000000005" lon="145.35357000000002">
    <ele>480.43</ele>
   </trkpt>
  </trkseg>
 </trk>
</gpx>
