<?xml version="1.0" encoding="UTF-8"?>
<gpx creator="StravaGPX" version="1.1" xmlns="http://www.topografix.com/GPX/1/1" xmlns:xsi="http://www.w3.org/2001/XMLSchema-instance" xsi:schemaLocation="http://www.topografix.com/GPX/1/1 http://www.topografix.com/GPX/1/1/gpx.xsd">
 <metadata>
  <name>Sassafras 20k 5 April 2026</name>
  <author>
   <name>john csorgo</name>
   <link href="https://www.strava.com/athletes/61185584"/>
  </author>
  <copyright author="OpenStreetMap contributors">
   <year>2020</year>
   <license>https://www.openstreetmap.org/copyright</license>
  </copyright>
  <link href="https://www.strava.com/routes/3474919619961485440"/>
 </metadata>
 <trk>
  <name>Sassafras 20k 5 April 2026</name>
  <link href="https://www.strava.com/routes/3474919619961485440"/>
  <type>trail_running</type>
  <trkseg>
   <trkpt lat="-37.862790000000004" lon="145.35353">
    <ele>480.38</ele>
   </trkpt>
   <trkpt lat="-37.862860000000005" lon="145.35369">
    <ele>480.74000000000007</ele>
   </trkpt>
   <trkpt lat="-37.862840000000006" lon="145.35371">
    <ele>480.84000000000003</ele>
   </trkpt>
   <trkpt lat="-37.86287" lon="145.3538">
    <ele>480.96000000000004</ele>
   </trkpt>
   <trkpt lat="-37.86316" lon="145.35444">
    <ele>485.95000000000005</ele>
   </trkpt>
   <trkpt lat="-37.86334" lon="145.35477">
    <ele>476.57000000000005</ele>
   </trkpt>
   <trkpt lat="-37.86345" lon="145.35489">
    <ele>475.56</ele>
   </trkpt>
   <trkpt lat="-37.863600000000005" lon="145.35494">
    <ele>472.75000000000006</ele>
   </trkpt>
   <trkpt lat="-37.86415" lon="145.35496">
    <ele>463.9200000000001</ele>
   </trkpt>
   <trkpt lat="-37.86435" lon="145.35499000000002">
    <ele>461.0</ele>
   </trkpt>
   <trkpt lat="-37.8645" lon="145.35506">
    <ele>455.6</ele>
   </trkpt>
   <trkpt lat="-37.864850000000004" lon="145.35513">
    <ele>448.28000000000003</ele>
   </trkpt>
   <trkpt lat="-37.86502" lon="145.35512">
    <ele>446.27000000000004</ele>
   </trkpt>
   <trkpt lat="-37.8652" lon="145.35519000000002">
    <ele>442.48</ele>
   </trkpt>
   <trkpt lat="-37.86547" lon="145.35535000000002">
    <ele>440.11000000000007</ele>
   </trkpt>
   <trkpt lat="-37.86591000000001" lon="145.35539">
    <ele>435.07</ele>
   </trkpt>
   <trkpt lat="-37.86598" lon="145.35542">
    <ele>434.7300000000001</ele>
   </trkpt>
   <trkpt lat="-37.865990000000004" lon="145.35551">
    <ele>434.7300000000001</ele>
   </trkpt>
   <trkpt lat="-37.866" lon="145.35554000000002">
    <ele>434.7300000000001</ele>
   </trkpt>
   <trkpt lat="-37.86596" lon="145.35572000000002">
    <ele>434.42</ele>
   </trkpt>
   <trkpt lat="-37.865860000000005" lon="145.35572000000002">
    <ele>414.39000000000004</ele>
   </trkpt>
   <trkpt lat="-37.86589" lon="145.35592000000003">
    <ele>432.65000000000003</ele>
   </trkpt>
   <trkpt lat="-37.86585" lon="145.35607000000002">
    <ele>431.14</ele>
   </trkpt>
   <trkpt lat="-37.866" lon="145.35656">
    <ele>427.8</ele>
   </trkpt>
   <trkpt lat="-37.86623" lon="145.35682">
    <ele>425.63</ele>
   </trkpt>
   <trkpt lat="-37.86632" lon="145.35688000000002">
    <ele>424.86</ele>
   </trkpt>
   <trkpt lat="-37.86654" lon="145.35708000000002">
    <ele>421.90000000000003</ele>
   </trkpt>
   <trkpt lat="-37.86672" lon="145.35738">
    <ele>419.88</ele>
   </trkpt>
   <trkpt lat="-37.86675" lon="145.35739">
    <ele>419.88</ele>
   </trkpt>
   <trkpt lat="-37.86688" lon="145.35736">
    <ele>419.73</ele>
   </trkpt>
   <trkpt lat="-37.86715" lon="145.35776">
    <ele>420.13000000000005</ele>
   </trkpt>
   <trkpt lat="-37.86728" lon="145.35787000000002">
    <ele>418.98</ele>
   </trkpt>
   <trkpt lat="-37.86737" lon="145.35797000000002">
    <ele>418.76</ele>
   </trkpt>
   <trkpt lat="-37.86748" lon="145.35804000000002">
    <ele>418.76</ele>
   </trkpt>
   <trkpt lat="-37.86755" lon="145.35812">
    <ele>418.57000000000005</ele>
   </trkpt>
   <trkpt lat="-37.86766" lon="145.35817">
    <ele>418.54</ele>
   </trkpt>
   <trkpt lat="-37.86771" lon="145.35824000000002">
    <ele>418.6</ele>
   </trkpt>
   <trkpt lat="-37.86768" lon="145.35852">
    <ele>418.15000000000003</ele>
   </trkpt>
   <trkpt lat="-37.86773" lon="145.35860000000002">
    <ele>418.38</ele>
   </trkpt>
   <trkpt lat="-37.86793" lon="145.35878000000002">
    <ele>419.37</ele>
   </trkpt>
   <trkpt lat="-37.86806" lon="145.35901">
    <ele>418.73</ele>
   </trkpt>
   <trkpt lat="-37.8682" lon="145.35908">
    <ele>418.46000000000004</ele>
   </trkpt>
   <trkpt lat="-37.86871" lon="145.35917">
    <ele>418.77000000000004</ele>
   </trkpt>
   <trkpt lat="-37.86887" lon="145.35943">
    <ele>416.73</ele>
   </trkpt>
   <trkpt lat="-37.869220000000006" lon="145.35977000000003">
    <ele>415.27000000000004</ele>
   </trkpt>
   <trkpt lat="-37.8695" lon="145.36015">
    <ele>414.58000000000004</ele>
   </trkpt>
   <trkpt lat="-37.86963" lon="145.36053">
    <ele>412.48</ele>
   </trkpt>
   <trkpt lat="-37.86972" lon="145.36065000000002">
    <ele>411.98</ele>
   </trkpt>
   <trkpt lat="-37.86999" lon="145.36083000000002">
    <ele>412.11</ele>
   </trkpt>
   <trkpt lat="-37.87071" lon="145.36105">
    <ele>410.58000000000004</ele>
   </trkpt>
   <trkpt lat="-37.87113" lon="145.36123">
    <ele>409.49</ele>
   </trkpt>
   <trkpt lat="-37.87182" lon="145.36126000000002">
    <ele>409.64000000000004</ele>
   </trkpt>
   <trkpt lat="-37.87205" lon="145.36114">
    <ele>409.64000000000004</ele>
   </trkpt>
   <trkpt lat="-37.87221" lon="145.36118000000002">
    <ele>408.57000000000005</ele>
   </trkpt>
   <trkpt lat="-37.87234" lon="145.36127000000002">
    <ele>408.57000000000005</ele>
   </trkpt>
   <trkpt lat="-37.87243" lon="145.36129000000003">
    <ele>407.56</ele>
   </trkpt>
   <trkpt lat="-37.87292" lon="145.36119000000002">
    <ele>405.81000000000006</ele>
   </trkpt>
   <trkpt lat="-37.87322" lon="145.36120000000003">
    <ele>403.24</ele>
   </trkpt>
   <trkpt lat="-37.873360000000005" lon="145.36122">
    <ele>401.15</ele>
   </trkpt>
   <trkpt lat="-37.873400000000004" lon="145.36126000000002">
    <ele>400.71</ele>
   </trkpt>
   <trkpt lat="-37.873490000000004" lon="145.36143">
    <ele>399.81000000000006</ele>
   </trkpt>
   <trkpt lat="-37.873540000000006" lon="145.3614">
    <ele>399.44</ele>
   </trkpt>
   <trkpt lat="-37.873560000000005" lon="145.36141">
    <ele>399.44</ele>
   </trkpt>
   <trkpt lat="-37.87357" lon="145.36146000000002">
    <ele>399.32</ele>
   </trkpt>
   <trkpt lat="-37.87355" lon="145.36154000000002">
    <ele>399.22</ele>
   </trkpt>
   <trkpt lat="-37.87368" lon="145.36174000000003">
    <ele>396.95</ele>
   </trkpt>
   <trkpt lat="-37.87377" lon="145.36196">
    <ele>393.52000000000004</ele>
   </trkpt>
   <trkpt lat="-37.87377" lon="145.36206">
    <ele>377.21000000000004</ele>
   </trkpt>
   <trkpt lat="-37.873740000000005" lon="145.36213">
    <ele>377.21000000000004</ele>
   </trkpt>
   <trkpt lat="-37.87373" lon="145.36223">
    <ele>377.62</ele>
   </trkpt>
   <trkpt lat="-37.87382" lon="145.36244000000002">
    <ele>379.03000000000003</ele>
   </trkpt>
   <trkpt lat="-37.87402" lon="145.36301">
    <ele>381.47</ele>
   </trkpt>
   <trkpt lat="-37.87404" lon="145.36343000000002">
    <ele>384.70000000000005</ele>
   </trkpt>
   <trkpt lat="-37.87426" lon="145.36375">
    <ele>384.32000000000005</ele>
   </trkpt>
   <trkpt lat="-37.87438" lon="145.36402">
    <ele>384.16</ele>
   </trkpt>
   <trkpt lat="-37.87438" lon="145.3642">
    <ele>384.65000000000003</ele>
   </trkpt>
   <trkpt lat="-37.87435" lon="145.36442000000002">
    <ele>385.66</ele>
   </trkpt>
   <trkpt lat="-37.87435" lon="145.36469000000002">
    <ele>386.36</ele>
   </trkpt>
   <trkpt lat="-37.874660000000006" lon="145.36564">
    <ele>383.91</ele>
   </trkpt>
   <trkpt lat="-37.8748" lon="145.366">
    <ele>382.78000000000003</ele>
   </trkpt>
   <trkpt lat="-37.87482" lon="145.36644">
    <ele>384.33</ele>
   </trkpt>
   <trkpt lat="-37.87489" lon="145.36658">
    <ele>383.52000000000004</ele>
   </trkpt>
   <trkpt lat="-37.87514" lon="145.36678">
    <ele>380.35</ele>
   </trkpt>
   <trkpt lat="-37.87523" lon="145.36692000000002">
    <ele>380.11</ele>
   </trkpt>
   <trkpt lat="-37.87559" lon="145.36734">
    <ele>377.31</ele>
   </trkpt>
   <trkpt lat="-37.8757" lon="145.3675">
    <ele>375.28000000000003</ele>
   </trkpt>
   <trkpt lat="-37.875690000000006" lon="145.36763000000002">
    <ele>374.37</ele>
   </trkpt>
   <trkpt lat="-37.87561" lon="145.36791000000002">
    <ele>372.73</ele>
   </trkpt>
   <trkpt lat="-37.875510000000006" lon="145.36811">
    <ele>372.50000000000006</ele>
   </trkpt>
   <trkpt lat="-37.87545" lon="145.3683">
    <ele>372.36</ele>
   </trkpt>
   <trkpt lat="-37.87554" lon="145.36892">
    <ele>369.1</ele>
   </trkpt>
   <trkpt lat="-37.87554" lon="145.36915000000002">
    <ele>369.57</ele>
   </trkpt>
   <trkpt lat="-37.87545" lon="145.36945">
    <ele>371.65000000000003</ele>
   </trkpt>
   <trkpt lat="-37.87541" lon="145.36953000000003">
    <ele>373.19</ele>
   </trkpt>
   <trkpt lat="-37.87536" lon="145.36978000000002">
    <ele>374.04</ele>
   </trkpt>
   <trkpt lat="-37.87541" lon="145.37033000000002">
    <ele>368.3</ele>
   </trkpt>
   <trkpt lat="-37.8755" lon="145.37059000000002">
    <ele>364.66</ele>
   </trkpt>
   <trkpt lat="-37.875600000000006" lon="145.37072">
    <ele>364.06000000000006</ele>
   </trkpt>
   <trkpt lat="-37.87608" lon="145.37106">
    <ele>357.73</ele>
   </trkpt>
   <trkpt lat="-37.87614000000001" lon="145.37109">
    <ele>357.67</ele>
   </trkpt>
   <trkpt lat="-37.87635" lon="145.37115">
    <ele>344.15</ele>
   </trkpt>
   <trkpt lat="-37.8765" lon="145.37138000000002">
    <ele>334.93</ele>
   </trkpt>
   <trkpt lat="-37.87675" lon="145.37167000000002">
    <ele>334.41</ele>
   </trkpt>
   <trkpt lat="-37.876850000000005" lon="145.37126">
    <ele>350.76</ele>
   </trkpt>
   <trkpt lat="-37.87691" lon="145.37124">
    <ele>350.76</ele>
   </trkpt>
   <trkpt lat="-37.87693" lon="145.37134">
    <ele>349.98</ele>
   </trkpt>
   <trkpt lat="-37.87713" lon="145.37159000000003">
    <ele>347.73</ele>
   </trkpt>
   <trkpt lat="-37.877570000000006" lon="145.37197">
    <ele>346.28000000000003</ele>
   </trkpt>
   <trkpt lat="-37.87773" lon="145.37208">
    <ele>345.75</ele>
   </trkpt>
   <trkpt lat="-37.87778" lon="145.37220000000002">
    <ele>344.66</ele>
   </trkpt>
   <trkpt lat="-37.87782" lon="145.37237000000002">
    <ele>343.96000000000004</ele>
   </trkpt>
   <trkpt lat="-37.87791" lon="145.37255000000002">
    <ele>342.82</ele>
   </trkpt>
   <trkpt lat="-37.87807" lon="145.37275000000002">
    <ele>342.39000000000004</ele>
   </trkpt>
   <trkpt lat="-37.878310000000006" lon="145.37275000000002">
    <ele>343.96000000000004</ele>
   </trkpt>
   <trkpt lat="-37.87838" lon="145.37277">
    <ele>344.09</ele>
   </trkpt>
   <trkpt lat="-37.87843" lon="145.37283000000002">
    <ele>344.09</ele>
   </trkpt>
   <trkpt lat="-37.878460000000004" lon="145.37306">
    <ele>327.97</ele>
   </trkpt>
   <trkpt lat="-37.87836" lon="145.37346000000002">
    <ele>325.12</ele>
   </trkpt>
   <trkpt lat="-37.87829" lon="145.37361">
    <ele>325.90000000000003</ele>
   </trkpt>
   <trkpt lat="-37.87829" lon="145.37389000000002">
    <ele>330.87000000000006</ele>
   </trkpt>
   <trkpt lat="-37.87823" lon="145.37415000000001">
    <ele>334.97</ele>
   </trkpt>
   <trkpt lat="-37.87816" lon="145.37472000000002">
    <ele>341.48</ele>
   </trkpt>
   <trkpt lat="-37.87825" lon="145.375">
    <ele>346.42</ele>
   </trkpt>
   <trkpt lat="-37.87843" lon="145.37523000000002">
    <ele>353.19</ele>
   </trkpt>
   <trkpt lat="-37.87854" lon="145.37534000000002">
    <ele>355.46000000000004</ele>
   </trkpt>
   <trkpt lat="-37.87861" lon="145.37571">
    <ele>358.36</ele>
   </trkpt>
   <trkpt lat="-37.87872" lon="145.37596000000002">
    <ele>360.98</ele>
   </trkpt>
   <trkpt lat="-37.878710000000005" lon="145.37606000000002">
    <ele>360.97</ele>
   </trkpt>
   <trkpt lat="-37.8787" lon="145.37637">
    <ele>358.49</ele>
   </trkpt>
   <trkpt lat="-37.87861" lon="145.37649000000002">
    <ele>356.39000000000004</ele>
   </trkpt>
   <trkpt lat="-37.87854" lon="145.37655">
    <ele>355.71000000000004</ele>
   </trkpt>
   <trkpt lat="-37.878510000000006" lon="145.37664">
    <ele>355.52</ele>
   </trkpt>
   <trkpt lat="-37.87841" lon="145.3767">
    <ele>355.72</ele>
   </trkpt>
   <trkpt lat="-37.87841" lon="145.37688">
    <ele>356.92</ele>
   </trkpt>
   <trkpt lat="-37.87852" lon="145.37720000000002">
    <ele>360.91</ele>
   </trkpt>
   <trkpt lat="-37.87894" lon="145.37752">
    <ele>359.35</ele>
   </trkpt>
   <trkpt lat="-37.87912" lon="145.37754">
    <ele>357.24</ele>
   </trkpt>
   <trkpt lat="-37.87948" lon="145.37797">
    <ele>348.48</ele>
   </trkpt>
   <trkpt lat="-37.87966" lon="145.37843">
    <ele>340.36000000000007</ele>
   </trkpt>
   <trkpt lat="-37.87975" lon="145.37853">
    <ele>338.99</ele>
   </trkpt>
   <trkpt lat="-37.87982" lon="145.37881000000002">
    <ele>338.29</ele>
   </trkpt>
   <trkpt lat="-37.87997" lon="145.37905">
    <ele>338.82</ele>
   </trkpt>
   <trkpt lat="-37.88013" lon="145.37941">
    <ele>339.05</ele>
   </trkpt>
   <trkpt lat="-37.88026" lon="145.37994">
    <ele>332.48</ele>
   </trkpt>
   <trkpt lat="-37.88033" lon="145.3801">
    <ele>330.69000000000005</ele>
   </trkpt>
   <trkpt lat="-37.88029" lon="145.38036000000002">
    <ele>328.01</ele>
   </trkpt>
   <trkpt lat="-37.88029" lon="145.38060000000002">
    <ele>328.26000000000005</ele>
   </trkpt>
   <trkpt lat="-37.8804" lon="145.38083">
    <ele>329.21</ele>
   </trkpt>
   <trkpt lat="-37.88078" lon="145.38125000000002">
    <ele>323.61</ele>
   </trkpt>
   <trkpt lat="-37.88123" lon="145.38188000000002">
    <ele>315.73</ele>
   </trkpt>
   <trkpt lat="-37.88114" lon="145.38207">
    <ele>313.29</ele>
   </trkpt>
   <trkpt lat="-37.88098" lon="145.38230000000001">
    <ele>310.9</ele>
   </trkpt>
   <trkpt lat="-37.88094" lon="145.38244">
    <ele>310.54</ele>
   </trkpt>
   <trkpt lat="-37.881" lon="145.38254">
    <ele>309.39</ele>
   </trkpt>
   <trkpt lat="-37.88123" lon="145.38276000000002">
    <ele>307.73</ele>
   </trkpt>
   <trkpt lat="-37.88145" lon="145.38292">
    <ele>306.26000000000005</ele>
   </trkpt>
   <trkpt lat="-37.88156" lon="145.38291">
    <ele>305.00000000000006</ele>
   </trkpt>
   <trkpt lat="-37.88163" lon="145.38285000000002">
    <ele>304.66</ele>
   </trkpt>
   <trkpt lat="-37.88174" lon="145.38281">
    <ele>304.56</ele>
   </trkpt>
   <trkpt lat="-37.88183" lon="145.3829">
    <ele>303.97</ele>
   </trkpt>
   <trkpt lat="-37.88181" lon="145.38306">
    <ele>302.15000000000003</ele>
   </trkpt>
   <trkpt lat="-37.881980000000006" lon="145.38336">
    <ele>300.36</ele>
   </trkpt>
   <trkpt lat="-37.8823" lon="145.38363">
    <ele>297.88000000000005</ele>
   </trkpt>
   <trkpt lat="-37.88241" lon="145.38392000000002">
    <ele>295.98</ele>
   </trkpt>
   <trkpt lat="-37.88241" lon="145.38393000000002">
    <ele>295.98</ele>
   </trkpt>
   <trkpt lat="-37.88239" lon="145.38424">
    <ele>294.1</ele>
   </trkpt>
   <trkpt lat="-37.88277" lon="145.38517000000002">
    <ele>288.99</ele>
   </trkpt>
   <trkpt lat="-37.88277" lon="145.38558">
    <ele>286.95000000000005</ele>
   </trkpt>
   <trkpt lat="-37.88286" lon="145.38613">
    <ele>285.0</ele>
   </trkpt>
   <trkpt lat="-37.88313" lon="145.38674">
    <ele>283.14</ele>
   </trkpt>
   <trkpt lat="-37.88311" lon="145.38696000000002">
    <ele>282.31</ele>
   </trkpt>
   <trkpt lat="-37.88295" lon="145.38770000000002">
    <ele>279.79</ele>
   </trkpt>
   <trkpt lat="-37.882830000000006" lon="145.38811">
    <ele>277.80000000000007</ele>
   </trkpt>
   <trkpt lat="-37.882670000000005" lon="145.38839000000002">
    <ele>276.2</ele>
   </trkpt>
   <trkpt lat="-37.88255" lon="145.38872">
    <ele>275.77</ele>
   </trkpt>
   <trkpt lat="-37.88244" lon="145.38894000000002">
    <ele>275.23</ele>
   </trkpt>
   <trkpt lat="-37.88243000000001" lon="145.38895000000002">
    <ele>275.23</ele>
   </trkpt>
   <trkpt lat="-37.882490000000004" lon="145.38882">
    <ele>275.58000000000004</ele>
   </trkpt>
   <trkpt lat="-37.88257" lon="145.38882">
    <ele>272.2</ele>
   </trkpt>
   <trkpt lat="-37.882830000000006" lon="145.38894000000002">
    <ele>261.92</ele>
   </trkpt>
   <trkpt lat="-37.8827" lon="145.38922000000002">
    <ele>260.95</ele>
   </trkpt>
   <trkpt lat="-37.88264" lon="145.38944">
    <ele>260.02000000000004</ele>
   </trkpt>
   <trkpt lat="-37.88264" lon="145.38963">
    <ele>259.12</ele>
   </trkpt>
   <trkpt lat="-37.882690000000004" lon="145.39007">
    <ele>257.98</ele>
   </trkpt>
   <trkpt lat="-37.88306" lon="145.39053">
    <ele>276.0</ele>
   </trkpt>
   <trkpt lat="-37.88317" lon="145.39061">
    <ele>277.19000000000005</ele>
   </trkpt>
   <trkpt lat="-37.88342" lon="145.39067">
    <ele>281.12</ele>
   </trkpt>
   <trkpt lat="-37.88396" lon="145.39089">
    <ele>287.82</ele>
   </trkpt>
   <trkpt lat="-37.88418" lon="145.39105">
    <ele>289.00000000000006</ele>
   </trkpt>
   <trkpt lat="-37.88492000094855" lon="145.39151499534864">
    <ele>286.15000000000003</ele>
   </trkpt>
   <trkpt lat="-37.88566" lon="145.39198000000002">
    <ele>275.3</ele>
   </trkpt>
   <trkpt lat="-37.8856933399832" lon="145.39109333414584">
    <ele>292.26</ele>
   </trkpt>
   <trkpt lat="-37.88572667331618" lon="145.39020666748883">
    <ele>301.27000000000004</ele>
   </trkpt>
   <trkpt lat="-37.885760000000005" lon="145.38932">
    <ele>305.98</ele>
   </trkpt>
   <trkpt lat="-37.88580667489797" lon="145.38833333465965">
    <ele>317.73</ele>
   </trkpt>
   <trkpt lat="-37.88585334156106" lon="145.38734666806863">
    <ele>333.70000000000005</ele>
   </trkpt>
   <trkpt lat="-37.88590000000001" lon="145.38636000000002">
    <ele>358.00000000000006</ele>
   </trkpt>
   <trkpt lat="-37.885920000000006" lon="145.38592">
    <ele>362.82000000000005</ele>
   </trkpt>
   <trkpt lat="-37.886" lon="145.38581000000002">
    <ele>359.87</ele>
   </trkpt>
   <trkpt lat="-37.88599" lon="145.38580000000002">
    <ele>359.87</ele>
   </trkpt>
   <trkpt lat="-37.88595" lon="145.38580000000002">
    <ele>359.87</ele>
   </trkpt>
   <trkpt lat="-37.885850000000005" lon="145.38562000000002">
    <ele>371.00000000000006</ele>
   </trkpt>
   <trkpt lat="-37.88564" lon="145.38502000000003">
    <ele>374.75</ele>
   </trkpt>
   <trkpt lat="-37.8855" lon="145.38451">
    <ele>379.38000000000005</ele>
   </trkpt>
   <trkpt lat="-37.88541" lon="145.38381">
    <ele>385.1</ele>
   </trkpt>
   <trkpt lat="-37.88541" lon="145.38352">
    <ele>385.32000000000005</ele>
   </trkpt>
   <trkpt lat="-37.88546" lon="145.38329000000002">
    <ele>385.33</ele>
   </trkpt>
   <trkpt lat="-37.88566" lon="145.38265">
    <ele>386.58000000000004</ele>
   </trkpt>
   <trkpt lat="-37.8857" lon="145.38243">
    <ele>387.64000000000004</ele>
   </trkpt>
   <trkpt lat="-37.88566" lon="145.38173">
    <ele>390.34000000000003</ele>
   </trkpt>
   <trkpt lat="-37.88573" lon="145.38116000000002">
    <ele>392.40000000000003</ele>
   </trkpt>
   <trkpt lat="-37.88554500118323" lon="145.3806199984972">
    <ele>390.23</ele>
   </trkpt>
   <trkpt lat="-37.885360000000006" lon="145.38008000000002">
    <ele>391.02000000000004</ele>
   </trkpt>
   <trkpt lat="-37.88526" lon="145.37989000000002">
    <ele>391.13000000000005</ele>
   </trkpt>
   <trkpt lat="-37.88508" lon="145.37972000000002">
    <ele>391.16</ele>
   </trkpt>
   <trkpt lat="-37.88494" lon="145.37961">
    <ele>391.1</ele>
   </trkpt>
   <trkpt lat="-37.88479" lon="145.37959">
    <ele>390.88</ele>
   </trkpt>
   <trkpt lat="-37.88467" lon="145.37961">
    <ele>390.65000000000003</ele>
   </trkpt>
   <trkpt lat="-37.88449" lon="145.3797">
    <ele>390.21000000000004</ele>
   </trkpt>
   <trkpt lat="-37.88432" lon="145.37973000000002">
    <ele>390.0</ele>
   </trkpt>
   <trkpt lat="-37.88411" lon="145.37969">
    <ele>392.29</ele>
   </trkpt>
   <trkpt lat="-37.884" lon="145.37962000000002">
    <ele>393.01</ele>
   </trkpt>
   <trkpt lat="-37.88378" lon="145.37941">
    <ele>394.71</ele>
   </trkpt>
   <trkpt lat="-37.88355" lon="145.37913">
    <ele>397.29</ele>
   </trkpt>
   <trkpt lat="-37.8843450001291" lon="145.37897500166795">
    <ele>394.43000000000006</ele>
   </trkpt>
   <trkpt lat="-37.88514" lon="145.37882000000002">
    <ele>394.05</ele>
   </trkpt>
   <trkpt lat="-37.88541" lon="145.37883000000002">
    <ele>395.89</ele>
   </trkpt>
   <trkpt lat="-37.88552" lon="145.37887">
    <ele>396.11</ele>
   </trkpt>
   <trkpt lat="-37.88624" lon="145.37927000000002">
    <ele>399.57000000000005</ele>
   </trkpt>
   <trkpt lat="-37.886320000000005" lon="145.37939">
    <ele>401.11</ele>
   </trkpt>
   <trkpt lat="-37.8864" lon="145.37868">
    <ele>404.13000000000005</ele>
   </trkpt>
   <trkpt lat="-37.8866" lon="145.3778">
    <ele>404.52000000000004</ele>
   </trkpt>
   <trkpt lat="-37.886720000000004" lon="145.37794000000002">
    <ele>403.86000000000007</ele>
   </trkpt>
   <trkpt lat="-37.887240000000006" lon="145.3779">
    <ele>403.57000000000005</ele>
   </trkpt>
   <trkpt lat="-37.8877" lon="145.37814">
    <ele>407.55</ele>
   </trkpt>
   <trkpt lat="-37.888505000150154" lon="145.37797500179676">
    <ele>399.95000000000005</ele>
   </trkpt>
   <trkpt lat="-37.88931" lon="145.37781">
    <ele>393.71000000000004</ele>
   </trkpt>
   <trkpt lat="-37.89016" lon="145.37795">
    <ele>390.68</ele>
   </trkpt>
   <trkpt lat="-37.89085" lon="145.37794000000002">
    <ele>388.13</ele>
   </trkpt>
   <trkpt lat="-37.89112" lon="145.3779">
    <ele>386.07</ele>
   </trkpt>
   <trkpt lat="-37.89139" lon="145.37794000000002">
    <ele>384.90000000000003</ele>
   </trkpt>
   <trkpt lat="-37.89177" lon="145.37807">
    <ele>382.57</ele>
   </trkpt>
   <trkpt lat="-37.89222" lon="145.37835">
    <ele>380.79</ele>
   </trkpt>
   <trkpt lat="-37.89229" lon="145.37834">
    <ele>379.86</ele>
   </trkpt>
   <trkpt lat="-37.89237" lon="145.37827000000001">
    <ele>379.25</ele>
   </trkpt>
   <trkpt lat="-37.892360000000004" lon="145.37829000000002">
    <ele>379.25</ele>
   </trkpt>
   <trkpt lat="-37.89249" lon="145.37814">
    <ele>376.82000000000005</ele>
   </trkpt>
   <trkpt lat="-37.89262" lon="145.37792000000002">
    <ele>372.35</ele>
   </trkpt>
   <trkpt lat="-37.89267" lon="145.37773">
    <ele>369.20000000000005</ele>
   </trkpt>
   <trkpt lat="-37.89264" lon="145.37733">
    <ele>364.17</ele>
   </trkpt>
   <trkpt lat="-37.89258" lon="145.37708">
    <ele>363.08</ele>
   </trkpt>
   <trkpt lat="-37.892350001316714" lon="145.37650499799926">
    <ele>357.40000000000003</ele>
   </trkpt>
   <trkpt lat="-37.892120000000006" lon="145.37593">
    <ele>351.51000000000005</ele>
   </trkpt>
   <trkpt lat="-37.89166" lon="145.37524000000002">
    <ele>345.43</ele>
   </trkpt>
   <trkpt lat="-37.89146" lon="145.37505000000002">
    <ele>343.86000000000007</ele>
   </trkpt>
   <trkpt lat="-37.89137" lon="145.37499000000003">
    <ele>343.6</ele>
   </trkpt>
   <trkpt lat="-37.89114" lon="145.37492">
    <ele>343.69000000000005</ele>
   </trkpt>
   <trkpt lat="-37.89079" lon="145.37492">
    <ele>344.63000000000005</ele>
   </trkpt>
   <trkpt lat="-37.89112" lon="145.37477">
    <ele>341.08000000000004</ele>
   </trkpt>
   <trkpt lat="-37.891180000000006" lon="145.37476">
    <ele>340.11</ele>
   </trkpt>
   <trkpt lat="-37.89137" lon="145.37478000000002">
    <ele>337.54</ele>
   </trkpt>
   <trkpt lat="-37.89148" lon="145.37473">
    <ele>337.07000000000005</ele>
   </trkpt>
   <trkpt lat="-37.89157" lon="145.37466">
    <ele>336.18</ele>
   </trkpt>
   <trkpt lat="-37.89159" lon="145.37459">
    <ele>336.16</ele>
   </trkpt>
   <trkpt lat="-37.89159" lon="145.37401">
    <ele>340.94</ele>
   </trkpt>
   <trkpt lat="-37.89161" lon="145.37392">
    <ele>340.94</ele>
   </trkpt>
   <trkpt lat="-37.89166" lon="145.37383">
    <ele>342.39000000000004</ele>
   </trkpt>
   <trkpt lat="-37.89175" lon="145.37377">
    <ele>343.42</ele>
   </trkpt>
   <trkpt lat="-37.89193" lon="145.37368">
    <ele>344.53</ele>
   </trkpt>
   <trkpt lat="-37.89213" lon="145.37365">
    <ele>347.58000000000004</ele>
   </trkpt>
   <trkpt lat="-37.89242" lon="145.37368">
    <ele>351.88</ele>
   </trkpt>
   <trkpt lat="-37.892410000000005" lon="145.37368">
    <ele>351.88</ele>
   </trkpt>
   <trkpt lat="-37.89284" lon="145.37382000000002">
    <ele>356.71000000000004</ele>
   </trkpt>
   <trkpt lat="-37.89331" lon="145.37409000000002">
    <ele>361.12000000000006</ele>
   </trkpt>
   <trkpt lat="-37.89349" lon="145.37424000000001">
    <ele>363.59000000000003</ele>
   </trkpt>
   <trkpt lat="-37.89383" lon="145.37475">
    <ele>369.66</ele>
   </trkpt>
   <trkpt lat="-37.89392" lon="145.37482">
    <ele>372.24</ele>
   </trkpt>
   <trkpt lat="-37.89423" lon="145.37495">
    <ele>377.68</ele>
   </trkpt>
   <trkpt lat="-37.89437" lon="145.37505000000002">
    <ele>379.20000000000005</ele>
   </trkpt>
   <trkpt lat="-37.894560000000006" lon="145.37512">
    <ele>379.20000000000005</ele>
   </trkpt>
   <trkpt lat="-37.89479" lon="145.37516000000002">
    <ele>387.87000000000006</ele>
   </trkpt>
   <trkpt lat="-37.89513" lon="145.37514000000002">
    <ele>391.91</ele>
   </trkpt>
   <trkpt lat="-37.89549" lon="145.37521">
    <ele>396.3</ele>
   </trkpt>
   <trkpt lat="-37.8958" lon="145.37517000000003">
    <ele>398.11</ele>
   </trkpt>
   <trkpt lat="-37.896080000000005" lon="145.37524000000002">
    <ele>398.61</ele>
   </trkpt>
   <trkpt lat="-37.89636" lon="145.37518">
    <ele>398.89</ele>
   </trkpt>
   <trkpt lat="-37.89658" lon="145.37518">
    <ele>398.79</ele>
   </trkpt>
   <trkpt lat="-37.89676" lon="145.37524000000002">
    <ele>398.86</ele>
   </trkpt>
   <trkpt lat="-37.89701" lon="145.37541000000002">
    <ele>399.01000000000005</ele>
   </trkpt>
   <trkpt lat="-37.89723" lon="145.37565">
    <ele>399.45000000000005</ele>
   </trkpt>
   <trkpt lat="-37.89734" lon="145.37586000000002">
    <ele>399.94</ele>
   </trkpt>
   <trkpt lat="-37.897540000000006" lon="145.37663">
    <ele>399.08000000000004</ele>
   </trkpt>
   <trkpt lat="-37.89772" lon="145.37738000000002">
    <ele>396.55</ele>
   </trkpt>
   <trkpt lat="-37.89781" lon="145.3779">
    <ele>396.18</ele>
   </trkpt>
   <trkpt lat="-37.8979" lon="145.37899000000002">
    <ele>399.55</ele>
   </trkpt>
   <trkpt lat="-37.897920000000006" lon="145.37907">
    <ele>399.45000000000005</ele>
   </trkpt>
   <trkpt lat="-37.897980000000004" lon="145.37919000000002">
    <ele>398.17</ele>
   </trkpt>
   <trkpt lat="-37.89822" lon="145.37928000000002">
    <ele>398.49</ele>
   </trkpt>
   <trkpt lat="-37.8984" lon="145.3794">
    <ele>397.89</ele>
   </trkpt>
   <trkpt lat="-37.899115000498796" lon="145.37975999647793">
    <ele>391.66</ele>
   </trkpt>
   <trkpt lat="-37.89983" lon="145.38012">
    <ele>381.85</ele>
   </trkpt>
   <trkpt lat="-37.90025" lon="145.38027000000002">
    <ele>378.67</ele>
   </trkpt>
   <trkpt lat="-37.90095" lon="145.38066">
    <ele>375.1</ele>
   </trkpt>
   <trkpt lat="-37.90166" lon="145.38102">
    <ele>370.93</ele>
   </trkpt>
   <trkpt lat="-37.9022" lon="145.38132000000002">
    <ele>370.11000000000007</ele>
   </trkpt>
   <trkpt lat="-37.90243" lon="145.38138">
    <ele>369.83000000000004</ele>
   </trkpt>
   <trkpt lat="-37.9026" lon="145.3814">
    <ele>369.26000000000005</ele>
   </trkpt>
   <trkpt lat="-37.90261" lon="145.3814">
    <ele>369.26000000000005</ele>
   </trkpt>
   <trkpt lat="-37.90278" lon="145.38134000000002">
    <ele>367.59000000000003</ele>
   </trkpt>
   <trkpt lat="-37.90285" lon="145.38128">
    <ele>366.33000000000004</ele>
   </trkpt>
   <trkpt lat="-37.90307" lon="145.38094">
    <ele>360.07000000000005</ele>
   </trkpt>
   <trkpt lat="-37.90325" lon="145.38043000000002">
    <ele>349.57000000000005</ele>
   </trkpt>
   <trkpt lat="-37.90339" lon="145.38022">
    <ele>344.86000000000007</ele>
   </trkpt>
   <trkpt lat="-37.90368" lon="145.37987">
    <ele>336.46000000000004</ele>
   </trkpt>
   <trkpt lat="-37.90404" lon="145.37937000000002">
    <ele>324.93000000000006</ele>
   </trkpt>
   <trkpt lat="-37.904320000859784" lon="145.3788850020797">
    <ele>316.18</ele>
   </trkpt>
   <trkpt lat="-37.9046" lon="145.3784">
    <ele>306.8</ele>
   </trkpt>
   <trkpt lat="-37.90475" lon="145.37804">
    <ele>294.76</ele>
   </trkpt>
   <trkpt lat="-37.904970000000006" lon="145.37744">
    <ele>285.90000000000003</ele>
   </trkpt>
   <trkpt lat="-37.90523000176999" lon="145.3768050020867">
    <ele>274.68</ele>
   </trkpt>
   <trkpt lat="-37.90549" lon="145.37617">
    <ele>271.96000000000004</ele>
   </trkpt>
   <trkpt lat="-37.905910000000006" lon="145.37546">
    <ele>268.24</ele>
   </trkpt>
   <trkpt lat="-37.90643" lon="145.37461000000002">
    <ele>259.15000000000003</ele>
   </trkpt>
   <trkpt lat="-37.90691" lon="145.37377">
    <ele>248.22000000000003</ele>
   </trkpt>
   <trkpt lat="-37.90699" lon="145.37323">
    <ele>242.08</ele>
   </trkpt>
   <trkpt lat="-37.90713" lon="145.37263000000002">
    <ele>232.07000000000002</ele>
   </trkpt>
   <trkpt lat="-37.90713" lon="145.37253">
    <ele>231.4</ele>
   </trkpt>
   <trkpt lat="-37.90701" lon="145.37227000000001">
    <ele>228.48000000000002</ele>
   </trkpt>
   <trkpt lat="-37.90672" lon="145.37188">
    <ele>222.82000000000002</ele>
   </trkpt>
   <trkpt lat="-37.90639" lon="145.37087000000002">
    <ele>224.79000000000002</ele>
   </trkpt>
   <trkpt lat="-37.90628" lon="145.37043">
    <ele>227.38000000000002</ele>
   </trkpt>
   <trkpt lat="-37.9063" lon="145.37003">
    <ele>228.86</ele>
   </trkpt>
   <trkpt lat="-37.90634" lon="145.36982">
    <ele>228.80000000000004</ele>
   </trkpt>
   <trkpt lat="-37.9065" lon="145.36961000000002">
    <ele>228.52</ele>
   </trkpt>
   <trkpt lat="-37.9067" lon="145.36924000000002">
    <ele>228.9</ele>
   </trkpt>
   <trkpt lat="-37.90677" lon="145.36897000000002">
    <ele>228.9</ele>
   </trkpt>
   <trkpt lat="-37.90677" lon="145.36884">
    <ele>228.9</ele>
   </trkpt>
   <trkpt lat="-37.90668" lon="145.36825000000002">
    <ele>229.48000000000002</ele>
   </trkpt>
   <trkpt lat="-37.90675" lon="145.36773000000002">
    <ele>226.63000000000002</ele>
   </trkpt>
   <trkpt lat="-37.90663" lon="145.36713">
    <ele>224.75</ele>
   </trkpt>
   <trkpt lat="-37.90661" lon="145.36685">
    <ele>227.01000000000002</ele>
   </trkpt>
   <trkpt lat="-37.90657" lon="145.36668">
    <ele>228.89000000000001</ele>
   </trkpt>
   <trkpt lat="-37.90663" lon="145.36637000000002">
    <ele>236.99</ele>
   </trkpt>
   <trkpt lat="-37.90646" lon="145.36564">
    <ele>257.3</ele>
   </trkpt>
   <trkpt lat="-37.90623" lon="145.36459000000002">
    <ele>277.48</ele>
   </trkpt>
   <trkpt lat="-37.90614" lon="145.36395000000002">
    <ele>288.74</ele>
   </trkpt>
   <trkpt lat="-37.906060000000004" lon="145.36378000000002">
    <ele>290.17</ele>
   </trkpt>
   <trkpt lat="-37.905770000000004" lon="145.36347">
    <ele>294.99</ele>
   </trkpt>
   <trkpt lat="-37.90565" lon="145.3634">
    <ele>296.42</ele>
   </trkpt>
   <trkpt lat="-37.90545" lon="145.36334000000002">
    <ele>299.91</ele>
   </trkpt>
   <trkpt lat="-37.905350000000006" lon="145.36324000000002">
    <ele>299.91</ele>
   </trkpt>
   <trkpt lat="-37.90522" lon="145.36309">
    <ele>306.72</ele>
   </trkpt>
   <trkpt lat="-37.9046" lon="145.36269000000001">
    <ele>314.51</ele>
   </trkpt>
   <trkpt lat="-37.90442" lon="145.36266">
    <ele>316.38000000000005</ele>
   </trkpt>
   <trkpt lat="-37.90417" lon="145.36270000000002">
    <ele>317.89</ele>
   </trkpt>
   <trkpt lat="-37.90366" lon="145.36271000000002">
    <ele>322.07</ele>
   </trkpt>
   <trkpt lat="-37.90307" lon="145.36296000000002">
    <ele>327.1</ele>
   </trkpt>
   <trkpt lat="-37.90283" lon="145.36315000000002">
    <ele>329.94</ele>
   </trkpt>
   <trkpt lat="-37.90263" lon="145.36328">
    <ele>332.61</ele>
   </trkpt>
   <trkpt lat="-37.90216" lon="145.36339">
    <ele>339.46000000000004</ele>
   </trkpt>
   <trkpt lat="-37.90189" lon="145.36350000000002">
    <ele>341.5</ele>
   </trkpt>
   <trkpt lat="-37.901450000000004" lon="145.36383">
    <ele>346.92</ele>
   </trkpt>
   <trkpt lat="-37.90124" lon="145.36343000000002">
    <ele>345.86</ele>
   </trkpt>
   <trkpt lat="-37.901050001985745" lon="145.36273999811638">
    <ele>340.68</ele>
   </trkpt>
   <trkpt lat="-37.90086" lon="145.36205">
    <ele>334.54</ele>
   </trkpt>
   <trkpt lat="-37.900830000000006" lon="145.36186">
    <ele>333.37</ele>
   </trkpt>
   <trkpt lat="-37.90077" lon="145.36145000000002">
    <ele>334.03000000000003</ele>
   </trkpt>
   <trkpt lat="-37.90059" lon="145.36069">
    <ele>338.40000000000003</ele>
   </trkpt>
   <trkpt lat="-37.90057" lon="145.36046000000002">
    <ele>338.03000000000003</ele>
   </trkpt>
   <trkpt lat="-37.9005" lon="145.36012000000002">
    <ele>334.79</ele>
   </trkpt>
   <trkpt lat="-37.9003" lon="145.35946">
    <ele>316.54</ele>
   </trkpt>
   <trkpt lat="-37.9001" lon="145.35860000000002">
    <ele>302.00000000000006</ele>
   </trkpt>
   <trkpt lat="-37.9001" lon="145.35835">
    <ele>298.24</ele>
   </trkpt>
   <trkpt lat="-37.900000000000006" lon="145.35778000000002">
    <ele>284.75</ele>
   </trkpt>
   <trkpt lat="-37.89992" lon="145.35763">
    <ele>275.88</ele>
   </trkpt>
   <trkpt lat="-37.89992" lon="145.35755">
    <ele>275.88</ele>
   </trkpt>
   <trkpt lat="-37.900000000000006" lon="145.35732000000002">
    <ele>269.57000000000005</ele>
   </trkpt>
   <trkpt lat="-37.900000000000006" lon="145.35713">
    <ele>265.5</ele>
   </trkpt>
   <trkpt lat="-37.89996" lon="145.35696000000002">
    <ele>256.61</ele>
   </trkpt>
   <trkpt lat="-37.89985" lon="145.35690000000002">
    <ele>256.58000000000004</ele>
   </trkpt>
   <trkpt lat="-37.89994" lon="145.35687000000001">
    <ele>256.58000000000004</ele>
   </trkpt>
   <trkpt lat="-37.90001" lon="145.35687000000001">
    <ele>266.69000000000005</ele>
   </trkpt>
   <trkpt lat="-37.9001" lon="145.35691">
    <ele>266.69000000000005</ele>
   </trkpt>
   <trkpt lat="-37.900110000000005" lon="145.35685">
    <ele>266.83</ele>
   </trkpt>
   <trkpt lat="-37.89996" lon="145.35677">
    <ele>267.78000000000003</ele>
   </trkpt>
   <trkpt lat="-37.89985" lon="145.35665">
    <ele>268.31000000000006</ele>
   </trkpt>
   <trkpt lat="-37.89974" lon="145.35645000000002">
    <ele>268.83</ele>
   </trkpt>
   <trkpt lat="-37.899730000000005" lon="145.35632">
    <ele>269.15</ele>
   </trkpt>
   <trkpt lat="-37.89967" lon="145.35628">
    <ele>270.56</ele>
   </trkpt>
   <trkpt lat="-37.89958" lon="145.35626000000002">
    <ele>271.43</ele>
   </trkpt>
   <trkpt lat="-37.89932" lon="145.35603">
    <ele>273.76</ele>
   </trkpt>
   <trkpt lat="-37.89934" lon="145.35593">
    <ele>274.43</ele>
   </trkpt>
   <trkpt lat="-37.899170000000005" lon="145.35578">
    <ele>277.65</ele>
   </trkpt>
   <trkpt lat="-37.899350000000005" lon="145.35548">
    <ele>286.0</ele>
   </trkpt>
   <trkpt lat="-37.89938" lon="145.35517000000002">
    <ele>292.32</ele>
   </trkpt>
   <trkpt lat="-37.89934" lon="145.35507">
    <ele>294.66</ele>
   </trkpt>
   <trkpt lat="-37.899330000000006" lon="145.35488">
    <ele>298.56000000000006</ele>
   </trkpt>
   <trkpt lat="-37.89922" lon="145.35443">
    <ele>302.4</ele>
   </trkpt>
   <trkpt lat="-37.89914" lon="145.35412000000002">
    <ele>309.49</ele>
   </trkpt>
   <trkpt lat="-37.89911" lon="145.35392000000002">
    <ele>313.21000000000004</ele>
   </trkpt>
   <trkpt lat="-37.89907" lon="145.35374000000002">
    <ele>316.44</ele>
   </trkpt>
   <trkpt lat="-37.89898" lon="145.35357000000002">
    <ele>319.06</ele>
   </trkpt>
   <trkpt lat="-37.89878" lon="145.3529">
    <ele>328.86</ele>
   </trkpt>
   <trkpt lat="-37.89878" lon="145.35268000000002">
    <ele>329.89</ele>
   </trkpt>
   <trkpt lat="-37.89873" lon="145.35248">
    <ele>331.29</ele>
   </trkpt>
   <trkpt lat="-37.89869" lon="145.35214000000002">
    <ele>334.74</ele>
   </trkpt>
   <trkpt lat="-37.89862" lon="145.35191">
    <ele>335.21</ele>
   </trkpt>
   <trkpt lat="-37.89844" lon="145.35168000000002">
    <ele>336.28000000000003</ele>
   </trkpt>
   <trkpt lat="-37.89819" lon="145.35154">
    <ele>334.65</ele>
   </trkpt>
   <trkpt lat="-37.89797" lon="145.35148">
    <ele>331.04</ele>
   </trkpt>
   <trkpt lat="-37.89743" lon="145.3514">
    <ele>325.35</ele>
   </trkpt>
   <trkpt lat="-37.89732" lon="145.35127">
    <ele>325.16</ele>
   </trkpt>
   <trkpt lat="-37.89719" lon="145.35119">
    <ele>324.75000000000006</ele>
   </trkpt>
   <trkpt lat="-37.89701" lon="145.35114000000002">
    <ele>324.03000000000003</ele>
   </trkpt>
   <trkpt lat="-37.89656" lon="145.3511">
    <ele>322.74</ele>
   </trkpt>
   <trkpt lat="-37.89622" lon="145.35093">
    <ele>322.28000000000003</ele>
   </trkpt>
   <trkpt lat="-37.89596" lon="145.35088000000002">
    <ele>322.31000000000006</ele>
   </trkpt>
   <trkpt lat="-37.89578" lon="145.35067">
    <ele>322.86</ele>
   </trkpt>
   <trkpt lat="-37.89556" lon="145.35034000000002">
    <ele>323.1</ele>
   </trkpt>
   <trkpt lat="-37.89546" lon="145.34998000000002">
    <ele>321.54</ele>
   </trkpt>
   <trkpt lat="-37.895410000000005" lon="145.34991000000002">
    <ele>321.46000000000004</ele>
   </trkpt>
   <trkpt lat="-37.89528" lon="145.34959">
    <ele>321.62</ele>
   </trkpt>
   <trkpt lat="-37.89526" lon="145.34951">
    <ele>321.94</ele>
   </trkpt>
   <trkpt lat="-37.895050000000005" lon="145.34922">
    <ele>323.05</ele>
   </trkpt>
   <trkpt lat="-37.89466" lon="145.34858">
    <ele>330.40000000000003</ele>
   </trkpt>
   <trkpt lat="-37.89419" lon="145.34762">
    <ele>343.59</ele>
   </trkpt>
   <trkpt lat="-37.894090000000006" lon="145.34743">
    <ele>345.21000000000004</ele>
   </trkpt>
   <trkpt lat="-37.89399" lon="145.34735">
    <ele>345.7</ele>
   </trkpt>
   <trkpt lat="-37.89392" lon="145.34734">
    <ele>345.76</ele>
   </trkpt>
   <trkpt lat="-37.89367" lon="145.34722000000002">
    <ele>346.17</ele>
   </trkpt>
   <trkpt lat="-37.89345" lon="145.34701">
    <ele>347.14</ele>
   </trkpt>
   <trkpt lat="-37.89316" lon="145.34688">
    <ele>349.79</ele>
   </trkpt>
   <trkpt lat="-37.89276" lon="145.34665">
    <ele>355.12000000000006</ele>
   </trkpt>
   <trkpt lat="-37.89235" lon="145.34657">
    <ele>362.13</ele>
   </trkpt>
   <trkpt lat="-37.89208" lon="145.34649000000002">
    <ele>366.28000000000003</ele>
   </trkpt>
   <trkpt lat="-37.891870000000004" lon="145.34645">
    <ele>371.41</ele>
   </trkpt>
   <trkpt lat="-37.89166" lon="145.34634">
    <ele>371.41</ele>
   </trkpt>
   <trkpt lat="-37.8915" lon="145.3462">
    <ele>379.54</ele>
   </trkpt>
   <trkpt lat="-37.89141" lon="145.34617">
    <ele>381.22</ele>
   </trkpt>
   <trkpt lat="-37.89099" lon="145.34611">
    <ele>387.78000000000003</ele>
   </trkpt>
   <trkpt lat="-37.89072" lon="145.34623000000002">
    <ele>396.77</ele>
   </trkpt>
   <trkpt lat="-37.89036" lon="145.34618">
    <ele>407.01000000000005</ele>
   </trkpt>
   <trkpt lat="-37.89016" lon="145.34611">
    <ele>410.64000000000004</ele>
   </trkpt>
   <trkpt lat="-37.89" lon="145.34609">
    <ele>414.51000000000005</ele>
   </trkpt>
   <trkpt lat="-37.88991" lon="145.34611">
    <ele>414.51000000000005</ele>
   </trkpt>
   <trkpt lat="-37.88973" lon="145.3462">
    <ele>426.42</ele>
   </trkpt>
   <trkpt lat="-37.88935" lon="145.34658000000002">
    <ele>437.99</ele>
   </trkpt>
   <trkpt lat="-37.88897" lon="145.34685000000002">
    <ele>450.97</ele>
   </trkpt>
   <trkpt lat="-37.88879" lon="145.34693000000001">
    <ele>456.17</ele>
   </trkpt>
   <trkpt lat="-37.888180000000006" lon="145.34709">
    <ele>471.28000000000003</ele>
   </trkpt>
   <trkpt lat="-37.88796" lon="145.34717">
    <ele>472.82</ele>
   </trkpt>
   <trkpt lat="-37.88781" lon="145.34726">
    <ele>477.89000000000004</ele>
   </trkpt>
   <trkpt lat="-37.88749" lon="145.34755">
    <ele>484.71000000000004</ele>
   </trkpt>
   <trkpt lat="-37.88705" lon="145.34804000000003">
    <ele>491.27000000000004</ele>
   </trkpt>
   <trkpt lat="-37.8868" lon="145.34823">
    <ele>493.19</ele>
   </trkpt>
   <trkpt lat="-37.88669" lon="145.34829000000002">
    <ele>493.59000000000003</ele>
   </trkpt>
   <trkpt lat="-37.88664" lon="145.34828000000002">
    <ele>493.61</ele>
   </trkpt>
   <trkpt lat="-37.88658" lon="145.34825">
    <ele>493.63</ele>
   </trkpt>
   <trkpt lat="-37.88606" lon="145.3478">
    <ele>490.95000000000005</ele>
   </trkpt>
   <trkpt lat="-37.88555" lon="145.34747000000002">
    <ele>489.54</ele>
   </trkpt>
   <trkpt lat="-37.88517" lon="145.34727">
    <ele>490.3500000000001</ele>
   </trkpt>
   <trkpt lat="-37.88492" lon="145.34708">
    <ele>491.39000000000004</ele>
   </trkpt>
   <trkpt lat="-37.88461" lon="145.34673">
    <ele>493.65000000000003</ele>
   </trkpt>
   <trkpt lat="-37.88454" lon="145.34662">
    <ele>493.90000000000003</ele>
   </trkpt>
   <trkpt lat="-37.88447" lon="145.34646">
    <ele>495.21000000000004</ele>
   </trkpt>
   <trkpt lat="-37.8842" lon="145.34558">
    <ele>503.97</ele>
   </trkpt>
   <trkpt lat="-37.88411" lon="145.34534000000002">
    <ele>506.69000000000005</ele>
   </trkpt>
   <trkpt lat="-37.88396" lon="145.34514000000001">
    <ele>508.41</ele>
   </trkpt>
   <trkpt lat="-37.88389" lon="145.34507000000002">
    <ele>509.07</ele>
   </trkpt>
   <trkpt lat="-37.88349" lon="145.34484">
    <ele>511.37</ele>
   </trkpt>
   <trkpt lat="-37.883" lon="145.34471000000002">
    <ele>514.72</ele>
   </trkpt>
   <trkpt lat="-37.88275" lon="145.34470000000002">
    <ele>516.71</ele>
   </trkpt>
   <trkpt lat="-37.88228" lon="145.34477">
    <ele>520.15</ele>
   </trkpt>
   <trkpt lat="-37.881665000197465" lon="145.3446049986443">
    <ele>524.4100000000001</ele>
   </trkpt>
   <trkpt lat="-37.88105" lon="145.34444000000002">
    <ele>525.7400000000001</ele>
   </trkpt>
   <trkpt lat="-37.8803450007479" lon="145.3440799966561">
    <ele>521.22</ele>
   </trkpt>
   <trkpt lat="-37.87964" lon="145.34372000000002">
    <ele>508.41</ele>
   </trkpt>
   <trkpt lat="-37.87955" lon="145.34361">
    <ele>505.6400000000001</ele>
   </trkpt>
   <trkpt lat="-37.87937" lon="145.34337000000002">
    <ele>501.92999999999995</ele>
   </trkpt>
   <trkpt lat="-37.87917" lon="145.34300000000002">
    <ele>499.21000000000004</ele>
   </trkpt>
   <trkpt lat="-37.87901" lon="145.34286">
    <ele>498.25</ele>
   </trkpt>
   <trkpt lat="-37.87892" lon="145.34284000000002">
    <ele>495.77000000000004</ele>
   </trkpt>
   <trkpt lat="-37.87877" lon="145.34292000000002">
    <ele>494.48</ele>
   </trkpt>
   <trkpt lat="-37.87865" lon="145.34273000000002">
    <ele>493.49</ele>
   </trkpt>
   <trkpt lat="-37.87865" lon="145.34264000000002">
    <ele>493.49</ele>
   </trkpt>
   <trkpt lat="-37.878690000000006" lon="145.34248000000002">
    <ele>495.37</ele>
   </trkpt>
   <trkpt lat="-37.87874" lon="145.34236">
    <ele>498.38000000000005</ele>
   </trkpt>
   <trkpt lat="-37.8787" lon="145.34225">
    <ele>498.38000000000005</ele>
   </trkpt>
   <trkpt lat="-37.87856" lon="145.34212000000002">
    <ele>504.75</ele>
   </trkpt>
   <trkpt lat="-37.87847" lon="145.34209">
    <ele>506.53999999999996</ele>
   </trkpt>
   <trkpt lat="-37.87832" lon="145.34217">
    <ele>508.30000000000007</ele>
   </trkpt>
   <trkpt lat="-37.87807" lon="145.34255000000002">
    <ele>507.19</ele>
   </trkpt>
   <trkpt lat="-37.87791" lon="145.34269">
    <ele>506.94000000000005</ele>
   </trkpt>
   <trkpt lat="-37.87778" lon="145.34271">
    <ele>507.39</ele>
   </trkpt>
   <trkpt lat="-37.87722" lon="145.34272">
    <ele>509.62000000000006</ele>
   </trkpt>
   <trkpt lat="-37.87688" lon="145.3428">
    <ele>509.28000000000003</ele>
   </trkpt>
   <trkpt lat="-37.8767" lon="145.34279">
    <ele>509.6400000000001</ele>
   </trkpt>
   <trkpt lat="-37.87644" lon="145.34274000000002">
    <ele>510.89000000000004</ele>
   </trkpt>
   <trkpt lat="-37.876290000000004" lon="145.34269">
    <ele>512.1300000000001</ele>
   </trkpt>
   <trkpt lat="-37.8761" lon="145.34269">
    <ele>512.3000000000001</ele>
   </trkpt>
   <trkpt lat="-37.875980000000006" lon="145.34273000000002">
    <ele>512.35</ele>
   </trkpt>
   <trkpt lat="-37.8757" lon="145.34294">
    <ele>512.69</ele>
   </trkpt>
   <trkpt lat="-37.875510000000006" lon="145.34301000000002">
    <ele>504.53999999999996</ele>
   </trkpt>
   <trkpt lat="-37.875370000000004" lon="145.34295">
    <ele>502.86000000000007</ele>
   </trkpt>
   <trkpt lat="-37.875350000000005" lon="145.3428">
    <ele>502.44</ele>
   </trkpt>
   <trkpt lat="-37.8751" lon="145.34298">
    <ele>502.07</ele>
   </trkpt>
   <trkpt lat="-37.87505" lon="145.34289">
    <ele>502.27</ele>
   </trkpt>
   <trkpt lat="-37.8744" lon="145.34218">
    <ele>496.36</ele>
   </trkpt>
   <trkpt lat="-37.87406" lon="145.34185000000002">
    <ele>495.56000000000006</ele>
   </trkpt>
   <trkpt lat="-37.87375" lon="145.34154">
    <ele>492.2900000000001</ele>
   </trkpt>
   <trkpt lat="-37.87306" lon="145.34097">
    <ele>486.67</ele>
   </trkpt>
   <trkpt lat="-37.87263" lon="145.34077000000002">
    <ele>483.27000000000004</ele>
   </trkpt>
   <trkpt lat="-37.87241" lon="145.34055">
    <ele>481.51000000000005</ele>
   </trkpt>
   <trkpt lat="-37.87214" lon="145.34019">
    <ele>479.11</ele>
   </trkpt>
   <trkpt lat="-37.87185" lon="145.33992">
    <ele>476.71000000000004</ele>
   </trkpt>
   <trkpt lat="-37.87153" lon="145.33975">
    <ele>473.24000000000007</ele>
   </trkpt>
   <trkpt lat="-37.87131" lon="145.33968000000002">
    <ele>472.04</ele>
   </trkpt>
   <trkpt lat="-37.87109" lon="145.33964">
    <ele>469.31000000000006</ele>
   </trkpt>
   <trkpt lat="-37.87082" lon="145.33948">
    <ele>466.32</ele>
   </trkpt>
   <trkpt lat="-37.87059" lon="145.33917000000002">
    <ele>464.83</ele>
   </trkpt>
   <trkpt lat="-37.87037" lon="145.33894">
    <ele>463.78000000000003</ele>
   </trkpt>
   <trkpt lat="-37.87019" lon="145.33884">
    <ele>462.61</ele>
   </trkpt>
   <trkpt lat="-37.8701" lon="145.33884">
    <ele>462.45000000000005</ele>
   </trkpt>
   <trkpt lat="-37.86954" lon="145.33893">
    <ele>460.65000000000003</ele>
   </trkpt>
   <trkpt lat="-37.86941" lon="145.33893">
    <ele>458.46000000000004</ele>
   </trkpt>
   <trkpt lat="-37.86918" lon="145.33896000000001">
    <ele>458.46000000000004</ele>
   </trkpt>
   <trkpt lat="-37.86891" lon="145.33893">
    <ele>454.63000000000005</ele>
   </trkpt>
   <trkpt lat="-37.86849" lon="145.33881000000002">
    <ele>451.81000000000006</ele>
   </trkpt>
   <trkpt lat="-37.86822" lon="145.33868">
    <ele>449.86</ele>
   </trkpt>
   <trkpt lat="-37.86786" lon="145.33862000000002">
    <ele>447.29</ele>
   </trkpt>
   <trkpt lat="-37.86771" lon="145.33857">
    <ele>444.98</ele>
   </trkpt>
   <trkpt lat="-37.86755" lon="145.33847">
    <ele>444.00000000000006</ele>
   </trkpt>
   <trkpt lat="-37.86739" lon="145.33831">
    <ele>442.93000000000006</ele>
   </trkpt>
   <trkpt lat="-37.8673" lon="145.33818000000002">
    <ele>441.36</ele>
   </trkpt>
   <trkpt lat="-37.86717" lon="145.33795">
    <ele>439.95000000000005</ele>
   </trkpt>
   <trkpt lat="-37.86688" lon="145.33713">
    <ele>435.54</ele>
   </trkpt>
   <trkpt lat="-37.86663" lon="145.33656000000002">
    <ele>431.85</ele>
   </trkpt>
   <trkpt lat="-37.86656" lon="145.33645">
    <ele>430.77000000000004</ele>
   </trkpt>
   <trkpt lat="-37.86652" lon="145.33642">
    <ele>430.75</ele>
   </trkpt>
   <trkpt lat="-37.86641" lon="145.33626">
    <ele>430.19</ele>
   </trkpt>
   <trkpt lat="-37.86621" lon="145.33622000000003">
    <ele>428.89000000000004</ele>
   </trkpt>
   <trkpt lat="-37.86598" lon="145.33559000000002">
    <ele>421.93</ele>
   </trkpt>
   <trkpt lat="-37.86587" lon="145.33555">
    <ele>421.93</ele>
   </trkpt>
   <trkpt lat="-37.86585" lon="145.3356">
    <ele>421.05</ele>
   </trkpt>
   <trkpt lat="-37.86585" lon="145.33585000000002">
    <ele>420.01000000000005</ele>
   </trkpt>
   <trkpt lat="-37.86583" lon="145.33618">
    <ele>418.87</ele>
   </trkpt>
   <trkpt lat="-37.86562" lon="145.33726000000001">
    <ele>417.69000000000005</ele>
   </trkpt>
   <trkpt lat="-37.865465001196924" lon="145.3377950011717">
    <ele>417.53000000000003</ele>
   </trkpt>
   <trkpt lat="-37.86531" lon="145.33833">
    <ele>417.55</ele>
   </trkpt>
   <trkpt lat="-37.86506" lon="145.33889000000002">
    <ele>420.36</ele>
   </trkpt>
   <trkpt lat="-37.86495" lon="145.33935000000002">
    <ele>421.92</ele>
   </trkpt>
   <trkpt lat="-37.86486" lon="145.33964">
    <ele>422.33000000000004</ele>
   </trkpt>
   <trkpt lat="-37.86475" lon="145.33980000000003">
    <ele>424.15000000000003</ele>
   </trkpt>
   <trkpt lat="-37.86464" lon="145.33988000000002">
    <ele>426.51000000000005</ele>
   </trkpt>
   <trkpt lat="-37.8645" lon="145.33989000000003">
    <ele>428.36</ele>
   </trkpt>
   <trkpt lat="-37.8641" lon="145.33975">
    <ele>431.00000000000006</ele>
   </trkpt>
   <trkpt lat="-37.863780000000006" lon="145.33974">
    <ele>433.48</ele>
   </trkpt>
   <trkpt lat="-37.86354" lon="145.33979000000002">
    <ele>435.49</ele>
   </trkpt>
   <trkpt lat="-37.86318" lon="145.33996000000002">
    <ele>438.51</ele>
   </trkpt>
   <trkpt lat="-37.862860000000005" lon="145.34025000000003">
    <ele>439.69</ele>
   </trkpt>
   <trkpt lat="-37.863310000000006" lon="145.34074">
    <ele>455.38000000000005</ele>
   </trkpt>
   <trkpt lat="-37.8639" lon="145.34133">
    <ele>473.80000000000007</ele>
   </trkpt>
   <trkpt lat="-37.86433" lon="145.34163">
    <ele>480.90000000000003</ele>
   </trkpt>
   <trkpt lat="-37.86489" lon="145.34179">
    <ele>482.94</ele>
   </trkpt>
   <trkpt lat="-37.86515" lon="145.3418">
    <ele>481.83000000000004</ele>
   </trkpt>
   <trkpt lat="-37.865610000000004" lon="145.34172">
    <ele>482.12000000000006</ele>
   </trkpt>
   <trkpt lat="-37.86565" lon="145.34188">
    <ele>481.62000000000006</ele>
   </trkpt>
   <trkpt lat="-37.86587" lon="145.34215">
    <ele>480.27000000000004</ele>
   </trkpt>
   <trkpt lat="-37.86634" lon="145.34241">
    <ele>479.14000000000004</ele>
   </trkpt>
   <trkpt lat="-37.86663" lon="145.34261">
    <ele>477.78000000000003</ele>
   </trkpt>
   <trkpt lat="-37.86717" lon="145.34283000000002">
    <ele>479.23</ele>
   </trkpt>
   <trkpt lat="-37.86741" lon="145.34287">
    <ele>481.94</ele>
   </trkpt>
   <trkpt lat="-37.86766" lon="145.34284000000002">
    <ele>485.76</ele>
   </trkpt>
   <trkpt lat="-37.86838" lon="145.34305">
    <ele>490.23</ele>
   </trkpt>
   <trkpt lat="-37.86891" lon="145.34316">
    <ele>493.45000000000005</ele>
   </trkpt>
   <trkpt lat="-37.86914" lon="145.34323">
    <ele>494.75</ele>
   </trkpt>
   <trkpt lat="-37.86979" lon="145.34337000000002">
    <ele>497.71000000000004</ele>
   </trkpt>
   <trkpt lat="-37.86985" lon="145.34342">
    <ele>497.87</ele>
   </trkpt>
   <trkpt lat="-37.87001" lon="145.34359">
    <ele>496.91</ele>
   </trkpt>
   <trkpt lat="-37.87026" lon="145.34375">
    <ele>493.71000000000004</ele>
   </trkpt>
   <trkpt lat="-37.87037" lon="145.34387">
    <ele>494.11</ele>
   </trkpt>
   <trkpt lat="-37.87066" lon="145.34400000000002">
    <ele>500.9100000000001</ele>
   </trkpt>
   <trkpt lat="-37.87088" lon="145.34415">
    <ele>505.61</ele>
   </trkpt>
   <trkpt lat="-37.87109" lon="145.34422">
    <ele>508.61</ele>
   </trkpt>
   <trkpt lat="-37.87071" lon="145.34472000000002">
    <ele>507.94000000000005</ele>
   </trkpt>
   <trkpt lat="-37.87024" lon="145.34483">
    <ele>505.88</ele>
   </trkpt>
   <trkpt lat="-37.86983" lon="145.34473">
    <ele>505.06000000000006</ele>
   </trkpt>
   <trkpt lat="-37.86968" lon="145.34463000000002">
    <ele>503.28000000000003</ele>
   </trkpt>
   <trkpt lat="-37.86907" lon="145.34435000000002">
    <ele>495.27000000000004</ele>
   </trkpt>
   <trkpt lat="-37.86889" lon="145.34432">
    <ele>493.89000000000004</ele>
   </trkpt>
   <trkpt lat="-37.86862" lon="145.34431">
    <ele>492.16</ele>
   </trkpt>
   <trkpt lat="-37.86844" lon="145.34437">
    <ele>491.38000000000005</ele>
   </trkpt>
   <trkpt lat="-37.86792500002919" lon="145.3444400004881">
    <ele>488.88000000000005</ele>
   </trkpt>
   <trkpt lat="-37.86741" lon="145.34451">
    <ele>484.1</ele>
   </trkpt>
   <trkpt lat="-37.86697" lon="145.34459">
    <ele>479.56000000000006</ele>
   </trkpt>
   <trkpt lat="-37.86621" lon="145.34518">
    <ele>471.58000000000004</ele>
   </trkpt>
   <trkpt lat="-37.865990000000004" lon="145.34539">
    <ele>476.79</ele>
   </trkpt>
   <trkpt lat="-37.86594" lon="145.34547">
    <ele>476.79</ele>
   </trkpt>
   <trkpt lat="-37.86589" lon="145.34556">
    <ele>476.79</ele>
   </trkpt>
   <trkpt lat="-37.866" lon="145.34601">
    <ele>491.7</ele>
   </trkpt>
   <trkpt lat="-37.86598" lon="145.34626">
    <ele>497.21000000000004</ele>
   </trkpt>
   <trkpt lat="-37.86589" lon="145.34647">
    <ele>499.76000000000005</ele>
   </trkpt>
   <trkpt lat="-37.8659" lon="145.34657">
    <ele>501.99</ele>
   </trkpt>
   <trkpt lat="-37.865370000000006" lon="145.34673">
    <ele>506.55000000000007</ele>
   </trkpt>
   <trkpt lat="-37.86502" lon="145.34686000000002">
    <ele>509.38000000000005</ele>
   </trkpt>
   <trkpt lat="-37.86482" lon="145.34718">
    <ele>511.4000000000001</ele>
   </trkpt>
   <trkpt lat="-37.864810000000006" lon="145.34757000000002">
    <ele>517.34</ele>
   </trkpt>
   <trkpt lat="-37.86484" lon="145.34797">
    <ele>521.05</ele>
   </trkpt>
   <trkpt lat="-37.86491" lon="145.34814">
    <ele>524.19</ele>
   </trkpt>
   <trkpt lat="-37.86497" lon="145.34822">
    <ele>525.5600000000001</ele>
   </trkpt>
   <trkpt lat="-37.86496" lon="145.34829000000002">
    <ele>525.72</ele>
   </trkpt>
   <trkpt lat="-37.86491" lon="145.34857000000002">
    <ele>523.88</ele>
   </trkpt>
   <trkpt lat="-37.864695001511485" lon="145.3491700017808">
    <ele>519.11</ele>
   </trkpt>
   <trkpt lat="-37.86448" lon="145.34977">
    <ele>512.63</ele>
   </trkpt>
   <trkpt lat="-37.86417" lon="145.35060000000001">
    <ele>501.55000000000007</ele>
   </trkpt>
   <trkpt lat="-37.8641" lon="145.35074">
    <ele>499.38000000000005</ele>
   </trkpt>
   <trkpt lat="-37.8641" lon="145.35089000000002">
    <ele>498.21000000000004</ele>
   </trkpt>
   <trkpt lat="-37.864050000000006" lon="145.35102">
    <ele>496.6</ele>
   </trkpt>
   <trkpt lat="-37.86379" lon="145.35118">
    <ele>488.16</ele>
   </trkpt>
   <trkpt lat="-37.8637" lon="145.35125000000002">
    <ele>486.01000000000005</ele>
   </trkpt>
   <trkpt lat="-37.86359" lon="145.35126000000002">
    <ele>484.07000000000005</ele>
   </trkpt>
   <trkpt lat="-37.8635" lon="145.35133000000002">
    <ele>481.71000000000004</ele>
   </trkpt>
   <trkpt lat="-37.863490000000006" lon="145.3514">
    <ele>481.11</ele>
   </trkpt>
   <trkpt lat="-37.863420000000005" lon="145.35147">
    <ele>480.11</ele>
   </trkpt>
   <trkpt lat="-37.8633" lon="145.35153000000003">
    <ele>479.7</ele>
   </trkpt>
   <trkpt lat="-37.863110000000006" lon="145.35169000000002">
    <ele>478.89000000000004</ele>
   </trkpt>
   <trkpt lat="-37.86309" lon="145.35176">
    <ele>479.05</ele>
   </trkpt>
   <trkpt lat="-37.86312" lon="145.35186000000002">
    <ele>479.47</ele>
   </trkpt>
   <trkpt lat="-37.863385001367774" lon="145.35243999779462">
    <ele>482.94</ele>
   </trkpt>
   <trkpt lat="-37.86365" lon="145.35302000000001">
    <ele>479.72</ele>
   </trkpt>
   <trkpt lat="-37.8629" lon="145.35354">
    <ele>480.30000000000007</ele>
   </trkpt>
  </trkseg>
 </trk>
</gpx>
