<?xml version="1.0" encoding="UTF-8"?>
<gpx creator="StravaGPX" version="1.1" xmlns="http://www.topografix.com/GPX/1/1" xmlns:xsi="http://www.w3.org/2001/XMLSchema-instance" xsi:schemaLocation="http://www.topografix.com/GPX/1/1 http://www.topografix.com/GPX/1/1/gpx.xsd">
 <metadata>
  <name>Sunday 19 Apr 2026 - 14k</name>
  <author>
   <name>Majid Nazem 🇦🇺</name>
   <link href="https://www.strava.com/athletes/5612969"/>
  </author>
  <copyright author="OpenStreetMap contributors">
   <year>2020</year>
   <license>https://www.openstreetmap.org/copyright</license>
  </copyright>
  <link href="https://www.strava.com/routes/3479381951911754890"/>
 </metadata>
 <trk>
  <name>Sunday 19 Apr 2026 - 14k</name>
  <link href="https://www.strava.com/routes/3479381951911754890"/>
  <type>running</type>
  <trkseg>
   <trkpt lat="-37.89094" lon="145.31733">
    <ele>178.91</ele>
   </trkpt>
   <trkpt lat="-37.89076" lon="145.31708">
    <ele>180.6</ele>
   </trkpt>
   <trkpt lat="-37.890730000000005" lon="145.31686000000002">
    <ele>181.8</ele>
   </trkpt>
   <trkpt lat="-37.8909" lon="145.31665">
    <ele>181.32</ele>
   </trkpt>
   <trkpt lat="-37.89099" lon="145.31640000000002">
    <ele>181.58</ele>
   </trkpt>
   <trkpt lat="-37.89099" lon="145.31613000000002">
    <ele>181.70000000000002</ele>
   </trkpt>
   <trkpt lat="-37.89108" lon="145.31604000000002">
    <ele>180.83</ele>
   </trkpt>
   <trkpt lat="-37.89148" lon="145.31548">
    <ele>175.02</ele>
   </trkpt>
   <trkpt lat="-37.89159" lon="145.3153">
    <ele>173.86</ele>
   </trkpt>
   <trkpt lat="-37.89166" lon="145.31470000000002">
    <ele>177.44</ele>
   </trkpt>
   <trkpt lat="-37.8917" lon="145.3142">
    <ele>181.87</ele>
   </trkpt>
   <trkpt lat="-37.89168" lon="145.31405">
    <ele>181.87</ele>
   </trkpt>
   <trkpt lat="-37.89159" lon="145.31376">
    <ele>184.35000000000002</ele>
   </trkpt>
   <trkpt lat="-37.8915" lon="145.31358">
    <ele>184.35000000000002</ele>
   </trkpt>
   <trkpt lat="-37.89132" lon="145.3134">
    <ele>187.42</ele>
   </trkpt>
   <trkpt lat="-37.89092" lon="145.31309000000002">
    <ele>191.59</ele>
   </trkpt>
   <trkpt lat="-37.89074" lon="145.31299">
    <ele>193.23000000000002</ele>
   </trkpt>
   <trkpt lat="-37.890710000000006" lon="145.31292000000002">
    <ele>193.66000000000003</ele>
   </trkpt>
   <trkpt lat="-37.890710000000006" lon="145.31282000000002">
    <ele>193.77</ele>
   </trkpt>
   <trkpt lat="-37.89072" lon="145.31278">
    <ele>193.77</ele>
   </trkpt>
   <trkpt lat="-37.89101" lon="145.31248000000002">
    <ele>194.20000000000002</ele>
   </trkpt>
   <trkpt lat="-37.89105" lon="145.31242">
    <ele>194.65</ele>
   </trkpt>
   <trkpt lat="-37.891180000000006" lon="145.31198">
    <ele>197.01000000000002</ele>
   </trkpt>
   <trkpt lat="-37.89121" lon="145.31161">
    <ele>200.13000000000002</ele>
   </trkpt>
   <trkpt lat="-37.89119" lon="145.31122000000002">
    <ele>202.39000000000001</ele>
   </trkpt>
   <trkpt lat="-37.89092" lon="145.31052000000003">
    <ele>212.37000000000003</ele>
   </trkpt>
   <trkpt lat="-37.89034" lon="145.30995000000001">
    <ele>225.14000000000001</ele>
   </trkpt>
   <trkpt lat="-37.890240000000006" lon="145.30993">
    <ele>227.69000000000003</ele>
   </trkpt>
   <trkpt lat="-37.89023" lon="145.30999">
    <ele>227.69000000000003</ele>
   </trkpt>
   <trkpt lat="-37.89027" lon="145.31046">
    <ele>233.29000000000002</ele>
   </trkpt>
   <trkpt lat="-37.89025" lon="145.31066">
    <ele>236.83</ele>
   </trkpt>
   <trkpt lat="-37.89016" lon="145.31092">
    <ele>238.54000000000002</ele>
   </trkpt>
   <trkpt lat="-37.89002" lon="145.31111">
    <ele>241.18000000000004</ele>
   </trkpt>
   <trkpt lat="-37.88993" lon="145.31119">
    <ele>242.84000000000003</ele>
   </trkpt>
   <trkpt lat="-37.889680000000006" lon="145.31134">
    <ele>245.93</ele>
   </trkpt>
   <trkpt lat="-37.88958" lon="145.31138">
    <ele>247.38000000000002</ele>
   </trkpt>
   <trkpt lat="-37.88953" lon="145.31136">
    <ele>247.38000000000002</ele>
   </trkpt>
   <trkpt lat="-37.88951" lon="145.31130000000002">
    <ele>250.38000000000005</ele>
   </trkpt>
   <trkpt lat="-37.88958" lon="145.31101">
    <ele>253.24</ele>
   </trkpt>
   <trkpt lat="-37.88958" lon="145.3109">
    <ele>255.45000000000002</ele>
   </trkpt>
   <trkpt lat="-37.88951" lon="145.31074">
    <ele>255.45000000000002</ele>
   </trkpt>
   <trkpt lat="-37.88931" lon="145.31038">
    <ele>262.21</ele>
   </trkpt>
   <trkpt lat="-37.889210000000006" lon="145.31025000000002">
    <ele>264.90000000000003</ele>
   </trkpt>
   <trkpt lat="-37.88902" lon="145.31012">
    <ele>267.85</ele>
   </trkpt>
   <trkpt lat="-37.88895" lon="145.31009">
    <ele>271.8</ele>
   </trkpt>
   <trkpt lat="-37.88888" lon="145.31014000000002">
    <ele>271.8</ele>
   </trkpt>
   <trkpt lat="-37.88868" lon="145.31060000000002">
    <ele>279.07000000000005</ele>
   </trkpt>
   <trkpt lat="-37.88859" lon="145.31071">
    <ele>280.62</ele>
   </trkpt>
   <trkpt lat="-37.888450000000006" lon="145.31074">
    <ele>283.38</ele>
   </trkpt>
   <trkpt lat="-37.88794" lon="145.31068000000002">
    <ele>297.8</ele>
   </trkpt>
   <trkpt lat="-37.88779" lon="145.31063">
    <ele>297.8</ele>
   </trkpt>
   <trkpt lat="-37.887330000000006" lon="145.31040000000002">
    <ele>311.02000000000004</ele>
   </trkpt>
   <trkpt lat="-37.88705" lon="145.31019">
    <ele>315.14000000000004</ele>
   </trkpt>
   <trkpt lat="-37.88696" lon="145.31015000000002">
    <ele>315.90000000000003</ele>
   </trkpt>
   <trkpt lat="-37.88687" lon="145.31014000000002">
    <ele>315.90000000000003</ele>
   </trkpt>
   <trkpt lat="-37.88673" lon="145.31015000000002">
    <ele>317.32000000000005</ele>
   </trkpt>
   <trkpt lat="-37.8866" lon="145.3102">
    <ele>318.8</ele>
   </trkpt>
   <trkpt lat="-37.88629" lon="145.31038">
    <ele>324.81000000000006</ele>
   </trkpt>
   <trkpt lat="-37.8862" lon="145.31044">
    <ele>324.81000000000006</ele>
   </trkpt>
   <trkpt lat="-37.88611" lon="145.31055">
    <ele>329.15000000000003</ele>
   </trkpt>
   <trkpt lat="-37.88579500178934" lon="145.31120500285434">
    <ele>338.67</ele>
   </trkpt>
   <trkpt lat="-37.88548" lon="145.31186000000002">
    <ele>352.95000000000005</ele>
   </trkpt>
   <trkpt lat="-37.88541" lon="145.31207">
    <ele>355.94000000000005</ele>
   </trkpt>
   <trkpt lat="-37.8853" lon="145.31255000000002">
    <ele>362.23</ele>
   </trkpt>
   <trkpt lat="-37.885270000000006" lon="145.31266000000002">
    <ele>365.47</ele>
   </trkpt>
   <trkpt lat="-37.88519" lon="145.31273000000002">
    <ele>367.25</ele>
   </trkpt>
   <trkpt lat="-37.88501" lon="145.31279">
    <ele>371.24</ele>
   </trkpt>
   <trkpt lat="-37.88488" lon="145.3128">
    <ele>373.1700000000001</ele>
   </trkpt>
   <trkpt lat="-37.88429" lon="145.31272">
    <ele>385.83</ele>
   </trkpt>
   <trkpt lat="-37.88414" lon="145.31267000000003">
    <ele>388.8</ele>
   </trkpt>
   <trkpt lat="-37.88409" lon="145.31263">
    <ele>389.33</ele>
   </trkpt>
   <trkpt lat="-37.88369" lon="145.31236">
    <ele>395.51000000000005</ele>
   </trkpt>
   <trkpt lat="-37.8834" lon="145.31222000000002">
    <ele>400.70000000000005</ele>
   </trkpt>
   <trkpt lat="-37.88308" lon="145.31215">
    <ele>405.90000000000003</ele>
   </trkpt>
   <trkpt lat="-37.882740000000005" lon="145.31214">
    <ele>408.90000000000003</ele>
   </trkpt>
   <trkpt lat="-37.8825" lon="145.31224">
    <ele>409.21000000000004</ele>
   </trkpt>
   <trkpt lat="-37.88199" lon="145.31279">
    <ele>408.05</ele>
   </trkpt>
   <trkpt lat="-37.88152" lon="145.31319000000002">
    <ele>411.44</ele>
   </trkpt>
   <trkpt lat="-37.88118" lon="145.31343">
    <ele>414.44</ele>
   </trkpt>
   <trkpt lat="-37.88082" lon="145.31362000000001">
    <ele>419.37</ele>
   </trkpt>
   <trkpt lat="-37.88049" lon="145.31388">
    <ele>422.93</ele>
   </trkpt>
   <trkpt lat="-37.880020000222345" lon="145.31414500173315">
    <ele>425.77000000000004</ele>
   </trkpt>
   <trkpt lat="-37.87955" lon="145.31441">
    <ele>427.17</ele>
   </trkpt>
   <trkpt lat="-37.87924" lon="145.31446000000003">
    <ele>427.64</ele>
   </trkpt>
   <trkpt lat="-37.87915" lon="145.31446000000003">
    <ele>427.73</ele>
   </trkpt>
   <trkpt lat="-37.87885" lon="145.31461000000002">
    <ele>429.6</ele>
   </trkpt>
   <trkpt lat="-37.878600000000006" lon="145.31485">
    <ele>432.59000000000003</ele>
   </trkpt>
   <trkpt lat="-37.87829" lon="145.31506000000002">
    <ele>436.81</ele>
   </trkpt>
   <trkpt lat="-37.87791" lon="145.31546">
    <ele>443.21000000000004</ele>
   </trkpt>
   <trkpt lat="-37.87778" lon="145.31557">
    <ele>444.61000000000007</ele>
   </trkpt>
   <trkpt lat="-37.87753" lon="145.31569000000002">
    <ele>447.75</ele>
   </trkpt>
   <trkpt lat="-37.87744" lon="145.31578000000002">
    <ele>449.17</ele>
   </trkpt>
   <trkpt lat="-37.87735" lon="145.31589000000002">
    <ele>449.17</ele>
   </trkpt>
   <trkpt lat="-37.87693" lon="145.31661000000003">
    <ele>457.55</ele>
   </trkpt>
   <trkpt lat="-37.87682" lon="145.31683">
    <ele>460.37000000000006</ele>
   </trkpt>
   <trkpt lat="-37.8767" lon="145.31663">
    <ele>458.85</ele>
   </trkpt>
   <trkpt lat="-37.8765" lon="145.31646">
    <ele>457.19000000000005</ele>
   </trkpt>
   <trkpt lat="-37.87635" lon="145.31637">
    <ele>454.8</ele>
   </trkpt>
   <trkpt lat="-37.87583" lon="145.31617">
    <ele>450.09000000000003</ele>
   </trkpt>
   <trkpt lat="-37.87559" lon="145.31611">
    <ele>447.65000000000003</ele>
   </trkpt>
   <trkpt lat="-37.87503" lon="145.31621">
    <ele>442.73</ele>
   </trkpt>
   <trkpt lat="-37.87478" lon="145.3162">
    <ele>440.06000000000006</ele>
   </trkpt>
   <trkpt lat="-37.87465" lon="145.31616000000002">
    <ele>438.13</ele>
   </trkpt>
   <trkpt lat="-37.87435" lon="145.31603">
    <ele>432.18</ele>
   </trkpt>
   <trkpt lat="-37.87391" lon="145.31571000000002">
    <ele>428.28000000000003</ele>
   </trkpt>
   <trkpt lat="-37.873540000000006" lon="145.31558">
    <ele>426.58</ele>
   </trkpt>
   <trkpt lat="-37.87292" lon="145.31548">
    <ele>419.04</ele>
   </trkpt>
   <trkpt lat="-37.87209" lon="145.31541">
    <ele>413.86000000000007</ele>
   </trkpt>
   <trkpt lat="-37.87164000003769" lon="145.31544000018098">
    <ele>408.25000000000006</ele>
   </trkpt>
   <trkpt lat="-37.871190000000006" lon="145.31547">
    <ele>403.91</ele>
   </trkpt>
   <trkpt lat="-37.871" lon="145.31480000000002">
    <ele>394.89</ele>
   </trkpt>
   <trkpt lat="-37.87064" lon="145.31427000000002">
    <ele>389.41</ele>
   </trkpt>
   <trkpt lat="-37.87041" lon="145.31411">
    <ele>386.52000000000004</ele>
   </trkpt>
   <trkpt lat="-37.870340000000006" lon="145.31408000000002">
    <ele>385.97</ele>
   </trkpt>
   <trkpt lat="-37.87026" lon="145.31409000000002">
    <ele>384.73</ele>
   </trkpt>
   <trkpt lat="-37.87017" lon="145.31414">
    <ele>383.33</ele>
   </trkpt>
   <trkpt lat="-37.86997" lon="145.31447">
    <ele>378.91</ele>
   </trkpt>
   <trkpt lat="-37.86988" lon="145.31455000000003">
    <ele>374.79</ele>
   </trkpt>
   <trkpt lat="-37.86972" lon="145.31458">
    <ele>371.86</ele>
   </trkpt>
   <trkpt lat="-37.869020000000006" lon="145.31414">
    <ele>361.62000000000006</ele>
   </trkpt>
   <trkpt lat="-37.86878" lon="145.31396">
    <ele>358.74</ele>
   </trkpt>
   <trkpt lat="-37.86856" lon="145.31388">
    <ele>356.44000000000005</ele>
   </trkpt>
   <trkpt lat="-37.86833" lon="145.31385">
    <ele>354.68000000000006</ele>
   </trkpt>
   <trkpt lat="-37.86777" lon="145.31386">
    <ele>354.19</ele>
   </trkpt>
   <trkpt lat="-37.86723499999607" lon="145.31378999948856">
    <ele>347.82</ele>
   </trkpt>
   <trkpt lat="-37.8667" lon="145.31372000000002">
    <ele>345.55</ele>
   </trkpt>
   <trkpt lat="-37.86654" lon="145.31367">
    <ele>344.2</ele>
   </trkpt>
   <trkpt lat="-37.86634" lon="145.31354000000002">
    <ele>341.86000000000007</ele>
   </trkpt>
   <trkpt lat="-37.86623" lon="145.31341">
    <ele>339.47</ele>
   </trkpt>
   <trkpt lat="-37.86616" lon="145.31338000000002">
    <ele>338.76</ele>
   </trkpt>
   <trkpt lat="-37.86609" lon="145.31339">
    <ele>338.01000000000005</ele>
   </trkpt>
   <trkpt lat="-37.86603" lon="145.31349">
    <ele>335.65</ele>
   </trkpt>
   <trkpt lat="-37.86603" lon="145.31443000000002">
    <ele>328.93</ele>
   </trkpt>
   <trkpt lat="-37.86605" lon="145.31453000000002">
    <ele>328.39</ele>
   </trkpt>
   <trkpt lat="-37.86603" lon="145.31467">
    <ele>328.39</ele>
   </trkpt>
   <trkpt lat="-37.865990000000004" lon="145.31471000000002">
    <ele>328.27</ele>
   </trkpt>
   <trkpt lat="-37.8658" lon="145.31502">
    <ele>327.96000000000004</ele>
   </trkpt>
   <trkpt lat="-37.865480000000005" lon="145.31546">
    <ele>330.13000000000005</ele>
   </trkpt>
   <trkpt lat="-37.86536" lon="145.31595000000002">
    <ele>328.62</ele>
   </trkpt>
   <trkpt lat="-37.86515" lon="145.31638">
    <ele>325.22</ele>
   </trkpt>
   <trkpt lat="-37.86489" lon="145.31668000000002">
    <ele>321.61</ele>
   </trkpt>
   <trkpt lat="-37.86437" lon="145.31703000000002">
    <ele>315.21000000000004</ele>
   </trkpt>
   <trkpt lat="-37.86392" lon="145.31739000000002">
    <ele>311.27000000000004</ele>
   </trkpt>
   <trkpt lat="-37.86368" lon="145.31749000000002">
    <ele>308.48</ele>
   </trkpt>
   <trkpt lat="-37.86352" lon="145.31761">
    <ele>305.13</ele>
   </trkpt>
   <trkpt lat="-37.86334" lon="145.31764">
    <ele>303.39000000000004</ele>
   </trkpt>
   <trkpt lat="-37.86296" lon="145.31778">
    <ele>299.29</ele>
   </trkpt>
   <trkpt lat="-37.86271" lon="145.31802000000002">
    <ele>296.86</ele>
   </trkpt>
   <trkpt lat="-37.86227" lon="145.31859">
    <ele>291.39000000000004</ele>
   </trkpt>
   <trkpt lat="-37.8622" lon="145.31864000000002">
    <ele>290.61</ele>
   </trkpt>
   <trkpt lat="-37.86213" lon="145.31869">
    <ele>290.61</ele>
   </trkpt>
   <trkpt lat="-37.86173" lon="145.31879">
    <ele>284.08</ele>
   </trkpt>
   <trkpt lat="-37.86168" lon="145.31878">
    <ele>283.29</ele>
   </trkpt>
   <trkpt lat="-37.861610000000006" lon="145.31871">
    <ele>283.29</ele>
   </trkpt>
   <trkpt lat="-37.8616" lon="145.31869">
    <ele>283.29</ele>
   </trkpt>
   <trkpt lat="-37.86157" lon="145.31866000000002">
    <ele>283.29</ele>
   </trkpt>
   <trkpt lat="-37.86137000122992" lon="145.3181099983722">
    <ele>277.85</ele>
   </trkpt>
   <trkpt lat="-37.86117" lon="145.31756000000001">
    <ele>271.49</ele>
   </trkpt>
   <trkpt lat="-37.86092500428335" lon="145.31655499671024">
    <ele>262.03000000000003</ele>
   </trkpt>
   <trkpt lat="-37.86068" lon="145.31555">
    <ele>251.72</ele>
   </trkpt>
   <trkpt lat="-37.86059" lon="145.31564">
    <ele>251.12</ele>
   </trkpt>
   <trkpt lat="-37.86054" lon="145.31580000000002">
    <ele>250.34</ele>
   </trkpt>
   <trkpt lat="-37.860490000000006" lon="145.31616000000002">
    <ele>248.68</ele>
   </trkpt>
   <trkpt lat="-37.86041" lon="145.31709">
    <ele>240.70000000000002</ele>
   </trkpt>
   <trkpt lat="-37.86027" lon="145.31794000000002">
    <ele>239.67000000000002</ele>
   </trkpt>
   <trkpt lat="-37.860310000000005" lon="145.31822000000003">
    <ele>239.91</ele>
   </trkpt>
   <trkpt lat="-37.86027" lon="145.31836">
    <ele>239.44</ele>
   </trkpt>
   <trkpt lat="-37.86027" lon="145.31846000000002">
    <ele>238.06000000000003</ele>
   </trkpt>
   <trkpt lat="-37.86023" lon="145.31854">
    <ele>235.87000000000003</ele>
   </trkpt>
   <trkpt lat="-37.86014" lon="145.31864000000002">
    <ele>232.25</ele>
   </trkpt>
   <trkpt lat="-37.85996" lon="145.31877">
    <ele>224.86</ele>
   </trkpt>
   <trkpt lat="-37.859930000000006" lon="145.31882000000002">
    <ele>224.86</ele>
   </trkpt>
   <trkpt lat="-37.85989" lon="145.31892000000002">
    <ele>224.86</ele>
   </trkpt>
   <trkpt lat="-37.859840000000005" lon="145.31895">
    <ele>221.37</ele>
   </trkpt>
   <trkpt lat="-37.8598" lon="145.3189">
    <ele>221.37</ele>
   </trkpt>
   <trkpt lat="-37.85974" lon="145.31892000000002">
    <ele>212.99</ele>
   </trkpt>
   <trkpt lat="-37.85967" lon="145.31906">
    <ele>211.75000000000003</ele>
   </trkpt>
   <trkpt lat="-37.85965" lon="145.31916">
    <ele>209.61</ele>
   </trkpt>
   <trkpt lat="-37.8596" lon="145.31918000000002">
    <ele>209.61</ele>
   </trkpt>
   <trkpt lat="-37.85954" lon="145.31915">
    <ele>209.61</ele>
   </trkpt>
   <trkpt lat="-37.85949" lon="145.31918000000002">
    <ele>209.61</ele>
   </trkpt>
   <trkpt lat="-37.85947" lon="145.3193">
    <ele>206.33</ele>
   </trkpt>
   <trkpt lat="-37.8594" lon="145.31941">
    <ele>203.61</ele>
   </trkpt>
   <trkpt lat="-37.85927" lon="145.31956000000002">
    <ele>202.28</ele>
   </trkpt>
   <trkpt lat="-37.859100000000005" lon="145.3197">
    <ele>199.25</ele>
   </trkpt>
   <trkpt lat="-37.859" lon="145.3197">
    <ele>197.43</ele>
   </trkpt>
   <trkpt lat="-37.85859000000001" lon="145.32016000000002">
    <ele>192.15</ele>
   </trkpt>
   <trkpt lat="-37.8586" lon="145.32015">
    <ele>192.23000000000002</ele>
   </trkpt>
   <trkpt lat="-37.8583" lon="145.32049">
    <ele>188.69000000000003</ele>
   </trkpt>
   <trkpt lat="-37.85877000276565" lon="145.3212999948202">
    <ele>195.41000000000003</ele>
   </trkpt>
   <trkpt lat="-37.85924" lon="145.32211">
    <ele>204.0</ele>
   </trkpt>
   <trkpt lat="-37.85958" lon="145.32231000000002">
    <ele>209.45000000000002</ele>
   </trkpt>
   <trkpt lat="-37.85949" lon="145.32270000000003">
    <ele>209.15000000000003</ele>
   </trkpt>
   <trkpt lat="-37.85958" lon="145.32287000000002">
    <ele>207.72</ele>
   </trkpt>
   <trkpt lat="-37.85976" lon="145.32302">
    <ele>204.28</ele>
   </trkpt>
   <trkpt lat="-37.86032" lon="145.32323000000002">
    <ele>200.28</ele>
   </trkpt>
   <trkpt lat="-37.86041" lon="145.32331000000002">
    <ele>199.44</ele>
   </trkpt>
   <trkpt lat="-37.86041" lon="145.32341000000002">
    <ele>199.22</ele>
   </trkpt>
   <trkpt lat="-37.86027" lon="145.32358000000002">
    <ele>198.36</ele>
   </trkpt>
   <trkpt lat="-37.86027" lon="145.32369">
    <ele>198.20000000000002</ele>
   </trkpt>
   <trkpt lat="-37.86021" lon="145.32387">
    <ele>198.41</ele>
   </trkpt>
   <trkpt lat="-37.86027" lon="145.32437000000002">
    <ele>201.28</ele>
   </trkpt>
   <trkpt lat="-37.86025" lon="145.32472">
    <ele>201.78</ele>
   </trkpt>
   <trkpt lat="-37.86032" lon="145.32535000000001">
    <ele>201.97</ele>
   </trkpt>
   <trkpt lat="-37.86043" lon="145.32567">
    <ele>204.68000000000004</ele>
   </trkpt>
   <trkpt lat="-37.86063" lon="145.32606">
    <ele>207.44</ele>
   </trkpt>
   <trkpt lat="-37.86065" lon="145.32626000000002">
    <ele>208.90000000000003</ele>
   </trkpt>
   <trkpt lat="-37.86061" lon="145.32645000000002">
    <ele>211.1</ele>
   </trkpt>
   <trkpt lat="-37.86039" lon="145.32673">
    <ele>213.98000000000002</ele>
   </trkpt>
   <trkpt lat="-37.86034" lon="145.32686">
    <ele>213.98000000000002</ele>
   </trkpt>
   <trkpt lat="-37.86034" lon="145.32694">
    <ele>218.49</ele>
   </trkpt>
   <trkpt lat="-37.86045" lon="145.32705">
    <ele>218.49</ele>
   </trkpt>
   <trkpt lat="-37.86045" lon="145.32712">
    <ele>218.49</ele>
   </trkpt>
   <trkpt lat="-37.86043" lon="145.32727">
    <ele>219.38000000000002</ele>
   </trkpt>
   <trkpt lat="-37.86072" lon="145.32763">
    <ele>225.48000000000002</ele>
   </trkpt>
   <trkpt lat="-37.86086" lon="145.32775">
    <ele>226.51000000000002</ele>
   </trkpt>
   <trkpt lat="-37.860890000000005" lon="145.32786000000002">
    <ele>227.16000000000003</ele>
   </trkpt>
   <trkpt lat="-37.86099" lon="145.32827">
    <ele>230.39000000000001</ele>
   </trkpt>
   <trkpt lat="-37.86115" lon="145.32850000000002">
    <ele>234.88</ele>
   </trkpt>
   <trkpt lat="-37.86135" lon="145.32887000000002">
    <ele>236.18000000000004</ele>
   </trkpt>
   <trkpt lat="-37.861450000000005" lon="145.32929000000001">
    <ele>243.57</ele>
   </trkpt>
   <trkpt lat="-37.86162" lon="145.32949000000002">
    <ele>246.70000000000002</ele>
   </trkpt>
   <trkpt lat="-37.861720000000005" lon="145.32967000000002">
    <ele>253.19000000000003</ele>
   </trkpt>
   <trkpt lat="-37.86186" lon="145.33004000000003">
    <ele>259.26000000000005</ele>
   </trkpt>
   <trkpt lat="-37.86189" lon="145.33014">
    <ele>260.71</ele>
   </trkpt>
   <trkpt lat="-37.862" lon="145.33024">
    <ele>264.53000000000003</ele>
   </trkpt>
   <trkpt lat="-37.86218" lon="145.33063">
    <ele>271.43</ele>
   </trkpt>
   <trkpt lat="-37.8624" lon="145.33099">
    <ele>282.7</ele>
   </trkpt>
   <trkpt lat="-37.86249" lon="145.33118000000002">
    <ele>286.17</ele>
   </trkpt>
   <trkpt lat="-37.86251" lon="145.33129000000002">
    <ele>287.66</ele>
   </trkpt>
   <trkpt lat="-37.86247" lon="145.33146000000002">
    <ele>290.61</ele>
   </trkpt>
   <trkpt lat="-37.86251" lon="145.33174000000002">
    <ele>297.92</ele>
   </trkpt>
   <trkpt lat="-37.86249" lon="145.33190000000002">
    <ele>302.28000000000003</ele>
   </trkpt>
   <trkpt lat="-37.86252" lon="145.33206">
    <ele>304.72</ele>
   </trkpt>
   <trkpt lat="-37.8628" lon="145.33177">
    <ele>305.46</ele>
   </trkpt>
   <trkpt lat="-37.86294" lon="145.33152">
    <ele>305.69</ele>
   </trkpt>
   <trkpt lat="-37.86303" lon="145.33113">
    <ele>305.87</ele>
   </trkpt>
   <trkpt lat="-37.86316" lon="145.33042">
    <ele>306.28000000000003</ele>
   </trkpt>
   <trkpt lat="-37.8633" lon="145.33012000000002">
    <ele>306.58000000000004</ele>
   </trkpt>
   <trkpt lat="-37.8633" lon="145.33010000000002">
    <ele>306.59000000000003</ele>
   </trkpt>
   <trkpt lat="-37.86341" lon="145.32991">
    <ele>306.83000000000004</ele>
   </trkpt>
   <trkpt lat="-37.86352" lon="145.3298">
    <ele>306.97</ele>
   </trkpt>
   <trkpt lat="-37.86361" lon="145.32976000000002">
    <ele>307.17</ele>
   </trkpt>
   <trkpt lat="-37.86403" lon="145.32975000000002">
    <ele>308.87</ele>
   </trkpt>
   <trkpt lat="-37.86424" lon="145.32978">
    <ele>310.64000000000004</ele>
   </trkpt>
   <trkpt lat="-37.86446" lon="145.32988">
    <ele>311.6</ele>
   </trkpt>
   <trkpt lat="-37.86459" lon="145.32996">
    <ele>312.52000000000004</ele>
   </trkpt>
   <trkpt lat="-37.86475" lon="145.33010000000002">
    <ele>312.52000000000004</ele>
   </trkpt>
   <trkpt lat="-37.86489" lon="145.33025">
    <ele>314.36</ele>
   </trkpt>
   <trkpt lat="-37.8652" lon="145.33063">
    <ele>318.40000000000003</ele>
   </trkpt>
   <trkpt lat="-37.86544000000001" lon="145.33086">
    <ele>318.40000000000003</ele>
   </trkpt>
   <trkpt lat="-37.86563" lon="145.33106">
    <ele>319.78000000000003</ele>
   </trkpt>
   <trkpt lat="-37.865640000000006" lon="145.33106">
    <ele>325.8</ele>
   </trkpt>
   <trkpt lat="-37.866240000000005" lon="145.33147000000002">
    <ele>336.71</ele>
   </trkpt>
   <trkpt lat="-37.86663" lon="145.33154000000002">
    <ele>339.87</ele>
   </trkpt>
   <trkpt lat="-37.8673" lon="145.33146000000002">
    <ele>339.12</ele>
   </trkpt>
   <trkpt lat="-37.86798" lon="145.33161">
    <ele>343.25000000000006</ele>
   </trkpt>
   <trkpt lat="-37.868520000000004" lon="145.33198000000002">
    <ele>349.48</ele>
   </trkpt>
   <trkpt lat="-37.86881" lon="145.33247">
    <ele>354.99</ele>
   </trkpt>
   <trkpt lat="-37.869" lon="145.33317000000002">
    <ele>352.14</ele>
   </trkpt>
   <trkpt lat="-37.86903" lon="145.33395000000002">
    <ele>360.48</ele>
   </trkpt>
   <trkpt lat="-37.869600000000005" lon="145.33419">
    <ele>352.46999999999997</ele>
   </trkpt>
   <trkpt lat="-37.87026" lon="145.33441000000002">
    <ele>358.16</ele>
   </trkpt>
   <trkpt lat="-37.870430000000006" lon="145.33468000000002">
    <ele>368.89000000000004</ele>
   </trkpt>
   <trkpt lat="-37.870450000000005" lon="145.33465">
    <ele>354.85</ele>
   </trkpt>
   <trkpt lat="-37.87066" lon="145.33478000000002">
    <ele>356.58</ele>
   </trkpt>
   <trkpt lat="-37.87075" lon="145.33478000000002">
    <ele>356.58</ele>
   </trkpt>
   <trkpt lat="-37.870810000000006" lon="145.3347">
    <ele>358.09000000000003</ele>
   </trkpt>
   <trkpt lat="-37.870810000000006" lon="145.33446">
    <ele>359.32</ele>
   </trkpt>
   <trkpt lat="-37.87075" lon="145.33419">
    <ele>360.39000000000004</ele>
   </trkpt>
   <trkpt lat="-37.87082" lon="145.33339">
    <ele>366.04</ele>
   </trkpt>
   <trkpt lat="-37.87091" lon="145.33315000000002">
    <ele>367.45000000000005</ele>
   </trkpt>
   <trkpt lat="-37.87102" lon="145.33292">
    <ele>367.44000000000005</ele>
   </trkpt>
   <trkpt lat="-37.87113" lon="145.33284">
    <ele>367.45000000000005</ele>
   </trkpt>
   <trkpt lat="-37.871280000000006" lon="145.33282">
    <ele>367.9</ele>
   </trkpt>
   <trkpt lat="-37.87167" lon="145.33290000000002">
    <ele>371.96</ele>
   </trkpt>
   <trkpt lat="-37.87207" lon="145.33307000000002">
    <ele>376.25</ele>
   </trkpt>
   <trkpt lat="-37.87238" lon="145.33305000000001">
    <ele>381.35</ele>
   </trkpt>
   <trkpt lat="-37.87268" lon="145.33283">
    <ele>383.3</ele>
   </trkpt>
   <trkpt lat="-37.872890000000005" lon="145.3325">
    <ele>384.52000000000004</ele>
   </trkpt>
   <trkpt lat="-37.87301" lon="145.33226000000002">
    <ele>384.64000000000004</ele>
   </trkpt>
   <trkpt lat="-37.87301" lon="145.33218000000002">
    <ele>384.78000000000003</ele>
   </trkpt>
   <trkpt lat="-37.87297" lon="145.33206">
    <ele>385.23</ele>
   </trkpt>
   <trkpt lat="-37.87279" lon="145.33183000000002">
    <ele>387.04</ele>
   </trkpt>
   <trkpt lat="-37.87263" lon="145.33171000000002">
    <ele>388.47</ele>
   </trkpt>
   <trkpt lat="-37.87236" lon="145.33138000000002">
    <ele>389.91</ele>
   </trkpt>
   <trkpt lat="-37.87225" lon="145.33113">
    <ele>391.02000000000004</ele>
   </trkpt>
   <trkpt lat="-37.87223" lon="145.3309">
    <ele>391.27</ele>
   </trkpt>
   <trkpt lat="-37.87221" lon="145.33038000000002">
    <ele>394.78000000000003</ele>
   </trkpt>
   <trkpt lat="-37.87223" lon="145.33017">
    <ele>396.70000000000005</ele>
   </trkpt>
   <trkpt lat="-37.87227" lon="145.33004000000003">
    <ele>398.01000000000005</ele>
   </trkpt>
   <trkpt lat="-37.87223" lon="145.32968000000002">
    <ele>398.19000000000005</ele>
   </trkpt>
   <trkpt lat="-37.87216" lon="145.32951">
    <ele>396.52000000000004</ele>
   </trkpt>
   <trkpt lat="-37.87196" lon="145.32921000000002">
    <ele>396.1</ele>
   </trkpt>
   <trkpt lat="-37.8718" lon="145.32905000000002">
    <ele>397.77</ele>
   </trkpt>
   <trkpt lat="-37.87171" lon="145.32889">
    <ele>400.46000000000004</ele>
   </trkpt>
   <trkpt lat="-37.87169" lon="145.32861000000003">
    <ele>407.36000000000007</ele>
   </trkpt>
   <trkpt lat="-37.87158" lon="145.32842000000002">
    <ele>410.38</ele>
   </trkpt>
   <trkpt lat="-37.8714" lon="145.32824000000002">
    <ele>413.86000000000007</ele>
   </trkpt>
   <trkpt lat="-37.87131" lon="145.32817">
    <ele>414.72</ele>
   </trkpt>
   <trkpt lat="-37.871" lon="145.32801">
    <ele>417.09000000000003</ele>
   </trkpt>
   <trkpt lat="-37.87062" lon="145.32791">
    <ele>423.28000000000003</ele>
   </trkpt>
   <trkpt lat="-37.87035" lon="145.32771000000002">
    <ele>428.01000000000005</ele>
   </trkpt>
   <trkpt lat="-37.87024" lon="145.32759000000001">
    <ele>432.62000000000006</ele>
   </trkpt>
   <trkpt lat="-37.870160000000006" lon="145.32745">
    <ele>436.7300000000001</ele>
   </trkpt>
   <trkpt lat="-37.87008" lon="145.32731">
    <ele>438.6700000000001</ele>
   </trkpt>
   <trkpt lat="-37.87003" lon="145.32705">
    <ele>442.19</ele>
   </trkpt>
   <trkpt lat="-37.87001" lon="145.32697000000002">
    <ele>443.19</ele>
   </trkpt>
   <trkpt lat="-37.87003" lon="145.32679000000002">
    <ele>444.93000000000006</ele>
   </trkpt>
   <trkpt lat="-37.87006" lon="145.32671000000002">
    <ele>446.26000000000005</ele>
   </trkpt>
   <trkpt lat="-37.87024" lon="145.32659">
    <ele>447.77000000000004</ele>
   </trkpt>
   <trkpt lat="-37.87053" lon="145.32625000000002">
    <ele>456.29</ele>
   </trkpt>
   <trkpt lat="-37.870720000000006" lon="145.32623">
    <ele>461.65000000000003</ele>
   </trkpt>
   <trkpt lat="-37.87082" lon="145.32609000000002">
    <ele>464.47</ele>
   </trkpt>
   <trkpt lat="-37.87093" lon="145.32597">
    <ele>467.39000000000004</ele>
   </trkpt>
   <trkpt lat="-37.87104" lon="145.32594">
    <ele>469.30000000000007</ele>
   </trkpt>
   <trkpt lat="-37.87124" lon="145.32594">
    <ele>473.69000000000005</ele>
   </trkpt>
   <trkpt lat="-37.87142" lon="145.32584">
    <ele>476.49</ele>
   </trkpt>
   <trkpt lat="-37.87171" lon="145.32548">
    <ele>484.09000000000003</ele>
   </trkpt>
   <trkpt lat="-37.871750000000006" lon="145.32506">
    <ele>482.9700000000001</ele>
   </trkpt>
   <trkpt lat="-37.87184500277681" lon="145.32425000102566">
    <ele>475.7</ele>
   </trkpt>
   <trkpt lat="-37.87194" lon="145.32344">
    <ele>465.58000000000004</ele>
   </trkpt>
   <trkpt lat="-37.871880000000004" lon="145.32333">
    <ele>463.4800000000001</ele>
   </trkpt>
   <trkpt lat="-37.87185" lon="145.3232">
    <ele>459.91</ele>
   </trkpt>
   <trkpt lat="-37.87187" lon="145.32276000000002">
    <ele>460.13000000000005</ele>
   </trkpt>
   <trkpt lat="-37.871840000000006" lon="145.32255">
    <ele>461.16</ele>
   </trkpt>
   <trkpt lat="-37.87191" lon="145.32233000000002">
    <ele>465.77</ele>
   </trkpt>
   <trkpt lat="-37.87203" lon="145.32209">
    <ele>472.11</ele>
   </trkpt>
   <trkpt lat="-37.87207" lon="145.32187000000002">
    <ele>477.05</ele>
   </trkpt>
   <trkpt lat="-37.872" lon="145.32135000000002">
    <ele>484.26</ele>
   </trkpt>
   <trkpt lat="-37.872" lon="145.32119">
    <ele>486.17</ele>
   </trkpt>
   <trkpt lat="-37.87203" lon="145.32099000000002">
    <ele>490.54</ele>
   </trkpt>
   <trkpt lat="-37.87223" lon="145.32034000000002">
    <ele>505.29</ele>
   </trkpt>
   <trkpt lat="-37.87232" lon="145.31989000000002">
    <ele>512.94</ele>
   </trkpt>
   <trkpt lat="-37.87241" lon="145.31979">
    <ele>514.21</ele>
   </trkpt>
   <trkpt lat="-37.87243" lon="145.31962000000001">
    <ele>515.0400000000001</ele>
   </trkpt>
   <trkpt lat="-37.87274" lon="145.31964000000002">
    <ele>515.09</ele>
   </trkpt>
   <trkpt lat="-37.87275" lon="145.31964000000002">
    <ele>515.09</ele>
   </trkpt>
   <trkpt lat="-37.87303" lon="145.31965000000002">
    <ele>513.6400000000001</ele>
   </trkpt>
   <trkpt lat="-37.87328" lon="145.3197">
    <ele>511.58000000000004</ele>
   </trkpt>
   <trkpt lat="-37.87355" lon="145.31979">
    <ele>509.51</ele>
   </trkpt>
   <trkpt lat="-37.874" lon="145.32000000000002">
    <ele>503.72</ele>
   </trkpt>
   <trkpt lat="-37.87415" lon="145.32003">
    <ele>501.74000000000007</ele>
   </trkpt>
   <trkpt lat="-37.87442" lon="145.32003">
    <ele>497.85</ele>
   </trkpt>
   <trkpt lat="-37.87473" lon="145.32017000000002">
    <ele>495.37</ele>
   </trkpt>
   <trkpt lat="-37.87491" lon="145.3202">
    <ele>493.74000000000007</ele>
   </trkpt>
   <trkpt lat="-37.874985003652874" lon="145.32112999899306">
    <ele>490.78000000000003</ele>
   </trkpt>
   <trkpt lat="-37.875060000000005" lon="145.32206000000002">
    <ele>494.68000000000006</ele>
   </trkpt>
   <trkpt lat="-37.87518" lon="145.32201">
    <ele>494.24000000000007</ele>
   </trkpt>
   <trkpt lat="-37.87529" lon="145.32202">
    <ele>494.05</ele>
   </trkpt>
   <trkpt lat="-37.87568" lon="145.32217">
    <ele>494.27000000000004</ele>
   </trkpt>
   <trkpt lat="-37.876215000218856" lon="145.322354998682">
    <ele>495.28000000000003</ele>
   </trkpt>
   <trkpt lat="-37.87675" lon="145.32254">
    <ele>493.66</ele>
   </trkpt>
   <trkpt lat="-37.877" lon="145.32270000000003">
    <ele>495.3500000000001</ele>
   </trkpt>
   <trkpt lat="-37.87783" lon="145.32313000000002">
    <ele>498.09000000000003</ele>
   </trkpt>
   <trkpt lat="-37.8782" lon="145.32342">
    <ele>497.6</ele>
   </trkpt>
   <trkpt lat="-37.8787" lon="145.32406">
    <ele>498.37</ele>
   </trkpt>
   <trkpt lat="-37.87892" lon="145.32431000000003">
    <ele>499.37</ele>
   </trkpt>
   <trkpt lat="-37.87932" lon="145.32488">
    <ele>498.37</ele>
   </trkpt>
   <trkpt lat="-37.87993" lon="145.32551">
    <ele>493.02</ele>
   </trkpt>
   <trkpt lat="-37.88067" lon="145.32611">
    <ele>485.61</ele>
   </trkpt>
   <trkpt lat="-37.88132" lon="145.32653000000002">
    <ele>478.71000000000004</ele>
   </trkpt>
   <trkpt lat="-37.88172" lon="145.32688000000002">
    <ele>474.05</ele>
   </trkpt>
   <trkpt lat="-37.88181" lon="145.32698000000002">
    <ele>473.64000000000004</ele>
   </trkpt>
   <trkpt lat="-37.88201" lon="145.32736">
    <ele>471.54</ele>
   </trkpt>
   <trkpt lat="-37.88223" lon="145.32806000000002">
    <ele>465.51000000000005</ele>
   </trkpt>
   <trkpt lat="-37.88241" lon="145.32832000000002">
    <ele>461.85</ele>
   </trkpt>
   <trkpt lat="-37.88264" lon="145.32853">
    <ele>455.94</ele>
   </trkpt>
   <trkpt lat="-37.88284" lon="145.32863">
    <ele>451.94000000000005</ele>
   </trkpt>
   <trkpt lat="-37.88311" lon="145.32864">
    <ele>446.75</ele>
   </trkpt>
   <trkpt lat="-37.88342" lon="145.32859000000002">
    <ele>442.64000000000004</ele>
   </trkpt>
   <trkpt lat="-37.88378" lon="145.32857">
    <ele>436.86</ele>
   </trkpt>
   <trkpt lat="-37.88407" lon="145.32862">
    <ele>431.17</ele>
   </trkpt>
   <trkpt lat="-37.88447" lon="145.32879">
    <ele>424.71000000000004</ele>
   </trkpt>
   <trkpt lat="-37.88499" lon="145.32899">
    <ele>412.7</ele>
   </trkpt>
   <trkpt lat="-37.88555" lon="145.32899">
    <ele>402.14000000000004</ele>
   </trkpt>
   <trkpt lat="-37.88584" lon="145.32891">
    <ele>396.20000000000005</ele>
   </trkpt>
   <trkpt lat="-37.88604" lon="145.32873">
    <ele>387.87000000000006</ele>
   </trkpt>
   <trkpt lat="-37.88624" lon="145.32841000000002">
    <ele>382.14000000000004</ele>
   </trkpt>
   <trkpt lat="-37.886390000000006" lon="145.32833000000002">
    <ele>380.93000000000006</ele>
   </trkpt>
   <trkpt lat="-37.88638" lon="145.32786000000002">
    <ele>378.22</ele>
   </trkpt>
   <trkpt lat="-37.88624" lon="145.32771000000002">
    <ele>377.73</ele>
   </trkpt>
   <trkpt lat="-37.8862" lon="145.3274">
    <ele>376.56</ele>
   </trkpt>
   <trkpt lat="-37.886190000000006" lon="145.32696">
    <ele>376.55000000000007</ele>
   </trkpt>
   <trkpt lat="-37.88608" lon="145.32707000000002">
    <ele>374.89000000000004</ele>
   </trkpt>
   <trkpt lat="-37.8857" lon="145.3273">
    <ele>370.83000000000004</ele>
   </trkpt>
   <trkpt lat="-37.88559" lon="145.32723000000001">
    <ele>369.29</ele>
   </trkpt>
   <trkpt lat="-37.88555" lon="145.32716000000002">
    <ele>368.81</ele>
   </trkpt>
   <trkpt lat="-37.88546" lon="145.32689000000002">
    <ele>365.91</ele>
   </trkpt>
   <trkpt lat="-37.88539" lon="145.32682">
    <ele>364.89000000000004</ele>
   </trkpt>
   <trkpt lat="-37.88532" lon="145.32677">
    <ele>363.51000000000005</ele>
   </trkpt>
   <trkpt lat="-37.88517" lon="145.32679000000002">
    <ele>361.52</ele>
   </trkpt>
   <trkpt lat="-37.8851" lon="145.32674">
    <ele>361.52</ele>
   </trkpt>
   <trkpt lat="-37.88503" lon="145.32657">
    <ele>359.6</ele>
   </trkpt>
   <trkpt lat="-37.88501" lon="145.32641">
    <ele>357.22</ele>
   </trkpt>
   <trkpt lat="-37.88481" lon="145.32615">
    <ele>355.29</ele>
   </trkpt>
   <trkpt lat="-37.88472" lon="145.32611">
    <ele>353.72</ele>
   </trkpt>
   <trkpt lat="-37.8847" lon="145.32606">
    <ele>353.72</ele>
   </trkpt>
   <trkpt lat="-37.88467" lon="145.32594">
    <ele>352.7</ele>
   </trkpt>
   <trkpt lat="-37.88472" lon="145.32581000000002">
    <ele>351.82</ele>
   </trkpt>
   <trkpt lat="-37.88483" lon="145.32566">
    <ele>349.78000000000003</ele>
   </trkpt>
   <trkpt lat="-37.8849" lon="145.32534">
    <ele>345.77000000000004</ele>
   </trkpt>
   <trkpt lat="-37.88494" lon="145.32504">
    <ele>341.23</ele>
   </trkpt>
   <trkpt lat="-37.88494" lon="145.32475000000002">
    <ele>337.78000000000003</ele>
   </trkpt>
   <trkpt lat="-37.8849" lon="145.32459">
    <ele>335.87</ele>
   </trkpt>
   <trkpt lat="-37.88481" lon="145.32436">
    <ele>333.70000000000005</ele>
   </trkpt>
   <trkpt lat="-37.88481" lon="145.32417">
    <ele>331.46000000000004</ele>
   </trkpt>
   <trkpt lat="-37.88483" lon="145.32404000000002">
    <ele>329.28000000000003</ele>
   </trkpt>
   <trkpt lat="-37.88481" lon="145.32355">
    <ele>317.98</ele>
   </trkpt>
   <trkpt lat="-37.8849" lon="145.32336">
    <ele>315.21000000000004</ele>
   </trkpt>
   <trkpt lat="-37.88488" lon="145.32315">
    <ele>313.76000000000005</ele>
   </trkpt>
   <trkpt lat="-37.88479" lon="145.32282">
    <ele>307.63</ele>
   </trkpt>
   <trkpt lat="-37.88465" lon="145.32261000000003">
    <ele>304.73</ele>
   </trkpt>
   <trkpt lat="-37.884570000000004" lon="145.32260000000002">
    <ele>304.72</ele>
   </trkpt>
   <trkpt lat="-37.88447" lon="145.32227">
    <ele>302.57</ele>
   </trkpt>
   <trkpt lat="-37.88443" lon="145.32186000000002">
    <ele>296.71000000000004</ele>
   </trkpt>
   <trkpt lat="-37.88432" lon="145.32141000000001">
    <ele>291.96</ele>
   </trkpt>
   <trkpt lat="-37.88423" lon="145.32127">
    <ele>290.78000000000003</ele>
   </trkpt>
   <trkpt lat="-37.88416" lon="145.3211">
    <ele>288.93</ele>
   </trkpt>
   <trkpt lat="-37.88416" lon="145.32099000000002">
    <ele>286.40000000000003</ele>
   </trkpt>
   <trkpt lat="-37.88425" lon="145.32069">
    <ele>284.63000000000005</ele>
   </trkpt>
   <trkpt lat="-37.88429" lon="145.32048">
    <ele>282.46999999999997</ele>
   </trkpt>
   <trkpt lat="-37.88425" lon="145.3202">
    <ele>279.1</ele>
   </trkpt>
   <trkpt lat="-37.88416" lon="145.31998000000002">
    <ele>277.5</ele>
   </trkpt>
   <trkpt lat="-37.88416" lon="145.31972000000002">
    <ele>276.01000000000005</ele>
   </trkpt>
   <trkpt lat="-37.88409" lon="145.31915">
    <ele>268.65</ele>
   </trkpt>
   <trkpt lat="-37.884" lon="145.31884000000002">
    <ele>266.11</ele>
   </trkpt>
   <trkpt lat="-37.88378" lon="145.31852">
    <ele>263.49</ele>
   </trkpt>
   <trkpt lat="-37.88373" lon="145.31835">
    <ele>261.53999999999996</ele>
   </trkpt>
   <trkpt lat="-37.88396" lon="145.31833">
    <ele>257.54</ele>
   </trkpt>
   <trkpt lat="-37.88429" lon="145.31839000000002">
    <ele>254.17000000000002</ele>
   </trkpt>
   <trkpt lat="-37.88479" lon="145.31835">
    <ele>244.69000000000003</ele>
   </trkpt>
   <trkpt lat="-37.88528" lon="145.31820000000002">
    <ele>237.0</ele>
   </trkpt>
   <trkpt lat="-37.88537" lon="145.31811000000002">
    <ele>236.15000000000003</ele>
   </trkpt>
   <trkpt lat="-37.88546" lon="145.31806">
    <ele>235.48000000000002</ele>
   </trkpt>
   <trkpt lat="-37.88553" lon="145.31806">
    <ele>235.32000000000002</ele>
   </trkpt>
   <trkpt lat="-37.885740000000006" lon="145.31805">
    <ele>232.68</ele>
   </trkpt>
   <trkpt lat="-37.885830000000006" lon="145.31797">
    <ele>231.49000000000004</ele>
   </trkpt>
   <trkpt lat="-37.88611" lon="145.31784000000002">
    <ele>229.43</ele>
   </trkpt>
   <trkpt lat="-37.88667" lon="145.31742">
    <ele>227.94000000000003</ele>
   </trkpt>
   <trkpt lat="-37.886880000000005" lon="145.31755">
    <ele>225.07000000000002</ele>
   </trkpt>
   <trkpt lat="-37.88712" lon="145.31764">
    <ele>220.83</ele>
   </trkpt>
   <trkpt lat="-37.88761" lon="145.31761">
    <ele>213.96</ele>
   </trkpt>
   <trkpt lat="-37.88772" lon="145.31759000000002">
    <ele>212.26</ele>
   </trkpt>
   <trkpt lat="-37.88781" lon="145.31755">
    <ele>210.71</ele>
   </trkpt>
   <trkpt lat="-37.88787000000001" lon="145.31756000000001">
    <ele>210.71</ele>
   </trkpt>
   <trkpt lat="-37.88808" lon="145.31744">
    <ele>208.39000000000001</ele>
   </trkpt>
   <trkpt lat="-37.888270000000006" lon="145.31747000000001">
    <ele>206.91</ele>
   </trkpt>
   <trkpt lat="-37.88828" lon="145.31748000000002">
    <ele>206.91</ele>
   </trkpt>
   <trkpt lat="-37.88839" lon="145.31750000000002">
    <ele>204.69</ele>
   </trkpt>
   <trkpt lat="-37.88846" lon="145.31753">
    <ele>204.69</ele>
   </trkpt>
   <trkpt lat="-37.88866" lon="145.31772">
    <ele>201.14000000000001</ele>
   </trkpt>
   <trkpt lat="-37.888830000000006" lon="145.31773">
    <ele>198.45000000000002</ele>
   </trkpt>
   <trkpt lat="-37.88884" lon="145.31775000000002">
    <ele>198.45000000000002</ele>
   </trkpt>
   <trkpt lat="-37.88893" lon="145.31777000000002">
    <ele>198.45000000000002</ele>
   </trkpt>
   <trkpt lat="-37.88895" lon="145.31774000000001">
    <ele>198.45000000000002</ele>
   </trkpt>
   <trkpt lat="-37.88931" lon="145.31776000000002">
    <ele>193.87</ele>
   </trkpt>
   <trkpt lat="-37.889410000000005" lon="145.31771">
    <ele>193.87</ele>
   </trkpt>
   <trkpt lat="-37.88967" lon="145.31767000000002">
    <ele>190.75</ele>
   </trkpt>
   <trkpt lat="-37.889810000000004" lon="145.31752">
    <ele>189.61</ele>
   </trkpt>
   <trkpt lat="-37.890280000000004" lon="145.31739000000002">
    <ele>185.8</ele>
   </trkpt>
   <trkpt lat="-37.8904" lon="145.31744">
    <ele>184.86</ele>
   </trkpt>
   <trkpt lat="-37.8905" lon="145.31752">
    <ele>183.52</ele>
   </trkpt>
   <trkpt lat="-37.89058" lon="145.31753">
    <ele>183.06000000000003</ele>
   </trkpt>
   <trkpt lat="-37.89067" lon="145.31745">
    <ele>181.56000000000003</ele>
   </trkpt>
   <trkpt lat="-37.89083" lon="145.31740000000002">
    <ele>180.27</ele>
   </trkpt>
   <trkpt lat="-37.89094" lon="145.31733">
    <ele>178.91</ele>
   </trkpt>
  </trkseg>
 </trk>
</gpx>
