<?xml version="1.0" encoding="UTF-8"?>
<gpx creator="StravaGPX" version="1.1" xmlns="http://www.topografix.com/GPX/1/1" xmlns:xsi="http://www.w3.org/2001/XMLSchema-instance" xsi:schemaLocation="http://www.topografix.com/GPX/1/1 http://www.topografix.com/GPX/1/1/gpx.xsd">
 <metadata>
  <name>Sunday 19 Apr 2026 - 8k</name>
  <author>
   <name>Majid Nazem 🇦🇺</name>
   <link href="https://www.strava.com/athletes/5612969"/>
  </author>
  <copyright author="OpenStreetMap contributors">
   <year>2020</year>
   <license>https://www.openstreetmap.org/copyright</license>
  </copyright>
  <link href="https://www.strava.com/routes/3479664007213179292"/>
 </metadata>
 <trk>
  <name>Sunday 19 Apr 2026 - 8k</name>
  <link href="https://www.strava.com/routes/3479664007213179292"/>
  <type>running</type>
  <trkseg>
   <trkpt lat="-37.89094" lon="145.31733">
    <ele>178.91</ele>
   </trkpt>
   <trkpt lat="-37.89076" lon="145.31708">
    <ele>180.6</ele>
   </trkpt>
   <trkpt lat="-37.890730000000005" lon="145.31686000000002">
    <ele>181.8</ele>
   </trkpt>
   <trkpt lat="-37.8909" lon="145.31665">
    <ele>181.32</ele>
   </trkpt>
   <trkpt lat="-37.89099" lon="145.31640000000002">
    <ele>181.58</ele>
   </trkpt>
   <trkpt lat="-37.89099" lon="145.31613000000002">
    <ele>181.70000000000002</ele>
   </trkpt>
   <trkpt lat="-37.89108" lon="145.31604000000002">
    <ele>180.83</ele>
   </trkpt>
   <trkpt lat="-37.89148" lon="145.31548">
    <ele>175.02</ele>
   </trkpt>
   <trkpt lat="-37.89159" lon="145.3153">
    <ele>173.86</ele>
   </trkpt>
   <trkpt lat="-37.89166" lon="145.31470000000002">
    <ele>177.44</ele>
   </trkpt>
   <trkpt lat="-37.8917" lon="145.3142">
    <ele>181.87</ele>
   </trkpt>
   <trkpt lat="-37.89168" lon="145.31405">
    <ele>181.87</ele>
   </trkpt>
   <trkpt lat="-37.89159" lon="145.31376">
    <ele>184.35000000000002</ele>
   </trkpt>
   <trkpt lat="-37.8915" lon="145.31358">
    <ele>184.35000000000002</ele>
   </trkpt>
   <trkpt lat="-37.89132" lon="145.3134">
    <ele>187.42</ele>
   </trkpt>
   <trkpt lat="-37.89092" lon="145.31309000000002">
    <ele>191.59</ele>
   </trkpt>
   <trkpt lat="-37.89074" lon="145.31299">
    <ele>193.23000000000002</ele>
   </trkpt>
   <trkpt lat="-37.890710000000006" lon="145.31292000000002">
    <ele>193.66000000000003</ele>
   </trkpt>
   <trkpt lat="-37.890710000000006" lon="145.31282000000002">
    <ele>193.77</ele>
   </trkpt>
   <trkpt lat="-37.89072" lon="145.31278">
    <ele>193.77</ele>
   </trkpt>
   <trkpt lat="-37.89101" lon="145.31248000000002">
    <ele>194.20000000000002</ele>
   </trkpt>
   <trkpt lat="-37.89105" lon="145.31242">
    <ele>194.65</ele>
   </trkpt>
   <trkpt lat="-37.891180000000006" lon="145.31198">
    <ele>197.01000000000002</ele>
   </trkpt>
   <trkpt lat="-37.89121" lon="145.31161">
    <ele>200.13000000000002</ele>
   </trkpt>
   <trkpt lat="-37.89119" lon="145.31122000000002">
    <ele>202.39000000000001</ele>
   </trkpt>
   <trkpt lat="-37.89092" lon="145.31052000000003">
    <ele>212.37000000000003</ele>
   </trkpt>
   <trkpt lat="-37.89034" lon="145.30995000000001">
    <ele>225.14000000000001</ele>
   </trkpt>
   <trkpt lat="-37.890240000000006" lon="145.30993">
    <ele>227.69000000000003</ele>
   </trkpt>
   <trkpt lat="-37.89023" lon="145.30999">
    <ele>227.69000000000003</ele>
   </trkpt>
   <trkpt lat="-37.89027" lon="145.31046">
    <ele>233.29000000000002</ele>
   </trkpt>
   <trkpt lat="-37.89025" lon="145.31066">
    <ele>236.83</ele>
   </trkpt>
   <trkpt lat="-37.89016" lon="145.31092">
    <ele>238.54000000000002</ele>
   </trkpt>
   <trkpt lat="-37.89002" lon="145.31111">
    <ele>241.18000000000004</ele>
   </trkpt>
   <trkpt lat="-37.88993" lon="145.31119">
    <ele>242.84000000000003</ele>
   </trkpt>
   <trkpt lat="-37.889680000000006" lon="145.31134">
    <ele>245.93</ele>
   </trkpt>
   <trkpt lat="-37.88958" lon="145.31138">
    <ele>247.38000000000002</ele>
   </trkpt>
   <trkpt lat="-37.88953" lon="145.31136">
    <ele>247.38000000000002</ele>
   </trkpt>
   <trkpt lat="-37.88951" lon="145.31130000000002">
    <ele>250.38000000000005</ele>
   </trkpt>
   <trkpt lat="-37.88958" lon="145.31101">
    <ele>253.24</ele>
   </trkpt>
   <trkpt lat="-37.88958" lon="145.3109">
    <ele>255.45000000000002</ele>
   </trkpt>
   <trkpt lat="-37.88951" lon="145.31074">
    <ele>255.45000000000002</ele>
   </trkpt>
   <trkpt lat="-37.88931" lon="145.31038">
    <ele>262.21</ele>
   </trkpt>
   <trkpt lat="-37.889210000000006" lon="145.31025000000002">
    <ele>264.90000000000003</ele>
   </trkpt>
   <trkpt lat="-37.88902" lon="145.31012">
    <ele>267.85</ele>
   </trkpt>
   <trkpt lat="-37.88895" lon="145.31009">
    <ele>271.8</ele>
   </trkpt>
   <trkpt lat="-37.88888" lon="145.31014000000002">
    <ele>271.8</ele>
   </trkpt>
   <trkpt lat="-37.88868" lon="145.31060000000002">
    <ele>279.07000000000005</ele>
   </trkpt>
   <trkpt lat="-37.88859" lon="145.31071">
    <ele>280.62</ele>
   </trkpt>
   <trkpt lat="-37.888450000000006" lon="145.31074">
    <ele>283.38</ele>
   </trkpt>
   <trkpt lat="-37.88794" lon="145.31068000000002">
    <ele>297.8</ele>
   </trkpt>
   <trkpt lat="-37.88779" lon="145.31063">
    <ele>297.8</ele>
   </trkpt>
   <trkpt lat="-37.887330000000006" lon="145.31040000000002">
    <ele>311.02000000000004</ele>
   </trkpt>
   <trkpt lat="-37.88705" lon="145.31019">
    <ele>315.14000000000004</ele>
   </trkpt>
   <trkpt lat="-37.88696" lon="145.31015000000002">
    <ele>315.90000000000003</ele>
   </trkpt>
   <trkpt lat="-37.88687" lon="145.31014000000002">
    <ele>315.90000000000003</ele>
   </trkpt>
   <trkpt lat="-37.88673" lon="145.31015000000002">
    <ele>317.32000000000005</ele>
   </trkpt>
   <trkpt lat="-37.8866" lon="145.3102">
    <ele>318.8</ele>
   </trkpt>
   <trkpt lat="-37.88629" lon="145.31038">
    <ele>324.81000000000006</ele>
   </trkpt>
   <trkpt lat="-37.8862" lon="145.31044">
    <ele>324.81000000000006</ele>
   </trkpt>
   <trkpt lat="-37.88611" lon="145.31055">
    <ele>329.15000000000003</ele>
   </trkpt>
   <trkpt lat="-37.88579500178934" lon="145.31120500285434">
    <ele>338.67</ele>
   </trkpt>
   <trkpt lat="-37.88548" lon="145.31186000000002">
    <ele>352.95000000000005</ele>
   </trkpt>
   <trkpt lat="-37.88541" lon="145.31207">
    <ele>355.94000000000005</ele>
   </trkpt>
   <trkpt lat="-37.8853" lon="145.31255000000002">
    <ele>362.23</ele>
   </trkpt>
   <trkpt lat="-37.885270000000006" lon="145.31266000000002">
    <ele>365.47</ele>
   </trkpt>
   <trkpt lat="-37.88519" lon="145.31273000000002">
    <ele>367.25</ele>
   </trkpt>
   <trkpt lat="-37.88501" lon="145.31279">
    <ele>371.24</ele>
   </trkpt>
   <trkpt lat="-37.88488" lon="145.3128">
    <ele>373.1700000000001</ele>
   </trkpt>
   <trkpt lat="-37.88429" lon="145.31272">
    <ele>385.83</ele>
   </trkpt>
   <trkpt lat="-37.88414" lon="145.31267000000003">
    <ele>388.8</ele>
   </trkpt>
   <trkpt lat="-37.88409" lon="145.31263">
    <ele>389.33</ele>
   </trkpt>
   <trkpt lat="-37.88369" lon="145.31236">
    <ele>395.51000000000005</ele>
   </trkpt>
   <trkpt lat="-37.8834" lon="145.31222000000002">
    <ele>400.70000000000005</ele>
   </trkpt>
   <trkpt lat="-37.88308" lon="145.31215">
    <ele>405.90000000000003</ele>
   </trkpt>
   <trkpt lat="-37.882740000000005" lon="145.31214">
    <ele>408.90000000000003</ele>
   </trkpt>
   <trkpt lat="-37.88266" lon="145.31217">
    <ele>409.12</ele>
   </trkpt>
   <trkpt lat="-37.8825" lon="145.31224">
    <ele>409.21000000000004</ele>
   </trkpt>
   <trkpt lat="-37.88199" lon="145.31279">
    <ele>408.05</ele>
   </trkpt>
   <trkpt lat="-37.88152" lon="145.31319000000002">
    <ele>411.44</ele>
   </trkpt>
   <trkpt lat="-37.88118" lon="145.31343">
    <ele>414.44</ele>
   </trkpt>
   <trkpt lat="-37.88082" lon="145.31362000000001">
    <ele>419.37</ele>
   </trkpt>
   <trkpt lat="-37.88049" lon="145.31388">
    <ele>422.93</ele>
   </trkpt>
   <trkpt lat="-37.88026" lon="145.31401000000002">
    <ele>424.90000000000003</ele>
   </trkpt>
   <trkpt lat="-37.88013" lon="145.31401000000002">
    <ele>425.73</ele>
   </trkpt>
   <trkpt lat="-37.87997" lon="145.31387">
    <ele>425.91</ele>
   </trkpt>
   <trkpt lat="-37.87988" lon="145.31388">
    <ele>425.89000000000004</ele>
   </trkpt>
   <trkpt lat="-37.87975" lon="145.31393">
    <ele>426.14</ele>
   </trkpt>
   <trkpt lat="-37.87953" lon="145.31416000000002">
    <ele>426.22</ele>
   </trkpt>
   <trkpt lat="-37.87941" lon="145.31419000000002">
    <ele>425.28000000000003</ele>
   </trkpt>
   <trkpt lat="-37.87928" lon="145.31419000000002">
    <ele>425.28000000000003</ele>
   </trkpt>
   <trkpt lat="-37.87882999993238" lon="145.31413999968586">
    <ele>421.47</ele>
   </trkpt>
   <trkpt lat="-37.87838" lon="145.31409000000002">
    <ele>416.18000000000006</ele>
   </trkpt>
   <trkpt lat="-37.87796" lon="145.31396">
    <ele>411.54</ele>
   </trkpt>
   <trkpt lat="-37.87753" lon="145.31387">
    <ele>407.52000000000004</ele>
   </trkpt>
   <trkpt lat="-37.87729" lon="145.31387">
    <ele>402.95000000000005</ele>
   </trkpt>
   <trkpt lat="-37.87684" lon="145.31383000000002">
    <ele>397.49</ele>
   </trkpt>
   <trkpt lat="-37.87635" lon="145.31387">
    <ele>391.18</ele>
   </trkpt>
   <trkpt lat="-37.87585" lon="145.31401000000002">
    <ele>385.59000000000003</ele>
   </trkpt>
   <trkpt lat="-37.8757" lon="145.31402">
    <ele>385.59000000000003</ele>
   </trkpt>
   <trkpt lat="-37.87532" lon="145.31391000000002">
    <ele>381.12</ele>
   </trkpt>
   <trkpt lat="-37.87489" lon="145.31387">
    <ele>378.09000000000003</ele>
   </trkpt>
   <trkpt lat="-37.87447" lon="145.31404">
    <ele>374.02000000000004</ele>
   </trkpt>
   <trkpt lat="-37.8742" lon="145.31409000000002">
    <ele>371.9</ele>
   </trkpt>
   <trkpt lat="-37.87413" lon="145.31405">
    <ele>371.68</ele>
   </trkpt>
   <trkpt lat="-37.874120000000005" lon="145.31405">
    <ele>371.68</ele>
   </trkpt>
   <trkpt lat="-37.87366" lon="145.31386">
    <ele>370.35</ele>
   </trkpt>
   <trkpt lat="-37.87344" lon="145.31381000000002">
    <ele>369.45000000000005</ele>
   </trkpt>
   <trkpt lat="-37.87288" lon="145.31377">
    <ele>367.51</ele>
   </trkpt>
   <trkpt lat="-37.872600000000006" lon="145.31367">
    <ele>364.35</ele>
   </trkpt>
   <trkpt lat="-37.87241" lon="145.3135">
    <ele>361.05</ele>
   </trkpt>
   <trkpt lat="-37.87229" lon="145.31326">
    <ele>360.12000000000006</ele>
   </trkpt>
   <trkpt lat="-37.87227" lon="145.31307">
    <ele>357.58</ele>
   </trkpt>
   <trkpt lat="-37.87229" lon="145.31288">
    <ele>355.93</ele>
   </trkpt>
   <trkpt lat="-37.87254" lon="145.31233">
    <ele>349.92</ele>
   </trkpt>
   <trkpt lat="-37.87259" lon="145.31212000000002">
    <ele>348.62000000000006</ele>
   </trkpt>
   <trkpt lat="-37.87254" lon="145.31198">
    <ele>348.04</ele>
   </trkpt>
   <trkpt lat="-37.87245" lon="145.31188">
    <ele>348.80000000000007</ele>
   </trkpt>
   <trkpt lat="-37.87236" lon="145.31185000000002">
    <ele>350.0</ele>
   </trkpt>
   <trkpt lat="-37.87227" lon="145.31188">
    <ele>351.89000000000004</ele>
   </trkpt>
   <trkpt lat="-37.87201" lon="145.31204000000002">
    <ele>360.53000000000003</ele>
   </trkpt>
   <trkpt lat="-37.87182" lon="145.31231000000002">
    <ele>370.33000000000004</ele>
   </trkpt>
   <trkpt lat="-37.87174" lon="145.31253">
    <ele>376.65000000000003</ele>
   </trkpt>
   <trkpt lat="-37.87165" lon="145.31262">
    <ele>376.65000000000003</ele>
   </trkpt>
   <trkpt lat="-37.87133" lon="145.3128">
    <ele>387.28000000000003</ele>
   </trkpt>
   <trkpt lat="-37.87127" lon="145.31286">
    <ele>389.11</ele>
   </trkpt>
   <trkpt lat="-37.87091000185914" lon="145.31352500326963">
    <ele>393.20000000000005</ele>
   </trkpt>
   <trkpt lat="-37.87055" lon="145.31419000000002">
    <ele>388.42</ele>
   </trkpt>
   <trkpt lat="-37.87064" lon="145.31427000000002">
    <ele>389.41</ele>
   </trkpt>
   <trkpt lat="-37.871" lon="145.31480000000002">
    <ele>394.89</ele>
   </trkpt>
   <trkpt lat="-37.871190000000006" lon="145.31547">
    <ele>403.91</ele>
   </trkpt>
   <trkpt lat="-37.87116" lon="145.31549">
    <ele>403.89000000000004</ele>
   </trkpt>
   <trkpt lat="-37.87129" lon="145.31581">
    <ele>410.23</ele>
   </trkpt>
   <trkpt lat="-37.87138" lon="145.31591">
    <ele>412.81</ele>
   </trkpt>
   <trkpt lat="-37.87149" lon="145.31611">
    <ele>420.86</ele>
   </trkpt>
   <trkpt lat="-37.87151" lon="145.31632000000002">
    <ele>423.76</ele>
   </trkpt>
   <trkpt lat="-37.87156" lon="145.31644">
    <ele>429.78000000000003</ele>
   </trkpt>
   <trkpt lat="-37.871660000000006" lon="145.31657">
    <ele>434.48</ele>
   </trkpt>
   <trkpt lat="-37.87165" lon="145.31664">
    <ele>437.72</ele>
   </trkpt>
   <trkpt lat="-37.87171" lon="145.31671">
    <ele>437.72</ele>
   </trkpt>
   <trkpt lat="-37.87185" lon="145.31703000000002">
    <ele>449.18</ele>
   </trkpt>
   <trkpt lat="-37.87185" lon="145.31707">
    <ele>453.55000000000007</ele>
   </trkpt>
   <trkpt lat="-37.87198" lon="145.31725">
    <ele>458.24</ele>
   </trkpt>
   <trkpt lat="-37.87203" lon="145.31727">
    <ele>461.58000000000004</ele>
   </trkpt>
   <trkpt lat="-37.87209" lon="145.31742">
    <ele>465.0</ele>
   </trkpt>
   <trkpt lat="-37.87207" lon="145.3176">
    <ele>473.78000000000003</ele>
   </trkpt>
   <trkpt lat="-37.87209" lon="145.31769">
    <ele>473.78000000000003</ele>
   </trkpt>
   <trkpt lat="-37.87205" lon="145.3178">
    <ele>473.78000000000003</ele>
   </trkpt>
   <trkpt lat="-37.87205" lon="145.31793000000002">
    <ele>482.37</ele>
   </trkpt>
   <trkpt lat="-37.87209" lon="145.31822000000003">
    <ele>489.43</ele>
   </trkpt>
   <trkpt lat="-37.87207" lon="145.31839000000002">
    <ele>494.38000000000005</ele>
   </trkpt>
   <trkpt lat="-37.872130000000006" lon="145.31845">
    <ele>497.43</ele>
   </trkpt>
   <trkpt lat="-37.87209" lon="145.31856000000002">
    <ele>500.3500000000001</ele>
   </trkpt>
   <trkpt lat="-37.87212" lon="145.31863">
    <ele>503.16</ele>
   </trkpt>
   <trkpt lat="-37.87212" lon="145.31871">
    <ele>504.48</ele>
   </trkpt>
   <trkpt lat="-37.87216" lon="145.31882000000002">
    <ele>506.38000000000005</ele>
   </trkpt>
   <trkpt lat="-37.87216" lon="145.3188">
    <ele>506.38000000000005</ele>
   </trkpt>
   <trkpt lat="-37.87218" lon="145.31887">
    <ele>507.9600000000001</ele>
   </trkpt>
   <trkpt lat="-37.87219" lon="145.31912">
    <ele>511.8400000000001</ele>
   </trkpt>
   <trkpt lat="-37.87209" lon="145.31921">
    <ele>512.2500000000001</ele>
   </trkpt>
   <trkpt lat="-37.87207" lon="145.31929000000002">
    <ele>512.96</ele>
   </trkpt>
   <trkpt lat="-37.87207" lon="145.31941">
    <ele>513.41</ele>
   </trkpt>
   <trkpt lat="-37.87214" lon="145.31954000000002">
    <ele>513.82</ele>
   </trkpt>
   <trkpt lat="-37.87218" lon="145.31958">
    <ele>514.19</ele>
   </trkpt>
   <trkpt lat="-37.87225" lon="145.3196">
    <ele>514.51</ele>
   </trkpt>
   <trkpt lat="-37.87238" lon="145.31959">
    <ele>514.72</ele>
   </trkpt>
   <trkpt lat="-37.87243" lon="145.31956000000002">
    <ele>514.83</ele>
   </trkpt>
   <trkpt lat="-37.87243" lon="145.31962000000001">
    <ele>515.0400000000001</ele>
   </trkpt>
   <trkpt lat="-37.87285" lon="145.31964000000002">
    <ele>514.73</ele>
   </trkpt>
   <trkpt lat="-37.87275" lon="145.31964000000002">
    <ele>515.09</ele>
   </trkpt>
   <trkpt lat="-37.87303" lon="145.31965000000002">
    <ele>513.6400000000001</ele>
   </trkpt>
   <trkpt lat="-37.87328" lon="145.3197">
    <ele>511.58000000000004</ele>
   </trkpt>
   <trkpt lat="-37.87355" lon="145.31979">
    <ele>509.51</ele>
   </trkpt>
   <trkpt lat="-37.874" lon="145.32000000000002">
    <ele>503.72</ele>
   </trkpt>
   <trkpt lat="-37.87415" lon="145.32003">
    <ele>501.74000000000007</ele>
   </trkpt>
   <trkpt lat="-37.87442" lon="145.32003">
    <ele>497.85</ele>
   </trkpt>
   <trkpt lat="-37.87473" lon="145.32017000000002">
    <ele>495.37</ele>
   </trkpt>
   <trkpt lat="-37.87491" lon="145.3202">
    <ele>493.74000000000007</ele>
   </trkpt>
   <trkpt lat="-37.874985003652874" lon="145.32112999899306">
    <ele>490.78000000000003</ele>
   </trkpt>
   <trkpt lat="-37.875060000000005" lon="145.32206000000002">
    <ele>494.68000000000006</ele>
   </trkpt>
   <trkpt lat="-37.87518" lon="145.32201">
    <ele>494.24000000000007</ele>
   </trkpt>
   <trkpt lat="-37.87529" lon="145.32202">
    <ele>494.05</ele>
   </trkpt>
   <trkpt lat="-37.87568" lon="145.32217">
    <ele>494.27000000000004</ele>
   </trkpt>
   <trkpt lat="-37.876215000218856" lon="145.322354998682">
    <ele>495.28000000000003</ele>
   </trkpt>
   <trkpt lat="-37.87675" lon="145.32254">
    <ele>493.66</ele>
   </trkpt>
   <trkpt lat="-37.877" lon="145.32270000000003">
    <ele>495.3500000000001</ele>
   </trkpt>
   <trkpt lat="-37.87783" lon="145.32313000000002">
    <ele>498.09000000000003</ele>
   </trkpt>
   <trkpt lat="-37.8782" lon="145.32342">
    <ele>497.6</ele>
   </trkpt>
   <trkpt lat="-37.8787" lon="145.32406">
    <ele>498.37</ele>
   </trkpt>
   <trkpt lat="-37.87892" lon="145.32431000000003">
    <ele>499.37</ele>
   </trkpt>
   <trkpt lat="-37.87932" lon="145.32488">
    <ele>498.37</ele>
   </trkpt>
   <trkpt lat="-37.87993" lon="145.32551">
    <ele>493.02</ele>
   </trkpt>
   <trkpt lat="-37.88067" lon="145.32611">
    <ele>485.61</ele>
   </trkpt>
   <trkpt lat="-37.88132" lon="145.32653000000002">
    <ele>478.71000000000004</ele>
   </trkpt>
   <trkpt lat="-37.88172" lon="145.32688000000002">
    <ele>474.05</ele>
   </trkpt>
   <trkpt lat="-37.88181" lon="145.32698000000002">
    <ele>473.64000000000004</ele>
   </trkpt>
   <trkpt lat="-37.88201" lon="145.32736">
    <ele>471.54</ele>
   </trkpt>
   <trkpt lat="-37.88223" lon="145.32806000000002">
    <ele>465.51000000000005</ele>
   </trkpt>
   <trkpt lat="-37.88241" lon="145.32832000000002">
    <ele>461.85</ele>
   </trkpt>
   <trkpt lat="-37.88264" lon="145.32853">
    <ele>455.94</ele>
   </trkpt>
   <trkpt lat="-37.88284" lon="145.32863">
    <ele>451.94000000000005</ele>
   </trkpt>
   <trkpt lat="-37.88311" lon="145.32864">
    <ele>446.75</ele>
   </trkpt>
   <trkpt lat="-37.88342" lon="145.32859000000002">
    <ele>442.64000000000004</ele>
   </trkpt>
   <trkpt lat="-37.88378" lon="145.32857">
    <ele>436.86</ele>
   </trkpt>
   <trkpt lat="-37.88407" lon="145.32862">
    <ele>431.17</ele>
   </trkpt>
   <trkpt lat="-37.88447" lon="145.32879">
    <ele>424.71000000000004</ele>
   </trkpt>
   <trkpt lat="-37.88499" lon="145.32899">
    <ele>412.7</ele>
   </trkpt>
   <trkpt lat="-37.88555" lon="145.32899">
    <ele>402.14000000000004</ele>
   </trkpt>
   <trkpt lat="-37.88584" lon="145.32891">
    <ele>396.20000000000005</ele>
   </trkpt>
   <trkpt lat="-37.88604" lon="145.32873">
    <ele>387.87000000000006</ele>
   </trkpt>
   <trkpt lat="-37.88624" lon="145.32841000000002">
    <ele>382.14000000000004</ele>
   </trkpt>
   <trkpt lat="-37.886390000000006" lon="145.32833000000002">
    <ele>380.93000000000006</ele>
   </trkpt>
   <trkpt lat="-37.88638" lon="145.32786000000002">
    <ele>378.22</ele>
   </trkpt>
   <trkpt lat="-37.88624" lon="145.32771000000002">
    <ele>377.73</ele>
   </trkpt>
   <trkpt lat="-37.8862" lon="145.3274">
    <ele>376.56</ele>
   </trkpt>
   <trkpt lat="-37.886190000000006" lon="145.32696">
    <ele>376.55000000000007</ele>
   </trkpt>
   <trkpt lat="-37.88608" lon="145.32707000000002">
    <ele>374.89000000000004</ele>
   </trkpt>
   <trkpt lat="-37.8857" lon="145.3273">
    <ele>370.83000000000004</ele>
   </trkpt>
   <trkpt lat="-37.88559" lon="145.32723000000001">
    <ele>369.29</ele>
   </trkpt>
   <trkpt lat="-37.88555" lon="145.32716000000002">
    <ele>368.81</ele>
   </trkpt>
   <trkpt lat="-37.88546" lon="145.32689000000002">
    <ele>365.91</ele>
   </trkpt>
   <trkpt lat="-37.88539" lon="145.32682">
    <ele>364.89000000000004</ele>
   </trkpt>
   <trkpt lat="-37.88532" lon="145.32677">
    <ele>363.51000000000005</ele>
   </trkpt>
   <trkpt lat="-37.88517" lon="145.32679000000002">
    <ele>361.52</ele>
   </trkpt>
   <trkpt lat="-37.8851" lon="145.32674">
    <ele>361.52</ele>
   </trkpt>
   <trkpt lat="-37.88503" lon="145.32657">
    <ele>359.6</ele>
   </trkpt>
   <trkpt lat="-37.88501" lon="145.32641">
    <ele>357.22</ele>
   </trkpt>
   <trkpt lat="-37.88481" lon="145.32615">
    <ele>355.29</ele>
   </trkpt>
   <trkpt lat="-37.88472" lon="145.32611">
    <ele>353.72</ele>
   </trkpt>
   <trkpt lat="-37.8847" lon="145.32606">
    <ele>353.72</ele>
   </trkpt>
   <trkpt lat="-37.88467" lon="145.32594">
    <ele>352.7</ele>
   </trkpt>
   <trkpt lat="-37.88472" lon="145.32581000000002">
    <ele>351.82</ele>
   </trkpt>
   <trkpt lat="-37.88483" lon="145.32566">
    <ele>349.78000000000003</ele>
   </trkpt>
   <trkpt lat="-37.8849" lon="145.32534">
    <ele>345.77000000000004</ele>
   </trkpt>
   <trkpt lat="-37.88494" lon="145.32504">
    <ele>341.23</ele>
   </trkpt>
   <trkpt lat="-37.88494" lon="145.32475000000002">
    <ele>337.78000000000003</ele>
   </trkpt>
   <trkpt lat="-37.8849" lon="145.32459">
    <ele>335.87</ele>
   </trkpt>
   <trkpt lat="-37.88481" lon="145.32436">
    <ele>333.70000000000005</ele>
   </trkpt>
   <trkpt lat="-37.88481" lon="145.32417">
    <ele>331.46000000000004</ele>
   </trkpt>
   <trkpt lat="-37.88483" lon="145.32404000000002">
    <ele>329.28000000000003</ele>
   </trkpt>
   <trkpt lat="-37.88481" lon="145.32355">
    <ele>317.98</ele>
   </trkpt>
   <trkpt lat="-37.8849" lon="145.32336">
    <ele>315.21000000000004</ele>
   </trkpt>
   <trkpt lat="-37.88488" lon="145.32315">
    <ele>313.76000000000005</ele>
   </trkpt>
   <trkpt lat="-37.88479" lon="145.32282">
    <ele>307.63</ele>
   </trkpt>
   <trkpt lat="-37.88465" lon="145.32261000000003">
    <ele>304.73</ele>
   </trkpt>
   <trkpt lat="-37.884570000000004" lon="145.32260000000002">
    <ele>304.72</ele>
   </trkpt>
   <trkpt lat="-37.88447" lon="145.32227">
    <ele>302.57</ele>
   </trkpt>
   <trkpt lat="-37.88443" lon="145.32186000000002">
    <ele>296.71000000000004</ele>
   </trkpt>
   <trkpt lat="-37.88432" lon="145.32141000000001">
    <ele>291.96</ele>
   </trkpt>
   <trkpt lat="-37.88423" lon="145.32127">
    <ele>290.78000000000003</ele>
   </trkpt>
   <trkpt lat="-37.88416" lon="145.3211">
    <ele>288.93</ele>
   </trkpt>
   <trkpt lat="-37.88416" lon="145.32099000000002">
    <ele>286.40000000000003</ele>
   </trkpt>
   <trkpt lat="-37.88425" lon="145.32069">
    <ele>284.63000000000005</ele>
   </trkpt>
   <trkpt lat="-37.88429" lon="145.32048">
    <ele>282.46999999999997</ele>
   </trkpt>
   <trkpt lat="-37.88425" lon="145.3202">
    <ele>279.1</ele>
   </trkpt>
   <trkpt lat="-37.88416" lon="145.31998000000002">
    <ele>277.5</ele>
   </trkpt>
   <trkpt lat="-37.88416" lon="145.31972000000002">
    <ele>276.01000000000005</ele>
   </trkpt>
   <trkpt lat="-37.88409" lon="145.31915">
    <ele>268.65</ele>
   </trkpt>
   <trkpt lat="-37.884" lon="145.31884000000002">
    <ele>266.11</ele>
   </trkpt>
   <trkpt lat="-37.88378" lon="145.31852">
    <ele>263.49</ele>
   </trkpt>
   <trkpt lat="-37.88373" lon="145.31835">
    <ele>261.53999999999996</ele>
   </trkpt>
   <trkpt lat="-37.88396" lon="145.31833">
    <ele>257.54</ele>
   </trkpt>
   <trkpt lat="-37.88429" lon="145.31839000000002">
    <ele>254.17000000000002</ele>
   </trkpt>
   <trkpt lat="-37.88479" lon="145.31835">
    <ele>244.69000000000003</ele>
   </trkpt>
   <trkpt lat="-37.88528" lon="145.31820000000002">
    <ele>237.0</ele>
   </trkpt>
   <trkpt lat="-37.88537" lon="145.31811000000002">
    <ele>236.15000000000003</ele>
   </trkpt>
   <trkpt lat="-37.88546" lon="145.31806">
    <ele>235.48000000000002</ele>
   </trkpt>
   <trkpt lat="-37.88553" lon="145.31806">
    <ele>235.32000000000002</ele>
   </trkpt>
   <trkpt lat="-37.885740000000006" lon="145.31805">
    <ele>232.68</ele>
   </trkpt>
   <trkpt lat="-37.885830000000006" lon="145.31797">
    <ele>231.49000000000004</ele>
   </trkpt>
   <trkpt lat="-37.88611" lon="145.31784000000002">
    <ele>229.43</ele>
   </trkpt>
   <trkpt lat="-37.88667" lon="145.31742">
    <ele>227.94000000000003</ele>
   </trkpt>
   <trkpt lat="-37.886880000000005" lon="145.31755">
    <ele>225.07000000000002</ele>
   </trkpt>
   <trkpt lat="-37.88712" lon="145.31764">
    <ele>220.83</ele>
   </trkpt>
   <trkpt lat="-37.88761" lon="145.31761">
    <ele>213.96</ele>
   </trkpt>
   <trkpt lat="-37.88772" lon="145.31759000000002">
    <ele>212.26</ele>
   </trkpt>
   <trkpt lat="-37.88781" lon="145.31755">
    <ele>210.71</ele>
   </trkpt>
   <trkpt lat="-37.88787000000001" lon="145.31756000000001">
    <ele>210.71</ele>
   </trkpt>
   <trkpt lat="-37.88808" lon="145.31744">
    <ele>208.39000000000001</ele>
   </trkpt>
   <trkpt lat="-37.888270000000006" lon="145.31747000000001">
    <ele>206.91</ele>
   </trkpt>
   <trkpt lat="-37.88828" lon="145.31748000000002">
    <ele>206.91</ele>
   </trkpt>
   <trkpt lat="-37.88839" lon="145.31750000000002">
    <ele>204.69</ele>
   </trkpt>
   <trkpt lat="-37.88846" lon="145.31753">
    <ele>204.69</ele>
   </trkpt>
   <trkpt lat="-37.88866" lon="145.31772">
    <ele>201.14000000000001</ele>
   </trkpt>
   <trkpt lat="-37.888830000000006" lon="145.31773">
    <ele>198.45000000000002</ele>
   </trkpt>
   <trkpt lat="-37.88884" lon="145.31775000000002">
    <ele>198.45000000000002</ele>
   </trkpt>
   <trkpt lat="-37.88893" lon="145.31777000000002">
    <ele>198.45000000000002</ele>
   </trkpt>
   <trkpt lat="-37.88895" lon="145.31774000000001">
    <ele>198.45000000000002</ele>
   </trkpt>
   <trkpt lat="-37.88931" lon="145.31776000000002">
    <ele>193.87</ele>
   </trkpt>
   <trkpt lat="-37.889410000000005" lon="145.31771">
    <ele>193.87</ele>
   </trkpt>
   <trkpt lat="-37.88967" lon="145.31767000000002">
    <ele>190.75</ele>
   </trkpt>
   <trkpt lat="-37.889810000000004" lon="145.31752">
    <ele>189.61</ele>
   </trkpt>
   <trkpt lat="-37.890280000000004" lon="145.31739000000002">
    <ele>185.8</ele>
   </trkpt>
   <trkpt lat="-37.8904" lon="145.31744">
    <ele>184.86</ele>
   </trkpt>
   <trkpt lat="-37.8905" lon="145.31752">
    <ele>183.52</ele>
   </trkpt>
   <trkpt lat="-37.89058" lon="145.31753">
    <ele>183.06000000000003</ele>
   </trkpt>
   <trkpt lat="-37.89067" lon="145.31745">
    <ele>181.56000000000003</ele>
   </trkpt>
   <trkpt lat="-37.89083" lon="145.31740000000002">
    <ele>180.27</ele>
   </trkpt>
   <trkpt lat="-37.89094" lon="145.31733">
    <ele>178.91</ele>
   </trkpt>
  </trkseg>
 </trk>
</gpx>
