<?xml version="1.0" encoding="UTF-8"?>
<gpx creator="StravaGPX" version="1.1" xmlns="http://www.topografix.com/GPX/1/1" xmlns:xsi="http://www.w3.org/2001/XMLSchema-instance" xsi:schemaLocation="http://www.topografix.com/GPX/1/1 http://www.topografix.com/GPX/1/1/gpx.xsd">
 <metadata>
  <name>DTR April 26 8k</name>
  <author>
   <name>Richard Jones</name>
   <link href="https://www.strava.com/athletes/38085969"/>
  </author>
  <copyright author="OpenStreetMap contributors">
   <year>2020</year>
   <license>https://www.openstreetmap.org/copyright</license>
  </copyright>
  <link href="https://www.strava.com/routes/3482194237289573076"/>
 </metadata>
 <trk>
  <name>DTR April 26 8k</name>
  <link href="https://www.strava.com/routes/3482194237289573076"/>
  <type>trail_running</type>
  <trkseg>
   <trkpt lat="-37.852070000000005" lon="145.36833000000001">
    <ele>569.49</ele>
   </trkpt>
   <trkpt lat="-37.85228" lon="145.36824000000001">
    <ele>570.76</ele>
   </trkpt>
   <trkpt lat="-37.85264" lon="145.36819">
    <ele>574.3900000000001</ele>
   </trkpt>
   <trkpt lat="-37.85295" lon="145.36823">
    <ele>577.37</ele>
   </trkpt>
   <trkpt lat="-37.853030000000004" lon="145.36827000000002">
    <ele>578.1</ele>
   </trkpt>
   <trkpt lat="-37.85302" lon="145.3683">
    <ele>578.3000000000001</ele>
   </trkpt>
   <trkpt lat="-37.853770000000004" lon="145.36868">
    <ele>579.1500000000001</ele>
   </trkpt>
   <trkpt lat="-37.85369" lon="145.36877">
    <ele>584.99</ele>
   </trkpt>
   <trkpt lat="-37.8536" lon="145.36897000000002">
    <ele>581.87</ele>
   </trkpt>
   <trkpt lat="-37.85356" lon="145.36916000000002">
    <ele>580.79</ele>
   </trkpt>
   <trkpt lat="-37.85398" lon="145.36955">
    <ele>573.7500000000001</ele>
   </trkpt>
   <trkpt lat="-37.85401" lon="145.36961000000002">
    <ele>573.7500000000001</ele>
   </trkpt>
   <trkpt lat="-37.85405" lon="145.36988000000002">
    <ele>574.33</ele>
   </trkpt>
   <trkpt lat="-37.85396" lon="145.37069000000002">
    <ele>576.85</ele>
   </trkpt>
   <trkpt lat="-37.85394" lon="145.37123000000003">
    <ele>578.98</ele>
   </trkpt>
   <trkpt lat="-37.854040000000005" lon="145.37130000000002">
    <ele>578.9200000000001</ele>
   </trkpt>
   <trkpt lat="-37.854020000000006" lon="145.3717">
    <ele>579.22</ele>
   </trkpt>
   <trkpt lat="-37.853910000000006" lon="145.37178">
    <ele>578.87</ele>
   </trkpt>
   <trkpt lat="-37.85385" lon="145.37194000000002">
    <ele>578.4</ele>
   </trkpt>
   <trkpt lat="-37.85351" lon="145.372">
    <ele>589.0000000000001</ele>
   </trkpt>
   <trkpt lat="-37.85345" lon="145.37213">
    <ele>587.99</ele>
   </trkpt>
   <trkpt lat="-37.85327" lon="145.37266000000002">
    <ele>583.67</ele>
   </trkpt>
   <trkpt lat="-37.85302" lon="145.37285">
    <ele>580.8199999999999</ele>
   </trkpt>
   <trkpt lat="-37.852410000000006" lon="145.37344000000002">
    <ele>570.85</ele>
   </trkpt>
   <trkpt lat="-37.852430000000005" lon="145.37343">
    <ele>570.95</ele>
   </trkpt>
   <trkpt lat="-37.85237" lon="145.37348">
    <ele>569.96</ele>
   </trkpt>
   <trkpt lat="-37.85201500090855" lon="145.3739800026167">
    <ele>564.7500000000001</ele>
   </trkpt>
   <trkpt lat="-37.85166" lon="145.37448">
    <ele>558.67</ele>
   </trkpt>
   <trkpt lat="-37.85123" lon="145.37497000000002">
    <ele>553.73</ele>
   </trkpt>
   <trkpt lat="-37.85085" lon="145.37551000000002">
    <ele>544.88</ele>
   </trkpt>
   <trkpt lat="-37.85054" lon="145.37566">
    <ele>539.46</ele>
   </trkpt>
   <trkpt lat="-37.8502" lon="145.37568000000002">
    <ele>535.78</ele>
   </trkpt>
   <trkpt lat="-37.84998" lon="145.37583">
    <ele>533.24</ele>
   </trkpt>
   <trkpt lat="-37.84986" lon="145.37582">
    <ele>531.22</ele>
   </trkpt>
   <trkpt lat="-37.8498" lon="145.37588000000002">
    <ele>530.51</ele>
   </trkpt>
   <trkpt lat="-37.84971" lon="145.37617">
    <ele>527.44</ele>
   </trkpt>
   <trkpt lat="-37.84933" lon="145.37653">
    <ele>521.66</ele>
   </trkpt>
   <trkpt lat="-37.84900000068813" lon="145.3769300017761">
    <ele>509.21000000000004</ele>
   </trkpt>
   <trkpt lat="-37.848670000000006" lon="145.37733">
    <ele>502.2000000000001</ele>
   </trkpt>
   <trkpt lat="-37.84859" lon="145.37743">
    <ele>501.44</ele>
   </trkpt>
   <trkpt lat="-37.84799" lon="145.37777">
    <ele>491.7900000000001</ele>
   </trkpt>
   <trkpt lat="-37.84758" lon="145.37766000000002">
    <ele>488.05</ele>
   </trkpt>
   <trkpt lat="-37.84731" lon="145.37754">
    <ele>483.68000000000006</ele>
   </trkpt>
   <trkpt lat="-37.84729" lon="145.37757000000002">
    <ele>483.71000000000004</ele>
   </trkpt>
   <trkpt lat="-37.84727" lon="145.37789">
    <ele>481.50000000000006</ele>
   </trkpt>
   <trkpt lat="-37.84727" lon="145.37793000000002">
    <ele>481.26</ele>
   </trkpt>
   <trkpt lat="-37.84729" lon="145.37757000000002">
    <ele>483.71000000000004</ele>
   </trkpt>
   <trkpt lat="-37.84727" lon="145.37806">
    <ele>480.88</ele>
   </trkpt>
   <trkpt lat="-37.84736" lon="145.37844">
    <ele>478.88</ele>
   </trkpt>
   <trkpt lat="-37.84738" lon="145.37852">
    <ele>477.15000000000003</ele>
   </trkpt>
   <trkpt lat="-37.8476" lon="145.37883000000002">
    <ele>476.43</ele>
   </trkpt>
   <trkpt lat="-37.84772" lon="145.37890000000002">
    <ele>471.97</ele>
   </trkpt>
   <trkpt lat="-37.84792" lon="145.37897">
    <ele>471.97</ele>
   </trkpt>
   <trkpt lat="-37.8481" lon="145.37898">
    <ele>471.28000000000003</ele>
   </trkpt>
   <trkpt lat="-37.84873" lon="145.37891000000002">
    <ele>465.45000000000005</ele>
   </trkpt>
   <trkpt lat="-37.849090000000004" lon="145.37893000000003">
    <ele>462.83</ele>
   </trkpt>
   <trkpt lat="-37.84933" lon="145.37897">
    <ele>461.62</ele>
   </trkpt>
   <trkpt lat="-37.84978" lon="145.37912">
    <ele>458.52000000000004</ele>
   </trkpt>
   <trkpt lat="-37.850350000000006" lon="145.37915">
    <ele>454.81000000000006</ele>
   </trkpt>
   <trkpt lat="-37.85013" lon="145.37923">
    <ele>452.64000000000004</ele>
   </trkpt>
   <trkpt lat="-37.84984" lon="145.37939">
    <ele>448.26000000000005</ele>
   </trkpt>
   <trkpt lat="-37.849610000000006" lon="145.37948">
    <ele>445.20000000000005</ele>
   </trkpt>
   <trkpt lat="-37.84901" lon="145.37963000000002">
    <ele>434.03000000000003</ele>
   </trkpt>
   <trkpt lat="-37.8489" lon="145.37968">
    <ele>434.03000000000003</ele>
   </trkpt>
   <trkpt lat="-37.848760000000006" lon="145.37978">
    <ele>432.70000000000005</ele>
   </trkpt>
   <trkpt lat="-37.848620000000004" lon="145.37991000000002">
    <ele>429.54</ele>
   </trkpt>
   <trkpt lat="-37.84861" lon="145.37992">
    <ele>428.49</ele>
   </trkpt>
   <trkpt lat="-37.84816" lon="145.38036000000002">
    <ele>425.24000000000007</ele>
   </trkpt>
   <trkpt lat="-37.84796" lon="145.38060000000002">
    <ele>412.22</ele>
   </trkpt>
   <trkpt lat="-37.84756500055918" lon="145.38098500212817">
    <ele>409.03000000000003</ele>
   </trkpt>
   <trkpt lat="-37.847170000000006" lon="145.38137">
    <ele>402.38</ele>
   </trkpt>
   <trkpt lat="-37.84671" lon="145.38162">
    <ele>394.04</ele>
   </trkpt>
   <trkpt lat="-37.8466" lon="145.38173">
    <ele>392.88</ele>
   </trkpt>
   <trkpt lat="-37.84655" lon="145.38184">
    <ele>390.71000000000004</ele>
   </trkpt>
   <trkpt lat="-37.84658" lon="145.38203000000001">
    <ele>388.98</ele>
   </trkpt>
   <trkpt lat="-37.84642" lon="145.3819">
    <ele>390.95</ele>
   </trkpt>
   <trkpt lat="-37.84624" lon="145.38131">
    <ele>401.70000000000005</ele>
   </trkpt>
   <trkpt lat="-37.846230000000006" lon="145.3813">
    <ele>401.56</ele>
   </trkpt>
   <trkpt lat="-37.84619" lon="145.38119">
    <ele>404.38</ele>
   </trkpt>
   <trkpt lat="-37.84611000555022" lon="145.38037999826554">
    <ele>420.31</ele>
   </trkpt>
   <trkpt lat="-37.8460300055525" lon="145.3795699982885">
    <ele>431.45000000000005</ele>
   </trkpt>
   <trkpt lat="-37.84595" lon="145.37876">
    <ele>440.15000000000003</ele>
   </trkpt>
   <trkpt lat="-37.84575" lon="145.37785000000002">
    <ele>449.36</ele>
   </trkpt>
   <trkpt lat="-37.84575" lon="145.37768">
    <ele>451.31000000000006</ele>
   </trkpt>
   <trkpt lat="-37.84582" lon="145.37730000000002">
    <ele>455.76000000000005</ele>
   </trkpt>
   <trkpt lat="-37.84523" lon="145.37737">
    <ele>441.90000000000003</ele>
   </trkpt>
   <trkpt lat="-37.84492" lon="145.37729000000002">
    <ele>437.11000000000007</ele>
   </trkpt>
   <trkpt lat="-37.84431" lon="145.37730000000002">
    <ele>426.47</ele>
   </trkpt>
   <trkpt lat="-37.84384" lon="145.37723000000003">
    <ele>415.64</ele>
   </trkpt>
   <trkpt lat="-37.84355" lon="145.37730000000002">
    <ele>409.36000000000007</ele>
   </trkpt>
   <trkpt lat="-37.843560000000004" lon="145.37730000000002">
    <ele>409.57000000000005</ele>
   </trkpt>
   <trkpt lat="-37.84333" lon="145.37742">
    <ele>404.05</ele>
   </trkpt>
   <trkpt lat="-37.84326" lon="145.37756000000002">
    <ele>402.0</ele>
   </trkpt>
   <trkpt lat="-37.84324" lon="145.37767000000002">
    <ele>400.88</ele>
   </trkpt>
   <trkpt lat="-37.84326" lon="145.3778">
    <ele>399.93</ele>
   </trkpt>
   <trkpt lat="-37.84333" lon="145.37800000000001">
    <ele>398.17</ele>
   </trkpt>
   <trkpt lat="-37.84375" lon="145.37878">
    <ele>388.04</ele>
   </trkpt>
   <trkpt lat="-37.84411" lon="145.37913">
    <ele>383.66</ele>
   </trkpt>
   <trkpt lat="-37.84427" lon="145.37936000000002">
    <ele>378.82000000000005</ele>
   </trkpt>
   <trkpt lat="-37.8444" lon="145.37967">
    <ele>376.20000000000005</ele>
   </trkpt>
   <trkpt lat="-37.84451" lon="145.38000000000002">
    <ele>370.71000000000004</ele>
   </trkpt>
   <trkpt lat="-37.84451" lon="145.3802">
    <ele>367.85</ele>
   </trkpt>
   <trkpt lat="-37.84449" lon="145.38033000000001">
    <ele>367.85</ele>
   </trkpt>
   <trkpt lat="-37.844440000000006" lon="145.3804">
    <ele>365.50000000000006</ele>
   </trkpt>
   <trkpt lat="-37.84472500128578" lon="145.38095999775703">
    <ele>363.88000000000005</ele>
   </trkpt>
   <trkpt lat="-37.84501" lon="145.38152000000002">
    <ele>359.39000000000004</ele>
   </trkpt>
   <trkpt lat="-37.84521" lon="145.38202">
    <ele>355.09000000000003</ele>
   </trkpt>
   <trkpt lat="-37.84532" lon="145.38224000000002">
    <ele>353.7</ele>
   </trkpt>
   <trkpt lat="-37.84539" lon="145.38249000000002">
    <ele>352.37</ele>
   </trkpt>
   <trkpt lat="-37.84548" lon="145.38314000000003">
    <ele>345.68000000000006</ele>
   </trkpt>
   <trkpt lat="-37.84554" lon="145.38338000000002">
    <ele>343.04</ele>
   </trkpt>
   <trkpt lat="-37.84554" lon="145.38366000000002">
    <ele>338.26</ele>
   </trkpt>
   <trkpt lat="-37.84548" lon="145.38393000000002">
    <ele>334.69000000000005</ele>
   </trkpt>
   <trkpt lat="-37.84548" lon="145.38412000000002">
    <ele>331.44</ele>
   </trkpt>
   <trkpt lat="-37.84539" lon="145.38446000000002">
    <ele>327.91</ele>
   </trkpt>
   <trkpt lat="-37.84534" lon="145.3845">
    <ele>325.99</ele>
   </trkpt>
   <trkpt lat="-37.84528" lon="145.38482000000002">
    <ele>323.05</ele>
   </trkpt>
   <trkpt lat="-37.845040000000004" lon="145.38504">
    <ele>321.32000000000005</ele>
   </trkpt>
   <trkpt lat="-37.84512" lon="145.38515">
    <ele>321.01</ele>
   </trkpt>
   <trkpt lat="-37.8451" lon="145.38520000000003">
    <ele>321.01</ele>
   </trkpt>
   <trkpt lat="-37.84507" lon="145.38525">
    <ele>320.99000000000007</ele>
   </trkpt>
   <trkpt lat="-37.844930000000005" lon="145.38529">
    <ele>320.76000000000005</ele>
   </trkpt>
   <trkpt lat="-37.84487" lon="145.3854">
    <ele>319.78000000000003</ele>
   </trkpt>
   <trkpt lat="-37.84483" lon="145.38562000000002">
    <ele>319.04</ele>
   </trkpt>
   <trkpt lat="-37.844480000000004" lon="145.3861">
    <ele>313.71999999999997</ele>
   </trkpt>
   <trkpt lat="-37.84449" lon="145.38609000000002">
    <ele>313.76000000000005</ele>
   </trkpt>
   <trkpt lat="-37.84407" lon="145.38666">
    <ele>305.76000000000005</ele>
   </trkpt>
   <trkpt lat="-37.8438" lon="145.38695">
    <ele>302.42</ele>
   </trkpt>
   <trkpt lat="-37.84369" lon="145.38717000000003">
    <ele>298.96</ele>
   </trkpt>
   <trkpt lat="-37.84337" lon="145.38748">
    <ele>294.19</ele>
   </trkpt>
   <trkpt lat="-37.84317" lon="145.38776000000001">
    <ele>291.71000000000004</ele>
   </trkpt>
   <trkpt lat="-37.84297" lon="145.38794000000001">
    <ele>288.56000000000006</ele>
   </trkpt>
   <trkpt lat="-37.842830000000006" lon="145.38816">
    <ele>288.56000000000006</ele>
   </trkpt>
   <trkpt lat="-37.84243" lon="145.38848000000002">
    <ele>282.48</ele>
   </trkpt>
   <trkpt lat="-37.84237" lon="145.38848000000002">
    <ele>281.72</ele>
   </trkpt>
   <trkpt lat="-37.84237" lon="145.38825">
    <ele>280.99</ele>
   </trkpt>
   <trkpt lat="-37.842470000000006" lon="145.38771">
    <ele>279.01000000000005</ele>
   </trkpt>
   <trkpt lat="-37.84261" lon="145.38726">
    <ele>278.46000000000004</ele>
   </trkpt>
   <trkpt lat="-37.84268" lon="145.38661000000002">
    <ele>277.44</ele>
   </trkpt>
   <trkpt lat="-37.842690000000005" lon="145.38656">
    <ele>277.41</ele>
   </trkpt>
   <trkpt lat="-37.8427" lon="145.38637">
    <ele>277.47</ele>
   </trkpt>
   <trkpt lat="-37.84277" lon="145.38612">
    <ele>277.68</ele>
   </trkpt>
   <trkpt lat="-37.84286" lon="145.38585">
    <ele>278.28000000000003</ele>
   </trkpt>
   <trkpt lat="-37.84299" lon="145.38529">
    <ele>279.81</ele>
   </trkpt>
   <trkpt lat="-37.84304" lon="145.38501000000002">
    <ele>280.63000000000005</ele>
   </trkpt>
   <trkpt lat="-37.84299" lon="145.38485">
    <ele>281.34000000000003</ele>
   </trkpt>
   <trkpt lat="-37.84292000000001" lon="145.38473000000002">
    <ele>281.66</ele>
   </trkpt>
   <trkpt lat="-37.84297" lon="145.38451">
    <ele>283.33000000000004</ele>
   </trkpt>
   <trkpt lat="-37.84295" lon="145.38430000000002">
    <ele>286.75</ele>
   </trkpt>
   <trkpt lat="-37.84286" lon="145.38411000000002">
    <ele>287.83000000000004</ele>
   </trkpt>
   <trkpt lat="-37.84281" lon="145.38376000000002">
    <ele>291.64</ele>
   </trkpt>
   <trkpt lat="-37.84281" lon="145.38304000000002">
    <ele>296.74</ele>
   </trkpt>
   <trkpt lat="-37.84279" lon="145.38266000000002">
    <ele>300.12</ele>
   </trkpt>
   <trkpt lat="-37.84272" lon="145.38237">
    <ele>303.94000000000005</ele>
   </trkpt>
   <trkpt lat="-37.84263" lon="145.38217">
    <ele>305.76000000000005</ele>
   </trkpt>
   <trkpt lat="-37.84248" lon="145.38167">
    <ele>311.88000000000005</ele>
   </trkpt>
   <trkpt lat="-37.84248" lon="145.38133000000002">
    <ele>313.97</ele>
   </trkpt>
   <trkpt lat="-37.84243" lon="145.38109">
    <ele>316.01</ele>
   </trkpt>
   <trkpt lat="-37.8423" lon="145.38066">
    <ele>320.6</ele>
   </trkpt>
   <trkpt lat="-37.84205" lon="145.38012">
    <ele>324.61</ele>
   </trkpt>
   <trkpt lat="-37.84201" lon="145.38002">
    <ele>324.66</ele>
   </trkpt>
   <trkpt lat="-37.84185" lon="145.37971000000002">
    <ele>326.17</ele>
   </trkpt>
   <trkpt lat="-37.84154" lon="145.37922">
    <ele>328.13000000000005</ele>
   </trkpt>
   <trkpt lat="-37.84122" lon="145.37847000000002">
    <ele>329.99</ele>
   </trkpt>
   <trkpt lat="-37.84103" lon="145.37786">
    <ele>332.87000000000006</ele>
   </trkpt>
   <trkpt lat="-37.840990000000005" lon="145.37779">
    <ele>332.90000000000003</ele>
   </trkpt>
   <trkpt lat="-37.840970000000006" lon="145.37764">
    <ele>333.90000000000003</ele>
   </trkpt>
   <trkpt lat="-37.84089" lon="145.37754">
    <ele>335.29</ele>
   </trkpt>
   <trkpt lat="-37.84046" lon="145.37711000000002">
    <ele>343.08000000000004</ele>
   </trkpt>
   <trkpt lat="-37.84038" lon="145.37698">
    <ele>345.34000000000003</ele>
   </trkpt>
   <trkpt lat="-37.84038" lon="145.37699">
    <ele>345.28000000000003</ele>
   </trkpt>
   <trkpt lat="-37.84024" lon="145.37681">
    <ele>350.09000000000003</ele>
   </trkpt>
   <trkpt lat="-37.83999500117897" lon="145.37628499828548">
    <ele>355.06000000000006</ele>
   </trkpt>
   <trkpt lat="-37.83975" lon="145.37576">
    <ele>361.3</ele>
   </trkpt>
   <trkpt lat="-37.83948000276182" lon="145.37494999699896">
    <ele>370.59000000000003</ele>
   </trkpt>
   <trkpt lat="-37.83921" lon="145.37414">
    <ele>378.61000000000007</ele>
   </trkpt>
   <trkpt lat="-37.8391" lon="145.37399000000002">
    <ele>379.26000000000005</ele>
   </trkpt>
   <trkpt lat="-37.83883" lon="145.37376">
    <ele>380.14000000000004</ele>
   </trkpt>
   <trkpt lat="-37.83858" lon="145.37359">
    <ele>380.31</ele>
   </trkpt>
   <trkpt lat="-37.83847" lon="145.37354000000002">
    <ele>381.15000000000003</ele>
   </trkpt>
   <trkpt lat="-37.83822" lon="145.37348">
    <ele>384.21999999999997</ele>
   </trkpt>
   <trkpt lat="-37.83805" lon="145.37351">
    <ele>390.24</ele>
   </trkpt>
   <trkpt lat="-37.83791" lon="145.37358">
    <ele>393.45</ele>
   </trkpt>
   <trkpt lat="-37.83784" lon="145.37368">
    <ele>395.62</ele>
   </trkpt>
   <trkpt lat="-37.83764" lon="145.37427000000002">
    <ele>404.47</ele>
   </trkpt>
   <trkpt lat="-37.83746" lon="145.37449">
    <ele>406.52000000000004</ele>
   </trkpt>
   <trkpt lat="-37.83735" lon="145.37466">
    <ele>406.87</ele>
   </trkpt>
   <trkpt lat="-37.83719" lon="145.37407000000002">
    <ele>408.47</ele>
   </trkpt>
   <trkpt lat="-37.83719" lon="145.37388">
    <ele>408.89000000000004</ele>
   </trkpt>
   <trkpt lat="-37.83708" lon="145.37331">
    <ele>412.86000000000007</ele>
   </trkpt>
   <trkpt lat="-37.83699" lon="145.37235">
    <ele>422.89000000000004</ele>
   </trkpt>
   <trkpt lat="-37.837030000000006" lon="145.3719">
    <ele>426.90000000000003</ele>
   </trkpt>
   <trkpt lat="-37.83699" lon="145.37133">
    <ele>429.2900000000001</ele>
   </trkpt>
   <trkpt lat="-37.837030000000006" lon="145.37094000000002">
    <ele>430.92</ele>
   </trkpt>
   <trkpt lat="-37.83701000000001" lon="145.37063">
    <ele>434.16</ele>
   </trkpt>
   <trkpt lat="-37.83737" lon="145.37053">
    <ele>433.81</ele>
   </trkpt>
   <trkpt lat="-37.83769" lon="145.37040000000002">
    <ele>430.11</ele>
   </trkpt>
   <trkpt lat="-37.837790000000005" lon="145.37034">
    <ele>429.70000000000005</ele>
   </trkpt>
   <trkpt lat="-37.83849" lon="145.36997000000002">
    <ele>436.55000000000007</ele>
   </trkpt>
   <trkpt lat="-37.83869" lon="145.36991">
    <ele>440.36</ele>
   </trkpt>
   <trkpt lat="-37.83885" lon="145.3698">
    <ele>442.32000000000005</ele>
   </trkpt>
   <trkpt lat="-37.8391" lon="145.36968000000002">
    <ele>445.22</ele>
   </trkpt>
   <trkpt lat="-37.839560000000006" lon="145.36941000000002">
    <ele>453.56</ele>
   </trkpt>
   <trkpt lat="-37.83975" lon="145.36926000000003">
    <ele>455.79</ele>
   </trkpt>
   <trkpt lat="-37.839940000000006" lon="145.36906000000002">
    <ele>460.53000000000003</ele>
   </trkpt>
   <trkpt lat="-37.83999" lon="145.36903">
    <ele>461.02000000000004</ele>
   </trkpt>
   <trkpt lat="-37.84022" lon="145.36902">
    <ele>463.16</ele>
   </trkpt>
   <trkpt lat="-37.84057" lon="145.36894">
    <ele>468.32</ele>
   </trkpt>
   <trkpt lat="-37.84087" lon="145.36892">
    <ele>472.17</ele>
   </trkpt>
   <trkpt lat="-37.840970000000006" lon="145.36842000000001">
    <ele>474.70000000000005</ele>
   </trkpt>
   <trkpt lat="-37.84096" lon="145.36811">
    <ele>476.1</ele>
   </trkpt>
   <trkpt lat="-37.84169" lon="145.36817000000002">
    <ele>485.29</ele>
   </trkpt>
   <trkpt lat="-37.84181" lon="145.36819">
    <ele>486.45000000000005</ele>
   </trkpt>
   <trkpt lat="-37.84223" lon="145.36838">
    <ele>492.04</ele>
   </trkpt>
   <trkpt lat="-37.84237" lon="145.36848">
    <ele>492.04</ele>
   </trkpt>
   <trkpt lat="-37.84299500170934" lon="145.3690999948293">
    <ele>502.51</ele>
   </trkpt>
   <trkpt lat="-37.84362" lon="145.36972">
    <ele>512.72</ele>
   </trkpt>
   <trkpt lat="-37.8438" lon="145.37016">
    <ele>516.51</ele>
   </trkpt>
   <trkpt lat="-37.84429" lon="145.37084000000002">
    <ele>520.83</ele>
   </trkpt>
   <trkpt lat="-37.84436" lon="145.37089">
    <ele>521.02</ele>
   </trkpt>
   <trkpt lat="-37.84447" lon="145.37095000000002">
    <ele>521.15</ele>
   </trkpt>
   <trkpt lat="-37.84518500013734" lon="145.37115499800083">
    <ele>521.71</ele>
   </trkpt>
   <trkpt lat="-37.8459" lon="145.37136">
    <ele>522.8000000000001</ele>
   </trkpt>
   <trkpt lat="-37.84639000034853" lon="145.37145499942892">
    <ele>523.25</ele>
   </trkpt>
   <trkpt lat="-37.846880000000006" lon="145.37155">
    <ele>524.15</ele>
   </trkpt>
   <trkpt lat="-37.84756000008286" lon="145.37166666450938">
    <ele>526.4000000000001</ele>
   </trkpt>
   <trkpt lat="-37.84824000005061" lon="145.3717833311705">
    <ele>531.97</ele>
   </trkpt>
   <trkpt lat="-37.84892" lon="145.3719">
    <ele>539.35</ele>
   </trkpt>
   <trkpt lat="-37.84904" lon="145.37184000000002">
    <ele>540.18</ele>
   </trkpt>
   <trkpt lat="-37.84915" lon="145.37173">
    <ele>540.97</ele>
   </trkpt>
   <trkpt lat="-37.849430001263556" lon="145.37117500218451">
    <ele>541.5699999999999</ele>
   </trkpt>
   <trkpt lat="-37.84971" lon="145.37062">
    <ele>542.72</ele>
   </trkpt>
   <trkpt lat="-37.84984" lon="145.37028">
    <ele>544.1100000000001</ele>
   </trkpt>
   <trkpt lat="-37.85004" lon="145.37006000000002">
    <ele>545.97</ele>
   </trkpt>
   <trkpt lat="-37.85038" lon="145.37003">
    <ele>549.44</ele>
   </trkpt>
   <trkpt lat="-37.850640000000006" lon="145.36993">
    <ele>551.95</ele>
   </trkpt>
   <trkpt lat="-37.85083" lon="145.3698">
    <ele>553.35</ele>
   </trkpt>
   <trkpt lat="-37.85107" lon="145.36952000000002">
    <ele>559.47</ele>
   </trkpt>
   <trkpt lat="-37.85141500104047" lon="145.36905500200578">
    <ele>562.74</ele>
   </trkpt>
   <trkpt lat="-37.851760000000006" lon="145.36859">
    <ele>565.8700000000001</ele>
   </trkpt>
   <trkpt lat="-37.852070000000005" lon="145.36833000000001">
    <ele>569.49</ele>
   </trkpt>
  </trkseg>
 </trk>
</gpx>
