<?xml version="1.0" encoding="UTF-8"?>
<gpx creator="StravaGPX" version="1.1" xmlns="http://www.topografix.com/GPX/1/1" xmlns:xsi="http://www.w3.org/2001/XMLSchema-instance" xsi:schemaLocation="http://www.topografix.com/GPX/1/1 http://www.topografix.com/GPX/1/1/gpx.xsd">
 <metadata>
  <name>Sunday 19 Apr 2026 - 20k</name>
  <author>
   <name>Majid Nazem 🇦🇺</name>
   <link href="https://www.strava.com/athletes/5612969"/>
  </author>
  <copyright author="OpenStreetMap contributors">
   <year>2020</year>
   <license>https://www.openstreetmap.org/copyright</license>
  </copyright>
  <link href="https://www.strava.com/routes/3479387807572212512"/>
 </metadata>
 <trk>
  <name>Sunday 19 Apr 2026 - 20k</name>
  <link href="https://www.strava.com/routes/3479387807572212512"/>
  <type>running</type>
  <trkseg>
   <trkpt lat="-37.89094" lon="145.31733">
    <ele>178.91</ele>
   </trkpt>
   <trkpt lat="-37.89076" lon="145.31708">
    <ele>180.6</ele>
   </trkpt>
   <trkpt lat="-37.890730000000005" lon="145.31686000000002">
    <ele>181.8</ele>
   </trkpt>
   <trkpt lat="-37.8909" lon="145.31665">
    <ele>181.32</ele>
   </trkpt>
   <trkpt lat="-37.89099" lon="145.31640000000002">
    <ele>181.58</ele>
   </trkpt>
   <trkpt lat="-37.89099" lon="145.31613000000002">
    <ele>181.70000000000002</ele>
   </trkpt>
   <trkpt lat="-37.89108" lon="145.31604000000002">
    <ele>180.83</ele>
   </trkpt>
   <trkpt lat="-37.89148" lon="145.31548">
    <ele>175.02</ele>
   </trkpt>
   <trkpt lat="-37.89159" lon="145.3153">
    <ele>173.86</ele>
   </trkpt>
   <trkpt lat="-37.89164" lon="145.31531">
    <ele>173.86</ele>
   </trkpt>
   <trkpt lat="-37.89202" lon="145.31486">
    <ele>166.83</ele>
   </trkpt>
   <trkpt lat="-37.892360000000004" lon="145.31427000000002">
    <ele>162.86</ele>
   </trkpt>
   <trkpt lat="-37.89269" lon="145.3134">
    <ele>153.50000000000003</ele>
   </trkpt>
   <trkpt lat="-37.89269" lon="145.31339">
    <ele>153.39000000000001</ele>
   </trkpt>
   <trkpt lat="-37.8928" lon="145.31317">
    <ele>150.79</ele>
   </trkpt>
   <trkpt lat="-37.89280000165223" lon="145.31254499959536">
    <ele>149.92000000000002</ele>
   </trkpt>
   <trkpt lat="-37.8928" lon="145.31192000000001">
    <ele>147.29</ele>
   </trkpt>
   <trkpt lat="-37.89285" lon="145.31178">
    <ele>146.00000000000003</ele>
   </trkpt>
   <trkpt lat="-37.89289" lon="145.31139000000002">
    <ele>143.51</ele>
   </trkpt>
   <trkpt lat="-37.89289" lon="145.31119">
    <ele>143.14000000000001</ele>
   </trkpt>
   <trkpt lat="-37.89273" lon="145.31086000000002">
    <ele>144.14000000000001</ele>
   </trkpt>
   <trkpt lat="-37.89264" lon="145.31022000000002">
    <ele>143.51</ele>
   </trkpt>
   <trkpt lat="-37.892565002133075" lon="145.30950999928493">
    <ele>141.77</ele>
   </trkpt>
   <trkpt lat="-37.89249" lon="145.30880000000002">
    <ele>137.14000000000001</ele>
   </trkpt>
   <trkpt lat="-37.89233" lon="145.30793">
    <ele>135.9</ele>
   </trkpt>
   <trkpt lat="-37.89222" lon="145.30681">
    <ele>138.08</ele>
   </trkpt>
   <trkpt lat="-37.89215" lon="145.30661">
    <ele>138.11</ele>
   </trkpt>
   <trkpt lat="-37.89204" lon="145.30677">
    <ele>138.52</ele>
   </trkpt>
   <trkpt lat="-37.891505000274755" lon="145.30686500064834">
    <ele>144.75000000000003</ele>
   </trkpt>
   <trkpt lat="-37.89097" lon="145.30696">
    <ele>151.62</ele>
   </trkpt>
   <trkpt lat="-37.89087" lon="145.3069">
    <ele>151.94000000000003</ele>
   </trkpt>
   <trkpt lat="-37.89079" lon="145.30606">
    <ele>154.57000000000002</ele>
   </trkpt>
   <trkpt lat="-37.89078000000001" lon="145.30606">
    <ele>154.69000000000003</ele>
   </trkpt>
   <trkpt lat="-37.89076" lon="145.30586000000002">
    <ele>157.10000000000002</ele>
   </trkpt>
   <trkpt lat="-37.890730000000005" lon="145.30581">
    <ele>157.10000000000002</ele>
   </trkpt>
   <trkpt lat="-37.8905" lon="145.3052">
    <ele>168.17000000000002</ele>
   </trkpt>
   <trkpt lat="-37.890480000000004" lon="145.30519">
    <ele>168.18</ele>
   </trkpt>
   <trkpt lat="-37.89049" lon="145.30506000000003">
    <ele>169.09</ele>
   </trkpt>
   <trkpt lat="-37.89025" lon="145.30442000000002">
    <ele>175.87000000000003</ele>
   </trkpt>
   <trkpt lat="-37.890100000000004" lon="145.30419">
    <ele>180.23</ele>
   </trkpt>
   <trkpt lat="-37.88993" lon="145.304">
    <ele>185.19000000000003</ele>
   </trkpt>
   <trkpt lat="-37.889860000000006" lon="145.30395000000001">
    <ele>185.86</ele>
   </trkpt>
   <trkpt lat="-37.88922" lon="145.30396000000002">
    <ele>189.49</ele>
   </trkpt>
   <trkpt lat="-37.889070000000004" lon="145.30392">
    <ele>190.95000000000002</ele>
   </trkpt>
   <trkpt lat="-37.88922" lon="145.30404000000001">
    <ele>193.46</ele>
   </trkpt>
   <trkpt lat="-37.88951" lon="145.3042">
    <ele>198.89000000000001</ele>
   </trkpt>
   <trkpt lat="-37.88955" lon="145.30424000000002">
    <ele>200.67000000000002</ele>
   </trkpt>
   <trkpt lat="-37.88955" lon="145.30428">
    <ele>200.67000000000002</ele>
   </trkpt>
   <trkpt lat="-37.88949" lon="145.30435">
    <ele>200.67000000000002</ele>
   </trkpt>
   <trkpt lat="-37.88915" lon="145.30452000000002">
    <ele>208.15000000000003</ele>
   </trkpt>
   <trkpt lat="-37.88897" lon="145.30455">
    <ele>213.06000000000003</ele>
   </trkpt>
   <trkpt lat="-37.8887" lon="145.30462">
    <ele>212.67000000000002</ele>
   </trkpt>
   <trkpt lat="-37.8885" lon="145.30459000000002">
    <ele>211.14000000000001</ele>
   </trkpt>
   <trkpt lat="-37.88837" lon="145.30448">
    <ele>210.21</ele>
   </trkpt>
   <trkpt lat="-37.88832" lon="145.30445">
    <ele>210.21</ele>
   </trkpt>
   <trkpt lat="-37.88823" lon="145.30448">
    <ele>208.71</ele>
   </trkpt>
   <trkpt lat="-37.88821" lon="145.30450000000002">
    <ele>208.71</ele>
   </trkpt>
   <trkpt lat="-37.888220000000004" lon="145.30450000000002">
    <ele>208.83</ele>
   </trkpt>
   <trkpt lat="-37.8881" lon="145.30462">
    <ele>207.78000000000003</ele>
   </trkpt>
   <trkpt lat="-37.88803" lon="145.30467000000002">
    <ele>207.59000000000003</ele>
   </trkpt>
   <trkpt lat="-37.88803" lon="145.30472">
    <ele>207.59000000000003</ele>
   </trkpt>
   <trkpt lat="-37.887890000000006" lon="145.30502">
    <ele>210.91</ele>
   </trkpt>
   <trkpt lat="-37.88788" lon="145.30540000000002">
    <ele>210.85</ele>
   </trkpt>
   <trkpt lat="-37.88781" lon="145.30563">
    <ele>209.86</ele>
   </trkpt>
   <trkpt lat="-37.88772" lon="145.30586000000002">
    <ele>207.88</ele>
   </trkpt>
   <trkpt lat="-37.88772" lon="145.3059">
    <ele>207.88</ele>
   </trkpt>
   <trkpt lat="-37.887130000639864" lon="145.30630000323006">
    <ele>222.31</ele>
   </trkpt>
   <trkpt lat="-37.886540000000004" lon="145.3067">
    <ele>229.72</ele>
   </trkpt>
   <trkpt lat="-37.885960000000004" lon="145.30615">
    <ele>245.29</ele>
   </trkpt>
   <trkpt lat="-37.88564" lon="145.30625">
    <ele>247.64000000000001</ele>
   </trkpt>
   <trkpt lat="-37.885130000000004" lon="145.30637000000002">
    <ele>257.31000000000006</ele>
   </trkpt>
   <trkpt lat="-37.88467" lon="145.30643">
    <ele>270.14000000000004</ele>
   </trkpt>
   <trkpt lat="-37.884370000000004" lon="145.30702000000002">
    <ele>288.34000000000003</ele>
   </trkpt>
   <trkpt lat="-37.88398" lon="145.30721">
    <ele>300.85</ele>
   </trkpt>
   <trkpt lat="-37.88349" lon="145.30725">
    <ele>310.72</ele>
   </trkpt>
   <trkpt lat="-37.8832" lon="145.30684000000002">
    <ele>303.62</ele>
   </trkpt>
   <trkpt lat="-37.882940000000005" lon="145.30694000000003">
    <ele>310.48</ele>
   </trkpt>
   <trkpt lat="-37.88262" lon="145.30781000000002">
    <ele>334.70000000000005</ele>
   </trkpt>
   <trkpt lat="-37.88261" lon="145.30783000000002">
    <ele>335.47</ele>
   </trkpt>
   <trkpt lat="-37.88232" lon="145.30774000000002">
    <ele>333.72</ele>
   </trkpt>
   <trkpt lat="-37.88208" lon="145.30768">
    <ele>331.07000000000005</ele>
   </trkpt>
   <trkpt lat="-37.881800000000005" lon="145.30764000000002">
    <ele>328.70000000000005</ele>
   </trkpt>
   <trkpt lat="-37.88152" lon="145.30794">
    <ele>325.99</ele>
   </trkpt>
   <trkpt lat="-37.88145" lon="145.30807000000001">
    <ele>324.81000000000006</ele>
   </trkpt>
   <trkpt lat="-37.88127" lon="145.30875">
    <ele>320.89</ele>
   </trkpt>
   <trkpt lat="-37.8812" lon="145.30912">
    <ele>318.23</ele>
   </trkpt>
   <trkpt lat="-37.88114" lon="145.30981">
    <ele>310.79</ele>
   </trkpt>
   <trkpt lat="-37.881040000000006" lon="145.31008">
    <ele>309.59000000000003</ele>
   </trkpt>
   <trkpt lat="-37.88096" lon="145.31012">
    <ele>309.52000000000004</ele>
   </trkpt>
   <trkpt lat="-37.88089" lon="145.31011">
    <ele>309.46</ele>
   </trkpt>
   <trkpt lat="-37.88082" lon="145.31005000000002">
    <ele>309.18</ele>
   </trkpt>
   <trkpt lat="-37.88035" lon="145.30939">
    <ele>297.89000000000004</ele>
   </trkpt>
   <trkpt lat="-37.87995" lon="145.30905">
    <ele>290.97</ele>
   </trkpt>
   <trkpt lat="-37.87979" lon="145.30893">
    <ele>287.32</ele>
   </trkpt>
   <trkpt lat="-37.87921" lon="145.30859">
    <ele>281.36</ele>
   </trkpt>
   <trkpt lat="-37.87858000000001" lon="145.30827000000002">
    <ele>271.17</ele>
   </trkpt>
   <trkpt lat="-37.87859" lon="145.30828000000002">
    <ele>271.32</ele>
   </trkpt>
   <trkpt lat="-37.87816" lon="145.30803">
    <ele>263.5</ele>
   </trkpt>
   <trkpt lat="-37.87787" lon="145.30791000000002">
    <ele>259.78000000000003</ele>
   </trkpt>
   <trkpt lat="-37.87744" lon="145.30784">
    <ele>257.01</ele>
   </trkpt>
   <trkpt lat="-37.87729" lon="145.30784">
    <ele>254.19000000000003</ele>
   </trkpt>
   <trkpt lat="-37.87686" lon="145.30793">
    <ele>251.3</ele>
   </trkpt>
   <trkpt lat="-37.876470000000005" lon="145.30795">
    <ele>246.97000000000003</ele>
   </trkpt>
   <trkpt lat="-37.876200000000004" lon="145.30781000000002">
    <ele>241.69</ele>
   </trkpt>
   <trkpt lat="-37.87597" lon="145.30773000000002">
    <ele>239.63</ele>
   </trkpt>
   <trkpt lat="-37.87561" lon="145.30773000000002">
    <ele>235.05</ele>
   </trkpt>
   <trkpt lat="-37.87525" lon="145.30781000000002">
    <ele>229.79000000000002</ele>
   </trkpt>
   <trkpt lat="-37.87498" lon="145.30769">
    <ele>227.47</ele>
   </trkpt>
   <trkpt lat="-37.87483" lon="145.30766">
    <ele>227.66000000000003</ele>
   </trkpt>
   <trkpt lat="-37.87478" lon="145.3082">
    <ele>234.58</ele>
   </trkpt>
   <trkpt lat="-37.87473" lon="145.30829">
    <ele>238.54000000000002</ele>
   </trkpt>
   <trkpt lat="-37.87458" lon="145.30846000000003">
    <ele>240.17000000000002</ele>
   </trkpt>
   <trkpt lat="-37.87424" lon="145.30875">
    <ele>249.08</ele>
   </trkpt>
   <trkpt lat="-37.87411" lon="145.30882000000003">
    <ele>252.25000000000003</ele>
   </trkpt>
   <trkpt lat="-37.87369" lon="145.30894">
    <ele>257.37000000000006</ele>
   </trkpt>
   <trkpt lat="-37.87357" lon="145.30935000000002">
    <ele>267.67</ele>
   </trkpt>
   <trkpt lat="-37.87353" lon="145.30943000000002">
    <ele>270.29</ele>
   </trkpt>
   <trkpt lat="-37.87326" lon="145.30966">
    <ele>277.41</ele>
   </trkpt>
   <trkpt lat="-37.87317" lon="145.30980000000002">
    <ele>282.64</ele>
   </trkpt>
   <trkpt lat="-37.87306" lon="145.31023000000002">
    <ele>295.62000000000006</ele>
   </trkpt>
   <trkpt lat="-37.87299" lon="145.31035">
    <ele>299.7</ele>
   </trkpt>
   <trkpt lat="-37.8727" lon="145.31074">
    <ele>313.74</ele>
   </trkpt>
   <trkpt lat="-37.87236" lon="145.31108">
    <ele>328.1</ele>
   </trkpt>
   <trkpt lat="-37.872130000000006" lon="145.31118">
    <ele>335.76</ele>
   </trkpt>
   <trkpt lat="-37.87205" lon="145.31123000000002">
    <ele>337.27</ele>
   </trkpt>
   <trkpt lat="-37.872" lon="145.31129">
    <ele>340.52000000000004</ele>
   </trkpt>
   <trkpt lat="-37.871930000000006" lon="145.31158000000002">
    <ele>349.03</ele>
   </trkpt>
   <trkpt lat="-37.87201" lon="145.31204000000002">
    <ele>360.53000000000003</ele>
   </trkpt>
   <trkpt lat="-37.87182" lon="145.31231000000002">
    <ele>370.33000000000004</ele>
   </trkpt>
   <trkpt lat="-37.87174" lon="145.31253">
    <ele>376.65000000000003</ele>
   </trkpt>
   <trkpt lat="-37.87165" lon="145.31262">
    <ele>381.82000000000005</ele>
   </trkpt>
   <trkpt lat="-37.87133" lon="145.3128">
    <ele>389.11</ele>
   </trkpt>
   <trkpt lat="-37.87127" lon="145.31286">
    <ele>389.11</ele>
   </trkpt>
   <trkpt lat="-37.870810000000006" lon="145.31369">
    <ele>392.44</ele>
   </trkpt>
   <trkpt lat="-37.870810000000006" lon="145.3137">
    <ele>392.39</ele>
   </trkpt>
   <trkpt lat="-37.87055" lon="145.31419000000002">
    <ele>388.42</ele>
   </trkpt>
   <trkpt lat="-37.87041" lon="145.31411">
    <ele>386.52000000000004</ele>
   </trkpt>
   <trkpt lat="-37.870340000000006" lon="145.31408000000002">
    <ele>385.97</ele>
   </trkpt>
   <trkpt lat="-37.87026" lon="145.31409000000002">
    <ele>384.73</ele>
   </trkpt>
   <trkpt lat="-37.87017" lon="145.31414">
    <ele>383.33</ele>
   </trkpt>
   <trkpt lat="-37.86997" lon="145.31447">
    <ele>378.91</ele>
   </trkpt>
   <trkpt lat="-37.86988" lon="145.31455000000003">
    <ele>374.79</ele>
   </trkpt>
   <trkpt lat="-37.86972" lon="145.31458">
    <ele>374.79</ele>
   </trkpt>
   <trkpt lat="-37.869020000000006" lon="145.31414">
    <ele>361.62000000000006</ele>
   </trkpt>
   <trkpt lat="-37.86878" lon="145.31396">
    <ele>358.74</ele>
   </trkpt>
   <trkpt lat="-37.86856" lon="145.31388">
    <ele>356.44000000000005</ele>
   </trkpt>
   <trkpt lat="-37.86833" lon="145.31385">
    <ele>354.68000000000006</ele>
   </trkpt>
   <trkpt lat="-37.86777" lon="145.31386">
    <ele>354.19</ele>
   </trkpt>
   <trkpt lat="-37.86723499999607" lon="145.31378999948856">
    <ele>347.82</ele>
   </trkpt>
   <trkpt lat="-37.8667" lon="145.31372000000002">
    <ele>345.55</ele>
   </trkpt>
   <trkpt lat="-37.86654" lon="145.31367">
    <ele>344.2</ele>
   </trkpt>
   <trkpt lat="-37.86634" lon="145.31354000000002">
    <ele>341.86000000000007</ele>
   </trkpt>
   <trkpt lat="-37.86623" lon="145.31341">
    <ele>340.14000000000004</ele>
   </trkpt>
   <trkpt lat="-37.86616" lon="145.31338000000002">
    <ele>338.76</ele>
   </trkpt>
   <trkpt lat="-37.86609" lon="145.31339">
    <ele>338.01000000000005</ele>
   </trkpt>
   <trkpt lat="-37.86603" lon="145.31349">
    <ele>335.65</ele>
   </trkpt>
   <trkpt lat="-37.86603" lon="145.31443000000002">
    <ele>328.93</ele>
   </trkpt>
   <trkpt lat="-37.86605" lon="145.31453000000002">
    <ele>328.93</ele>
   </trkpt>
   <trkpt lat="-37.86603" lon="145.31467">
    <ele>328.39</ele>
   </trkpt>
   <trkpt lat="-37.865990000000004" lon="145.31471000000002">
    <ele>328.27</ele>
   </trkpt>
   <trkpt lat="-37.8658" lon="145.31502">
    <ele>327.86</ele>
   </trkpt>
   <trkpt lat="-37.865480000000005" lon="145.31546">
    <ele>330.13000000000005</ele>
   </trkpt>
   <trkpt lat="-37.86536" lon="145.31595000000002">
    <ele>328.62</ele>
   </trkpt>
   <trkpt lat="-37.86515" lon="145.31638">
    <ele>325.22</ele>
   </trkpt>
   <trkpt lat="-37.86489" lon="145.31668000000002">
    <ele>321.61</ele>
   </trkpt>
   <trkpt lat="-37.86437" lon="145.31703000000002">
    <ele>315.21000000000004</ele>
   </trkpt>
   <trkpt lat="-37.86392" lon="145.31739000000002">
    <ele>311.27000000000004</ele>
   </trkpt>
   <trkpt lat="-37.86368" lon="145.31749000000002">
    <ele>308.48</ele>
   </trkpt>
   <trkpt lat="-37.86352" lon="145.31761">
    <ele>305.13</ele>
   </trkpt>
   <trkpt lat="-37.86334" lon="145.31764">
    <ele>303.39000000000004</ele>
   </trkpt>
   <trkpt lat="-37.86296" lon="145.31778">
    <ele>299.29</ele>
   </trkpt>
   <trkpt lat="-37.86271" lon="145.31802000000002">
    <ele>296.86</ele>
   </trkpt>
   <trkpt lat="-37.86227" lon="145.31859">
    <ele>291.39000000000004</ele>
   </trkpt>
   <trkpt lat="-37.8622" lon="145.31864000000002">
    <ele>290.61</ele>
   </trkpt>
   <trkpt lat="-37.86213" lon="145.31869">
    <ele>290.61</ele>
   </trkpt>
   <trkpt lat="-37.86173" lon="145.31879">
    <ele>284.08</ele>
   </trkpt>
   <trkpt lat="-37.86168" lon="145.31878">
    <ele>284.08</ele>
   </trkpt>
   <trkpt lat="-37.8616" lon="145.31869">
    <ele>283.14</ele>
   </trkpt>
   <trkpt lat="-37.86157" lon="145.31866000000002">
    <ele>283.29</ele>
   </trkpt>
   <trkpt lat="-37.86137000122992" lon="145.3181099983722">
    <ele>277.85</ele>
   </trkpt>
   <trkpt lat="-37.86117" lon="145.31756000000001">
    <ele>271.49</ele>
   </trkpt>
   <trkpt lat="-37.86092500428335" lon="145.31655499671024">
    <ele>262.03000000000003</ele>
   </trkpt>
   <trkpt lat="-37.86068" lon="145.31555">
    <ele>251.72</ele>
   </trkpt>
   <trkpt lat="-37.86059" lon="145.31564">
    <ele>251.12</ele>
   </trkpt>
   <trkpt lat="-37.86054" lon="145.31580000000002">
    <ele>250.34</ele>
   </trkpt>
   <trkpt lat="-37.860490000000006" lon="145.31616000000002">
    <ele>248.68</ele>
   </trkpt>
   <trkpt lat="-37.86041" lon="145.31709">
    <ele>240.70000000000002</ele>
   </trkpt>
   <trkpt lat="-37.86027" lon="145.31794000000002">
    <ele>239.67000000000002</ele>
   </trkpt>
   <trkpt lat="-37.860310000000005" lon="145.31822000000003">
    <ele>239.91</ele>
   </trkpt>
   <trkpt lat="-37.86027" lon="145.31836">
    <ele>239.44</ele>
   </trkpt>
   <trkpt lat="-37.86027" lon="145.31846000000002">
    <ele>238.06000000000003</ele>
   </trkpt>
   <trkpt lat="-37.86023" lon="145.31854">
    <ele>235.87000000000003</ele>
   </trkpt>
   <trkpt lat="-37.86014" lon="145.31864000000002">
    <ele>232.25</ele>
   </trkpt>
   <trkpt lat="-37.85996" lon="145.31877">
    <ele>224.86</ele>
   </trkpt>
   <trkpt lat="-37.859930000000006" lon="145.31882000000002">
    <ele>224.86</ele>
   </trkpt>
   <trkpt lat="-37.85989" lon="145.31892000000002">
    <ele>224.86</ele>
   </trkpt>
   <trkpt lat="-37.859840000000005" lon="145.31895">
    <ele>221.37</ele>
   </trkpt>
   <trkpt lat="-37.8598" lon="145.3189">
    <ele>221.37</ele>
   </trkpt>
   <trkpt lat="-37.85974" lon="145.31892000000002">
    <ele>212.99</ele>
   </trkpt>
   <trkpt lat="-37.85967" lon="145.31906">
    <ele>211.75000000000003</ele>
   </trkpt>
   <trkpt lat="-37.85965" lon="145.31916">
    <ele>209.61</ele>
   </trkpt>
   <trkpt lat="-37.8596" lon="145.31918000000002">
    <ele>209.61</ele>
   </trkpt>
   <trkpt lat="-37.85954" lon="145.31915">
    <ele>209.61</ele>
   </trkpt>
   <trkpt lat="-37.85949" lon="145.31918000000002">
    <ele>209.61</ele>
   </trkpt>
   <trkpt lat="-37.85947" lon="145.3193">
    <ele>206.33</ele>
   </trkpt>
   <trkpt lat="-37.8594" lon="145.31941">
    <ele>203.61</ele>
   </trkpt>
   <trkpt lat="-37.85927" lon="145.31956000000002">
    <ele>202.28</ele>
   </trkpt>
   <trkpt lat="-37.859100000000005" lon="145.3197">
    <ele>199.25</ele>
   </trkpt>
   <trkpt lat="-37.859" lon="145.3197">
    <ele>197.43</ele>
   </trkpt>
   <trkpt lat="-37.85859000000001" lon="145.32016000000002">
    <ele>192.15</ele>
   </trkpt>
   <trkpt lat="-37.8586" lon="145.32015">
    <ele>192.23000000000002</ele>
   </trkpt>
   <trkpt lat="-37.8583" lon="145.32049">
    <ele>188.69000000000003</ele>
   </trkpt>
   <trkpt lat="-37.85877000276565" lon="145.3212999948202">
    <ele>195.41000000000003</ele>
   </trkpt>
   <trkpt lat="-37.85924" lon="145.32211">
    <ele>204.0</ele>
   </trkpt>
   <trkpt lat="-37.85958" lon="145.32231000000002">
    <ele>209.45000000000002</ele>
   </trkpt>
   <trkpt lat="-37.85949" lon="145.32270000000003">
    <ele>209.15000000000003</ele>
   </trkpt>
   <trkpt lat="-37.85958" lon="145.32287000000002">
    <ele>207.72</ele>
   </trkpt>
   <trkpt lat="-37.85976" lon="145.32302">
    <ele>204.28</ele>
   </trkpt>
   <trkpt lat="-37.86032" lon="145.32323000000002">
    <ele>200.28</ele>
   </trkpt>
   <trkpt lat="-37.86041" lon="145.32331000000002">
    <ele>199.44</ele>
   </trkpt>
   <trkpt lat="-37.86041" lon="145.32341000000002">
    <ele>199.22</ele>
   </trkpt>
   <trkpt lat="-37.86027" lon="145.32358000000002">
    <ele>198.36</ele>
   </trkpt>
   <trkpt lat="-37.86027" lon="145.32369">
    <ele>198.20000000000002</ele>
   </trkpt>
   <trkpt lat="-37.86021" lon="145.32387">
    <ele>198.41</ele>
   </trkpt>
   <trkpt lat="-37.86027" lon="145.32437000000002">
    <ele>201.28</ele>
   </trkpt>
   <trkpt lat="-37.86025" lon="145.32472">
    <ele>201.78</ele>
   </trkpt>
   <trkpt lat="-37.86032" lon="145.32535000000001">
    <ele>201.97</ele>
   </trkpt>
   <trkpt lat="-37.86043" lon="145.32567">
    <ele>204.68000000000004</ele>
   </trkpt>
   <trkpt lat="-37.86063" lon="145.32606">
    <ele>207.44</ele>
   </trkpt>
   <trkpt lat="-37.86065" lon="145.32626000000002">
    <ele>208.90000000000003</ele>
   </trkpt>
   <trkpt lat="-37.86061" lon="145.32645000000002">
    <ele>211.1</ele>
   </trkpt>
   <trkpt lat="-37.86039" lon="145.32673">
    <ele>213.98000000000002</ele>
   </trkpt>
   <trkpt lat="-37.86034" lon="145.32686">
    <ele>213.98000000000002</ele>
   </trkpt>
   <trkpt lat="-37.86034" lon="145.32694">
    <ele>218.49</ele>
   </trkpt>
   <trkpt lat="-37.86045" lon="145.32705">
    <ele>218.49</ele>
   </trkpt>
   <trkpt lat="-37.86045" lon="145.32712">
    <ele>218.49</ele>
   </trkpt>
   <trkpt lat="-37.86043" lon="145.32727">
    <ele>219.38000000000002</ele>
   </trkpt>
   <trkpt lat="-37.86072" lon="145.32763">
    <ele>225.48000000000002</ele>
   </trkpt>
   <trkpt lat="-37.86086" lon="145.32775">
    <ele>226.51000000000002</ele>
   </trkpt>
   <trkpt lat="-37.860890000000005" lon="145.32786000000002">
    <ele>227.16000000000003</ele>
   </trkpt>
   <trkpt lat="-37.86099" lon="145.32827">
    <ele>230.39000000000001</ele>
   </trkpt>
   <trkpt lat="-37.86115" lon="145.32850000000002">
    <ele>234.88</ele>
   </trkpt>
   <trkpt lat="-37.86135" lon="145.32887000000002">
    <ele>236.18000000000004</ele>
   </trkpt>
   <trkpt lat="-37.861450000000005" lon="145.32929000000001">
    <ele>243.57</ele>
   </trkpt>
   <trkpt lat="-37.86162" lon="145.32949000000002">
    <ele>246.70000000000002</ele>
   </trkpt>
   <trkpt lat="-37.861720000000005" lon="145.32967000000002">
    <ele>253.19000000000003</ele>
   </trkpt>
   <trkpt lat="-37.86186" lon="145.33004000000003">
    <ele>259.26000000000005</ele>
   </trkpt>
   <trkpt lat="-37.86189" lon="145.33014">
    <ele>260.71</ele>
   </trkpt>
   <trkpt lat="-37.862" lon="145.33024">
    <ele>264.53000000000003</ele>
   </trkpt>
   <trkpt lat="-37.86218" lon="145.33063">
    <ele>271.43</ele>
   </trkpt>
   <trkpt lat="-37.8624" lon="145.33099">
    <ele>282.7</ele>
   </trkpt>
   <trkpt lat="-37.86249" lon="145.33118000000002">
    <ele>286.17</ele>
   </trkpt>
   <trkpt lat="-37.86251" lon="145.33129000000002">
    <ele>287.66</ele>
   </trkpt>
   <trkpt lat="-37.86247" lon="145.33146000000002">
    <ele>290.61</ele>
   </trkpt>
   <trkpt lat="-37.86251" lon="145.33174000000002">
    <ele>297.92</ele>
   </trkpt>
   <trkpt lat="-37.86249" lon="145.33190000000002">
    <ele>302.28000000000003</ele>
   </trkpt>
   <trkpt lat="-37.86252" lon="145.33206">
    <ele>304.72</ele>
   </trkpt>
   <trkpt lat="-37.862370000000006" lon="145.33226000000002">
    <ele>304.57</ele>
   </trkpt>
   <trkpt lat="-37.86227" lon="145.33246000000003">
    <ele>304.51</ele>
   </trkpt>
   <trkpt lat="-37.86224" lon="145.33262000000002">
    <ele>304.24</ele>
   </trkpt>
   <trkpt lat="-37.86224" lon="145.33325000000002">
    <ele>304.36</ele>
   </trkpt>
   <trkpt lat="-37.86227" lon="145.33360000000002">
    <ele>304.66</ele>
   </trkpt>
   <trkpt lat="-37.86229" lon="145.33376">
    <ele>304.92</ele>
   </trkpt>
   <trkpt lat="-37.86242" lon="145.33416000000003">
    <ele>305.53000000000003</ele>
   </trkpt>
   <trkpt lat="-37.8628" lon="145.33489">
    <ele>305.89000000000004</ele>
   </trkpt>
   <trkpt lat="-37.86314" lon="145.3357">
    <ele>306.83000000000004</ele>
   </trkpt>
   <trkpt lat="-37.86309" lon="145.33587">
    <ele>307.76000000000005</ele>
   </trkpt>
   <trkpt lat="-37.86303" lon="145.33592000000002">
    <ele>307.94000000000005</ele>
   </trkpt>
   <trkpt lat="-37.86292" lon="145.33596">
    <ele>308.1</ele>
   </trkpt>
   <trkpt lat="-37.86231" lon="145.33606">
    <ele>306.14000000000004</ele>
   </trkpt>
   <trkpt lat="-37.862080000000006" lon="145.33605">
    <ele>304.21000000000004</ele>
   </trkpt>
   <trkpt lat="-37.86164" lon="145.33602000000002">
    <ele>301.61</ele>
   </trkpt>
   <trkpt lat="-37.8609" lon="145.33604000000003">
    <ele>302.85</ele>
   </trkpt>
   <trkpt lat="-37.86065" lon="145.33601000000002">
    <ele>302.31</ele>
   </trkpt>
   <trkpt lat="-37.85996" lon="145.33583000000002">
    <ele>293.86</ele>
   </trkpt>
   <trkpt lat="-37.85965" lon="145.33569">
    <ele>290.75</ele>
   </trkpt>
   <trkpt lat="-37.85931" lon="145.33543">
    <ele>286.46000000000004</ele>
   </trkpt>
   <trkpt lat="-37.85887500127963" lon="145.33486999663535">
    <ele>281.18</ele>
   </trkpt>
   <trkpt lat="-37.85844" lon="145.33431000000002">
    <ele>276.62</ele>
   </trkpt>
   <trkpt lat="-37.85833" lon="145.33419">
    <ele>275.92</ele>
   </trkpt>
   <trkpt lat="-37.85821" lon="145.33414000000002">
    <ele>274.41</ele>
   </trkpt>
   <trkpt lat="-37.857960000000006" lon="145.33415000000002">
    <ele>272.54</ele>
   </trkpt>
   <trkpt lat="-37.857980000000005" lon="145.33416000000003">
    <ele>272.8</ele>
   </trkpt>
   <trkpt lat="-37.8581" lon="145.33454">
    <ele>278.11</ele>
   </trkpt>
   <trkpt lat="-37.85824" lon="145.33467000000002">
    <ele>281.0</ele>
   </trkpt>
   <trkpt lat="-37.85826" lon="145.33476000000002">
    <ele>283.37</ele>
   </trkpt>
   <trkpt lat="-37.85826" lon="145.3349">
    <ele>284.21000000000004</ele>
   </trkpt>
   <trkpt lat="-37.85828" lon="145.33501">
    <ele>286.1</ele>
   </trkpt>
   <trkpt lat="-37.85848" lon="145.33535">
    <ele>293.88000000000005</ele>
   </trkpt>
   <trkpt lat="-37.85862" lon="145.33563">
    <ele>296.2</ele>
   </trkpt>
   <trkpt lat="-37.85866" lon="145.33603000000002">
    <ele>307.07</ele>
   </trkpt>
   <trkpt lat="-37.85889" lon="145.33677">
    <ele>326.76000000000005</ele>
   </trkpt>
   <trkpt lat="-37.85909" lon="145.33724">
    <ele>339.48</ele>
   </trkpt>
   <trkpt lat="-37.85915" lon="145.33746000000002">
    <ele>339.48</ele>
   </trkpt>
   <trkpt lat="-37.85922" lon="145.33785">
    <ele>351.98</ele>
   </trkpt>
   <trkpt lat="-37.85929" lon="145.33801000000003">
    <ele>357.81</ele>
   </trkpt>
   <trkpt lat="-37.859370000000006" lon="145.33810000000003">
    <ele>361.99</ele>
   </trkpt>
   <trkpt lat="-37.8596" lon="145.3383">
    <ele>370.77000000000004</ele>
   </trkpt>
   <trkpt lat="-37.8598" lon="145.33852000000002">
    <ele>377.85</ele>
   </trkpt>
   <trkpt lat="-37.85989" lon="145.33858">
    <ele>380.14000000000004</ele>
   </trkpt>
   <trkpt lat="-37.860600000000005" lon="145.33878">
    <ele>392.81000000000006</ele>
   </trkpt>
   <trkpt lat="-37.86086" lon="145.33897000000002">
    <ele>400.16</ele>
   </trkpt>
   <trkpt lat="-37.86086" lon="145.33896000000001">
    <ele>393.47</ele>
   </trkpt>
   <trkpt lat="-37.86095" lon="145.33902">
    <ele>394.52000000000004</ele>
   </trkpt>
   <trkpt lat="-37.86168" lon="145.33925000000002">
    <ele>411.84000000000003</ele>
   </trkpt>
   <trkpt lat="-37.8622" lon="145.33963">
    <ele>420.6</ele>
   </trkpt>
   <trkpt lat="-37.862860000000005" lon="145.34025000000003">
    <ele>439.6</ele>
   </trkpt>
   <trkpt lat="-37.863310000000006" lon="145.34074">
    <ele>456.32000000000005</ele>
   </trkpt>
   <trkpt lat="-37.8639" lon="145.34133">
    <ele>473.63000000000005</ele>
   </trkpt>
   <trkpt lat="-37.86433" lon="145.34163">
    <ele>480.74000000000007</ele>
   </trkpt>
   <trkpt lat="-37.86489" lon="145.34179">
    <ele>482.94</ele>
   </trkpt>
   <trkpt lat="-37.86515" lon="145.3418">
    <ele>481.88</ele>
   </trkpt>
   <trkpt lat="-37.86542" lon="145.34175000000002">
    <ele>481.69000000000005</ele>
   </trkpt>
   <trkpt lat="-37.86544000000001" lon="145.34175000000002">
    <ele>481.71000000000004</ele>
   </trkpt>
   <trkpt lat="-37.86567" lon="145.3417">
    <ele>481.87</ele>
   </trkpt>
   <trkpt lat="-37.86571" lon="145.34146">
    <ele>480.97</ele>
   </trkpt>
   <trkpt lat="-37.8658" lon="145.34115">
    <ele>477.31</ele>
   </trkpt>
   <trkpt lat="-37.86590000144569" lon="145.34057000065286">
    <ele>471.59000000000003</ele>
   </trkpt>
   <trkpt lat="-37.866" lon="145.33999">
    <ele>467.34000000000003</ele>
   </trkpt>
   <trkpt lat="-37.86612" lon="145.33962000000002">
    <ele>465.5400000000001</ele>
   </trkpt>
   <trkpt lat="-37.86626500130204" lon="145.3390700009956">
    <ele>459.82000000000005</ele>
   </trkpt>
   <trkpt lat="-37.86641" lon="145.33852000000002">
    <ele>455.46000000000004</ele>
   </trkpt>
   <trkpt lat="-37.866420000000005" lon="145.33851">
    <ele>455.37000000000006</ele>
   </trkpt>
   <trkpt lat="-37.86652" lon="145.33824">
    <ele>453.5</ele>
   </trkpt>
   <trkpt lat="-37.86663" lon="145.33813">
    <ele>452.64000000000004</ele>
   </trkpt>
   <trkpt lat="-37.8667" lon="145.33810000000003">
    <ele>450.43000000000006</ele>
   </trkpt>
   <trkpt lat="-37.86679" lon="145.33809000000002">
    <ele>450.43000000000006</ele>
   </trkpt>
   <trkpt lat="-37.867250000000006" lon="145.33818000000002">
    <ele>444.69</ele>
   </trkpt>
   <trkpt lat="-37.86755" lon="145.33847">
    <ele>443.95</ele>
   </trkpt>
   <trkpt lat="-37.86771" lon="145.33857">
    <ele>444.88000000000005</ele>
   </trkpt>
   <trkpt lat="-37.86786" lon="145.33862000000002">
    <ele>446.8</ele>
   </trkpt>
   <trkpt lat="-37.86822" lon="145.33868">
    <ele>450.03000000000003</ele>
   </trkpt>
   <trkpt lat="-37.86849" lon="145.33881000000002">
    <ele>451.95</ele>
   </trkpt>
   <trkpt lat="-37.86891" lon="145.33893">
    <ele>455.99000000000007</ele>
   </trkpt>
   <trkpt lat="-37.86918" lon="145.33896000000001">
    <ele>457.81000000000006</ele>
   </trkpt>
   <trkpt lat="-37.86941" lon="145.33893">
    <ele>460.3</ele>
   </trkpt>
   <trkpt lat="-37.86954" lon="145.33893">
    <ele>460.97</ele>
   </trkpt>
   <trkpt lat="-37.8701" lon="145.33884">
    <ele>462.47</ele>
   </trkpt>
   <trkpt lat="-37.87019" lon="145.33884">
    <ele>462.57000000000005</ele>
   </trkpt>
   <trkpt lat="-37.87037" lon="145.33894">
    <ele>463.84000000000003</ele>
   </trkpt>
   <trkpt lat="-37.87059" lon="145.33917000000002">
    <ele>464.91</ele>
   </trkpt>
   <trkpt lat="-37.87082" lon="145.33948">
    <ele>467.58000000000004</ele>
   </trkpt>
   <trkpt lat="-37.87109" lon="145.33964">
    <ele>469.38</ele>
   </trkpt>
   <trkpt lat="-37.87131" lon="145.33968000000002">
    <ele>471.9200000000001</ele>
   </trkpt>
   <trkpt lat="-37.87153" lon="145.33975">
    <ele>473.1</ele>
   </trkpt>
   <trkpt lat="-37.87185" lon="145.33992">
    <ele>476.91</ele>
   </trkpt>
   <trkpt lat="-37.87214" lon="145.34019">
    <ele>478.88</ele>
   </trkpt>
   <trkpt lat="-37.87241" lon="145.34055">
    <ele>481.64</ele>
   </trkpt>
   <trkpt lat="-37.87263" lon="145.34077000000002">
    <ele>484.22</ele>
   </trkpt>
   <trkpt lat="-37.87306" lon="145.34097">
    <ele>486.48</ele>
   </trkpt>
   <trkpt lat="-37.87375" lon="145.34154">
    <ele>492.13000000000005</ele>
   </trkpt>
   <trkpt lat="-37.87406" lon="145.34185000000002">
    <ele>495.40000000000003</ele>
   </trkpt>
   <trkpt lat="-37.8744" lon="145.34218">
    <ele>496.41</ele>
   </trkpt>
   <trkpt lat="-37.87474" lon="145.34255000000002">
    <ele>499.32000000000005</ele>
   </trkpt>
   <trkpt lat="-37.87505" lon="145.34289">
    <ele>502.56</ele>
   </trkpt>
   <trkpt lat="-37.8751" lon="145.34298">
    <ele>502.28000000000003</ele>
   </trkpt>
   <trkpt lat="-37.875350000000005" lon="145.3428">
    <ele>502.65999999999997</ele>
   </trkpt>
   <trkpt lat="-37.875370000000004" lon="145.34295">
    <ele>503.06000000000006</ele>
   </trkpt>
   <trkpt lat="-37.875510000000006" lon="145.34301000000002">
    <ele>504.70000000000005</ele>
   </trkpt>
   <trkpt lat="-37.8757" lon="145.34294">
    <ele>512.0600000000001</ele>
   </trkpt>
   <trkpt lat="-37.875980000000006" lon="145.34273000000002">
    <ele>511.85</ele>
   </trkpt>
   <trkpt lat="-37.8761" lon="145.34269">
    <ele>511.87000000000006</ele>
   </trkpt>
   <trkpt lat="-37.876290000000004" lon="145.34269">
    <ele>512.08</ele>
   </trkpt>
   <trkpt lat="-37.87644" lon="145.34274000000002">
    <ele>510.78000000000003</ele>
   </trkpt>
   <trkpt lat="-37.8767" lon="145.34279">
    <ele>509.4000000000001</ele>
   </trkpt>
   <trkpt lat="-37.87688" lon="145.3428">
    <ele>508.95</ele>
   </trkpt>
   <trkpt lat="-37.87722" lon="145.34272">
    <ele>509.02000000000004</ele>
   </trkpt>
   <trkpt lat="-37.87778" lon="145.34271">
    <ele>506.62000000000006</ele>
   </trkpt>
   <trkpt lat="-37.87791" lon="145.34269">
    <ele>505.95</ele>
   </trkpt>
   <trkpt lat="-37.87807" lon="145.34255000000002">
    <ele>506.21000000000004</ele>
   </trkpt>
   <trkpt lat="-37.87832" lon="145.34217">
    <ele>507.21999999999997</ele>
   </trkpt>
   <trkpt lat="-37.87847" lon="145.34209">
    <ele>504.58000000000004</ele>
   </trkpt>
   <trkpt lat="-37.87856" lon="145.34212000000002">
    <ele>502.63</ele>
   </trkpt>
   <trkpt lat="-37.8787" lon="145.34225">
    <ele>497.41</ele>
   </trkpt>
   <trkpt lat="-37.87874" lon="145.34236">
    <ele>497.41</ele>
   </trkpt>
   <trkpt lat="-37.878690000000006" lon="145.34248000000002">
    <ele>494.48</ele>
   </trkpt>
   <trkpt lat="-37.87865" lon="145.34264000000002">
    <ele>492.7900000000001</ele>
   </trkpt>
   <trkpt lat="-37.87865" lon="145.34273000000002">
    <ele>491.98</ele>
   </trkpt>
   <trkpt lat="-37.87877" lon="145.34292000000002">
    <ele>493.32000000000005</ele>
   </trkpt>
   <trkpt lat="-37.87892" lon="145.34284000000002">
    <ele>495.06000000000006</ele>
   </trkpt>
   <trkpt lat="-37.87901" lon="145.34286">
    <ele>497.1</ele>
   </trkpt>
   <trkpt lat="-37.87917" lon="145.34300000000002">
    <ele>498.45000000000005</ele>
   </trkpt>
   <trkpt lat="-37.87937" lon="145.34337000000002">
    <ele>501.0300000000001</ele>
   </trkpt>
   <trkpt lat="-37.87955" lon="145.34361">
    <ele>503.62000000000006</ele>
   </trkpt>
   <trkpt lat="-37.87964" lon="145.34372000000002">
    <ele>507.19</ele>
   </trkpt>
   <trkpt lat="-37.88034500034834" lon="145.34407999645205">
    <ele>519.8000000000001</ele>
   </trkpt>
   <trkpt lat="-37.88105" lon="145.34444000000002">
    <ele>524.36</ele>
   </trkpt>
   <trkpt lat="-37.881665000032825" lon="145.34460499860012">
    <ele>522.99</ele>
   </trkpt>
   <trkpt lat="-37.88228" lon="145.34477">
    <ele>518.73</ele>
   </trkpt>
   <trkpt lat="-37.88275" lon="145.34470000000002">
    <ele>516.1999999999999</ele>
   </trkpt>
   <trkpt lat="-37.883" lon="145.34471000000002">
    <ele>513.2500000000001</ele>
   </trkpt>
   <trkpt lat="-37.88344" lon="145.34482">
    <ele>510.86000000000007</ele>
   </trkpt>
   <trkpt lat="-37.88349" lon="145.34484">
    <ele>510.44</ele>
   </trkpt>
   <trkpt lat="-37.88389" lon="145.34507000000002">
    <ele>508.32</ele>
   </trkpt>
   <trkpt lat="-37.88396" lon="145.34514000000001">
    <ele>507.6700000000001</ele>
   </trkpt>
   <trkpt lat="-37.88411" lon="145.34534000000002">
    <ele>505.58000000000004</ele>
   </trkpt>
   <trkpt lat="-37.8842" lon="145.34558">
    <ele>503.40000000000003</ele>
   </trkpt>
   <trkpt lat="-37.88447" lon="145.34646">
    <ele>494.82000000000005</ele>
   </trkpt>
   <trkpt lat="-37.88454" lon="145.34662">
    <ele>493.81</ele>
   </trkpt>
   <trkpt lat="-37.88461" lon="145.34673">
    <ele>493.01000000000005</ele>
   </trkpt>
   <trkpt lat="-37.88492" lon="145.34708">
    <ele>491.27000000000004</ele>
   </trkpt>
   <trkpt lat="-37.88517" lon="145.34727">
    <ele>489.95000000000005</ele>
   </trkpt>
   <trkpt lat="-37.88555" lon="145.34747000000002">
    <ele>489.62000000000006</ele>
   </trkpt>
   <trkpt lat="-37.88606" lon="145.3478">
    <ele>491.46000000000004</ele>
   </trkpt>
   <trkpt lat="-37.88658" lon="145.34825">
    <ele>493.59000000000003</ele>
   </trkpt>
   <trkpt lat="-37.88664" lon="145.34829000000002">
    <ele>493.63</ele>
   </trkpt>
   <trkpt lat="-37.88669" lon="145.34829000000002">
    <ele>493.53000000000003</ele>
   </trkpt>
   <trkpt lat="-37.8868" lon="145.34823">
    <ele>493.24000000000007</ele>
   </trkpt>
   <trkpt lat="-37.88705" lon="145.34804000000003">
    <ele>490.83000000000004</ele>
   </trkpt>
   <trkpt lat="-37.88749" lon="145.34755">
    <ele>484.14</ele>
   </trkpt>
   <trkpt lat="-37.88781" lon="145.34726">
    <ele>479.22</ele>
   </trkpt>
   <trkpt lat="-37.88796" lon="145.34717">
    <ele>474.77000000000004</ele>
   </trkpt>
   <trkpt lat="-37.888180000000006" lon="145.34709">
    <ele>470.09000000000003</ele>
   </trkpt>
   <trkpt lat="-37.88879" lon="145.34693000000001">
    <ele>456.83</ele>
   </trkpt>
   <trkpt lat="-37.88897" lon="145.34685000000002">
    <ele>451.58000000000004</ele>
   </trkpt>
   <trkpt lat="-37.88935" lon="145.34658000000002">
    <ele>435.7300000000001</ele>
   </trkpt>
   <trkpt lat="-37.88964" lon="145.34628">
    <ele>426.05</ele>
   </trkpt>
   <trkpt lat="-37.88964" lon="145.34629">
    <ele>426.28000000000003</ele>
   </trkpt>
   <trkpt lat="-37.88973" lon="145.3462">
    <ele>423.03000000000003</ele>
   </trkpt>
   <trkpt lat="-37.88991" lon="145.34611">
    <ele>416.30000000000007</ele>
   </trkpt>
   <trkpt lat="-37.89" lon="145.34609">
    <ele>413.71000000000004</ele>
   </trkpt>
   <trkpt lat="-37.89016" lon="145.34611">
    <ele>407.45000000000005</ele>
   </trkpt>
   <trkpt lat="-37.89036" lon="145.34618">
    <ele>403.83000000000004</ele>
   </trkpt>
   <trkpt lat="-37.89072" lon="145.34623000000002">
    <ele>392.75000000000006</ele>
   </trkpt>
   <trkpt lat="-37.89099" lon="145.34611">
    <ele>388.61</ele>
   </trkpt>
   <trkpt lat="-37.89141" lon="145.34617">
    <ele>379.20000000000005</ele>
   </trkpt>
   <trkpt lat="-37.8915" lon="145.3462">
    <ele>377.55000000000007</ele>
   </trkpt>
   <trkpt lat="-37.89166" lon="145.34634">
    <ele>374.35</ele>
   </trkpt>
   <trkpt lat="-37.891870000000004" lon="145.34645">
    <ele>370.44000000000005</ele>
   </trkpt>
   <trkpt lat="-37.89208" lon="145.34649000000002">
    <ele>366.83000000000004</ele>
   </trkpt>
   <trkpt lat="-37.89235" lon="145.34657">
    <ele>362.6</ele>
   </trkpt>
   <trkpt lat="-37.892770000000006" lon="145.34666">
    <ele>355.84000000000003</ele>
   </trkpt>
   <trkpt lat="-37.89316" lon="145.34688">
    <ele>349.79</ele>
   </trkpt>
   <trkpt lat="-37.89345" lon="145.34701">
    <ele>347.72</ele>
   </trkpt>
   <trkpt lat="-37.89367" lon="145.34722000000002">
    <ele>346.34000000000003</ele>
   </trkpt>
   <trkpt lat="-37.89392" lon="145.34734">
    <ele>345.93</ele>
   </trkpt>
   <trkpt lat="-37.89399" lon="145.34735">
    <ele>345.73</ele>
   </trkpt>
   <trkpt lat="-37.894090000000006" lon="145.34743">
    <ele>344.72</ele>
   </trkpt>
   <trkpt lat="-37.89419" lon="145.34762">
    <ele>342.61</ele>
   </trkpt>
   <trkpt lat="-37.89466" lon="145.34858">
    <ele>330.54</ele>
   </trkpt>
   <trkpt lat="-37.89479" lon="145.34878">
    <ele>328.13000000000005</ele>
   </trkpt>
   <trkpt lat="-37.89481" lon="145.34893000000002">
    <ele>328.13000000000005</ele>
   </trkpt>
   <trkpt lat="-37.8949" lon="145.34912">
    <ele>324.74</ele>
   </trkpt>
   <trkpt lat="-37.894960000000005" lon="145.34931">
    <ele>323.27</ele>
   </trkpt>
   <trkpt lat="-37.895030000000006" lon="145.34939">
    <ele>322.65999999999997</ele>
   </trkpt>
   <trkpt lat="-37.89528" lon="145.34959">
    <ele>321.73</ele>
   </trkpt>
   <trkpt lat="-37.895410000000005" lon="145.34991000000002">
    <ele>321.65000000000003</ele>
   </trkpt>
   <trkpt lat="-37.89546" lon="145.34998000000002">
    <ele>321.65000000000003</ele>
   </trkpt>
   <trkpt lat="-37.89551" lon="145.35015">
    <ele>322.0</ele>
   </trkpt>
   <trkpt lat="-37.89566000000001" lon="145.35035000000002">
    <ele>319.92</ele>
   </trkpt>
   <trkpt lat="-37.895860000000006" lon="145.35018000000002">
    <ele>312.52000000000004</ele>
   </trkpt>
   <trkpt lat="-37.89605" lon="145.35013">
    <ele>310.77000000000004</ele>
   </trkpt>
   <trkpt lat="-37.896460000363305" lon="145.34982500172129">
    <ele>304.34</ele>
   </trkpt>
   <trkpt lat="-37.89687" lon="145.34952">
    <ele>297.53000000000003</ele>
   </trkpt>
   <trkpt lat="-37.89730000047246" lon="145.34918000199931">
    <ele>290.29</ele>
   </trkpt>
   <trkpt lat="-37.89773" lon="145.34884000000002">
    <ele>280.51000000000005</ele>
   </trkpt>
   <trkpt lat="-37.898175000499364" lon="145.3485050020068">
    <ele>272.88</ele>
   </trkpt>
   <trkpt lat="-37.89862" lon="145.34817">
    <ele>268.18</ele>
   </trkpt>
   <trkpt lat="-37.89873" lon="145.34805">
    <ele>266.49</ele>
   </trkpt>
   <trkpt lat="-37.89914" lon="145.34744">
    <ele>258.74</ele>
   </trkpt>
   <trkpt lat="-37.8994" lon="145.34696000000002">
    <ele>251.88000000000005</ele>
   </trkpt>
   <trkpt lat="-37.89951000000001" lon="145.34671">
    <ele>247.87</ele>
   </trkpt>
   <trkpt lat="-37.8994" lon="145.34662">
    <ele>246.85000000000002</ele>
   </trkpt>
   <trkpt lat="-37.89931" lon="145.34661">
    <ele>246.05</ele>
   </trkpt>
   <trkpt lat="-37.8992" lon="145.34663">
    <ele>245.44000000000003</ele>
   </trkpt>
   <trkpt lat="-37.89891" lon="145.34677000000002">
    <ele>241.12000000000003</ele>
   </trkpt>
   <trkpt lat="-37.8988" lon="145.3468">
    <ele>240.65000000000003</ele>
   </trkpt>
   <trkpt lat="-37.89862" lon="145.34679">
    <ele>239.35</ele>
   </trkpt>
   <trkpt lat="-37.898500000000006" lon="145.34674">
    <ele>239.07000000000002</ele>
   </trkpt>
   <trkpt lat="-37.8984" lon="145.34662">
    <ele>240.07000000000002</ele>
   </trkpt>
   <trkpt lat="-37.89835" lon="145.34637">
    <ele>242.53000000000003</ele>
   </trkpt>
   <trkpt lat="-37.89837" lon="145.34597000000002">
    <ele>244.15000000000003</ele>
   </trkpt>
   <trkpt lat="-37.89833" lon="145.34562000000003">
    <ele>246.27</ele>
   </trkpt>
   <trkpt lat="-37.89822" lon="145.3451">
    <ele>251.54999999999998</ele>
   </trkpt>
   <trkpt lat="-37.898010000000006" lon="145.34448">
    <ele>253.03000000000003</ele>
   </trkpt>
   <trkpt lat="-37.89778000387729" lon="145.34352499709675">
    <ele>247.04</ele>
   </trkpt>
   <trkpt lat="-37.89755" lon="145.34257000000002">
    <ele>246.19000000000003</ele>
   </trkpt>
   <trkpt lat="-37.89739500213776" lon="145.34186999881996">
    <ele>244.24</ele>
   </trkpt>
   <trkpt lat="-37.897240000000004" lon="145.34117">
    <ele>244.68</ele>
   </trkpt>
   <trkpt lat="-37.89685" lon="145.34120000000001">
    <ele>246.93</ele>
   </trkpt>
   <trkpt lat="-37.89681" lon="145.34119">
    <ele>246.93</ele>
   </trkpt>
   <trkpt lat="-37.89676" lon="145.34115">
    <ele>246.93</ele>
   </trkpt>
   <trkpt lat="-37.8967" lon="145.34093000000001">
    <ele>248.77</ele>
   </trkpt>
   <trkpt lat="-37.89658" lon="145.34044">
    <ele>252.41000000000003</ele>
   </trkpt>
   <trkpt lat="-37.89658" lon="145.34031000000002">
    <ele>253.26000000000005</ele>
   </trkpt>
   <trkpt lat="-37.89665" lon="145.34015000000002">
    <ele>254.20000000000005</ele>
   </trkpt>
   <trkpt lat="-37.89685" lon="145.34004000000002">
    <ele>255.15000000000003</ele>
   </trkpt>
   <trkpt lat="-37.89721" lon="145.33989000000003">
    <ele>256.5</ele>
   </trkpt>
   <trkpt lat="-37.8975" lon="145.33979000000002">
    <ele>259.85</ele>
   </trkpt>
   <trkpt lat="-37.897470000000006" lon="145.33973">
    <ele>260.33</ele>
   </trkpt>
   <trkpt lat="-37.89719" lon="145.33964">
    <ele>262.62</ele>
   </trkpt>
   <trkpt lat="-37.89687" lon="145.33957">
    <ele>267.03000000000003</ele>
   </trkpt>
   <trkpt lat="-37.89663" lon="145.33955">
    <ele>268.48</ele>
   </trkpt>
   <trkpt lat="-37.89598" lon="145.33959000000002">
    <ele>275.39000000000004</ele>
   </trkpt>
   <trkpt lat="-37.89574" lon="145.33956">
    <ele>278.5</ele>
   </trkpt>
   <trkpt lat="-37.89618500059853" lon="145.33916500244246">
    <ele>283.53</ele>
   </trkpt>
   <trkpt lat="-37.89663" lon="145.33877">
    <ele>289.06000000000006</ele>
   </trkpt>
   <trkpt lat="-37.896640000000005" lon="145.33877">
    <ele>289.06000000000006</ele>
   </trkpt>
   <trkpt lat="-37.897200000000005" lon="145.33827000000002">
    <ele>292.25</ele>
   </trkpt>
   <trkpt lat="-37.896635000126516" lon="145.33831500033602">
    <ele>292.86</ele>
   </trkpt>
   <trkpt lat="-37.89607" lon="145.33836000000002">
    <ele>293.98</ele>
   </trkpt>
   <trkpt lat="-37.89542" lon="145.33843000000002">
    <ele>296.81</ele>
   </trkpt>
   <trkpt lat="-37.89524667192404" lon="145.33763999617804">
    <ele>286.29</ele>
   </trkpt>
   <trkpt lat="-37.895073338568395" lon="145.33684999607638">
    <ele>275.02000000000004</ele>
   </trkpt>
   <trkpt lat="-37.8949" lon="145.33606">
    <ele>253.91000000000003</ele>
   </trkpt>
   <trkpt lat="-37.89488" lon="145.33594000000002">
    <ele>252.22</ele>
   </trkpt>
   <trkpt lat="-37.894890000000004" lon="145.33581">
    <ele>250.60000000000005</ele>
   </trkpt>
   <trkpt lat="-37.89457" lon="145.33536">
    <ele>244.52</ele>
   </trkpt>
   <trkpt lat="-37.894330000000004" lon="145.33485000000002">
    <ele>245.23000000000002</ele>
   </trkpt>
   <trkpt lat="-37.894235002366074" lon="145.33409999892805">
    <ele>242.16</ele>
   </trkpt>
   <trkpt lat="-37.89414" lon="145.33335000000002">
    <ele>240.93000000000004</ele>
   </trkpt>
   <trkpt lat="-37.8941" lon="145.33280000000002">
    <ele>245.68</ele>
   </trkpt>
   <trkpt lat="-37.89399" lon="145.33176">
    <ele>273.82</ele>
   </trkpt>
   <trkpt lat="-37.89396" lon="145.33088">
    <ele>297.74</ele>
   </trkpt>
   <trkpt lat="-37.8939" lon="145.33001000000002">
    <ele>314.67</ele>
   </trkpt>
   <trkpt lat="-37.89387" lon="145.32974000000002">
    <ele>321.61</ele>
   </trkpt>
   <trkpt lat="-37.893910000000005" lon="145.32943">
    <ele>328.26000000000005</ele>
   </trkpt>
   <trkpt lat="-37.89401" lon="145.32906">
    <ele>335.91</ele>
   </trkpt>
   <trkpt lat="-37.89405" lon="145.32898">
    <ele>337.63000000000005</ele>
   </trkpt>
   <trkpt lat="-37.89408" lon="145.32879">
    <ele>339.49</ele>
   </trkpt>
   <trkpt lat="-37.893980000000006" lon="145.32856">
    <ele>339.96000000000004</ele>
   </trkpt>
   <trkpt lat="-37.89358" lon="145.32855">
    <ele>339.13000000000005</ele>
   </trkpt>
   <trkpt lat="-37.89338" lon="145.32843000000003">
    <ele>338.98</ele>
   </trkpt>
   <trkpt lat="-37.89293" lon="145.32827">
    <ele>338.95000000000005</ele>
   </trkpt>
   <trkpt lat="-37.8926" lon="145.32804000000002">
    <ele>342.29</ele>
   </trkpt>
   <trkpt lat="-37.89258" lon="145.32797000000002">
    <ele>342.29</ele>
   </trkpt>
   <trkpt lat="-37.89237" lon="145.32783">
    <ele>344.29</ele>
   </trkpt>
   <trkpt lat="-37.89218" lon="145.32775">
    <ele>346.77000000000004</ele>
   </trkpt>
   <trkpt lat="-37.89213" lon="145.32768000000002">
    <ele>347.68000000000006</ele>
   </trkpt>
   <trkpt lat="-37.89184" lon="145.32737">
    <ele>357.43</ele>
   </trkpt>
   <trkpt lat="-37.89168" lon="145.32727">
    <ele>359.6</ele>
   </trkpt>
   <trkpt lat="-37.89143" lon="145.32718">
    <ele>363.52</ele>
   </trkpt>
   <trkpt lat="-37.8911" lon="145.3271">
    <ele>370.18</ele>
   </trkpt>
   <trkpt lat="-37.89085" lon="145.32713">
    <ele>373.94000000000005</ele>
   </trkpt>
   <trkpt lat="-37.89052" lon="145.327">
    <ele>379.05000000000007</ele>
   </trkpt>
   <trkpt lat="-37.890330000000006" lon="145.32711">
    <ele>381.44000000000005</ele>
   </trkpt>
   <trkpt lat="-37.89025" lon="145.32712">
    <ele>382.44000000000005</ele>
   </trkpt>
   <trkpt lat="-37.89011" lon="145.32706000000002">
    <ele>384.45</ele>
   </trkpt>
   <trkpt lat="-37.88974" lon="145.32714">
    <ele>386.94</ele>
   </trkpt>
   <trkpt lat="-37.88974" lon="145.32713">
    <ele>386.92</ele>
   </trkpt>
   <trkpt lat="-37.88944" lon="145.32715000000002">
    <ele>390.07</ele>
   </trkpt>
   <trkpt lat="-37.88904" lon="145.32707000000002">
    <ele>396.57000000000005</ele>
   </trkpt>
   <trkpt lat="-37.88873" lon="145.32696">
    <ele>398.27</ele>
   </trkpt>
   <trkpt lat="-37.88837" lon="145.32678">
    <ele>400.17</ele>
   </trkpt>
   <trkpt lat="-37.88828" lon="145.32675">
    <ele>400.34000000000003</ele>
   </trkpt>
   <trkpt lat="-37.88763" lon="145.32669">
    <ele>400.56</ele>
   </trkpt>
   <trkpt lat="-37.88754" lon="145.32671000000002">
    <ele>400.21</ele>
   </trkpt>
   <trkpt lat="-37.88736" lon="145.32690000000002">
    <ele>397.23</ele>
   </trkpt>
   <trkpt lat="-37.88725" lon="145.32695">
    <ele>395.61</ele>
   </trkpt>
   <trkpt lat="-37.88714" lon="145.32724000000002">
    <ele>389.37000000000006</ele>
   </trkpt>
   <trkpt lat="-37.88705" lon="145.32759000000001">
    <ele>387.0</ele>
   </trkpt>
   <trkpt lat="-37.886970000000005" lon="145.32777000000002">
    <ele>382.82000000000005</ele>
   </trkpt>
   <trkpt lat="-37.88655" lon="145.32825000000003">
    <ele>380.89</ele>
   </trkpt>
   <trkpt lat="-37.886390000000006" lon="145.32833000000002">
    <ele>380.93000000000006</ele>
   </trkpt>
   <trkpt lat="-37.88638" lon="145.32786000000002">
    <ele>378.22</ele>
   </trkpt>
   <trkpt lat="-37.88624" lon="145.32771000000002">
    <ele>377.26000000000005</ele>
   </trkpt>
   <trkpt lat="-37.8862" lon="145.3274">
    <ele>376.56</ele>
   </trkpt>
   <trkpt lat="-37.886190000000006" lon="145.32696">
    <ele>376.55000000000007</ele>
   </trkpt>
   <trkpt lat="-37.8862" lon="145.32675">
    <ele>374.47</ele>
   </trkpt>
   <trkpt lat="-37.88617" lon="145.32611">
    <ele>367.62</ele>
   </trkpt>
   <trkpt lat="-37.8862" lon="145.32581000000002">
    <ele>366.08</ele>
   </trkpt>
   <trkpt lat="-37.88611" lon="145.32498">
    <ele>356.47</ele>
   </trkpt>
   <trkpt lat="-37.88604" lon="145.32408">
    <ele>346.37</ele>
   </trkpt>
   <trkpt lat="-37.885780004013796" lon="145.3231049965318">
    <ele>330.64000000000004</ele>
   </trkpt>
   <trkpt lat="-37.88552" lon="145.32213000000002">
    <ele>316.98</ele>
   </trkpt>
   <trkpt lat="-37.8855" lon="145.32171000000002">
    <ele>311.0</ele>
   </trkpt>
   <trkpt lat="-37.88557" lon="145.32133000000002">
    <ele>305.36</ele>
   </trkpt>
   <trkpt lat="-37.885580000000004" lon="145.32132000000001">
    <ele>305.31</ele>
   </trkpt>
   <trkpt lat="-37.88561" lon="145.32119">
    <ele>304.28000000000003</ele>
   </trkpt>
   <trkpt lat="-37.88568" lon="145.32109">
    <ele>301.99</ele>
   </trkpt>
   <trkpt lat="-37.88579" lon="145.321">
    <ele>299.17</ele>
   </trkpt>
   <trkpt lat="-37.88606" lon="145.32084">
    <ele>291.25</ele>
   </trkpt>
   <trkpt lat="-37.88664" lon="145.3206">
    <ele>285.21000000000004</ele>
   </trkpt>
   <trkpt lat="-37.88678" lon="145.32057">
    <ele>282.82</ele>
   </trkpt>
   <trkpt lat="-37.887240000000006" lon="145.32056">
    <ele>274.88</ele>
   </trkpt>
   <trkpt lat="-37.88752" lon="145.3206">
    <ele>269.56</ele>
   </trkpt>
   <trkpt lat="-37.88806" lon="145.32075">
    <ele>259.34000000000003</ele>
   </trkpt>
   <trkpt lat="-37.88796" lon="145.32052000000002">
    <ele>257.41</ele>
   </trkpt>
   <trkpt lat="-37.88747" lon="145.31974000000002">
    <ele>249.42000000000002</ele>
   </trkpt>
   <trkpt lat="-37.88711" lon="145.31926">
    <ele>241.83</ele>
   </trkpt>
   <trkpt lat="-37.88669" lon="145.31874000000002">
    <ele>235.09</ele>
   </trkpt>
   <trkpt lat="-37.88646" lon="145.31853">
    <ele>231.37</ele>
   </trkpt>
   <trkpt lat="-37.88664" lon="145.31822000000003">
    <ele>227.05</ele>
   </trkpt>
   <trkpt lat="-37.886700000000005" lon="145.31819000000002">
    <ele>226.02</ele>
   </trkpt>
   <trkpt lat="-37.88687" lon="145.31819000000002">
    <ele>224.10000000000002</ele>
   </trkpt>
   <trkpt lat="-37.88729" lon="145.31833">
    <ele>218.33</ele>
   </trkpt>
   <trkpt lat="-37.88745" lon="145.31834">
    <ele>217.22000000000003</ele>
   </trkpt>
   <trkpt lat="-37.88752" lon="145.31833">
    <ele>215.22000000000003</ele>
   </trkpt>
   <trkpt lat="-37.887510000000006" lon="145.31829000000002">
    <ele>215.22000000000003</ele>
   </trkpt>
   <trkpt lat="-37.88754" lon="145.31786000000002">
    <ele>215.53000000000003</ele>
   </trkpt>
   <trkpt lat="-37.887460000000004" lon="145.31768000000002">
    <ele>215.47000000000003</ele>
   </trkpt>
   <trkpt lat="-37.887460000000004" lon="145.31762">
    <ele>215.53000000000003</ele>
   </trkpt>
   <trkpt lat="-37.88772" lon="145.31759000000002">
    <ele>212.26</ele>
   </trkpt>
   <trkpt lat="-37.88781" lon="145.31755">
    <ele>210.71</ele>
   </trkpt>
   <trkpt lat="-37.88787000000001" lon="145.31756000000001">
    <ele>210.71</ele>
   </trkpt>
   <trkpt lat="-37.88808" lon="145.31744">
    <ele>208.39000000000001</ele>
   </trkpt>
   <trkpt lat="-37.888270000000006" lon="145.31747000000001">
    <ele>206.91</ele>
   </trkpt>
   <trkpt lat="-37.88828" lon="145.31748000000002">
    <ele>206.91</ele>
   </trkpt>
   <trkpt lat="-37.88839" lon="145.31750000000002">
    <ele>204.69</ele>
   </trkpt>
   <trkpt lat="-37.88846" lon="145.31753">
    <ele>204.69</ele>
   </trkpt>
   <trkpt lat="-37.88866" lon="145.31772">
    <ele>201.14000000000001</ele>
   </trkpt>
   <trkpt lat="-37.888830000000006" lon="145.31773">
    <ele>198.45000000000002</ele>
   </trkpt>
   <trkpt lat="-37.8889" lon="145.31777000000002">
    <ele>198.45000000000002</ele>
   </trkpt>
   <trkpt lat="-37.88893" lon="145.31777000000002">
    <ele>198.45000000000002</ele>
   </trkpt>
   <trkpt lat="-37.88895" lon="145.31774000000001">
    <ele>198.45000000000002</ele>
   </trkpt>
   <trkpt lat="-37.88931" lon="145.31776000000002">
    <ele>195.37</ele>
   </trkpt>
   <trkpt lat="-37.889410000000005" lon="145.31771">
    <ele>193.87</ele>
   </trkpt>
   <trkpt lat="-37.88967" lon="145.31767000000002">
    <ele>191.55</ele>
   </trkpt>
   <trkpt lat="-37.889810000000004" lon="145.31752">
    <ele>189.61</ele>
   </trkpt>
   <trkpt lat="-37.890280000000004" lon="145.31739000000002">
    <ele>185.8</ele>
   </trkpt>
   <trkpt lat="-37.8904" lon="145.31744">
    <ele>184.86</ele>
   </trkpt>
   <trkpt lat="-37.8905" lon="145.31752">
    <ele>184.36</ele>
   </trkpt>
   <trkpt lat="-37.89058" lon="145.31753">
    <ele>183.06000000000003</ele>
   </trkpt>
   <trkpt lat="-37.89067" lon="145.31745">
    <ele>181.56000000000003</ele>
   </trkpt>
   <trkpt lat="-37.89083" lon="145.31740000000002">
    <ele>180.27</ele>
   </trkpt>
   <trkpt lat="-37.89094" lon="145.31733">
    <ele>178.91</ele>
   </trkpt>
  </trkseg>
 </trk>
</gpx>
