<?xml version="1.0" encoding="UTF-8"?>
<gpx creator="StravaGPX" version="1.1" xmlns="http://www.topografix.com/GPX/1/1" xmlns:xsi="http://www.w3.org/2001/XMLSchema-instance" xsi:schemaLocation="http://www.topografix.com/GPX/1/1 http://www.topografix.com/GPX/1/1/gpx.xsd">
 <metadata>
  <name>DTR 14k May 31st</name>
  <author>
   <name>Richard Jones</name>
   <link href="https://www.strava.com/athletes/38085969"/>
  </author>
  <copyright author="OpenStreetMap contributors">
   <year>2020</year>
   <license>https://www.openstreetmap.org/copyright</license>
  </copyright>
  <link href="https://www.strava.com/routes/3495235925910356942"/>
 </metadata>
 <trk>
  <name>DTR 14k May 31st</name>
  <link href="https://www.strava.com/routes/3495235925910356942"/>
  <type>trail_running</type>
  <trkseg>
   <trkpt lat="-37.862840000000006" lon="145.35371">
    <ele>481.04</ele>
   </trkpt>
   <trkpt lat="-37.86287" lon="145.3538">
    <ele>481.13000000000005</ele>
   </trkpt>
   <trkpt lat="-37.862840000000006" lon="145.35371">
    <ele>481.04</ele>
   </trkpt>
   <trkpt lat="-37.862860000000005" lon="145.35369">
    <ele>480.95000000000005</ele>
   </trkpt>
   <trkpt lat="-37.862820000000006" lon="145.3536">
    <ele>480.86000000000007</ele>
   </trkpt>
   <trkpt lat="-37.86274" lon="145.35366000000002">
    <ele>480.94</ele>
   </trkpt>
   <trkpt lat="-37.862410000000004" lon="145.35296000000002">
    <ele>478.7</ele>
   </trkpt>
   <trkpt lat="-37.86238" lon="145.35285000000002">
    <ele>478.99</ele>
   </trkpt>
   <trkpt lat="-37.86242" lon="145.35278000000002">
    <ele>478.99</ele>
   </trkpt>
   <trkpt lat="-37.86222" lon="145.35236">
    <ele>474.02000000000004</ele>
   </trkpt>
   <trkpt lat="-37.86216" lon="145.35208">
    <ele>470.59000000000003</ele>
   </trkpt>
   <trkpt lat="-37.86215" lon="145.35175">
    <ele>468.84000000000003</ele>
   </trkpt>
   <trkpt lat="-37.86222" lon="145.3514">
    <ele>466.44</ele>
   </trkpt>
   <trkpt lat="-37.862750000000005" lon="145.35068">
    <ele>457.1000000000001</ele>
   </trkpt>
   <trkpt lat="-37.862750000000005" lon="145.35067">
    <ele>465.68</ele>
   </trkpt>
   <trkpt lat="-37.862370000000006" lon="145.35031">
    <ele>454.43000000000006</ele>
   </trkpt>
   <trkpt lat="-37.861740000000005" lon="145.35073">
    <ele>456.64000000000004</ele>
   </trkpt>
   <trkpt lat="-37.86103000000001" lon="145.35135000000002">
    <ele>449.83000000000004</ele>
   </trkpt>
   <trkpt lat="-37.860960000000006" lon="145.35146">
    <ele>450.68</ele>
   </trkpt>
   <trkpt lat="-37.860490000000006" lon="145.35181">
    <ele>460.70000000000005</ele>
   </trkpt>
   <trkpt lat="-37.86023" lon="145.35196000000002">
    <ele>464.77</ele>
   </trkpt>
   <trkpt lat="-37.85994" lon="145.35221">
    <ele>469.62</ele>
   </trkpt>
   <trkpt lat="-37.8596" lon="145.35241000000002">
    <ele>473.79</ele>
   </trkpt>
   <trkpt lat="-37.85945" lon="145.35244">
    <ele>475.61</ele>
   </trkpt>
   <trkpt lat="-37.8592" lon="145.35248">
    <ele>479.53000000000003</ele>
   </trkpt>
   <trkpt lat="-37.85851" lon="145.35268000000002">
    <ele>488.00000000000006</ele>
   </trkpt>
   <trkpt lat="-37.85815" lon="145.35273">
    <ele>495.85</ele>
   </trkpt>
   <trkpt lat="-37.857635000010575" lon="145.35270499982573">
    <ele>500.01000000000005</ele>
   </trkpt>
   <trkpt lat="-37.85712" lon="145.35268000000002">
    <ele>506.32</ele>
   </trkpt>
   <trkpt lat="-37.85701" lon="145.35266000000001">
    <ele>506.32</ele>
   </trkpt>
   <trkpt lat="-37.85683" lon="145.35260000000002">
    <ele>508.3500000000001</ele>
   </trkpt>
   <trkpt lat="-37.85636" lon="145.35252">
    <ele>509.78</ele>
   </trkpt>
   <trkpt lat="-37.85622" lon="145.35246">
    <ele>508.82000000000005</ele>
   </trkpt>
   <trkpt lat="-37.856230000000004" lon="145.35247">
    <ele>508.82000000000005</ele>
   </trkpt>
   <trkpt lat="-37.85614" lon="145.35240000000002">
    <ele>507.5200000000001</ele>
   </trkpt>
   <trkpt lat="-37.85580500091417" lon="145.35193999793628">
    <ele>498.11000000000007</ele>
   </trkpt>
   <trkpt lat="-37.855470000000004" lon="145.35148">
    <ele>490.95000000000005</ele>
   </trkpt>
   <trkpt lat="-37.85507500121872" lon="145.3509249969086">
    <ele>482.85</ele>
   </trkpt>
   <trkpt lat="-37.85468" lon="145.35037">
    <ele>473.68000000000006</ele>
   </trkpt>
   <trkpt lat="-37.85419" lon="145.34983000000003">
    <ele>459.97</ele>
   </trkpt>
   <trkpt lat="-37.85378" lon="145.34931">
    <ele>451.3</ele>
   </trkpt>
   <trkpt lat="-37.85351" lon="145.34869">
    <ele>442.69</ele>
   </trkpt>
   <trkpt lat="-37.85347" lon="145.34849">
    <ele>441.42</ele>
   </trkpt>
   <trkpt lat="-37.85349" lon="145.34832">
    <ele>441.02000000000004</ele>
   </trkpt>
   <trkpt lat="-37.85329" lon="145.34838000000002">
    <ele>438.09000000000003</ele>
   </trkpt>
   <trkpt lat="-37.85298" lon="145.34869">
    <ele>430.33000000000004</ele>
   </trkpt>
   <trkpt lat="-37.85284" lon="145.34871">
    <ele>425.17</ele>
   </trkpt>
   <trkpt lat="-37.85262" lon="145.34889">
    <ele>420.1</ele>
   </trkpt>
   <trkpt lat="-37.85246" lon="145.34893000000002">
    <ele>411.58000000000004</ele>
   </trkpt>
   <trkpt lat="-37.85195" lon="145.34931">
    <ele>394.75000000000006</ele>
   </trkpt>
   <trkpt lat="-37.85116" lon="145.34979">
    <ele>360.95000000000005</ele>
   </trkpt>
   <trkpt lat="-37.85107" lon="145.34977">
    <ele>358.68000000000006</ele>
   </trkpt>
   <trkpt lat="-37.851060000000004" lon="145.34977">
    <ele>358.68000000000006</ele>
   </trkpt>
   <trkpt lat="-37.85098" lon="145.34968">
    <ele>353.84000000000003</ele>
   </trkpt>
   <trkpt lat="-37.8508" lon="145.34936000000002">
    <ele>344.1</ele>
   </trkpt>
   <trkpt lat="-37.8506" lon="145.34881000000001">
    <ele>338.62</ele>
   </trkpt>
   <trkpt lat="-37.85033500134351" lon="145.34822999774286">
    <ele>330.71</ele>
   </trkpt>
   <trkpt lat="-37.85007" lon="145.34765000000002">
    <ele>320.18</ele>
   </trkpt>
   <trkpt lat="-37.84975" lon="145.34712000000002">
    <ele>314.3</ele>
   </trkpt>
   <trkpt lat="-37.84964" lon="145.34674">
    <ele>312.02000000000004</ele>
   </trkpt>
   <trkpt lat="-37.84937" lon="145.34567">
    <ele>302.89000000000004</ele>
   </trkpt>
   <trkpt lat="-37.8491" lon="145.34499000000002">
    <ele>291.27000000000004</ele>
   </trkpt>
   <trkpt lat="-37.84895" lon="145.34452000000002">
    <ele>282.87</ele>
   </trkpt>
   <trkpt lat="-37.848760000000006" lon="145.34363000000002">
    <ele>273.84000000000003</ele>
   </trkpt>
   <trkpt lat="-37.84875" lon="145.34361">
    <ele>273.84000000000003</ele>
   </trkpt>
   <trkpt lat="-37.84868" lon="145.34415">
    <ele>274.28000000000003</ele>
   </trkpt>
   <trkpt lat="-37.84861" lon="145.34492">
    <ele>275.34000000000003</ele>
   </trkpt>
   <trkpt lat="-37.848600001896216" lon="145.34559000020948">
    <ele>278.32</ele>
   </trkpt>
   <trkpt lat="-37.84859" lon="145.34626">
    <ele>282.65000000000003</ele>
   </trkpt>
   <trkpt lat="-37.84857" lon="145.34640000000002">
    <ele>283.1</ele>
   </trkpt>
   <trkpt lat="-37.84855" lon="145.34642000000002">
    <ele>284.11</ele>
   </trkpt>
   <trkpt lat="-37.84848" lon="145.34639">
    <ele>285.11</ele>
   </trkpt>
   <trkpt lat="-37.848200000000006" lon="145.3459">
    <ele>288.63</ele>
   </trkpt>
   <trkpt lat="-37.84798" lon="145.34563">
    <ele>290.84999999999997</ele>
   </trkpt>
   <trkpt lat="-37.84789" lon="145.34557">
    <ele>292.1</ele>
   </trkpt>
   <trkpt lat="-37.84781" lon="145.34555">
    <ele>292.68000000000006</ele>
   </trkpt>
   <trkpt lat="-37.84756" lon="145.34556">
    <ele>293.78000000000003</ele>
   </trkpt>
   <trkpt lat="-37.84745" lon="145.34555">
    <ele>294.03000000000003</ele>
   </trkpt>
   <trkpt lat="-37.84731" lon="145.34550000000002">
    <ele>294.16</ele>
   </trkpt>
   <trkpt lat="-37.84722" lon="145.34541000000002">
    <ele>294.08</ele>
   </trkpt>
   <trkpt lat="-37.847170000000006" lon="145.34528">
    <ele>293.97</ele>
   </trkpt>
   <trkpt lat="-37.84707" lon="145.34496000000001">
    <ele>293.34000000000003</ele>
   </trkpt>
   <trkpt lat="-37.84707" lon="145.34472000000002">
    <ele>293.25</ele>
   </trkpt>
   <trkpt lat="-37.8472" lon="145.34408000000002">
    <ele>296.32000000000005</ele>
   </trkpt>
   <trkpt lat="-37.84718" lon="145.34387">
    <ele>296.8</ele>
   </trkpt>
   <trkpt lat="-37.847170000000006" lon="145.34381000000002">
    <ele>297.65000000000003</ele>
   </trkpt>
   <trkpt lat="-37.84709" lon="145.34374000000003">
    <ele>297.89000000000004</ele>
   </trkpt>
   <trkpt lat="-37.84702" lon="145.34371000000002">
    <ele>298.16</ele>
   </trkpt>
   <trkpt lat="-37.84691" lon="145.34377">
    <ele>299.24</ele>
   </trkpt>
   <trkpt lat="-37.84666" lon="145.3442">
    <ele>304.07</ele>
   </trkpt>
   <trkpt lat="-37.84657" lon="145.34428">
    <ele>305.38000000000005</ele>
   </trkpt>
   <trkpt lat="-37.84642" lon="145.34432">
    <ele>308.24</ele>
   </trkpt>
   <trkpt lat="-37.84599" lon="145.34422">
    <ele>314.35</ele>
   </trkpt>
   <trkpt lat="-37.845690000000005" lon="145.34410000000003">
    <ele>320.13</ele>
   </trkpt>
   <trkpt lat="-37.8457" lon="145.34397">
    <ele>320.94</ele>
   </trkpt>
   <trkpt lat="-37.8457" lon="145.34371000000002">
    <ele>321.38</ele>
   </trkpt>
   <trkpt lat="-37.84548" lon="145.34309000000002">
    <ele>328.06</ele>
   </trkpt>
   <trkpt lat="-37.84532" lon="145.34259">
    <ele>327.75000000000006</ele>
   </trkpt>
   <trkpt lat="-37.8451" lon="145.34224">
    <ele>325.14000000000004</ele>
   </trkpt>
   <trkpt lat="-37.84496" lon="145.34209">
    <ele>324.59000000000003</ele>
   </trkpt>
   <trkpt lat="-37.84451500060959" lon="145.3417299978776">
    <ele>323.48</ele>
   </trkpt>
   <trkpt lat="-37.84407" lon="145.34137">
    <ele>321.23</ele>
   </trkpt>
   <trkpt lat="-37.8438" lon="145.34104000000002">
    <ele>319.95</ele>
   </trkpt>
   <trkpt lat="-37.84369" lon="145.34098">
    <ele>319.81000000000006</ele>
   </trkpt>
   <trkpt lat="-37.84348" lon="145.34089">
    <ele>318.61</ele>
   </trkpt>
   <trkpt lat="-37.84297" lon="145.34079">
    <ele>318.24</ele>
   </trkpt>
   <trkpt lat="-37.84275" lon="145.3407">
    <ele>317.82000000000005</ele>
   </trkpt>
   <trkpt lat="-37.84252" lon="145.34050000000002">
    <ele>314.28</ele>
   </trkpt>
   <trkpt lat="-37.84225" lon="145.34014000000002">
    <ele>311.39</ele>
   </trkpt>
   <trkpt lat="-37.8421" lon="145.33983">
    <ele>311.1</ele>
   </trkpt>
   <trkpt lat="-37.841950000000004" lon="145.33969000000002">
    <ele>310.4</ele>
   </trkpt>
   <trkpt lat="-37.84178" lon="145.33959000000002">
    <ele>310.28</ele>
   </trkpt>
   <trkpt lat="-37.8416" lon="145.33959000000002">
    <ele>310.93</ele>
   </trkpt>
   <trkpt lat="-37.84143" lon="145.33965">
    <ele>312.63</ele>
   </trkpt>
   <trkpt lat="-37.84098" lon="145.33985">
    <ele>318.41</ele>
   </trkpt>
   <trkpt lat="-37.84069" lon="145.33977000000002">
    <ele>320.17</ele>
   </trkpt>
   <trkpt lat="-37.84042" lon="145.33958">
    <ele>322.62</ele>
   </trkpt>
   <trkpt lat="-37.84015" lon="145.33934000000002">
    <ele>326.88</ele>
   </trkpt>
   <trkpt lat="-37.83977" lon="145.33871000000002">
    <ele>335.97</ele>
   </trkpt>
   <trkpt lat="-37.83961" lon="145.33852000000002">
    <ele>337.17</ele>
   </trkpt>
   <trkpt lat="-37.83928" lon="145.33822">
    <ele>336.54</ele>
   </trkpt>
   <trkpt lat="-37.83885" lon="145.33807000000002">
    <ele>332.76</ele>
   </trkpt>
   <trkpt lat="-37.838860000000004" lon="145.33808000000002">
    <ele>332.76</ele>
   </trkpt>
   <trkpt lat="-37.83847" lon="145.33802">
    <ele>333.0</ele>
   </trkpt>
   <trkpt lat="-37.83809" lon="145.33800000000002">
    <ele>337.32</ele>
   </trkpt>
   <trkpt lat="-37.83766" lon="145.33823">
    <ele>345.55</ele>
   </trkpt>
   <trkpt lat="-37.83721500047108" lon="145.33861500245715">
    <ele>354.27000000000004</ele>
   </trkpt>
   <trkpt lat="-37.83677" lon="145.339">
    <ele>359.8</ele>
   </trkpt>
   <trkpt lat="-37.83625" lon="145.33926000000002">
    <ele>360.37</ele>
   </trkpt>
   <trkpt lat="-37.83576" lon="145.33959000000002">
    <ele>357.06000000000006</ele>
   </trkpt>
   <trkpt lat="-37.83543" lon="145.33977000000002">
    <ele>351.09000000000003</ele>
   </trkpt>
   <trkpt lat="-37.835150000000006" lon="145.33989000000003">
    <ele>348.39000000000004</ele>
   </trkpt>
   <trkpt lat="-37.83475" lon="145.34023000000002">
    <ele>339.7</ele>
   </trkpt>
   <trkpt lat="-37.83442" lon="145.34049000000002">
    <ele>345.54</ele>
   </trkpt>
   <trkpt lat="-37.83415" lon="145.34074">
    <ele>347.99</ele>
   </trkpt>
   <trkpt lat="-37.83397" lon="145.34079">
    <ele>344.07000000000005</ele>
   </trkpt>
   <trkpt lat="-37.83357" lon="145.34077000000002">
    <ele>333.04</ele>
   </trkpt>
   <trkpt lat="-37.83337" lon="145.34082">
    <ele>330.69000000000005</ele>
   </trkpt>
   <trkpt lat="-37.83323" lon="145.34098">
    <ele>329.5</ele>
   </trkpt>
   <trkpt lat="-37.83301" lon="145.34152">
    <ele>329.6</ele>
   </trkpt>
   <trkpt lat="-37.8327" lon="145.34184000000002">
    <ele>326.42</ele>
   </trkpt>
   <trkpt lat="-37.832330000000006" lon="145.34193000000002">
    <ele>329.15000000000003</ele>
   </trkpt>
   <trkpt lat="-37.83243" lon="145.34217">
    <ele>337.4200000000001</ele>
   </trkpt>
   <trkpt lat="-37.83245" lon="145.34245">
    <ele>348.57000000000005</ele>
   </trkpt>
   <trkpt lat="-37.83249" lon="145.34262">
    <ele>352.53000000000003</ele>
   </trkpt>
   <trkpt lat="-37.83249" lon="145.34288">
    <ele>367.15000000000003</ele>
   </trkpt>
   <trkpt lat="-37.83261" lon="145.34326000000001">
    <ele>379.83000000000004</ele>
   </trkpt>
   <trkpt lat="-37.83258" lon="145.34358">
    <ele>387.75000000000006</ele>
   </trkpt>
   <trkpt lat="-37.832420000000006" lon="145.34357">
    <ele>386.74</ele>
   </trkpt>
   <trkpt lat="-37.83227" lon="145.34386">
    <ele>391.95</ele>
   </trkpt>
   <trkpt lat="-37.832260000000005" lon="145.34434000000002">
    <ele>408.02000000000004</ele>
   </trkpt>
   <trkpt lat="-37.8318" lon="145.34511">
    <ele>414.35</ele>
   </trkpt>
   <trkpt lat="-37.831970000000005" lon="145.34601">
    <ele>457.25000000000006</ele>
   </trkpt>
   <trkpt lat="-37.83208000149273" lon="145.34659999923375">
    <ele>480.09000000000003</ele>
   </trkpt>
   <trkpt lat="-37.832190000000004" lon="145.34719">
    <ele>512.58</ele>
   </trkpt>
   <trkpt lat="-37.83223" lon="145.34787">
    <ele>539.54</ele>
   </trkpt>
   <trkpt lat="-37.832240000000006" lon="145.34787">
    <ele>539.54</ele>
   </trkpt>
   <trkpt lat="-37.83242500179169" lon="145.34852499827971">
    <ele>560.85</ele>
   </trkpt>
   <trkpt lat="-37.83261" lon="145.34918000000002">
    <ele>583.45</ele>
   </trkpt>
   <trkpt lat="-37.832620000000006" lon="145.34917000000002">
    <ele>583.45</ele>
   </trkpt>
   <trkpt lat="-37.832910000000005" lon="145.34939">
    <ele>593.74</ele>
   </trkpt>
   <trkpt lat="-37.83292" lon="145.3494">
    <ele>593.74</ele>
   </trkpt>
   <trkpt lat="-37.83296" lon="145.34934">
    <ele>588.4100000000001</ele>
   </trkpt>
   <trkpt lat="-37.83316000000001" lon="145.34919000000002">
    <ele>592.48</ele>
   </trkpt>
   <trkpt lat="-37.83321" lon="145.34907">
    <ele>592.48</ele>
   </trkpt>
   <trkpt lat="-37.83328" lon="145.3487">
    <ele>594.86</ele>
   </trkpt>
   <trkpt lat="-37.83339" lon="145.34822">
    <ele>594.8500000000001</ele>
   </trkpt>
   <trkpt lat="-37.83346" lon="145.34808">
    <ele>594.6400000000001</ele>
   </trkpt>
   <trkpt lat="-37.83379500052499" lon="145.34767500204265">
    <ele>596.75</ele>
   </trkpt>
   <trkpt lat="-37.83413" lon="145.34727">
    <ele>596.74</ele>
   </trkpt>
   <trkpt lat="-37.834390000000006" lon="145.34703000000002">
    <ele>596.21</ele>
   </trkpt>
   <trkpt lat="-37.83491" lon="145.3468">
    <ele>596.28</ele>
   </trkpt>
   <trkpt lat="-37.835150000000006" lon="145.34676000000002">
    <ele>596.9100000000001</ele>
   </trkpt>
   <trkpt lat="-37.83574" lon="145.34658000000002">
    <ele>600.1200000000001</ele>
   </trkpt>
   <trkpt lat="-37.83601" lon="145.34655">
    <ele>603.0699999999999</ele>
   </trkpt>
   <trkpt lat="-37.8363" lon="145.34654">
    <ele>606.87</ele>
   </trkpt>
   <trkpt lat="-37.836560000000006" lon="145.34659000000002">
    <ele>609.96</ele>
   </trkpt>
   <trkpt lat="-37.83668" lon="145.34660000000002">
    <ele>610.7</ele>
   </trkpt>
   <trkpt lat="-37.83681" lon="145.34659000000002">
    <ele>610.9300000000001</ele>
   </trkpt>
   <trkpt lat="-37.83693" lon="145.34661">
    <ele>610.11</ele>
   </trkpt>
   <trkpt lat="-37.83726" lon="145.34629">
    <ele>601.07</ele>
   </trkpt>
   <trkpt lat="-37.83733" lon="145.34626">
    <ele>599.09</ele>
   </trkpt>
   <trkpt lat="-37.83766" lon="145.34623000000002">
    <ele>592.82</ele>
   </trkpt>
   <trkpt lat="-37.83791" lon="145.34608">
    <ele>584.4100000000001</ele>
   </trkpt>
   <trkpt lat="-37.83813" lon="145.34605000000002">
    <ele>579.23</ele>
   </trkpt>
   <trkpt lat="-37.83834" lon="145.34596000000002">
    <ele>571.09</ele>
   </trkpt>
   <trkpt lat="-37.83843" lon="145.34587000000002">
    <ele>569.7800000000001</ele>
   </trkpt>
   <trkpt lat="-37.83856" lon="145.34584">
    <ele>566.72</ele>
   </trkpt>
   <trkpt lat="-37.83872" lon="145.34589000000003">
    <ele>565.5</ele>
   </trkpt>
   <trkpt lat="-37.83896" lon="145.34608">
    <ele>566.28</ele>
   </trkpt>
   <trkpt lat="-37.83912" lon="145.34615000000002">
    <ele>564.09</ele>
   </trkpt>
   <trkpt lat="-37.83961" lon="145.34607000000003">
    <ele>556.5400000000001</ele>
   </trkpt>
   <trkpt lat="-37.83979" lon="145.34606000000002">
    <ele>550.86</ele>
   </trkpt>
   <trkpt lat="-37.84004" lon="145.34607000000003">
    <ele>545.01</ele>
   </trkpt>
   <trkpt lat="-37.84013" lon="145.34609">
    <ele>543.5300000000001</ele>
   </trkpt>
   <trkpt lat="-37.84024" lon="145.34614000000002">
    <ele>542.86</ele>
   </trkpt>
   <trkpt lat="-37.84035" lon="145.34613000000002">
    <ele>540.64</ele>
   </trkpt>
   <trkpt lat="-37.84035" lon="145.34611">
    <ele>540.64</ele>
   </trkpt>
   <trkpt lat="-37.84035" lon="145.34613000000002">
    <ele>540.64</ele>
   </trkpt>
   <trkpt lat="-37.84035" lon="145.34608">
    <ele>540.64</ele>
   </trkpt>
   <trkpt lat="-37.84004" lon="145.34539">
    <ele>527.85</ele>
   </trkpt>
   <trkpt lat="-37.83977" lon="145.34502">
    <ele>518.42</ele>
   </trkpt>
   <trkpt lat="-37.83977" lon="145.34496000000001">
    <ele>518.42</ele>
   </trkpt>
   <trkpt lat="-37.83979" lon="145.34494">
    <ele>518.42</ele>
   </trkpt>
   <trkpt lat="-37.839850000000006" lon="145.34493">
    <ele>518.42</ele>
   </trkpt>
   <trkpt lat="-37.84055" lon="145.34504">
    <ele>509.2300000000001</ele>
   </trkpt>
   <trkpt lat="-37.84082" lon="145.34512">
    <ele>504.85</ele>
   </trkpt>
   <trkpt lat="-37.84122" lon="145.34528">
    <ele>499.87</ele>
   </trkpt>
   <trkpt lat="-37.84127" lon="145.34528">
    <ele>495.26000000000005</ele>
   </trkpt>
   <trkpt lat="-37.84127" lon="145.34522">
    <ele>495.26000000000005</ele>
   </trkpt>
   <trkpt lat="-37.8412" lon="145.34501">
    <ele>493.8</ele>
   </trkpt>
   <trkpt lat="-37.84109" lon="145.34479000000002">
    <ele>489.3500000000001</ele>
   </trkpt>
   <trkpt lat="-37.84091" lon="145.34454000000002">
    <ele>484.1</ele>
   </trkpt>
   <trkpt lat="-37.84051" lon="145.34409000000002">
    <ele>473.35</ele>
   </trkpt>
   <trkpt lat="-37.84028" lon="145.34392000000003">
    <ele>469.4800000000001</ele>
   </trkpt>
   <trkpt lat="-37.84024" lon="145.34384">
    <ele>468.73</ele>
   </trkpt>
   <trkpt lat="-37.84057" lon="145.34386">
    <ele>466.83000000000004</ele>
   </trkpt>
   <trkpt lat="-37.84091" lon="145.34394">
    <ele>463.99</ele>
   </trkpt>
   <trkpt lat="-37.84125" lon="145.34408000000002">
    <ele>461.64000000000004</ele>
   </trkpt>
   <trkpt lat="-37.84163" lon="145.34426000000002">
    <ele>458.48</ele>
   </trkpt>
   <trkpt lat="-37.841840000000005" lon="145.34441">
    <ele>458.01</ele>
   </trkpt>
   <trkpt lat="-37.84183" lon="145.3444">
    <ele>458.01</ele>
   </trkpt>
   <trkpt lat="-37.842040000000004" lon="145.34463000000002">
    <ele>457.27</ele>
   </trkpt>
   <trkpt lat="-37.84221" lon="145.34493">
    <ele>456.62</ele>
   </trkpt>
   <trkpt lat="-37.8423" lon="145.34518">
    <ele>456.41</ele>
   </trkpt>
   <trkpt lat="-37.84239" lon="145.34554">
    <ele>455.3</ele>
   </trkpt>
   <trkpt lat="-37.84241" lon="145.34594">
    <ele>453.86</ele>
   </trkpt>
   <trkpt lat="-37.84239" lon="145.34612">
    <ele>452.8</ele>
   </trkpt>
   <trkpt lat="-37.8423" lon="145.34661">
    <ele>451.65000000000003</ele>
   </trkpt>
   <trkpt lat="-37.84228" lon="145.3468">
    <ele>450.25000000000006</ele>
   </trkpt>
   <trkpt lat="-37.8423" lon="145.34731000000002">
    <ele>448.51</ele>
   </trkpt>
   <trkpt lat="-37.8423" lon="145.34775000000002">
    <ele>446.17</ele>
   </trkpt>
   <trkpt lat="-37.84225" lon="145.34794000000002">
    <ele>444.65000000000003</ele>
   </trkpt>
   <trkpt lat="-37.84219" lon="145.34804000000003">
    <ele>444.42</ele>
   </trkpt>
   <trkpt lat="-37.84201" lon="145.34824">
    <ele>443.43000000000006</ele>
   </trkpt>
   <trkpt lat="-37.84194" lon="145.34835">
    <ele>443.13</ele>
   </trkpt>
   <trkpt lat="-37.84183" lon="145.34872000000001">
    <ele>442.22</ele>
   </trkpt>
   <trkpt lat="-37.84185" lon="145.34889">
    <ele>441.88000000000005</ele>
   </trkpt>
   <trkpt lat="-37.84176" lon="145.34928000000002">
    <ele>448.33000000000004</ele>
   </trkpt>
   <trkpt lat="-37.84179" lon="145.34943">
    <ele>452.93000000000006</ele>
   </trkpt>
   <trkpt lat="-37.84179" lon="145.34944000000002">
    <ele>452.93000000000006</ele>
   </trkpt>
   <trkpt lat="-37.84196" lon="145.34958">
    <ele>452.23</ele>
   </trkpt>
   <trkpt lat="-37.84219" lon="145.34969">
    <ele>450.15000000000003</ele>
   </trkpt>
   <trkpt lat="-37.84262500025573" lon="145.34986999898746">
    <ele>446.15000000000003</ele>
   </trkpt>
   <trkpt lat="-37.84306" lon="145.35005">
    <ele>442.95</ele>
   </trkpt>
   <trkpt lat="-37.84355" lon="145.35018000000002">
    <ele>440.32000000000005</ele>
   </trkpt>
   <trkpt lat="-37.84409" lon="145.35022">
    <ele>437.16</ele>
   </trkpt>
   <trkpt lat="-37.844440000000006" lon="145.35021">
    <ele>435.29</ele>
   </trkpt>
   <trkpt lat="-37.84493500020032" lon="145.35014000044447">
    <ele>429.99</ele>
   </trkpt>
   <trkpt lat="-37.84543" lon="145.35007000000002">
    <ele>426.13</ele>
   </trkpt>
   <trkpt lat="-37.846230000000006" lon="145.35004">
    <ele>423.32</ele>
   </trkpt>
   <trkpt lat="-37.84653" lon="145.35004">
    <ele>419.24000000000007</ele>
   </trkpt>
   <trkpt lat="-37.84678" lon="145.35007000000002">
    <ele>417.85</ele>
   </trkpt>
   <trkpt lat="-37.84695" lon="145.35014">
    <ele>417.96000000000004</ele>
   </trkpt>
   <trkpt lat="-37.8472" lon="145.35029">
    <ele>419.83000000000004</ele>
   </trkpt>
   <trkpt lat="-37.84767" lon="145.35063000000002">
    <ele>423.51000000000005</ele>
   </trkpt>
   <trkpt lat="-37.847930000000005" lon="145.35087000000001">
    <ele>424.07000000000005</ele>
   </trkpt>
   <trkpt lat="-37.84792" lon="145.35086">
    <ele>424.07000000000005</ele>
   </trkpt>
   <trkpt lat="-37.84819" lon="145.35123000000002">
    <ele>426.89000000000004</ele>
   </trkpt>
   <trkpt lat="-37.8485" lon="145.35187000000002">
    <ele>432.53000000000003</ele>
   </trkpt>
   <trkpt lat="-37.848670000000006" lon="145.35243">
    <ele>438.75</ele>
   </trkpt>
   <trkpt lat="-37.84877" lon="145.35304000000002">
    <ele>443.39000000000004</ele>
   </trkpt>
   <trkpt lat="-37.84884" lon="145.35374000000002">
    <ele>447.39</ele>
   </trkpt>
   <trkpt lat="-37.84881" lon="145.35385000000002">
    <ele>447.98</ele>
   </trkpt>
   <trkpt lat="-37.84863" lon="145.35433">
    <ele>452.82000000000005</ele>
   </trkpt>
   <trkpt lat="-37.84852" lon="145.35456000000002">
    <ele>453.16</ele>
   </trkpt>
   <trkpt lat="-37.84839" lon="145.35525">
    <ele>447.87000000000006</ele>
   </trkpt>
   <trkpt lat="-37.84814" lon="145.3557">
    <ele>445.49000000000007</ele>
   </trkpt>
   <trkpt lat="-37.84812" lon="145.35582000000002">
    <ele>446.14000000000004</ele>
   </trkpt>
   <trkpt lat="-37.84814" lon="145.35590000000002">
    <ele>447.11000000000007</ele>
   </trkpt>
   <trkpt lat="-37.84821" lon="145.35601">
    <ele>447.74</ele>
   </trkpt>
   <trkpt lat="-37.84859" lon="145.35638">
    <ele>444.23</ele>
   </trkpt>
   <trkpt lat="-37.84866" lon="145.35649">
    <ele>444.23</ele>
   </trkpt>
   <trkpt lat="-37.8487" lon="145.35663000000002">
    <ele>443.26000000000005</ele>
   </trkpt>
   <trkpt lat="-37.84872" lon="145.35680000000002">
    <ele>442.71000000000004</ele>
   </trkpt>
   <trkpt lat="-37.84877" lon="145.35691">
    <ele>441.99000000000007</ele>
   </trkpt>
   <trkpt lat="-37.84886" lon="145.35699000000002">
    <ele>440.54</ele>
   </trkpt>
   <trkpt lat="-37.84895" lon="145.35702">
    <ele>439.6700000000001</ele>
   </trkpt>
   <trkpt lat="-37.84951" lon="145.35711">
    <ele>427.36</ele>
   </trkpt>
   <trkpt lat="-37.849700000000006" lon="145.35709">
    <ele>424.07000000000005</ele>
   </trkpt>
   <trkpt lat="-37.84998" lon="145.35682">
    <ele>417.08000000000004</ele>
   </trkpt>
   <trkpt lat="-37.85009" lon="145.35676">
    <ele>416.30000000000007</ele>
   </trkpt>
   <trkpt lat="-37.85054" lon="145.35639">
    <ele>420.28000000000003</ele>
   </trkpt>
   <trkpt lat="-37.85083" lon="145.35617000000002">
    <ele>420.18000000000006</ele>
   </trkpt>
   <trkpt lat="-37.85101" lon="145.35612">
    <ele>419.49</ele>
   </trkpt>
   <trkpt lat="-37.851480000049214" lon="145.35608500021982">
    <ele>418.88</ele>
   </trkpt>
   <trkpt lat="-37.85195" lon="145.35605">
    <ele>423.8500000000001</ele>
   </trkpt>
   <trkpt lat="-37.8526" lon="145.35617000000002">
    <ele>442.78000000000003</ele>
   </trkpt>
   <trkpt lat="-37.85284" lon="145.3561">
    <ele>446.33000000000004</ele>
   </trkpt>
   <trkpt lat="-37.85275" lon="145.35644000000002">
    <ele>447.61000000000007</ele>
   </trkpt>
   <trkpt lat="-37.85284" lon="145.35655">
    <ele>450.55000000000007</ele>
   </trkpt>
   <trkpt lat="-37.853" lon="145.35656">
    <ele>456.49000000000007</ele>
   </trkpt>
   <trkpt lat="-37.85324" lon="145.35671000000002">
    <ele>464.32</ele>
   </trkpt>
   <trkpt lat="-37.85349" lon="145.35679000000002">
    <ele>468.9800000000001</ele>
   </trkpt>
   <trkpt lat="-37.853790000000004" lon="145.35701">
    <ele>477.76</ele>
   </trkpt>
   <trkpt lat="-37.8538" lon="145.35702">
    <ele>477.76</ele>
   </trkpt>
   <trkpt lat="-37.85374" lon="145.35714000000002">
    <ele>477.99</ele>
   </trkpt>
   <trkpt lat="-37.85338" lon="145.35768000000002">
    <ele>481.49</ele>
   </trkpt>
   <trkpt lat="-37.85271" lon="145.35832000000002">
    <ele>485.67</ele>
   </trkpt>
   <trkpt lat="-37.85246" lon="145.35859000000002">
    <ele>489.18000000000006</ele>
   </trkpt>
   <trkpt lat="-37.85224" lon="145.35893000000002">
    <ele>490.50000000000006</ele>
   </trkpt>
   <trkpt lat="-37.85213" lon="145.35915">
    <ele>491.24000000000007</ele>
   </trkpt>
   <trkpt lat="-37.85204" lon="145.35945">
    <ele>492.88000000000005</ele>
   </trkpt>
   <trkpt lat="-37.85201" lon="145.35962">
    <ele>494.22</ele>
   </trkpt>
   <trkpt lat="-37.85206" lon="145.3599">
    <ele>495.44000000000005</ele>
   </trkpt>
   <trkpt lat="-37.85219" lon="145.36025">
    <ele>496.56000000000006</ele>
   </trkpt>
   <trkpt lat="-37.85217" lon="145.36042">
    <ele>497.1</ele>
   </trkpt>
   <trkpt lat="-37.8521" lon="145.36052">
    <ele>497.6</ele>
   </trkpt>
   <trkpt lat="-37.85188" lon="145.36064000000002">
    <ele>497.91</ele>
   </trkpt>
   <trkpt lat="-37.85159" lon="145.36077">
    <ele>498.8</ele>
   </trkpt>
   <trkpt lat="-37.85092" lon="145.36096">
    <ele>501.78</ele>
   </trkpt>
   <trkpt lat="-37.8504" lon="145.36100000000002">
    <ele>503.7900000000001</ele>
   </trkpt>
   <trkpt lat="-37.85004" lon="145.36096">
    <ele>507.18000000000006</ele>
   </trkpt>
   <trkpt lat="-37.849320000000006" lon="145.36083000000002">
    <ele>509.8</ele>
   </trkpt>
   <trkpt lat="-37.849090000000004" lon="145.36085">
    <ele>511.26000000000005</ele>
   </trkpt>
   <trkpt lat="-37.84895" lon="145.36091000000002">
    <ele>511.97</ele>
   </trkpt>
   <trkpt lat="-37.848850000000006" lon="145.36101000000002">
    <ele>512.8000000000001</ele>
   </trkpt>
   <trkpt lat="-37.848780000000005" lon="145.36108000000002">
    <ele>513.17</ele>
   </trkpt>
   <trkpt lat="-37.84857" lon="145.36141">
    <ele>514.11</ele>
   </trkpt>
   <trkpt lat="-37.84877" lon="145.36162000000002">
    <ele>515.1800000000001</ele>
   </trkpt>
   <trkpt lat="-37.849160000000005" lon="145.36178">
    <ele>518.54</ele>
   </trkpt>
   <trkpt lat="-37.84913" lon="145.36196">
    <ele>518.63</ele>
   </trkpt>
   <trkpt lat="-37.84975" lon="145.36217000000002">
    <ele>524.21</ele>
   </trkpt>
   <trkpt lat="-37.85002" lon="145.3623">
    <ele>529.02</ele>
   </trkpt>
   <trkpt lat="-37.85067" lon="145.36256">
    <ele>536.47</ele>
   </trkpt>
   <trkpt lat="-37.85098" lon="145.36276">
    <ele>540.7700000000001</ele>
   </trkpt>
   <trkpt lat="-37.851200000000006" lon="145.36295">
    <ele>543.63</ele>
   </trkpt>
   <trkpt lat="-37.85159" lon="145.36321">
    <ele>550.1100000000001</ele>
   </trkpt>
   <trkpt lat="-37.8517" lon="145.36333000000002">
    <ele>554.71</ele>
   </trkpt>
   <trkpt lat="-37.85177" lon="145.36337">
    <ele>554.71</ele>
   </trkpt>
   <trkpt lat="-37.851870000000005" lon="145.36347">
    <ele>556.8700000000001</ele>
   </trkpt>
   <trkpt lat="-37.85204" lon="145.36355">
    <ele>560.97</ele>
   </trkpt>
   <trkpt lat="-37.85217" lon="145.36366">
    <ele>562.27</ele>
   </trkpt>
   <trkpt lat="-37.85231" lon="145.36381">
    <ele>564.7800000000001</ele>
   </trkpt>
   <trkpt lat="-37.852790000000006" lon="145.36419">
    <ele>571.71</ele>
   </trkpt>
   <trkpt lat="-37.85324" lon="145.36452">
    <ele>576.23</ele>
   </trkpt>
   <trkpt lat="-37.85374499992635" lon="145.3645549997548">
    <ele>575.86</ele>
   </trkpt>
   <trkpt lat="-37.85425" lon="145.36459000000002">
    <ele>573.73</ele>
   </trkpt>
   <trkpt lat="-37.85512000000001" lon="145.36444">
    <ele>568.22</ele>
   </trkpt>
   <trkpt lat="-37.85582" lon="145.36428">
    <ele>570.6500000000001</ele>
   </trkpt>
   <trkpt lat="-37.85591" lon="145.36434">
    <ele>571.46</ele>
   </trkpt>
   <trkpt lat="-37.855900000000005" lon="145.36436">
    <ele>571.46</ele>
   </trkpt>
   <trkpt lat="-37.856010000000005" lon="145.36439000000001">
    <ele>572.1</ele>
   </trkpt>
   <trkpt lat="-37.856010000000005" lon="145.36421">
    <ele>573.44</ele>
   </trkpt>
   <trkpt lat="-37.85596" lon="145.36408">
    <ele>574.4800000000001</ele>
   </trkpt>
   <trkpt lat="-37.85611500271802" lon="145.36327500180724">
    <ele>577.77</ele>
   </trkpt>
   <trkpt lat="-37.85627" lon="145.36247">
    <ele>581.86</ele>
   </trkpt>
   <trkpt lat="-37.856460000000006" lon="145.36180000000002">
    <ele>587.92</ele>
   </trkpt>
   <trkpt lat="-37.856550000000006" lon="145.36110000000002">
    <ele>596.5100000000001</ele>
   </trkpt>
   <trkpt lat="-37.85663" lon="145.36082000000002">
    <ele>599.14</ele>
   </trkpt>
   <trkpt lat="-37.85665" lon="145.36064000000002">
    <ele>601.1800000000001</ele>
   </trkpt>
   <trkpt lat="-37.85678" lon="145.3599">
    <ele>600.4200000000001</ele>
   </trkpt>
   <trkpt lat="-37.85683" lon="145.35981">
    <ele>599.4</ele>
   </trkpt>
   <trkpt lat="-37.856930000000006" lon="145.35983000000002">
    <ele>599.37</ele>
   </trkpt>
   <trkpt lat="-37.85709000274872" lon="145.3590200018874">
    <ele>590.19</ele>
   </trkpt>
   <trkpt lat="-37.85725" lon="145.35821">
    <ele>582.62</ele>
   </trkpt>
   <trkpt lat="-37.85727" lon="145.35793">
    <ele>578.01</ele>
   </trkpt>
   <trkpt lat="-37.85725" lon="145.35781">
    <ele>577.3600000000001</ele>
   </trkpt>
   <trkpt lat="-37.857290000000006" lon="145.35757">
    <ele>575.6300000000001</ele>
   </trkpt>
   <trkpt lat="-37.85727" lon="145.35755">
    <ele>575.6300000000001</ele>
   </trkpt>
   <trkpt lat="-37.857490000000006" lon="145.35684">
    <ele>575.47</ele>
   </trkpt>
   <trkpt lat="-37.85757" lon="145.35637">
    <ele>575.0200000000001</ele>
   </trkpt>
   <trkpt lat="-37.857420000000005" lon="145.35594">
    <ele>574.61</ele>
   </trkpt>
   <trkpt lat="-37.85745" lon="145.35580000000002">
    <ele>576.0600000000001</ele>
   </trkpt>
   <trkpt lat="-37.85736" lon="145.35574000000003">
    <ele>575.2</ele>
   </trkpt>
   <trkpt lat="-37.8573" lon="145.35565000000003">
    <ele>574.9000000000001</ele>
   </trkpt>
   <trkpt lat="-37.85718" lon="145.35543">
    <ele>571.46</ele>
   </trkpt>
   <trkpt lat="-37.85683" lon="145.35502000000002">
    <ele>562.35</ele>
   </trkpt>
   <trkpt lat="-37.85681" lon="145.35496">
    <ele>560.46</ele>
   </trkpt>
   <trkpt lat="-37.8568" lon="145.35479">
    <ele>557.9000000000001</ele>
   </trkpt>
   <trkpt lat="-37.85685" lon="145.35449">
    <ele>551.06</ele>
   </trkpt>
   <trkpt lat="-37.85703" lon="145.35401000000002">
    <ele>542.32</ele>
   </trkpt>
   <trkpt lat="-37.85703" lon="145.35389">
    <ele>537.2800000000001</ele>
   </trkpt>
   <trkpt lat="-37.85674" lon="145.35330000000002">
    <ele>525.63</ele>
   </trkpt>
   <trkpt lat="-37.856370000000005" lon="145.35273">
    <ele>514.0100000000001</ele>
   </trkpt>
   <trkpt lat="-37.85633" lon="145.35259000000002">
    <ele>512.1</ele>
   </trkpt>
   <trkpt lat="-37.85636" lon="145.35253">
    <ele>511.07</ele>
   </trkpt>
   <trkpt lat="-37.85683" lon="145.35260000000002">
    <ele>508.3500000000001</ele>
   </trkpt>
   <trkpt lat="-37.85701" lon="145.35266000000001">
    <ele>506.32</ele>
   </trkpt>
   <trkpt lat="-37.85712" lon="145.35268000000002">
    <ele>504.5200000000001</ele>
   </trkpt>
   <trkpt lat="-37.85763499999471" lon="145.35270499982497">
    <ele>500.01000000000005</ele>
   </trkpt>
   <trkpt lat="-37.85815" lon="145.35273">
    <ele>495.85</ele>
   </trkpt>
   <trkpt lat="-37.85851" lon="145.35268000000002">
    <ele>488.00000000000006</ele>
   </trkpt>
   <trkpt lat="-37.8592" lon="145.35248">
    <ele>479.53000000000003</ele>
   </trkpt>
   <trkpt lat="-37.85945" lon="145.35244">
    <ele>475.61</ele>
   </trkpt>
   <trkpt lat="-37.85938" lon="145.35266000000001">
    <ele>486.80000000000007</ele>
   </trkpt>
   <trkpt lat="-37.85929" lon="145.35279">
    <ele>486.80000000000007</ele>
   </trkpt>
   <trkpt lat="-37.85927" lon="145.35287000000002">
    <ele>489.94000000000005</ele>
   </trkpt>
   <trkpt lat="-37.85931" lon="145.35311000000002">
    <ele>496.58</ele>
   </trkpt>
   <trkpt lat="-37.85938" lon="145.35323000000002">
    <ele>498.46</ele>
   </trkpt>
   <trkpt lat="-37.85956" lon="145.35346">
    <ele>502.6400000000001</ele>
   </trkpt>
   <trkpt lat="-37.859930000000006" lon="145.35424">
    <ele>513.5300000000001</ele>
   </trkpt>
   <trkpt lat="-37.86016" lon="145.35452">
    <ele>513.49</ele>
   </trkpt>
   <trkpt lat="-37.860600000000005" lon="145.35546000000002">
    <ele>507.36</ele>
   </trkpt>
   <trkpt lat="-37.86061" lon="145.35558">
    <ele>504.95</ele>
   </trkpt>
   <trkpt lat="-37.86059" lon="145.35571000000002">
    <ele>498.72</ele>
   </trkpt>
   <trkpt lat="-37.86059" lon="145.35592000000003">
    <ele>495.13</ele>
   </trkpt>
   <trkpt lat="-37.860640000000004" lon="145.35598000000002">
    <ele>495.13</ele>
   </trkpt>
   <trkpt lat="-37.86072" lon="145.35566">
    <ele>493.65000000000003</ele>
   </trkpt>
   <trkpt lat="-37.86081" lon="145.35551">
    <ele>493.65000000000003</ele>
   </trkpt>
   <trkpt lat="-37.861260001004666" lon="145.35500000322173">
    <ele>490.3</ele>
   </trkpt>
   <trkpt lat="-37.86171" lon="145.35449">
    <ele>487.01000000000005</ele>
   </trkpt>
   <trkpt lat="-37.862" lon="145.35422">
    <ele>484.79</ele>
   </trkpt>
   <trkpt lat="-37.8624100002992" lon="145.35391000180562">
    <ele>481.90000000000003</ele>
   </trkpt>
   <trkpt lat="-37.862820000000006" lon="145.3536">
    <ele>480.86000000000007</ele>
   </trkpt>
   <trkpt lat="-37.862860000000005" lon="145.35369">
    <ele>481.04</ele>
   </trkpt>
   <trkpt lat="-37.862840000000006" lon="145.35371">
    <ele>481.04</ele>
   </trkpt>
  </trkseg>
 </trk>
</gpx>
