<?xml version="1.0" encoding="UTF-8"?>
<gpx creator="StravaGPX" version="1.1" xmlns="http://www.topografix.com/GPX/1/1" xmlns:xsi="http://www.w3.org/2001/XMLSchema-instance" xsi:schemaLocation="http://www.topografix.com/GPX/1/1 http://www.topografix.com/GPX/1/1/gpx.xsd">
 <metadata>
  <name>DTR 8k May 8 2026</name>
  <author>
   <name>Richard Jones</name>
   <link href="https://www.strava.com/athletes/38085969"/>
  </author>
  <copyright author="OpenStreetMap contributors">
   <year>2020</year>
   <license>https://www.openstreetmap.org/copyright</license>
  </copyright>
  <link href="https://www.strava.com/routes/3487648971925055566"/>
 </metadata>
 <trk>
  <name>DTR 8k May 8 2026</name>
  <link href="https://www.strava.com/routes/3487648971925055566"/>
  <type>trail_running</type>
  <trkseg>
   <trkpt lat="-37.88721" lon="145.37030000000001">
    <ele>366.53000000000003</ele>
   </trkpt>
   <trkpt lat="-37.88729" lon="145.37024000000002">
    <ele>366.21000000000004</ele>
   </trkpt>
   <trkpt lat="-37.887350000000005" lon="145.37013000000002">
    <ele>366.05</ele>
   </trkpt>
   <trkpt lat="-37.88731000000001" lon="145.37011">
    <ele>366.13</ele>
   </trkpt>
   <trkpt lat="-37.88683" lon="145.37049000000002">
    <ele>366.47</ele>
   </trkpt>
   <trkpt lat="-37.886520000000004" lon="145.37046">
    <ele>364.27000000000004</ele>
   </trkpt>
   <trkpt lat="-37.88644" lon="145.37038">
    <ele>364.58</ele>
   </trkpt>
   <trkpt lat="-37.88627" lon="145.37005000000002">
    <ele>366.00000000000006</ele>
   </trkpt>
   <trkpt lat="-37.88608" lon="145.37001">
    <ele>366.08</ele>
   </trkpt>
   <trkpt lat="-37.885920000000006" lon="145.36992">
    <ele>366.45000000000005</ele>
   </trkpt>
   <trkpt lat="-37.88528" lon="145.36944000000003">
    <ele>369.68</ele>
   </trkpt>
   <trkpt lat="-37.88517" lon="145.36938">
    <ele>369.68</ele>
   </trkpt>
   <trkpt lat="-37.88505" lon="145.36935000000003">
    <ele>371.07</ele>
   </trkpt>
   <trkpt lat="-37.88501" lon="145.36937">
    <ele>371.07</ele>
   </trkpt>
   <trkpt lat="-37.88499" lon="145.36944000000003">
    <ele>371.07</ele>
   </trkpt>
   <trkpt lat="-37.884840000000004" lon="145.36943000000002">
    <ele>369.71000000000004</ele>
   </trkpt>
   <trkpt lat="-37.88481" lon="145.36937">
    <ele>369.71000000000004</ele>
   </trkpt>
   <trkpt lat="-37.88472" lon="145.36936">
    <ele>369.71000000000004</ele>
   </trkpt>
   <trkpt lat="-37.88463" lon="145.36942000000002">
    <ele>370.16</ele>
   </trkpt>
   <trkpt lat="-37.883950000000006" lon="145.37016">
    <ele>368.14000000000004</ele>
   </trkpt>
   <trkpt lat="-37.88369" lon="145.37046">
    <ele>367.78000000000003</ele>
   </trkpt>
   <trkpt lat="-37.883500000000005" lon="145.37063">
    <ele>366.08</ele>
   </trkpt>
   <trkpt lat="-37.883500000000005" lon="145.37074">
    <ele>366.08</ele>
   </trkpt>
   <trkpt lat="-37.88331" lon="145.37095000000002">
    <ele>365.71000000000004</ele>
   </trkpt>
   <trkpt lat="-37.88315" lon="145.371">
    <ele>365.71000000000004</ele>
   </trkpt>
   <trkpt lat="-37.88313" lon="145.37095000000002">
    <ele>365.71000000000004</ele>
   </trkpt>
   <trkpt lat="-37.88266" lon="145.37129000000002">
    <ele>364.41</ele>
   </trkpt>
   <trkpt lat="-37.8821" lon="145.37149000000002">
    <ele>360.86</ele>
   </trkpt>
   <trkpt lat="-37.88201" lon="145.3716">
    <ele>360.71000000000004</ele>
   </trkpt>
   <trkpt lat="-37.88192" lon="145.37164">
    <ele>360.45000000000005</ele>
   </trkpt>
   <trkpt lat="-37.88195" lon="145.37149000000002">
    <ele>357.28000000000003</ele>
   </trkpt>
   <trkpt lat="-37.882250000000006" lon="145.37132000000003">
    <ele>359.36</ele>
   </trkpt>
   <trkpt lat="-37.882250000000006" lon="145.37127">
    <ele>359.36</ele>
   </trkpt>
   <trkpt lat="-37.88203" lon="145.37136">
    <ele>358.16</ele>
   </trkpt>
   <trkpt lat="-37.881490000301625" lon="145.37169000251674">
    <ele>354.53000000000003</ele>
   </trkpt>
   <trkpt lat="-37.880950000000006" lon="145.37202000000002">
    <ele>350.77000000000004</ele>
   </trkpt>
   <trkpt lat="-37.88076" lon="145.37211000000002">
    <ele>349.53</ele>
   </trkpt>
   <trkpt lat="-37.88029" lon="145.37224">
    <ele>346.92</ele>
   </trkpt>
   <trkpt lat="-37.88017" lon="145.37225">
    <ele>345.75</ele>
   </trkpt>
   <trkpt lat="-37.880010000000006" lon="145.37222">
    <ele>344.72</ele>
   </trkpt>
   <trkpt lat="-37.87952000000001" lon="145.37219000000002">
    <ele>342.27000000000004</ele>
   </trkpt>
   <trkpt lat="-37.87932" lon="145.37222">
    <ele>341.39000000000004</ele>
   </trkpt>
   <trkpt lat="-37.87908" lon="145.37229000000002">
    <ele>338.59</ele>
   </trkpt>
   <trkpt lat="-37.87876" lon="145.37249">
    <ele>336.29</ele>
   </trkpt>
   <trkpt lat="-37.87861" lon="145.37267">
    <ele>333.26</ele>
   </trkpt>
   <trkpt lat="-37.87845" lon="145.37303">
    <ele>330.46000000000004</ele>
   </trkpt>
   <trkpt lat="-37.87843" lon="145.37283000000002">
    <ele>344.73</ele>
   </trkpt>
   <trkpt lat="-37.87838" lon="145.37277">
    <ele>344.65</ele>
   </trkpt>
   <trkpt lat="-37.878310000000006" lon="145.37275000000002">
    <ele>344.01000000000005</ele>
   </trkpt>
   <trkpt lat="-37.87807" lon="145.37275000000002">
    <ele>343.88</ele>
   </trkpt>
   <trkpt lat="-37.87791" lon="145.37255000000002">
    <ele>344.6</ele>
   </trkpt>
   <trkpt lat="-37.87782" lon="145.37237000000002">
    <ele>346.65000000000003</ele>
   </trkpt>
   <trkpt lat="-37.87778" lon="145.37220000000002">
    <ele>347.88</ele>
   </trkpt>
   <trkpt lat="-37.87773" lon="145.37208">
    <ele>348.40000000000003</ele>
   </trkpt>
   <trkpt lat="-37.87767" lon="145.37204">
    <ele>348.43</ele>
   </trkpt>
   <trkpt lat="-37.87767" lon="145.37203000000002">
    <ele>348.43</ele>
   </trkpt>
   <trkpt lat="-37.877570000000006" lon="145.37197">
    <ele>348.53</ele>
   </trkpt>
   <trkpt lat="-37.87713" lon="145.37159000000003">
    <ele>350.62000000000006</ele>
   </trkpt>
   <trkpt lat="-37.87693" lon="145.37134">
    <ele>353.34000000000003</ele>
   </trkpt>
   <trkpt lat="-37.87691" lon="145.37124">
    <ele>353.34000000000003</ele>
   </trkpt>
   <trkpt lat="-37.876850000000005" lon="145.37126">
    <ele>335.53000000000003</ele>
   </trkpt>
   <trkpt lat="-37.87675" lon="145.37167000000002">
    <ele>334.73</ele>
   </trkpt>
   <trkpt lat="-37.8765" lon="145.37138000000002">
    <ele>335.41</ele>
   </trkpt>
   <trkpt lat="-37.87635" lon="145.37115">
    <ele>358.89000000000004</ele>
   </trkpt>
   <trkpt lat="-37.87614000000001" lon="145.37109">
    <ele>358.89000000000004</ele>
   </trkpt>
   <trkpt lat="-37.87608" lon="145.37106">
    <ele>358.92</ele>
   </trkpt>
   <trkpt lat="-37.875600000000006" lon="145.37072">
    <ele>363.39000000000004</ele>
   </trkpt>
   <trkpt lat="-37.8755" lon="145.37059000000002">
    <ele>365.76000000000005</ele>
   </trkpt>
   <trkpt lat="-37.87541" lon="145.37033000000002">
    <ele>369.57</ele>
   </trkpt>
   <trkpt lat="-37.87536" lon="145.36978000000002">
    <ele>374.89000000000004</ele>
   </trkpt>
   <trkpt lat="-37.87541" lon="145.36953000000003">
    <ele>373.54</ele>
   </trkpt>
   <trkpt lat="-37.87545" lon="145.36945">
    <ele>372.48</ele>
   </trkpt>
   <trkpt lat="-37.87554" lon="145.36915000000002">
    <ele>370.29</ele>
   </trkpt>
   <trkpt lat="-37.87554" lon="145.36892">
    <ele>369.71000000000004</ele>
   </trkpt>
   <trkpt lat="-37.87545" lon="145.3683">
    <ele>373.58000000000004</ele>
   </trkpt>
   <trkpt lat="-37.875510000000006" lon="145.36811">
    <ele>373.78000000000003</ele>
   </trkpt>
   <trkpt lat="-37.87561" lon="145.36791000000002">
    <ele>374.05000000000007</ele>
   </trkpt>
   <trkpt lat="-37.875690000000006" lon="145.36763000000002">
    <ele>376.11000000000007</ele>
   </trkpt>
   <trkpt lat="-37.8757" lon="145.3675">
    <ele>377.13</ele>
   </trkpt>
   <trkpt lat="-37.87559" lon="145.36734">
    <ele>379.16</ele>
   </trkpt>
   <trkpt lat="-37.87523" lon="145.36692000000002">
    <ele>381.46000000000004</ele>
   </trkpt>
   <trkpt lat="-37.87514" lon="145.36678">
    <ele>381.83000000000004</ele>
   </trkpt>
   <trkpt lat="-37.875040000000006" lon="145.36669">
    <ele>382.74</ele>
   </trkpt>
   <trkpt lat="-37.87489" lon="145.36658">
    <ele>384.71000000000004</ele>
   </trkpt>
   <trkpt lat="-37.87482" lon="145.36644">
    <ele>385.92</ele>
   </trkpt>
   <trkpt lat="-37.8748" lon="145.366">
    <ele>383.75</ele>
   </trkpt>
   <trkpt lat="-37.874660000000006" lon="145.36564">
    <ele>384.87000000000006</ele>
   </trkpt>
   <trkpt lat="-37.87435" lon="145.36469000000002">
    <ele>387.18</ele>
   </trkpt>
   <trkpt lat="-37.87435" lon="145.36442000000002">
    <ele>386.56</ele>
   </trkpt>
   <trkpt lat="-37.87438" lon="145.3642">
    <ele>385.27000000000004</ele>
   </trkpt>
   <trkpt lat="-37.87438" lon="145.36402">
    <ele>384.92</ele>
   </trkpt>
   <trkpt lat="-37.87426" lon="145.36375">
    <ele>385.45</ele>
   </trkpt>
   <trkpt lat="-37.87404" lon="145.36343000000002">
    <ele>385.28000000000003</ele>
   </trkpt>
   <trkpt lat="-37.87402" lon="145.36301">
    <ele>382.12</ele>
   </trkpt>
   <trkpt lat="-37.87382" lon="145.36244000000002">
    <ele>379.5</ele>
   </trkpt>
   <trkpt lat="-37.87373" lon="145.36223">
    <ele>377.78</ele>
   </trkpt>
   <trkpt lat="-37.873740000000005" lon="145.36213">
    <ele>377.59000000000003</ele>
   </trkpt>
   <trkpt lat="-37.87377" lon="145.36206">
    <ele>392.42</ele>
   </trkpt>
   <trkpt lat="-37.873720000000006" lon="145.36151">
    <ele>395.58000000000004</ele>
   </trkpt>
   <trkpt lat="-37.87391" lon="145.36107">
    <ele>400.23</ele>
   </trkpt>
   <trkpt lat="-37.87406" lon="145.36083000000002">
    <ele>402.94</ele>
   </trkpt>
   <trkpt lat="-37.87431" lon="145.36062">
    <ele>404.05</ele>
   </trkpt>
   <trkpt lat="-37.87449" lon="145.36098">
    <ele>410.78000000000003</ele>
   </trkpt>
   <trkpt lat="-37.87458" lon="145.36108000000002">
    <ele>414.92</ele>
   </trkpt>
   <trkpt lat="-37.87467" lon="145.36109000000002">
    <ele>417.21000000000004</ele>
   </trkpt>
   <trkpt lat="-37.8753300007615" lon="145.36067500369737">
    <ele>433.88000000000005</ele>
   </trkpt>
   <trkpt lat="-37.87599" lon="145.36026">
    <ele>456.84000000000003</ele>
   </trkpt>
   <trkpt lat="-37.87617" lon="145.36015">
    <ele>460.25000000000006</ele>
   </trkpt>
   <trkpt lat="-37.87626" lon="145.36016">
    <ele>464.97</ele>
   </trkpt>
   <trkpt lat="-37.876310000000004" lon="145.36030000000002">
    <ele>465.02000000000004</ele>
   </trkpt>
   <trkpt lat="-37.87686" lon="145.35992000000002">
    <ele>467.9200000000001</ele>
   </trkpt>
   <trkpt lat="-37.87735000050401" lon="145.35960000208243">
    <ele>470.86000000000007</ele>
   </trkpt>
   <trkpt lat="-37.877840000000006" lon="145.35928">
    <ele>475.02000000000004</ele>
   </trkpt>
   <trkpt lat="-37.87785" lon="145.35927">
    <ele>475.08000000000004</ele>
   </trkpt>
   <trkpt lat="-37.87818" lon="145.35906">
    <ele>477.14000000000004</ele>
   </trkpt>
   <trkpt lat="-37.87861" lon="145.3589">
    <ele>477.22</ele>
   </trkpt>
   <trkpt lat="-37.87866" lon="145.35875000000001">
    <ele>476.49</ele>
   </trkpt>
   <trkpt lat="-37.87867" lon="145.35874">
    <ele>472.96000000000004</ele>
   </trkpt>
   <trkpt lat="-37.87876" lon="145.35837">
    <ele>478.63000000000005</ele>
   </trkpt>
   <trkpt lat="-37.87919" lon="145.35846">
    <ele>482.67</ele>
   </trkpt>
   <trkpt lat="-37.87975" lon="145.35876000000002">
    <ele>480.19000000000005</ele>
   </trkpt>
   <trkpt lat="-37.87991" lon="145.35891">
    <ele>481.02000000000004</ele>
   </trkpt>
   <trkpt lat="-37.88006" lon="145.35903000000002">
    <ele>481.11</ele>
   </trkpt>
   <trkpt lat="-37.8802" lon="145.35908">
    <ele>481.21000000000004</ele>
   </trkpt>
   <trkpt lat="-37.88033" lon="145.3591">
    <ele>481.16</ele>
   </trkpt>
   <trkpt lat="-37.88051" lon="145.35909">
    <ele>480.76</ele>
   </trkpt>
   <trkpt lat="-37.8808" lon="145.35903000000002">
    <ele>485.11</ele>
   </trkpt>
   <trkpt lat="-37.88094" lon="145.35907">
    <ele>485.77000000000004</ele>
   </trkpt>
   <trkpt lat="-37.88103" lon="145.35904000000002">
    <ele>486.00000000000006</ele>
   </trkpt>
   <trkpt lat="-37.881190000000004" lon="145.35876000000002">
    <ele>486.29</ele>
   </trkpt>
   <trkpt lat="-37.88123" lon="145.35861">
    <ele>486.32</ele>
   </trkpt>
   <trkpt lat="-37.88138" lon="145.35829">
    <ele>487.29</ele>
   </trkpt>
   <trkpt lat="-37.881550000000004" lon="145.35804000000002">
    <ele>488.66</ele>
   </trkpt>
   <trkpt lat="-37.881550000000004" lon="145.35803">
    <ele>488.75</ele>
   </trkpt>
   <trkpt lat="-37.88183" lon="145.35763">
    <ele>492.08</ele>
   </trkpt>
   <trkpt lat="-37.88212" lon="145.35702">
    <ele>492.06000000000006</ele>
   </trkpt>
   <trkpt lat="-37.88226" lon="145.35667">
    <ele>491.45000000000005</ele>
   </trkpt>
   <trkpt lat="-37.88244" lon="145.35639">
    <ele>492.25</ele>
   </trkpt>
   <trkpt lat="-37.88266" lon="145.35619">
    <ele>492.56000000000006</ele>
   </trkpt>
   <trkpt lat="-37.88288" lon="145.35593">
    <ele>492.12000000000006</ele>
   </trkpt>
   <trkpt lat="-37.88302" lon="145.35574000000003">
    <ele>491.06000000000006</ele>
   </trkpt>
   <trkpt lat="-37.88318" lon="145.3554">
    <ele>489.49</ele>
   </trkpt>
   <trkpt lat="-37.88351" lon="145.3553">
    <ele>487.35</ele>
   </trkpt>
   <trkpt lat="-37.88351" lon="145.35512">
    <ele>486.92</ele>
   </trkpt>
   <trkpt lat="-37.88371" lon="145.35464000000002">
    <ele>485.7</ele>
   </trkpt>
   <trkpt lat="-37.88423" lon="145.35381">
    <ele>491.59000000000003</ele>
   </trkpt>
   <trkpt lat="-37.88434" lon="145.35368000000003">
    <ele>492.11</ele>
   </trkpt>
   <trkpt lat="-37.88497" lon="145.35328">
    <ele>490.96000000000004</ele>
   </trkpt>
   <trkpt lat="-37.88508" lon="145.35324">
    <ele>489.88000000000005</ele>
   </trkpt>
   <trkpt lat="-37.88544" lon="145.35307">
    <ele>487.47</ele>
   </trkpt>
   <trkpt lat="-37.88555" lon="145.35296000000002">
    <ele>482.84000000000003</ele>
   </trkpt>
   <trkpt lat="-37.88588" lon="145.35242000000002">
    <ele>478.47</ele>
   </trkpt>
   <trkpt lat="-37.88606" lon="145.35204000000002">
    <ele>473.32</ele>
   </trkpt>
   <trkpt lat="-37.88615" lon="145.35176">
    <ele>468.91</ele>
   </trkpt>
   <trkpt lat="-37.88626" lon="145.35184">
    <ele>468.72</ele>
   </trkpt>
   <trkpt lat="-37.88662" lon="145.352">
    <ele>466.5</ele>
   </trkpt>
   <trkpt lat="-37.88678" lon="145.35202">
    <ele>465.20000000000005</ele>
   </trkpt>
   <trkpt lat="-37.886790000000005" lon="145.35202">
    <ele>465.11</ele>
   </trkpt>
   <trkpt lat="-37.88698" lon="145.35202">
    <ele>462.70000000000005</ele>
   </trkpt>
   <trkpt lat="-37.887240000000006" lon="145.35214000000002">
    <ele>457.70000000000005</ele>
   </trkpt>
   <trkpt lat="-37.88745" lon="145.35251000000002">
    <ele>451.25000000000006</ele>
   </trkpt>
   <trkpt lat="-37.88765" lon="145.35301">
    <ele>442.20000000000005</ele>
   </trkpt>
   <trkpt lat="-37.88772" lon="145.35336">
    <ele>439.24</ele>
   </trkpt>
   <trkpt lat="-37.88781" lon="145.35358000000002">
    <ele>436.01</ele>
   </trkpt>
   <trkpt lat="-37.88792" lon="145.35378">
    <ele>431.44000000000005</ele>
   </trkpt>
   <trkpt lat="-37.8881" lon="145.35416">
    <ele>427.06000000000006</ele>
   </trkpt>
   <trkpt lat="-37.88828" lon="145.35435">
    <ele>422.68000000000006</ele>
   </trkpt>
   <trkpt lat="-37.88848" lon="145.35468">
    <ele>415.77000000000004</ele>
   </trkpt>
   <trkpt lat="-37.88857" lon="145.35492000000002">
    <ele>411.88</ele>
   </trkpt>
   <trkpt lat="-37.88855" lon="145.35496">
    <ele>411.88</ele>
   </trkpt>
   <trkpt lat="-37.888600000000004" lon="145.35502000000002">
    <ele>411.25000000000006</ele>
   </trkpt>
   <trkpt lat="-37.888630000000006" lon="145.35499000000002">
    <ele>410.58000000000004</ele>
   </trkpt>
   <trkpt lat="-37.88893" lon="145.35489">
    <ele>403.91</ele>
   </trkpt>
   <trkpt lat="-37.88915" lon="145.35486">
    <ele>402.12</ele>
   </trkpt>
   <trkpt lat="-37.88922" lon="145.35487">
    <ele>401.76</ele>
   </trkpt>
   <trkpt lat="-37.88958" lon="145.35502000000002">
    <ele>397.95000000000005</ele>
   </trkpt>
   <trkpt lat="-37.88964" lon="145.35511000000002">
    <ele>396.70000000000005</ele>
   </trkpt>
   <trkpt lat="-37.88985" lon="145.35506">
    <ele>390.48</ele>
   </trkpt>
   <trkpt lat="-37.89014" lon="145.35523">
    <ele>387.40000000000003</ele>
   </trkpt>
   <trkpt lat="-37.89034" lon="145.35532">
    <ele>384.35</ele>
   </trkpt>
   <trkpt lat="-37.89049" lon="145.35545000000002">
    <ele>382.66</ele>
   </trkpt>
   <trkpt lat="-37.891200000000005" lon="145.35612">
    <ele>373.98</ele>
   </trkpt>
   <trkpt lat="-37.891740000000006" lon="145.35659">
    <ele>364.81</ele>
   </trkpt>
   <trkpt lat="-37.89186" lon="145.35682">
    <ele>361.93</ele>
   </trkpt>
   <trkpt lat="-37.89195" lon="145.35690000000002">
    <ele>358.29</ele>
   </trkpt>
   <trkpt lat="-37.89246" lon="145.35709">
    <ele>352.26</ele>
   </trkpt>
   <trkpt lat="-37.89258" lon="145.35709">
    <ele>349.49</ele>
   </trkpt>
   <trkpt lat="-37.89273" lon="145.35704">
    <ele>345.47</ele>
   </trkpt>
   <trkpt lat="-37.89287" lon="145.35705000000002">
    <ele>345.47</ele>
   </trkpt>
   <trkpt lat="-37.89298" lon="145.35709">
    <ele>344.44</ele>
   </trkpt>
   <trkpt lat="-37.89316" lon="145.35723000000002">
    <ele>342.19000000000005</ele>
   </trkpt>
   <trkpt lat="-37.89329" lon="145.35727">
    <ele>341.87</ele>
   </trkpt>
   <trkpt lat="-37.89372" lon="145.35718">
    <ele>337.35</ele>
   </trkpt>
   <trkpt lat="-37.89408" lon="145.35721">
    <ele>331.81000000000006</ele>
   </trkpt>
   <trkpt lat="-37.89434" lon="145.35721">
    <ele>325.96000000000004</ele>
   </trkpt>
   <trkpt lat="-37.89457" lon="145.35724000000002">
    <ele>322.43000000000006</ele>
   </trkpt>
   <trkpt lat="-37.89488" lon="145.35737">
    <ele>317.69</ele>
   </trkpt>
   <trkpt lat="-37.89504" lon="145.35737">
    <ele>315.93000000000006</ele>
   </trkpt>
   <trkpt lat="-37.89522" lon="145.35726000000003">
    <ele>314.0</ele>
   </trkpt>
   <trkpt lat="-37.89531" lon="145.35732000000002">
    <ele>313.57</ele>
   </trkpt>
   <trkpt lat="-37.89558" lon="145.35738">
    <ele>309.82000000000005</ele>
   </trkpt>
   <trkpt lat="-37.89598" lon="145.35736">
    <ele>306.93</ele>
   </trkpt>
   <trkpt lat="-37.89616" lon="145.35745">
    <ele>306.38000000000005</ele>
   </trkpt>
   <trkpt lat="-37.89629" lon="145.35743000000002">
    <ele>305.1700000000001</ele>
   </trkpt>
   <trkpt lat="-37.89654" lon="145.35726000000003">
    <ele>303.02</ele>
   </trkpt>
   <trkpt lat="-37.8967" lon="145.357">
    <ele>301.55</ele>
   </trkpt>
   <trkpt lat="-37.89676" lon="145.35695">
    <ele>301.55</ele>
   </trkpt>
   <trkpt lat="-37.89728" lon="145.35668">
    <ele>295.68</ele>
   </trkpt>
   <trkpt lat="-37.89748" lon="145.35624">
    <ele>292.44000000000005</ele>
   </trkpt>
   <trkpt lat="-37.89795" lon="145.35578">
    <ele>286.58</ele>
   </trkpt>
   <trkpt lat="-37.89804" lon="145.35571000000002">
    <ele>285.74000000000007</ele>
   </trkpt>
   <trkpt lat="-37.89819" lon="145.35568">
    <ele>284.61</ele>
   </trkpt>
   <trkpt lat="-37.8984" lon="145.35568">
    <ele>281.64</ele>
   </trkpt>
   <trkpt lat="-37.89873" lon="145.35563000000002">
    <ele>279.26</ele>
   </trkpt>
   <trkpt lat="-37.89898" lon="145.3557">
    <ele>276.98</ele>
   </trkpt>
   <trkpt lat="-37.899170000000005" lon="145.35578">
    <ele>275.40000000000003</ele>
   </trkpt>
   <trkpt lat="-37.89927" lon="145.35586">
    <ele>274.99</ele>
   </trkpt>
   <trkpt lat="-37.89923" lon="145.35597">
    <ele>274.49</ele>
   </trkpt>
   <trkpt lat="-37.89932" lon="145.35603">
    <ele>274.13000000000005</ele>
   </trkpt>
   <trkpt lat="-37.89958" lon="145.35626000000002">
    <ele>271.22</ele>
   </trkpt>
   <trkpt lat="-37.89967" lon="145.35628">
    <ele>269.94</ele>
   </trkpt>
   <trkpt lat="-37.899730000000005" lon="145.35632">
    <ele>269.94</ele>
   </trkpt>
   <trkpt lat="-37.89974" lon="145.35645000000002">
    <ele>269.71</ele>
   </trkpt>
   <trkpt lat="-37.89985" lon="145.35665">
    <ele>268.89</ele>
   </trkpt>
   <trkpt lat="-37.89996" lon="145.35677">
    <ele>268.22</ele>
   </trkpt>
   <trkpt lat="-37.900110000000005" lon="145.35685">
    <ele>267.11</ele>
   </trkpt>
   <trkpt lat="-37.9001" lon="145.35691">
    <ele>267.05</ele>
   </trkpt>
   <trkpt lat="-37.90001" lon="145.35687000000001">
    <ele>267.05</ele>
   </trkpt>
   <trkpt lat="-37.89994" lon="145.35687000000001">
    <ele>256.92</ele>
   </trkpt>
   <trkpt lat="-37.89985" lon="145.35690000000002">
    <ele>256.92</ele>
   </trkpt>
   <trkpt lat="-37.89996" lon="145.35696000000002">
    <ele>256.91</ele>
   </trkpt>
   <trkpt lat="-37.900000000000006" lon="145.35713">
    <ele>266.14000000000004</ele>
   </trkpt>
   <trkpt lat="-37.89981" lon="145.35703">
    <ele>269.89</ele>
   </trkpt>
   <trkpt lat="-37.89967" lon="145.35702">
    <ele>271.17</ele>
   </trkpt>
   <trkpt lat="-37.89956" lon="145.35691">
    <ele>271.75000000000006</ele>
   </trkpt>
   <trkpt lat="-37.89916" lon="145.35669000000001">
    <ele>277.94</ele>
   </trkpt>
   <trkpt lat="-37.89913000000001" lon="145.35669000000001">
    <ele>277.94</ele>
   </trkpt>
   <trkpt lat="-37.89914" lon="145.35669000000001">
    <ele>277.90000000000003</ele>
   </trkpt>
   <trkpt lat="-37.89905" lon="145.35671000000002">
    <ele>277.90000000000003</ele>
   </trkpt>
   <trkpt lat="-37.89878" lon="145.35686">
    <ele>285.51000000000005</ele>
   </trkpt>
   <trkpt lat="-37.89851" lon="145.35715000000002">
    <ele>287.85</ele>
   </trkpt>
   <trkpt lat="-37.89837" lon="145.35737">
    <ele>288.66</ele>
   </trkpt>
   <trkpt lat="-37.89831" lon="145.35755">
    <ele>289.06000000000006</ele>
   </trkpt>
   <trkpt lat="-37.89824" lon="145.35765">
    <ele>289.23</ele>
   </trkpt>
   <trkpt lat="-37.89817" lon="145.35786000000002">
    <ele>290.22</ele>
   </trkpt>
   <trkpt lat="-37.89781" lon="145.35814000000002">
    <ele>292.51000000000005</ele>
   </trkpt>
   <trkpt lat="-37.89768" lon="145.35815000000002">
    <ele>291.8</ele>
   </trkpt>
   <trkpt lat="-37.8975" lon="145.35823000000002">
    <ele>292.38</ele>
   </trkpt>
   <trkpt lat="-37.89741" lon="145.35832000000002">
    <ele>293.54</ele>
   </trkpt>
   <trkpt lat="-37.89728" lon="145.35854">
    <ele>294.74</ele>
   </trkpt>
   <trkpt lat="-37.89717" lon="145.35867000000002">
    <ele>295.58</ele>
   </trkpt>
   <trkpt lat="-37.897090000000006" lon="145.35867000000002">
    <ele>295.58</ele>
   </trkpt>
   <trkpt lat="-37.89699" lon="145.35877000000002">
    <ele>297.09000000000003</ele>
   </trkpt>
   <trkpt lat="-37.89696" lon="145.3589">
    <ele>297.56000000000006</ele>
   </trkpt>
   <trkpt lat="-37.89683" lon="145.35912000000002">
    <ele>298.43</ele>
   </trkpt>
   <trkpt lat="-37.89672" lon="145.35945">
    <ele>298.96</ele>
   </trkpt>
   <trkpt lat="-37.89665" lon="145.35958000000002">
    <ele>299.58</ele>
   </trkpt>
   <trkpt lat="-37.89661" lon="145.35992000000002">
    <ele>301.75</ele>
   </trkpt>
   <trkpt lat="-37.89645" lon="145.36017">
    <ele>303.31</ele>
   </trkpt>
   <trkpt lat="-37.89618" lon="145.36090000000002">
    <ele>306.25</ele>
   </trkpt>
   <trkpt lat="-37.89609" lon="145.36145000000002">
    <ele>309.50000000000006</ele>
   </trkpt>
   <trkpt lat="-37.89578" lon="145.36200000000002">
    <ele>314.69</ele>
   </trkpt>
   <trkpt lat="-37.8956" lon="145.36243000000002">
    <ele>316.79</ele>
   </trkpt>
   <trkpt lat="-37.895500000000006" lon="145.36281000000002">
    <ele>319.42</ele>
   </trkpt>
   <trkpt lat="-37.89537" lon="145.36299000000002">
    <ele>320.37000000000006</ele>
   </trkpt>
   <trkpt lat="-37.89526" lon="145.36332000000002">
    <ele>320.73</ele>
   </trkpt>
   <trkpt lat="-37.895010000000006" lon="145.36387000000002">
    <ele>321.29</ele>
   </trkpt>
   <trkpt lat="-37.89479" lon="145.36424000000002">
    <ele>324.08000000000004</ele>
   </trkpt>
   <trkpt lat="-37.8945" lon="145.36457000000001">
    <ele>327.95</ele>
   </trkpt>
   <trkpt lat="-37.89412" lon="145.3648">
    <ele>330.40000000000003</ele>
   </trkpt>
   <trkpt lat="-37.89383" lon="145.365">
    <ele>332.11</ele>
   </trkpt>
   <trkpt lat="-37.89329" lon="145.36548000000002">
    <ele>336.48</ele>
   </trkpt>
   <trkpt lat="-37.89262" lon="145.36622">
    <ele>339.27</ele>
   </trkpt>
   <trkpt lat="-37.89233" lon="145.36657000000002">
    <ele>339.2</ele>
   </trkpt>
   <trkpt lat="-37.892120000000006" lon="145.36677">
    <ele>338.65</ele>
   </trkpt>
   <trkpt lat="-37.89157" lon="145.36715">
    <ele>340.01000000000005</ele>
   </trkpt>
   <trkpt lat="-37.89094" lon="145.36749">
    <ele>344.35</ele>
   </trkpt>
   <trkpt lat="-37.8907" lon="145.36769">
    <ele>346.48</ele>
   </trkpt>
   <trkpt lat="-37.89052" lon="145.36778">
    <ele>346.93</ele>
   </trkpt>
   <trkpt lat="-37.88996" lon="145.36817000000002">
    <ele>348.6</ele>
   </trkpt>
   <trkpt lat="-37.889535000448745" lon="145.36848500179673">
    <ele>350.02000000000004</ele>
   </trkpt>
   <trkpt lat="-37.88911" lon="145.36880000000002">
    <ele>353.19</ele>
   </trkpt>
   <trkpt lat="-37.88852" lon="145.3692">
    <ele>355.78000000000003</ele>
   </trkpt>
   <trkpt lat="-37.88794" lon="145.36951000000002">
    <ele>359.81</ele>
   </trkpt>
   <trkpt lat="-37.88765" lon="145.36973">
    <ele>360.8</ele>
   </trkpt>
   <trkpt lat="-37.88754" lon="145.3699">
    <ele>361.04</ele>
   </trkpt>
   <trkpt lat="-37.887550000000005" lon="145.36996000000002">
    <ele>361.61</ele>
   </trkpt>
   <trkpt lat="-37.88738" lon="145.37008">
    <ele>363.72</ele>
   </trkpt>
   <trkpt lat="-37.88729" lon="145.37024000000002">
    <ele>366.21000000000004</ele>
   </trkpt>
   <trkpt lat="-37.88721" lon="145.37030000000001">
    <ele>366.51</ele>
   </trkpt>
  </trkseg>
 </trk>
</gpx>
