<?xml version="1.0" encoding="UTF-8"?>
<gpx creator="StravaGPX" version="1.1" xmlns="http://www.topografix.com/GPX/1/1" xmlns:xsi="http://www.w3.org/2001/XMLSchema-instance" xsi:schemaLocation="http://www.topografix.com/GPX/1/1 http://www.topografix.com/GPX/1/1/gpx.xsd">
 <metadata>
  <name>DTR 24/5 20km</name>
  <author>
   <name>Aaron Turner</name>
   <link href="https://www.strava.com/athletes/36464008"/>
  </author>
  <copyright author="OpenStreetMap contributors">
   <year>2020</year>
   <license>https://www.openstreetmap.org/copyright</license>
  </copyright>
  <link href="https://www.strava.com/routes/3492694670266336864"/>
 </metadata>
 <trk>
  <name>DTR 24/5 20km</name>
  <link href="https://www.strava.com/routes/3492694670266336864"/>
  <type>trail_running</type>
  <trkseg>
   <trkpt lat="-37.890280000000004" lon="145.31739000000002">
    <ele>185.8</ele>
   </trkpt>
   <trkpt lat="-37.889810000000004" lon="145.31752">
    <ele>189.61</ele>
   </trkpt>
   <trkpt lat="-37.88967" lon="145.31767000000002">
    <ele>191.55</ele>
   </trkpt>
   <trkpt lat="-37.889410000000005" lon="145.31771">
    <ele>193.87</ele>
   </trkpt>
   <trkpt lat="-37.88931" lon="145.31776000000002">
    <ele>195.37</ele>
   </trkpt>
   <trkpt lat="-37.88895" lon="145.31774000000001">
    <ele>198.45000000000002</ele>
   </trkpt>
   <trkpt lat="-37.88893" lon="145.31777000000002">
    <ele>198.45000000000002</ele>
   </trkpt>
   <trkpt lat="-37.8889" lon="145.31777000000002">
    <ele>199.94</ele>
   </trkpt>
   <trkpt lat="-37.88884" lon="145.31774000000001">
    <ele>199.94</ele>
   </trkpt>
   <trkpt lat="-37.888830000000006" lon="145.31773">
    <ele>199.84</ele>
   </trkpt>
   <trkpt lat="-37.88866" lon="145.31772">
    <ele>201.14000000000001</ele>
   </trkpt>
   <trkpt lat="-37.88846" lon="145.31753">
    <ele>204.69</ele>
   </trkpt>
   <trkpt lat="-37.88839" lon="145.31764">
    <ele>206.06000000000003</ele>
   </trkpt>
   <trkpt lat="-37.88817" lon="145.31758000000002">
    <ele>208.38</ele>
   </trkpt>
   <trkpt lat="-37.88799" lon="145.31761">
    <ele>210.31000000000003</ele>
   </trkpt>
   <trkpt lat="-37.88781" lon="145.31755">
    <ele>210.71</ele>
   </trkpt>
   <trkpt lat="-37.88772" lon="145.31759000000002">
    <ele>212.26</ele>
   </trkpt>
   <trkpt lat="-37.88761" lon="145.31761">
    <ele>213.96</ele>
   </trkpt>
   <trkpt lat="-37.88712" lon="145.31764">
    <ele>220.83</ele>
   </trkpt>
   <trkpt lat="-37.886880000000005" lon="145.31755">
    <ele>225.07000000000002</ele>
   </trkpt>
   <trkpt lat="-37.88667" lon="145.31742">
    <ele>227.94000000000003</ele>
   </trkpt>
   <trkpt lat="-37.88655" lon="145.31725">
    <ele>230.20000000000002</ele>
   </trkpt>
   <trkpt lat="-37.88642" lon="145.31715">
    <ele>236.26000000000002</ele>
   </trkpt>
   <trkpt lat="-37.88608" lon="145.31701">
    <ele>245.4</ele>
   </trkpt>
   <trkpt lat="-37.88532" lon="145.3168">
    <ele>265.02000000000004</ele>
   </trkpt>
   <trkpt lat="-37.884980000000006" lon="145.31674">
    <ele>271.03000000000003</ele>
   </trkpt>
   <trkpt lat="-37.88454" lon="145.31663">
    <ele>282.45000000000005</ele>
   </trkpt>
   <trkpt lat="-37.88405" lon="145.31654">
    <ele>294.66</ele>
   </trkpt>
   <trkpt lat="-37.88338" lon="145.31629">
    <ele>307.46</ele>
   </trkpt>
   <trkpt lat="-37.883010000000006" lon="145.31627">
    <ele>319.59000000000003</ele>
   </trkpt>
   <trkpt lat="-37.88268" lon="145.31621">
    <ele>325.31000000000006</ele>
   </trkpt>
   <trkpt lat="-37.88203" lon="145.31637">
    <ele>342.79</ele>
   </trkpt>
   <trkpt lat="-37.88163" lon="145.31638">
    <ele>349.42</ele>
   </trkpt>
   <trkpt lat="-37.88111" lon="145.31625000000003">
    <ele>360.63</ele>
   </trkpt>
   <trkpt lat="-37.88085" lon="145.31625000000003">
    <ele>365.27000000000004</ele>
   </trkpt>
   <trkpt lat="-37.88067" lon="145.31623000000002">
    <ele>367.84000000000003</ele>
   </trkpt>
   <trkpt lat="-37.880230000085334" lon="145.3160849991326">
    <ele>380.62</ele>
   </trkpt>
   <trkpt lat="-37.87979" lon="145.31594">
    <ele>389.16</ele>
   </trkpt>
   <trkpt lat="-37.87964" lon="145.31593">
    <ele>391.15000000000003</ele>
   </trkpt>
   <trkpt lat="-37.87955" lon="145.31594">
    <ele>393.65000000000003</ele>
   </trkpt>
   <trkpt lat="-37.879560000000005" lon="145.31594">
    <ele>393.62</ele>
   </trkpt>
   <trkpt lat="-37.87932" lon="145.31608">
    <ele>398.62</ele>
   </trkpt>
   <trkpt lat="-37.87888" lon="145.31655">
    <ele>405.58000000000004</ele>
   </trkpt>
   <trkpt lat="-37.87841500080895" lon="145.31695500245638">
    <ele>415.47</ele>
   </trkpt>
   <trkpt lat="-37.877950000000006" lon="145.31736">
    <ele>421.08</ele>
   </trkpt>
   <trkpt lat="-37.87773" lon="145.31763">
    <ele>426.56000000000006</ele>
   </trkpt>
   <trkpt lat="-37.8776" lon="145.31788">
    <ele>430.52</ele>
   </trkpt>
   <trkpt lat="-37.87726" lon="145.31836">
    <ele>436.1700000000001</ele>
   </trkpt>
   <trkpt lat="-37.87686" lon="145.31899">
    <ele>446.37000000000006</ele>
   </trkpt>
   <trkpt lat="-37.87659" lon="145.31948">
    <ele>453.59000000000003</ele>
   </trkpt>
   <trkpt lat="-37.87644" lon="145.31984">
    <ele>463.13000000000005</ele>
   </trkpt>
   <trkpt lat="-37.87632" lon="145.32018000000002">
    <ele>469.87000000000006</ele>
   </trkpt>
   <trkpt lat="-37.876200000000004" lon="145.32032">
    <ele>471.51000000000005</ele>
   </trkpt>
   <trkpt lat="-37.87613" lon="145.32041">
    <ele>473.01000000000005</ele>
   </trkpt>
   <trkpt lat="-37.87585" lon="145.32021">
    <ele>479.89000000000004</ele>
   </trkpt>
   <trkpt lat="-37.87572" lon="145.32013">
    <ele>483.64</ele>
   </trkpt>
   <trkpt lat="-37.87565" lon="145.32011">
    <ele>484.42</ele>
   </trkpt>
   <trkpt lat="-37.87541" lon="145.32018000000002">
    <ele>487.01000000000005</ele>
   </trkpt>
   <trkpt lat="-37.87521" lon="145.32021">
    <ele>490.8500000000001</ele>
   </trkpt>
   <trkpt lat="-37.87501" lon="145.32019000000003">
    <ele>492.98</ele>
   </trkpt>
   <trkpt lat="-37.87536" lon="145.31973000000002">
    <ele>490.2900000000001</ele>
   </trkpt>
   <trkpt lat="-37.87547" lon="145.31965000000002">
    <ele>489.05</ele>
   </trkpt>
   <trkpt lat="-37.87583" lon="145.31924">
    <ele>484.97</ele>
   </trkpt>
   <trkpt lat="-37.87608" lon="145.31889">
    <ele>482.41</ele>
   </trkpt>
   <trkpt lat="-37.87619" lon="145.3187">
    <ele>481.15000000000003</ele>
   </trkpt>
   <trkpt lat="-37.87641" lon="145.31827">
    <ele>476.97</ele>
   </trkpt>
   <trkpt lat="-37.87668" lon="145.31728">
    <ele>464.96000000000004</ele>
   </trkpt>
   <trkpt lat="-37.87682" lon="145.31683">
    <ele>459.27</ele>
   </trkpt>
   <trkpt lat="-37.87693" lon="145.31661000000003">
    <ele>456.44</ele>
   </trkpt>
   <trkpt lat="-37.87735" lon="145.31589000000002">
    <ele>449.17</ele>
   </trkpt>
   <trkpt lat="-37.87753" lon="145.31569000000002">
    <ele>446.83000000000004</ele>
   </trkpt>
   <trkpt lat="-37.87778" lon="145.31557">
    <ele>444.61000000000007</ele>
   </trkpt>
   <trkpt lat="-37.87791" lon="145.31546">
    <ele>443.21000000000004</ele>
   </trkpt>
   <trkpt lat="-37.87829" lon="145.31506000000002">
    <ele>438.04</ele>
   </trkpt>
   <trkpt lat="-37.878600000000006" lon="145.31485">
    <ele>432.59000000000003</ele>
   </trkpt>
   <trkpt lat="-37.87885" lon="145.31461000000002">
    <ele>429.6</ele>
   </trkpt>
   <trkpt lat="-37.87939" lon="145.31436000000002">
    <ele>426.86</ele>
   </trkpt>
   <trkpt lat="-37.879450000000006" lon="145.31429">
    <ele>426.48</ele>
   </trkpt>
   <trkpt lat="-37.87944" lon="145.3143">
    <ele>426.48</ele>
   </trkpt>
   <trkpt lat="-37.87948" lon="145.31417000000002">
    <ele>426.22</ele>
   </trkpt>
   <trkpt lat="-37.87928" lon="145.31419000000002">
    <ele>425.28000000000003</ele>
   </trkpt>
   <trkpt lat="-37.87882999993238" lon="145.31413999968586">
    <ele>421.47</ele>
   </trkpt>
   <trkpt lat="-37.87838" lon="145.31409000000002">
    <ele>416.18000000000006</ele>
   </trkpt>
   <trkpt lat="-37.87796" lon="145.31396">
    <ele>411.54</ele>
   </trkpt>
   <trkpt lat="-37.87769" lon="145.31390000000002">
    <ele>408.85</ele>
   </trkpt>
   <trkpt lat="-37.87753" lon="145.31387">
    <ele>407.52000000000004</ele>
   </trkpt>
   <trkpt lat="-37.87729" lon="145.31387">
    <ele>402.95000000000005</ele>
   </trkpt>
   <trkpt lat="-37.87684" lon="145.31383000000002">
    <ele>397.49</ele>
   </trkpt>
   <trkpt lat="-37.87635" lon="145.31387">
    <ele>391.18</ele>
   </trkpt>
   <trkpt lat="-37.87585" lon="145.31401000000002">
    <ele>385.59000000000003</ele>
   </trkpt>
   <trkpt lat="-37.8757" lon="145.31402">
    <ele>385.59000000000003</ele>
   </trkpt>
   <trkpt lat="-37.87532" lon="145.31391000000002">
    <ele>381.12</ele>
   </trkpt>
   <trkpt lat="-37.87489" lon="145.31387">
    <ele>378.09000000000003</ele>
   </trkpt>
   <trkpt lat="-37.87447" lon="145.31404">
    <ele>374.02000000000004</ele>
   </trkpt>
   <trkpt lat="-37.8742" lon="145.31409000000002">
    <ele>372.12</ele>
   </trkpt>
   <trkpt lat="-37.87366" lon="145.31386">
    <ele>370.35</ele>
   </trkpt>
   <trkpt lat="-37.87344" lon="145.31381000000002">
    <ele>369.45000000000005</ele>
   </trkpt>
   <trkpt lat="-37.87288" lon="145.31377">
    <ele>367.51</ele>
   </trkpt>
   <trkpt lat="-37.872600000000006" lon="145.31367">
    <ele>364.35</ele>
   </trkpt>
   <trkpt lat="-37.87241" lon="145.3135">
    <ele>361.05</ele>
   </trkpt>
   <trkpt lat="-37.87229" lon="145.31326">
    <ele>360.12000000000006</ele>
   </trkpt>
   <trkpt lat="-37.87227" lon="145.31307">
    <ele>357.58</ele>
   </trkpt>
   <trkpt lat="-37.87229" lon="145.31288">
    <ele>355.93</ele>
   </trkpt>
   <trkpt lat="-37.87254" lon="145.31233">
    <ele>349.92</ele>
   </trkpt>
   <trkpt lat="-37.87259" lon="145.31212000000002">
    <ele>348.62000000000006</ele>
   </trkpt>
   <trkpt lat="-37.87254" lon="145.31198">
    <ele>348.04</ele>
   </trkpt>
   <trkpt lat="-37.87245" lon="145.31188">
    <ele>348.80000000000007</ele>
   </trkpt>
   <trkpt lat="-37.87236" lon="145.31185000000002">
    <ele>350.0</ele>
   </trkpt>
   <trkpt lat="-37.87227" lon="145.31188">
    <ele>351.89000000000004</ele>
   </trkpt>
   <trkpt lat="-37.872150000000005" lon="145.31195000000002">
    <ele>355.77000000000004</ele>
   </trkpt>
   <trkpt lat="-37.87216" lon="145.31195000000002">
    <ele>355.95000000000005</ele>
   </trkpt>
   <trkpt lat="-37.87201" lon="145.31204000000002">
    <ele>360.53000000000003</ele>
   </trkpt>
   <trkpt lat="-37.87191" lon="145.31216">
    <ele>364.88000000000005</ele>
   </trkpt>
   <trkpt lat="-37.87182" lon="145.31231000000002">
    <ele>370.33000000000004</ele>
   </trkpt>
   <trkpt lat="-37.87174" lon="145.31253">
    <ele>376.65000000000003</ele>
   </trkpt>
   <trkpt lat="-37.87165" lon="145.31262">
    <ele>376.65000000000003</ele>
   </trkpt>
   <trkpt lat="-37.87133" lon="145.3128">
    <ele>387.28000000000003</ele>
   </trkpt>
   <trkpt lat="-37.87127" lon="145.31286">
    <ele>389.11</ele>
   </trkpt>
   <trkpt lat="-37.87091000185914" lon="145.31352500326963">
    <ele>393.20000000000005</ele>
   </trkpt>
   <trkpt lat="-37.87055" lon="145.31419000000002">
    <ele>388.42</ele>
   </trkpt>
   <trkpt lat="-37.87041" lon="145.31411">
    <ele>386.52000000000004</ele>
   </trkpt>
   <trkpt lat="-37.870340000000006" lon="145.31408000000002">
    <ele>385.97</ele>
   </trkpt>
   <trkpt lat="-37.87026" lon="145.31409000000002">
    <ele>384.73</ele>
   </trkpt>
   <trkpt lat="-37.87017" lon="145.31414">
    <ele>383.33</ele>
   </trkpt>
   <trkpt lat="-37.86997" lon="145.31447">
    <ele>376.59000000000003</ele>
   </trkpt>
   <trkpt lat="-37.8699" lon="145.31453000000002">
    <ele>376.59000000000003</ele>
   </trkpt>
   <trkpt lat="-37.8699" lon="145.31452000000002">
    <ele>376.73</ele>
   </trkpt>
   <trkpt lat="-37.86988" lon="145.31455000000003">
    <ele>376.73</ele>
   </trkpt>
   <trkpt lat="-37.86972" lon="145.31458">
    <ele>374.79</ele>
   </trkpt>
   <trkpt lat="-37.869020000000006" lon="145.31414">
    <ele>362.78000000000003</ele>
   </trkpt>
   <trkpt lat="-37.86898" lon="145.31477">
    <ele>355.01000000000005</ele>
   </trkpt>
   <trkpt lat="-37.869" lon="145.31505">
    <ele>352.44</ele>
   </trkpt>
   <trkpt lat="-37.86896" lon="145.31523">
    <ele>351.2</ele>
   </trkpt>
   <trkpt lat="-37.86889" lon="145.31538">
    <ele>350.17</ele>
   </trkpt>
   <trkpt lat="-37.86871" lon="145.31564">
    <ele>348.78000000000003</ele>
   </trkpt>
   <trkpt lat="-37.86842" lon="145.31596000000002">
    <ele>347.84000000000003</ele>
   </trkpt>
   <trkpt lat="-37.86811" lon="145.31645">
    <ele>346.30000000000007</ele>
   </trkpt>
   <trkpt lat="-37.86785000209512" lon="145.31716000260528">
    <ele>341.73</ele>
   </trkpt>
   <trkpt lat="-37.86759" lon="145.31787">
    <ele>339.63000000000005</ele>
   </trkpt>
   <trkpt lat="-37.86741" lon="145.31875000000002">
    <ele>336.01000000000005</ele>
   </trkpt>
   <trkpt lat="-37.86744" lon="145.3189">
    <ele>335.26</ele>
   </trkpt>
   <trkpt lat="-37.86762" lon="145.31942">
    <ele>331.05</ele>
   </trkpt>
   <trkpt lat="-37.86782" lon="145.31976">
    <ele>329.11</ele>
   </trkpt>
   <trkpt lat="-37.86786" lon="145.31989000000002">
    <ele>328.86</ele>
   </trkpt>
   <trkpt lat="-37.86786" lon="145.31999000000002">
    <ele>328.81000000000006</ele>
   </trkpt>
   <trkpt lat="-37.867720000000006" lon="145.32028000000003">
    <ele>329.51</ele>
   </trkpt>
   <trkpt lat="-37.86737" lon="145.32079000000002">
    <ele>330.37000000000006</ele>
   </trkpt>
   <trkpt lat="-37.86712" lon="145.32127">
    <ele>329.42</ele>
   </trkpt>
   <trkpt lat="-37.86706" lon="145.32158">
    <ele>327.19000000000005</ele>
   </trkpt>
   <trkpt lat="-37.86715" lon="145.32185">
    <ele>325.84000000000003</ele>
   </trkpt>
   <trkpt lat="-37.86741" lon="145.32231000000002">
    <ele>322.29</ele>
   </trkpt>
   <trkpt lat="-37.86782500160754" lon="145.32293999634422">
    <ele>319.11</ele>
   </trkpt>
   <trkpt lat="-37.86824" lon="145.32357000000002">
    <ele>317.21999999999997</ele>
   </trkpt>
   <trkpt lat="-37.868280000000006" lon="145.32366000000002">
    <ele>316.83</ele>
   </trkpt>
   <trkpt lat="-37.86827" lon="145.32377000000002">
    <ele>316.35</ele>
   </trkpt>
   <trkpt lat="-37.868170000000006" lon="145.32392000000002">
    <ele>315.98</ele>
   </trkpt>
   <trkpt lat="-37.867715001552334" lon="145.32454000392826">
    <ele>311.26000000000005</ele>
   </trkpt>
   <trkpt lat="-37.86726" lon="145.32516">
    <ele>302.34</ele>
   </trkpt>
   <trkpt lat="-37.86698500125663" lon="145.3257000019691">
    <ele>298.57</ele>
   </trkpt>
   <trkpt lat="-37.866710000000005" lon="145.32624">
    <ele>293.66</ele>
   </trkpt>
   <trkpt lat="-37.86672" lon="145.32621">
    <ele>293.91</ele>
   </trkpt>
   <trkpt lat="-37.866580000000006" lon="145.32649">
    <ele>292.04</ele>
   </trkpt>
   <trkpt lat="-37.8665" lon="145.32690000000002">
    <ele>303.82000000000005</ele>
   </trkpt>
   <trkpt lat="-37.8665" lon="145.32747">
    <ele>303.48</ele>
   </trkpt>
   <trkpt lat="-37.866400000000006" lon="145.32751000000002">
    <ele>299.83000000000004</ele>
   </trkpt>
   <trkpt lat="-37.866400000000006" lon="145.32749">
    <ele>294.32</ele>
   </trkpt>
   <trkpt lat="-37.86634" lon="145.32726000000002">
    <ele>289.77000000000004</ele>
   </trkpt>
   <trkpt lat="-37.8663" lon="145.32718">
    <ele>288.73</ele>
   </trkpt>
   <trkpt lat="-37.86623" lon="145.32717000000002">
    <ele>284.38</ele>
   </trkpt>
   <trkpt lat="-37.86616" lon="145.32719">
    <ele>284.38</ele>
   </trkpt>
   <trkpt lat="-37.86596" lon="145.3273">
    <ele>281.19</ele>
   </trkpt>
   <trkpt lat="-37.86589" lon="145.3273">
    <ele>276.79</ele>
   </trkpt>
   <trkpt lat="-37.865610000000004" lon="145.3274">
    <ele>270.65</ele>
   </trkpt>
   <trkpt lat="-37.865" lon="145.32741000000001">
    <ele>250.93000000000004</ele>
   </trkpt>
   <trkpt lat="-37.86491" lon="145.32743000000002">
    <ele>249.01</ele>
   </trkpt>
   <trkpt lat="-37.86486" lon="145.32749">
    <ele>248.89000000000001</ele>
   </trkpt>
   <trkpt lat="-37.86482" lon="145.32749">
    <ele>248.89000000000001</ele>
   </trkpt>
   <trkpt lat="-37.864810000000006" lon="145.32766">
    <ele>247.22000000000003</ele>
   </trkpt>
   <trkpt lat="-37.86471" lon="145.32788000000002">
    <ele>241.20000000000002</ele>
   </trkpt>
   <trkpt lat="-37.86453" lon="145.3279">
    <ele>247.60000000000002</ele>
   </trkpt>
   <trkpt lat="-37.86446" lon="145.32787000000002">
    <ele>248.38000000000002</ele>
   </trkpt>
   <trkpt lat="-37.8643" lon="145.32765">
    <ele>247.58</ele>
   </trkpt>
   <trkpt lat="-37.864180000000005" lon="145.32759000000001">
    <ele>247.04</ele>
   </trkpt>
   <trkpt lat="-37.86397" lon="145.32753000000002">
    <ele>246.72000000000003</ele>
   </trkpt>
   <trkpt lat="-37.86356" lon="145.32760000000002">
    <ele>247.29</ele>
   </trkpt>
   <trkpt lat="-37.86307" lon="145.32762000000002">
    <ele>249.34000000000003</ele>
   </trkpt>
   <trkpt lat="-37.86265" lon="145.32778000000002">
    <ele>249.91000000000003</ele>
   </trkpt>
   <trkpt lat="-37.86222" lon="145.32782">
    <ele>247.74</ele>
   </trkpt>
   <trkpt lat="-37.861990000000006" lon="145.32794">
    <ele>245.81000000000003</ele>
   </trkpt>
   <trkpt lat="-37.86177" lon="145.32821">
    <ele>245.53000000000003</ele>
   </trkpt>
   <trkpt lat="-37.86159" lon="145.32859000000002">
    <ele>244.52</ele>
   </trkpt>
   <trkpt lat="-37.86148" lon="145.32925">
    <ele>243.56000000000003</ele>
   </trkpt>
   <trkpt lat="-37.861450000000005" lon="145.32929000000001">
    <ele>243.57</ele>
   </trkpt>
   <trkpt lat="-37.86162" lon="145.32949000000002">
    <ele>246.70000000000002</ele>
   </trkpt>
   <trkpt lat="-37.86175" lon="145.32975000000002">
    <ele>254.69000000000003</ele>
   </trkpt>
   <trkpt lat="-37.86186" lon="145.33004000000003">
    <ele>259.26000000000005</ele>
   </trkpt>
   <trkpt lat="-37.86189" lon="145.33014">
    <ele>260.71</ele>
   </trkpt>
   <trkpt lat="-37.862" lon="145.33024">
    <ele>264.53000000000003</ele>
   </trkpt>
   <trkpt lat="-37.86218" lon="145.33063">
    <ele>271.43</ele>
   </trkpt>
   <trkpt lat="-37.8624" lon="145.33099">
    <ele>282.7</ele>
   </trkpt>
   <trkpt lat="-37.86249" lon="145.33118000000002">
    <ele>286.17</ele>
   </trkpt>
   <trkpt lat="-37.86251" lon="145.33129000000002">
    <ele>287.66</ele>
   </trkpt>
   <trkpt lat="-37.86247" lon="145.33146000000002">
    <ele>289.61</ele>
   </trkpt>
   <trkpt lat="-37.86251" lon="145.33174000000002">
    <ele>297.92</ele>
   </trkpt>
   <trkpt lat="-37.86249" lon="145.33190000000002">
    <ele>300.91</ele>
   </trkpt>
   <trkpt lat="-37.86252" lon="145.33206">
    <ele>304.72</ele>
   </trkpt>
   <trkpt lat="-37.862370000000006" lon="145.33226000000002">
    <ele>304.57</ele>
   </trkpt>
   <trkpt lat="-37.86227" lon="145.33246000000003">
    <ele>304.51</ele>
   </trkpt>
   <trkpt lat="-37.86224" lon="145.33262000000002">
    <ele>304.24</ele>
   </trkpt>
   <trkpt lat="-37.86224" lon="145.33325000000002">
    <ele>304.36</ele>
   </trkpt>
   <trkpt lat="-37.86227" lon="145.33360000000002">
    <ele>304.92</ele>
   </trkpt>
   <trkpt lat="-37.86229" lon="145.33376">
    <ele>304.92</ele>
   </trkpt>
   <trkpt lat="-37.86242" lon="145.33416000000003">
    <ele>305.53000000000003</ele>
   </trkpt>
   <trkpt lat="-37.8628" lon="145.33489">
    <ele>305.89000000000004</ele>
   </trkpt>
   <trkpt lat="-37.86292" lon="145.33516">
    <ele>305.96</ele>
   </trkpt>
   <trkpt lat="-37.86314" lon="145.3357">
    <ele>306.83000000000004</ele>
   </trkpt>
   <trkpt lat="-37.86309" lon="145.33587">
    <ele>307.76000000000005</ele>
   </trkpt>
   <trkpt lat="-37.86303" lon="145.33592000000002">
    <ele>307.94000000000005</ele>
   </trkpt>
   <trkpt lat="-37.86292" lon="145.33596">
    <ele>308.1</ele>
   </trkpt>
   <trkpt lat="-37.86231" lon="145.33606">
    <ele>306.14000000000004</ele>
   </trkpt>
   <trkpt lat="-37.862080000000006" lon="145.33605">
    <ele>304.21000000000004</ele>
   </trkpt>
   <trkpt lat="-37.86164" lon="145.33602000000002">
    <ele>301.61</ele>
   </trkpt>
   <trkpt lat="-37.8609" lon="145.33604000000003">
    <ele>302.85</ele>
   </trkpt>
   <trkpt lat="-37.86065" lon="145.33601000000002">
    <ele>302.31</ele>
   </trkpt>
   <trkpt lat="-37.85996" lon="145.33583000000002">
    <ele>293.86</ele>
   </trkpt>
   <trkpt lat="-37.85965" lon="145.33569">
    <ele>290.75</ele>
   </trkpt>
   <trkpt lat="-37.85931" lon="145.33543">
    <ele>286.46000000000004</ele>
   </trkpt>
   <trkpt lat="-37.85887500127963" lon="145.33486999663535">
    <ele>281.18</ele>
   </trkpt>
   <trkpt lat="-37.85844" lon="145.33431000000002">
    <ele>276.62</ele>
   </trkpt>
   <trkpt lat="-37.85833" lon="145.33419">
    <ele>275.92</ele>
   </trkpt>
   <trkpt lat="-37.85821" lon="145.33414000000002">
    <ele>274.41</ele>
   </trkpt>
   <trkpt lat="-37.857960000000006" lon="145.33415000000002">
    <ele>272.54</ele>
   </trkpt>
   <trkpt lat="-37.857980000000005" lon="145.33416000000003">
    <ele>272.8</ele>
   </trkpt>
   <trkpt lat="-37.8581" lon="145.33454">
    <ele>278.11</ele>
   </trkpt>
   <trkpt lat="-37.85824" lon="145.33467000000002">
    <ele>281.0</ele>
   </trkpt>
   <trkpt lat="-37.85826" lon="145.33476000000002">
    <ele>283.37</ele>
   </trkpt>
   <trkpt lat="-37.85826" lon="145.3349">
    <ele>284.21000000000004</ele>
   </trkpt>
   <trkpt lat="-37.85828" lon="145.33501">
    <ele>286.1</ele>
   </trkpt>
   <trkpt lat="-37.85848" lon="145.33535">
    <ele>293.88000000000005</ele>
   </trkpt>
   <trkpt lat="-37.85862" lon="145.33563">
    <ele>296.2</ele>
   </trkpt>
   <trkpt lat="-37.85866" lon="145.33603000000002">
    <ele>307.07</ele>
   </trkpt>
   <trkpt lat="-37.85889" lon="145.33676">
    <ele>327.46000000000004</ele>
   </trkpt>
   <trkpt lat="-37.85909" lon="145.33724">
    <ele>339.48</ele>
   </trkpt>
   <trkpt lat="-37.85915" lon="145.33746000000002">
    <ele>339.48</ele>
   </trkpt>
   <trkpt lat="-37.8592" lon="145.3377">
    <ele>350.92</ele>
   </trkpt>
   <trkpt lat="-37.85922" lon="145.33785">
    <ele>351.98</ele>
   </trkpt>
   <trkpt lat="-37.85929" lon="145.33801000000003">
    <ele>357.81</ele>
   </trkpt>
   <trkpt lat="-37.859370000000006" lon="145.33810000000003">
    <ele>361.99</ele>
   </trkpt>
   <trkpt lat="-37.8596" lon="145.3383">
    <ele>370.77000000000004</ele>
   </trkpt>
   <trkpt lat="-37.8598" lon="145.33852000000002">
    <ele>377.85</ele>
   </trkpt>
   <trkpt lat="-37.85989" lon="145.33858">
    <ele>380.14000000000004</ele>
   </trkpt>
   <trkpt lat="-37.860510000000005" lon="145.33876">
    <ele>394.28000000000003</ele>
   </trkpt>
   <trkpt lat="-37.8605" lon="145.33886">
    <ele>393.97</ele>
   </trkpt>
   <trkpt lat="-37.86056" lon="145.33914000000001">
    <ele>393.88</ele>
   </trkpt>
   <trkpt lat="-37.86081" lon="145.33949">
    <ele>394.64000000000004</ele>
   </trkpt>
   <trkpt lat="-37.86115" lon="145.33973">
    <ele>393.52000000000004</ele>
   </trkpt>
   <trkpt lat="-37.86117" lon="145.33978000000002">
    <ele>392.28000000000003</ele>
   </trkpt>
   <trkpt lat="-37.86117" lon="145.3399">
    <ele>388.81000000000006</ele>
   </trkpt>
   <trkpt lat="-37.86112" lon="145.34012">
    <ele>380.89</ele>
   </trkpt>
   <trkpt lat="-37.86106" lon="145.34027">
    <ele>374.63</ele>
   </trkpt>
   <trkpt lat="-37.86106" lon="145.34026">
    <ele>375.08000000000004</ele>
   </trkpt>
   <trkpt lat="-37.86086" lon="145.34071">
    <ele>363.37</ele>
   </trkpt>
   <trkpt lat="-37.860780000000005" lon="145.341">
    <ele>358.97</ele>
   </trkpt>
   <trkpt lat="-37.86092" lon="145.34113000000002">
    <ele>359.00000000000006</ele>
   </trkpt>
   <trkpt lat="-37.86097" lon="145.34123000000002">
    <ele>361.55</ele>
   </trkpt>
   <trkpt lat="-37.86108" lon="145.3417">
    <ele>365.19</ele>
   </trkpt>
   <trkpt lat="-37.86121" lon="145.34249">
    <ele>368.94000000000005</ele>
   </trkpt>
   <trkpt lat="-37.86128" lon="145.34276">
    <ele>370.89000000000004</ele>
   </trkpt>
   <trkpt lat="-37.86139" lon="145.34300000000002">
    <ele>371.77000000000004</ele>
   </trkpt>
   <trkpt lat="-37.861520000000006" lon="145.34317000000001">
    <ele>372.73</ele>
   </trkpt>
   <trkpt lat="-37.86168" lon="145.34332">
    <ele>375.44000000000005</ele>
   </trkpt>
   <trkpt lat="-37.861850000000004" lon="145.34336000000002">
    <ele>376.14000000000004</ele>
   </trkpt>
   <trkpt lat="-37.86204" lon="145.34342">
    <ele>377.46000000000004</ele>
   </trkpt>
   <trkpt lat="-37.86231" lon="145.34352">
    <ele>379.41</ele>
   </trkpt>
   <trkpt lat="-37.86296" lon="145.34383000000003">
    <ele>383.66</ele>
   </trkpt>
   <trkpt lat="-37.86303" lon="145.34388">
    <ele>384.0</ele>
   </trkpt>
   <trkpt lat="-37.86307" lon="145.34395">
    <ele>384.16</ele>
   </trkpt>
   <trkpt lat="-37.86305" lon="145.34406">
    <ele>384.66</ele>
   </trkpt>
   <trkpt lat="-37.862840000000006" lon="145.3444">
    <ele>386.36</ele>
   </trkpt>
   <trkpt lat="-37.86253" lon="145.34477">
    <ele>393.74</ele>
   </trkpt>
   <trkpt lat="-37.86238" lon="145.34501">
    <ele>395.55</ele>
   </trkpt>
   <trkpt lat="-37.86213" lon="145.34550000000002">
    <ele>400.03000000000003</ele>
   </trkpt>
   <trkpt lat="-37.86209" lon="145.34566">
    <ele>400.03000000000003</ele>
   </trkpt>
   <trkpt lat="-37.86193" lon="145.34642000000002">
    <ele>406.44</ele>
   </trkpt>
   <trkpt lat="-37.86202" lon="145.34712000000002">
    <ele>415.59000000000003</ele>
   </trkpt>
   <trkpt lat="-37.86206" lon="145.34726">
    <ele>415.59000000000003</ele>
   </trkpt>
   <trkpt lat="-37.8622" lon="145.34749000000002">
    <ele>418.64</ele>
   </trkpt>
   <trkpt lat="-37.86245" lon="145.34777000000003">
    <ele>423.94000000000005</ele>
   </trkpt>
   <trkpt lat="-37.86256" lon="145.34787">
    <ele>424.90000000000003</ele>
   </trkpt>
   <trkpt lat="-37.86296" lon="145.34810000000002">
    <ele>429.31</ele>
   </trkpt>
   <trkpt lat="-37.86312" lon="145.34826">
    <ele>430.76000000000005</ele>
   </trkpt>
   <trkpt lat="-37.86316" lon="145.34836">
    <ele>431.15000000000003</ele>
   </trkpt>
   <trkpt lat="-37.86318" lon="145.34895">
    <ele>436.95000000000005</ele>
   </trkpt>
   <trkpt lat="-37.86323" lon="145.3494">
    <ele>443.52000000000004</ele>
   </trkpt>
   <trkpt lat="-37.86321" lon="145.3496">
    <ele>444.75</ele>
   </trkpt>
   <trkpt lat="-37.86316" lon="145.34984">
    <ele>446.82000000000005</ele>
   </trkpt>
   <trkpt lat="-37.863170000000004" lon="145.34983000000003">
    <ele>446.75</ele>
   </trkpt>
   <trkpt lat="-37.863130000000005" lon="145.34997">
    <ele>448.26000000000005</ele>
   </trkpt>
   <trkpt lat="-37.86285" lon="145.35058">
    <ele>455.26000000000005</ele>
   </trkpt>
   <trkpt lat="-37.86274" lon="145.35069000000001">
    <ele>458.53000000000003</ele>
   </trkpt>
   <trkpt lat="-37.86222" lon="145.3514">
    <ele>466.44</ele>
   </trkpt>
   <trkpt lat="-37.86215" lon="145.35175">
    <ele>468.84000000000003</ele>
   </trkpt>
   <trkpt lat="-37.86215" lon="145.35208">
    <ele>470.59000000000003</ele>
   </trkpt>
   <trkpt lat="-37.86216" lon="145.35208">
    <ele>470.59000000000003</ele>
   </trkpt>
   <trkpt lat="-37.86222" lon="145.35236">
    <ele>474.02000000000004</ele>
   </trkpt>
   <trkpt lat="-37.86242" lon="145.35278000000002">
    <ele>478.93</ele>
   </trkpt>
   <trkpt lat="-37.86238" lon="145.35285000000002">
    <ele>478.99</ele>
   </trkpt>
   <trkpt lat="-37.862410000000004" lon="145.35296000000002">
    <ele>478.7</ele>
   </trkpt>
   <trkpt lat="-37.86274" lon="145.35366000000002">
    <ele>480.93</ele>
   </trkpt>
   <trkpt lat="-37.863195000277805" lon="145.35334000208482">
    <ele>479.76</ele>
   </trkpt>
   <trkpt lat="-37.86365" lon="145.35302000000001">
    <ele>479.96000000000004</ele>
   </trkpt>
   <trkpt lat="-37.863385001477255" lon="145.35243999803427">
    <ele>483.30000000000007</ele>
   </trkpt>
   <trkpt lat="-37.86312" lon="145.35186000000002">
    <ele>480.12000000000006</ele>
   </trkpt>
   <trkpt lat="-37.86309" lon="145.35176">
    <ele>479.62000000000006</ele>
   </trkpt>
   <trkpt lat="-37.863110000000006" lon="145.35169000000002">
    <ele>479.43</ele>
   </trkpt>
   <trkpt lat="-37.8633" lon="145.35153000000003">
    <ele>479.94</ele>
   </trkpt>
   <trkpt lat="-37.863420000000005" lon="145.35147">
    <ele>480.48</ele>
   </trkpt>
   <trkpt lat="-37.863490000000006" lon="145.3514">
    <ele>481.58000000000004</ele>
   </trkpt>
   <trkpt lat="-37.8635" lon="145.35133000000002">
    <ele>482.22</ele>
   </trkpt>
   <trkpt lat="-37.86359" lon="145.35126000000002">
    <ele>483.75</ele>
   </trkpt>
   <trkpt lat="-37.86363" lon="145.35125000000002">
    <ele>485.12000000000006</ele>
   </trkpt>
   <trkpt lat="-37.863640000000004" lon="145.35125000000002">
    <ele>485.11</ele>
   </trkpt>
   <trkpt lat="-37.8637" lon="145.35125000000002">
    <ele>486.49</ele>
   </trkpt>
   <trkpt lat="-37.86379" lon="145.35118">
    <ele>488.6</ele>
   </trkpt>
   <trkpt lat="-37.864050000000006" lon="145.35102">
    <ele>496.98</ele>
   </trkpt>
   <trkpt lat="-37.8641" lon="145.35089000000002">
    <ele>497.99</ele>
   </trkpt>
   <trkpt lat="-37.8641" lon="145.35074">
    <ele>499.03000000000003</ele>
   </trkpt>
   <trkpt lat="-37.86417" lon="145.35060000000001">
    <ele>500.96000000000004</ele>
   </trkpt>
   <trkpt lat="-37.86448" lon="145.34977">
    <ele>512.69</ele>
   </trkpt>
   <trkpt lat="-37.864695001533185" lon="145.34917000172027">
    <ele>519.14</ele>
   </trkpt>
   <trkpt lat="-37.86491" lon="145.34857000000002">
    <ele>523.7700000000001</ele>
   </trkpt>
   <trkpt lat="-37.86497" lon="145.34822">
    <ele>525.32</ele>
   </trkpt>
   <trkpt lat="-37.86491" lon="145.34814">
    <ele>525.32</ele>
   </trkpt>
   <trkpt lat="-37.86484" lon="145.34797">
    <ele>521.27</ele>
   </trkpt>
   <trkpt lat="-37.864810000000006" lon="145.34757000000002">
    <ele>518.6200000000001</ele>
   </trkpt>
   <trkpt lat="-37.86482" lon="145.34732000000002">
    <ele>514.3000000000001</ele>
   </trkpt>
   <trkpt lat="-37.86482" lon="145.34718">
    <ele>512.15</ele>
   </trkpt>
   <trkpt lat="-37.86502" lon="145.34686000000002">
    <ele>509.18000000000006</ele>
   </trkpt>
   <trkpt lat="-37.865370000000006" lon="145.34673">
    <ele>506.41</ele>
   </trkpt>
   <trkpt lat="-37.8659" lon="145.34657">
    <ele>501.89000000000004</ele>
   </trkpt>
   <trkpt lat="-37.86589" lon="145.34647">
    <ele>501.89000000000004</ele>
   </trkpt>
   <trkpt lat="-37.86598" lon="145.34626">
    <ele>497.33000000000004</ele>
   </trkpt>
   <trkpt lat="-37.866" lon="145.34609">
    <ele>493.1</ele>
   </trkpt>
   <trkpt lat="-37.866" lon="145.34601">
    <ele>493.1</ele>
   </trkpt>
   <trkpt lat="-37.86589" lon="145.34556">
    <ele>485.74000000000007</ele>
   </trkpt>
   <trkpt lat="-37.86594" lon="145.34547">
    <ele>476.87</ele>
   </trkpt>
   <trkpt lat="-37.86621" lon="145.34518">
    <ele>471.86000000000007</ele>
   </trkpt>
   <trkpt lat="-37.86697" lon="145.34459">
    <ele>479.99</ele>
   </trkpt>
   <trkpt lat="-37.86741" lon="145.34451">
    <ele>484.33000000000004</ele>
   </trkpt>
   <trkpt lat="-37.86792500001225" lon="145.3444400004904">
    <ele>488.67</ele>
   </trkpt>
   <trkpt lat="-37.86844" lon="145.34437">
    <ele>491.47</ele>
   </trkpt>
   <trkpt lat="-37.86862" lon="145.34431">
    <ele>492.2</ele>
   </trkpt>
   <trkpt lat="-37.86889" lon="145.34432">
    <ele>493.88000000000005</ele>
   </trkpt>
   <trkpt lat="-37.86907" lon="145.34435000000002">
    <ele>494.83000000000004</ele>
   </trkpt>
   <trkpt lat="-37.86968" lon="145.34463000000002">
    <ele>503.18000000000006</ele>
   </trkpt>
   <trkpt lat="-37.86983" lon="145.34473">
    <ele>505.0</ele>
   </trkpt>
   <trkpt lat="-37.87024" lon="145.34483">
    <ele>505.8</ele>
   </trkpt>
   <trkpt lat="-37.870430000000006" lon="145.34479000000002">
    <ele>505.9100000000001</ele>
   </trkpt>
   <trkpt lat="-37.87044" lon="145.34479000000002">
    <ele>505.92</ele>
   </trkpt>
   <trkpt lat="-37.87071" lon="145.34472000000002">
    <ele>508.02000000000004</ele>
   </trkpt>
   <trkpt lat="-37.87109" lon="145.34422">
    <ele>508.56</ele>
   </trkpt>
   <trkpt lat="-37.87147" lon="145.34362000000002">
    <ele>510.97</ele>
   </trkpt>
   <trkpt lat="-37.87169" lon="145.34336000000002">
    <ele>512.41</ele>
   </trkpt>
   <trkpt lat="-37.87207500196024" lon="145.3426900033936">
    <ele>512.98</ele>
   </trkpt>
   <trkpt lat="-37.872460000000004" lon="145.34202000000002">
    <ele>508.33000000000004</ele>
   </trkpt>
   <trkpt lat="-37.87265" lon="145.34215">
    <ele>507.7900000000001</ele>
   </trkpt>
   <trkpt lat="-37.87274" lon="145.34218">
    <ele>507.4200000000001</ele>
   </trkpt>
   <trkpt lat="-37.87285" lon="145.34218">
    <ele>506.9100000000001</ele>
   </trkpt>
   <trkpt lat="-37.87329000007585" lon="145.3420400008384">
    <ele>503.02000000000004</ele>
   </trkpt>
   <trkpt lat="-37.87373" lon="145.3419">
    <ele>498.99</ele>
   </trkpt>
   <trkpt lat="-37.87406" lon="145.34185000000002">
    <ele>495.40000000000003</ele>
   </trkpt>
   <trkpt lat="-37.87375" lon="145.34154">
    <ele>492.13000000000005</ele>
   </trkpt>
   <trkpt lat="-37.87306" lon="145.34097">
    <ele>486.48</ele>
   </trkpt>
   <trkpt lat="-37.87263" lon="145.34077000000002">
    <ele>484.22</ele>
   </trkpt>
   <trkpt lat="-37.87241" lon="145.34055">
    <ele>481.64</ele>
   </trkpt>
   <trkpt lat="-37.87214" lon="145.34019">
    <ele>478.88</ele>
   </trkpt>
   <trkpt lat="-37.87185" lon="145.33992">
    <ele>476.91</ele>
   </trkpt>
   <trkpt lat="-37.87153" lon="145.33975">
    <ele>473.1</ele>
   </trkpt>
   <trkpt lat="-37.87131" lon="145.33968000000002">
    <ele>471.9200000000001</ele>
   </trkpt>
   <trkpt lat="-37.87109" lon="145.33964">
    <ele>469.38</ele>
   </trkpt>
   <trkpt lat="-37.87082" lon="145.33948">
    <ele>467.58000000000004</ele>
   </trkpt>
   <trkpt lat="-37.87059" lon="145.33917000000002">
    <ele>464.91</ele>
   </trkpt>
   <trkpt lat="-37.87037" lon="145.33894">
    <ele>463.84000000000003</ele>
   </trkpt>
   <trkpt lat="-37.87026" lon="145.33888000000002">
    <ele>462.59000000000003</ele>
   </trkpt>
   <trkpt lat="-37.87037" lon="145.33894">
    <ele>463.84000000000003</ele>
   </trkpt>
   <trkpt lat="-37.87059" lon="145.33917000000002">
    <ele>464.91</ele>
   </trkpt>
   <trkpt lat="-37.87082" lon="145.33948">
    <ele>467.58000000000004</ele>
   </trkpt>
   <trkpt lat="-37.87109" lon="145.33964">
    <ele>469.38</ele>
   </trkpt>
   <trkpt lat="-37.87131" lon="145.33968000000002">
    <ele>471.9200000000001</ele>
   </trkpt>
   <trkpt lat="-37.87154" lon="145.33975">
    <ele>473.48</ele>
   </trkpt>
   <trkpt lat="-37.87131" lon="145.33968000000002">
    <ele>471.9200000000001</ele>
   </trkpt>
   <trkpt lat="-37.87109" lon="145.33964">
    <ele>469.38</ele>
   </trkpt>
   <trkpt lat="-37.87082" lon="145.33948">
    <ele>467.58000000000004</ele>
   </trkpt>
   <trkpt lat="-37.87059" lon="145.33917000000002">
    <ele>464.91</ele>
   </trkpt>
   <trkpt lat="-37.87037" lon="145.33894">
    <ele>463.84000000000003</ele>
   </trkpt>
   <trkpt lat="-37.87026" lon="145.33888000000002">
    <ele>462.59000000000003</ele>
   </trkpt>
   <trkpt lat="-37.87035" lon="145.33879000000002">
    <ele>459.82000000000005</ele>
   </trkpt>
   <trkpt lat="-37.87059" lon="145.33873">
    <ele>455.39</ele>
   </trkpt>
   <trkpt lat="-37.87075" lon="145.33874">
    <ele>451.3</ele>
   </trkpt>
   <trkpt lat="-37.87091" lon="145.33863000000002">
    <ele>447.48</ele>
   </trkpt>
   <trkpt lat="-37.871" lon="145.33853000000002">
    <ele>444.96000000000004</ele>
   </trkpt>
   <trkpt lat="-37.87113" lon="145.33831">
    <ele>437.69</ele>
   </trkpt>
   <trkpt lat="-37.87118" lon="145.33812">
    <ele>433.81</ele>
   </trkpt>
   <trkpt lat="-37.87118" lon="145.33802">
    <ele>428.35</ele>
   </trkpt>
   <trkpt lat="-37.871100000000006" lon="145.33779">
    <ele>424.96000000000004</ele>
   </trkpt>
   <trkpt lat="-37.87091" lon="145.33758">
    <ele>421.64</ele>
   </trkpt>
   <trkpt lat="-37.87077" lon="145.33726000000001">
    <ele>418.7</ele>
   </trkpt>
   <trkpt lat="-37.87048" lon="145.33697">
    <ele>411.03</ele>
   </trkpt>
   <trkpt lat="-37.87032000000001" lon="145.33691000000002">
    <ele>408.28000000000003</ele>
   </trkpt>
   <trkpt lat="-37.87024" lon="145.33688">
    <ele>406.22</ele>
   </trkpt>
   <trkpt lat="-37.87019" lon="145.3368">
    <ele>404.99</ele>
   </trkpt>
   <trkpt lat="-37.87019" lon="145.33630000000002">
    <ele>390.86</ele>
   </trkpt>
   <trkpt lat="-37.8701" lon="145.33595000000003">
    <ele>383.45</ele>
   </trkpt>
   <trkpt lat="-37.87035" lon="145.3356">
    <ele>375.91</ele>
   </trkpt>
   <trkpt lat="-37.87055" lon="145.33518">
    <ele>364.03000000000003</ele>
   </trkpt>
   <trkpt lat="-37.870450000000005" lon="145.33465">
    <ele>354.85</ele>
   </trkpt>
   <trkpt lat="-37.87066" lon="145.33478000000002">
    <ele>356.58</ele>
   </trkpt>
   <trkpt lat="-37.87075" lon="145.33478000000002">
    <ele>356.58</ele>
   </trkpt>
   <trkpt lat="-37.870810000000006" lon="145.3347">
    <ele>358.09000000000003</ele>
   </trkpt>
   <trkpt lat="-37.870810000000006" lon="145.33446">
    <ele>359.32</ele>
   </trkpt>
   <trkpt lat="-37.87075" lon="145.33419">
    <ele>360.39000000000004</ele>
   </trkpt>
   <trkpt lat="-37.87082" lon="145.33339">
    <ele>366.04</ele>
   </trkpt>
   <trkpt lat="-37.87091" lon="145.33315000000002">
    <ele>367.45000000000005</ele>
   </trkpt>
   <trkpt lat="-37.87102" lon="145.33292">
    <ele>367.44000000000005</ele>
   </trkpt>
   <trkpt lat="-37.87113" lon="145.33284">
    <ele>367.50000000000006</ele>
   </trkpt>
   <trkpt lat="-37.871280000000006" lon="145.33282">
    <ele>367.9</ele>
   </trkpt>
   <trkpt lat="-37.87167" lon="145.33290000000002">
    <ele>371.96</ele>
   </trkpt>
   <trkpt lat="-37.87207" lon="145.33307000000002">
    <ele>378.8</ele>
   </trkpt>
   <trkpt lat="-37.87238" lon="145.33305000000001">
    <ele>381.35</ele>
   </trkpt>
   <trkpt lat="-37.87268" lon="145.33283">
    <ele>383.3</ele>
   </trkpt>
   <trkpt lat="-37.87281" lon="145.33262000000002">
    <ele>383.86</ele>
   </trkpt>
   <trkpt lat="-37.87281" lon="145.33261000000002">
    <ele>383.86</ele>
   </trkpt>
   <trkpt lat="-37.872890000000005" lon="145.3325">
    <ele>384.52000000000004</ele>
   </trkpt>
   <trkpt lat="-37.87301" lon="145.33226000000002">
    <ele>384.64000000000004</ele>
   </trkpt>
   <trkpt lat="-37.87301" lon="145.33218000000002">
    <ele>384.68</ele>
   </trkpt>
   <trkpt lat="-37.87297" lon="145.33206">
    <ele>385.23</ele>
   </trkpt>
   <trkpt lat="-37.87279" lon="145.33183000000002">
    <ele>387.04</ele>
   </trkpt>
   <trkpt lat="-37.87263" lon="145.33171000000002">
    <ele>388.47</ele>
   </trkpt>
   <trkpt lat="-37.87236" lon="145.33138000000002">
    <ele>389.91</ele>
   </trkpt>
   <trkpt lat="-37.87225" lon="145.33113">
    <ele>391.02000000000004</ele>
   </trkpt>
   <trkpt lat="-37.87223" lon="145.3309">
    <ele>391.27</ele>
   </trkpt>
   <trkpt lat="-37.87221" lon="145.33038000000002">
    <ele>394.78000000000003</ele>
   </trkpt>
   <trkpt lat="-37.87223" lon="145.33017">
    <ele>396.70000000000005</ele>
   </trkpt>
   <trkpt lat="-37.87227" lon="145.33004000000003">
    <ele>398.01000000000005</ele>
   </trkpt>
   <trkpt lat="-37.87223" lon="145.32968000000002">
    <ele>398.43</ele>
   </trkpt>
   <trkpt lat="-37.87216" lon="145.32951">
    <ele>397.42</ele>
   </trkpt>
   <trkpt lat="-37.87196" lon="145.32921000000002">
    <ele>396.1</ele>
   </trkpt>
   <trkpt lat="-37.8718" lon="145.32905000000002">
    <ele>397.77</ele>
   </trkpt>
   <trkpt lat="-37.87171" lon="145.32889">
    <ele>400.46000000000004</ele>
   </trkpt>
   <trkpt lat="-37.87169" lon="145.32861000000003">
    <ele>407.36000000000007</ele>
   </trkpt>
   <trkpt lat="-37.87158" lon="145.32842000000002">
    <ele>410.38</ele>
   </trkpt>
   <trkpt lat="-37.8714" lon="145.32824000000002">
    <ele>413.86000000000007</ele>
   </trkpt>
   <trkpt lat="-37.87131" lon="145.32817">
    <ele>414.72</ele>
   </trkpt>
   <trkpt lat="-37.871" lon="145.32801">
    <ele>417.09000000000003</ele>
   </trkpt>
   <trkpt lat="-37.87062" lon="145.32791">
    <ele>422.52000000000004</ele>
   </trkpt>
   <trkpt lat="-37.87035" lon="145.32771000000002">
    <ele>428.01000000000005</ele>
   </trkpt>
   <trkpt lat="-37.87024" lon="145.32759000000001">
    <ele>432.62000000000006</ele>
   </trkpt>
   <trkpt lat="-37.870160000000006" lon="145.32745">
    <ele>436.7300000000001</ele>
   </trkpt>
   <trkpt lat="-37.87008" lon="145.32731">
    <ele>438.6700000000001</ele>
   </trkpt>
   <trkpt lat="-37.87003" lon="145.32713">
    <ele>441.18</ele>
   </trkpt>
   <trkpt lat="-37.87001" lon="145.32697000000002">
    <ele>443.19</ele>
   </trkpt>
   <trkpt lat="-37.87003" lon="145.32679000000002">
    <ele>444.93000000000006</ele>
   </trkpt>
   <trkpt lat="-37.87006" lon="145.32671000000002">
    <ele>446.26000000000005</ele>
   </trkpt>
   <trkpt lat="-37.87024" lon="145.32659">
    <ele>447.77000000000004</ele>
   </trkpt>
   <trkpt lat="-37.87053" lon="145.32625000000002">
    <ele>456.29</ele>
   </trkpt>
   <trkpt lat="-37.870720000000006" lon="145.32623">
    <ele>461.65000000000003</ele>
   </trkpt>
   <trkpt lat="-37.87082" lon="145.32609000000002">
    <ele>464.47</ele>
   </trkpt>
   <trkpt lat="-37.87093" lon="145.32597">
    <ele>467.39000000000004</ele>
   </trkpt>
   <trkpt lat="-37.87104" lon="145.32594">
    <ele>469.30000000000007</ele>
   </trkpt>
   <trkpt lat="-37.87124" lon="145.32594">
    <ele>473.69000000000005</ele>
   </trkpt>
   <trkpt lat="-37.87131" lon="145.32591000000002">
    <ele>473.69000000000005</ele>
   </trkpt>
   <trkpt lat="-37.87142" lon="145.32584">
    <ele>476.49</ele>
   </trkpt>
   <trkpt lat="-37.87163" lon="145.32558">
    <ele>482.38</ele>
   </trkpt>
   <trkpt lat="-37.87163" lon="145.32557">
    <ele>482.51000000000005</ele>
   </trkpt>
   <trkpt lat="-37.87171" lon="145.32548">
    <ele>484.03000000000003</ele>
   </trkpt>
   <trkpt lat="-37.87171" lon="145.32545000000002">
    <ele>484.09000000000003</ele>
   </trkpt>
   <trkpt lat="-37.871880000000004" lon="145.32536000000002">
    <ele>485.2</ele>
   </trkpt>
   <trkpt lat="-37.87187" lon="145.32511000000002">
    <ele>485.85</ele>
   </trkpt>
   <trkpt lat="-37.87194" lon="145.32494">
    <ele>485.97</ele>
   </trkpt>
   <trkpt lat="-37.87259" lon="145.32422000000003">
    <ele>485.34000000000003</ele>
   </trkpt>
   <trkpt lat="-37.8727" lon="145.3239">
    <ele>481.36000000000007</ele>
   </trkpt>
   <trkpt lat="-37.872690000000006" lon="145.32358000000002">
    <ele>479.72</ele>
   </trkpt>
   <trkpt lat="-37.87261" lon="145.32311">
    <ele>475.85</ele>
   </trkpt>
   <trkpt lat="-37.87263" lon="145.32264">
    <ele>476.25000000000006</ele>
   </trkpt>
   <trkpt lat="-37.872600000000006" lon="145.32234000000003">
    <ele>478.08000000000004</ele>
   </trkpt>
   <trkpt lat="-37.87259" lon="145.32234000000003">
    <ele>478.47</ele>
   </trkpt>
   <trkpt lat="-37.87256" lon="145.32212">
    <ele>481.00000000000006</ele>
   </trkpt>
   <trkpt lat="-37.87261" lon="145.32164">
    <ele>487.2</ele>
   </trkpt>
   <trkpt lat="-37.8727" lon="145.32129">
    <ele>493.6</ele>
   </trkpt>
   <trkpt lat="-37.87259" lon="145.32068">
    <ele>504.8</ele>
   </trkpt>
   <trkpt lat="-37.87259" lon="145.32046000000003">
    <ele>504.8</ele>
   </trkpt>
   <trkpt lat="-37.872690000000006" lon="145.31988">
    <ele>513.34</ele>
   </trkpt>
   <trkpt lat="-37.87261" lon="145.31986">
    <ele>514.42</ele>
   </trkpt>
   <trkpt lat="-37.87263" lon="145.3197">
    <ele>515.17</ele>
   </trkpt>
   <trkpt lat="-37.87274" lon="145.31972000000002">
    <ele>514.5200000000001</ele>
   </trkpt>
   <trkpt lat="-37.87279" lon="145.31975">
    <ele>514.29</ele>
   </trkpt>
   <trkpt lat="-37.87274" lon="145.31972000000002">
    <ele>514.5200000000001</ele>
   </trkpt>
   <trkpt lat="-37.87263" lon="145.3197">
    <ele>515.17</ele>
   </trkpt>
   <trkpt lat="-37.872640000000004" lon="145.31964000000002">
    <ele>515.37</ele>
   </trkpt>
   <trkpt lat="-37.87303" lon="145.31965000000002">
    <ele>513.6400000000001</ele>
   </trkpt>
   <trkpt lat="-37.87328" lon="145.3197">
    <ele>511.58000000000004</ele>
   </trkpt>
   <trkpt lat="-37.87355" lon="145.31979">
    <ele>509.51</ele>
   </trkpt>
   <trkpt lat="-37.874" lon="145.32000000000002">
    <ele>503.72</ele>
   </trkpt>
   <trkpt lat="-37.87415" lon="145.32003">
    <ele>501.74000000000007</ele>
   </trkpt>
   <trkpt lat="-37.87442" lon="145.32003">
    <ele>497.85</ele>
   </trkpt>
   <trkpt lat="-37.87473" lon="145.32017000000002">
    <ele>495.37</ele>
   </trkpt>
   <trkpt lat="-37.87491" lon="145.3202">
    <ele>493.48</ele>
   </trkpt>
   <trkpt lat="-37.874970000000005" lon="145.32094">
    <ele>490.68000000000006</ele>
   </trkpt>
   <trkpt lat="-37.875060000000005" lon="145.32206000000002">
    <ele>494.68000000000006</ele>
   </trkpt>
   <trkpt lat="-37.87518" lon="145.32201">
    <ele>494.24000000000007</ele>
   </trkpt>
   <trkpt lat="-37.87529" lon="145.32202">
    <ele>494.05</ele>
   </trkpt>
   <trkpt lat="-37.87568" lon="145.32217">
    <ele>494.50000000000006</ele>
   </trkpt>
   <trkpt lat="-37.87626" lon="145.32237">
    <ele>495.26000000000005</ele>
   </trkpt>
   <trkpt lat="-37.87675" lon="145.32254">
    <ele>493.66</ele>
   </trkpt>
   <trkpt lat="-37.877" lon="145.32270000000003">
    <ele>495.3500000000001</ele>
   </trkpt>
   <trkpt lat="-37.87783" lon="145.32313000000002">
    <ele>498.09000000000003</ele>
   </trkpt>
   <trkpt lat="-37.8782" lon="145.32342">
    <ele>497.6</ele>
   </trkpt>
   <trkpt lat="-37.8787" lon="145.32406">
    <ele>498.37</ele>
   </trkpt>
   <trkpt lat="-37.87892" lon="145.32431000000003">
    <ele>499.37</ele>
   </trkpt>
   <trkpt lat="-37.87932" lon="145.32488">
    <ele>498.37</ele>
   </trkpt>
   <trkpt lat="-37.87993" lon="145.32551">
    <ele>493.02</ele>
   </trkpt>
   <trkpt lat="-37.88067" lon="145.32611">
    <ele>485.61</ele>
   </trkpt>
   <trkpt lat="-37.88132" lon="145.32653000000002">
    <ele>478.71000000000004</ele>
   </trkpt>
   <trkpt lat="-37.88172" lon="145.32688000000002">
    <ele>474.05</ele>
   </trkpt>
   <trkpt lat="-37.88181" lon="145.32698000000002">
    <ele>473.64000000000004</ele>
   </trkpt>
   <trkpt lat="-37.88201" lon="145.32736">
    <ele>471.54</ele>
   </trkpt>
   <trkpt lat="-37.88223" lon="145.32806000000002">
    <ele>465.51000000000005</ele>
   </trkpt>
   <trkpt lat="-37.88241" lon="145.32832000000002">
    <ele>461.85</ele>
   </trkpt>
   <trkpt lat="-37.88264" lon="145.32853">
    <ele>455.94</ele>
   </trkpt>
   <trkpt lat="-37.88284" lon="145.32863">
    <ele>451.94000000000005</ele>
   </trkpt>
   <trkpt lat="-37.88311" lon="145.32864">
    <ele>446.75</ele>
   </trkpt>
   <trkpt lat="-37.88342" lon="145.32859000000002">
    <ele>442.64000000000004</ele>
   </trkpt>
   <trkpt lat="-37.88378" lon="145.32857">
    <ele>436.86</ele>
   </trkpt>
   <trkpt lat="-37.88407" lon="145.32862">
    <ele>431.17</ele>
   </trkpt>
   <trkpt lat="-37.88447" lon="145.32879">
    <ele>424.71000000000004</ele>
   </trkpt>
   <trkpt lat="-37.88499" lon="145.32899">
    <ele>412.7</ele>
   </trkpt>
   <trkpt lat="-37.885360000000006" lon="145.32899">
    <ele>405.59</ele>
   </trkpt>
   <trkpt lat="-37.88537" lon="145.32899">
    <ele>405.58000000000004</ele>
   </trkpt>
   <trkpt lat="-37.88555" lon="145.32899">
    <ele>402.14000000000004</ele>
   </trkpt>
   <trkpt lat="-37.88584" lon="145.32891">
    <ele>396.20000000000005</ele>
   </trkpt>
   <trkpt lat="-37.88604" lon="145.32873">
    <ele>390.18</ele>
   </trkpt>
   <trkpt lat="-37.88624" lon="145.32841000000002">
    <ele>382.14000000000004</ele>
   </trkpt>
   <trkpt lat="-37.886390000000006" lon="145.32833000000002">
    <ele>380.93000000000006</ele>
   </trkpt>
   <trkpt lat="-37.88638" lon="145.32786000000002">
    <ele>378.22</ele>
   </trkpt>
   <trkpt lat="-37.88624" lon="145.32771000000002">
    <ele>377.73</ele>
   </trkpt>
   <trkpt lat="-37.8862" lon="145.3274">
    <ele>376.56</ele>
   </trkpt>
   <trkpt lat="-37.886190000000006" lon="145.32696">
    <ele>376.55000000000007</ele>
   </trkpt>
   <trkpt lat="-37.88608" lon="145.32707000000002">
    <ele>374.89000000000004</ele>
   </trkpt>
   <trkpt lat="-37.8857" lon="145.3273">
    <ele>370.83000000000004</ele>
   </trkpt>
   <trkpt lat="-37.88559" lon="145.32723000000001">
    <ele>369.70000000000005</ele>
   </trkpt>
   <trkpt lat="-37.88555" lon="145.32716000000002">
    <ele>368.81</ele>
   </trkpt>
   <trkpt lat="-37.88546" lon="145.32689000000002">
    <ele>365.91</ele>
   </trkpt>
   <trkpt lat="-37.88539" lon="145.32682">
    <ele>364.89000000000004</ele>
   </trkpt>
   <trkpt lat="-37.88532" lon="145.32677">
    <ele>363.51000000000005</ele>
   </trkpt>
   <trkpt lat="-37.88517" lon="145.32679000000002">
    <ele>361.52</ele>
   </trkpt>
   <trkpt lat="-37.8851" lon="145.32674">
    <ele>361.52</ele>
   </trkpt>
   <trkpt lat="-37.88503" lon="145.32657">
    <ele>360.13</ele>
   </trkpt>
   <trkpt lat="-37.88501" lon="145.32641">
    <ele>357.22</ele>
   </trkpt>
   <trkpt lat="-37.88481" lon="145.32615">
    <ele>355.29</ele>
   </trkpt>
   <trkpt lat="-37.88472" lon="145.32611">
    <ele>354.47</ele>
   </trkpt>
   <trkpt lat="-37.8847" lon="145.32606">
    <ele>353.72</ele>
   </trkpt>
   <trkpt lat="-37.88467" lon="145.32594">
    <ele>352.7</ele>
   </trkpt>
   <trkpt lat="-37.88472" lon="145.32581000000002">
    <ele>352.3</ele>
   </trkpt>
   <trkpt lat="-37.88483" lon="145.32566">
    <ele>349.78000000000003</ele>
   </trkpt>
   <trkpt lat="-37.8849" lon="145.32534">
    <ele>345.77000000000004</ele>
   </trkpt>
   <trkpt lat="-37.88494" lon="145.32504">
    <ele>341.40000000000003</ele>
   </trkpt>
   <trkpt lat="-37.88494" lon="145.32475000000002">
    <ele>337.78000000000003</ele>
   </trkpt>
   <trkpt lat="-37.8849" lon="145.32459">
    <ele>335.87</ele>
   </trkpt>
   <trkpt lat="-37.88481" lon="145.32436">
    <ele>333.70000000000005</ele>
   </trkpt>
   <trkpt lat="-37.88481" lon="145.32417">
    <ele>331.46000000000004</ele>
   </trkpt>
   <trkpt lat="-37.88483" lon="145.32404000000002">
    <ele>329.28000000000003</ele>
   </trkpt>
   <trkpt lat="-37.88481" lon="145.32355">
    <ele>317.98</ele>
   </trkpt>
   <trkpt lat="-37.8849" lon="145.32336">
    <ele>315.21000000000004</ele>
   </trkpt>
   <trkpt lat="-37.88488" lon="145.32315">
    <ele>313.76000000000005</ele>
   </trkpt>
   <trkpt lat="-37.88479" lon="145.32282">
    <ele>307.63</ele>
   </trkpt>
   <trkpt lat="-37.88465" lon="145.32261000000003">
    <ele>304.73</ele>
   </trkpt>
   <trkpt lat="-37.884570000000004" lon="145.32260000000002">
    <ele>304.72</ele>
   </trkpt>
   <trkpt lat="-37.88447" lon="145.32227">
    <ele>302.57</ele>
   </trkpt>
   <trkpt lat="-37.88443" lon="145.32186000000002">
    <ele>296.71000000000004</ele>
   </trkpt>
   <trkpt lat="-37.88432" lon="145.32141000000001">
    <ele>291.96</ele>
   </trkpt>
   <trkpt lat="-37.88423" lon="145.32127">
    <ele>290.78000000000003</ele>
   </trkpt>
   <trkpt lat="-37.88416" lon="145.3211">
    <ele>288.93</ele>
   </trkpt>
   <trkpt lat="-37.88416" lon="145.32099000000002">
    <ele>286.40000000000003</ele>
   </trkpt>
   <trkpt lat="-37.88425" lon="145.32069">
    <ele>284.63000000000005</ele>
   </trkpt>
   <trkpt lat="-37.88429" lon="145.32048">
    <ele>282.46999999999997</ele>
   </trkpt>
   <trkpt lat="-37.88425" lon="145.3202">
    <ele>279.1</ele>
   </trkpt>
   <trkpt lat="-37.88416" lon="145.31998000000002">
    <ele>277.5</ele>
   </trkpt>
   <trkpt lat="-37.88416" lon="145.31972000000002">
    <ele>276.01000000000005</ele>
   </trkpt>
   <trkpt lat="-37.88409" lon="145.31915">
    <ele>268.65</ele>
   </trkpt>
   <trkpt lat="-37.884" lon="145.31884000000002">
    <ele>266.11</ele>
   </trkpt>
   <trkpt lat="-37.88378" lon="145.31852">
    <ele>263.49</ele>
   </trkpt>
   <trkpt lat="-37.88373" lon="145.31835">
    <ele>261.53999999999996</ele>
   </trkpt>
   <trkpt lat="-37.88378" lon="145.31852">
    <ele>263.49</ele>
   </trkpt>
   <trkpt lat="-37.884" lon="145.31884000000002">
    <ele>266.40000000000003</ele>
   </trkpt>
   <trkpt lat="-37.88409" lon="145.31915">
    <ele>268.65</ele>
   </trkpt>
   <trkpt lat="-37.88416" lon="145.31972000000002">
    <ele>276.01000000000005</ele>
   </trkpt>
   <trkpt lat="-37.88416" lon="145.31998000000002">
    <ele>277.5</ele>
   </trkpt>
   <trkpt lat="-37.88425" lon="145.3202">
    <ele>279.61</ele>
   </trkpt>
   <trkpt lat="-37.88429" lon="145.32048">
    <ele>282.46999999999997</ele>
   </trkpt>
   <trkpt lat="-37.88425" lon="145.32069">
    <ele>284.63000000000005</ele>
   </trkpt>
   <trkpt lat="-37.88416" lon="145.32099000000002">
    <ele>288.93</ele>
   </trkpt>
   <trkpt lat="-37.88416" lon="145.3211">
    <ele>288.93</ele>
   </trkpt>
   <trkpt lat="-37.88423" lon="145.32127">
    <ele>290.78000000000003</ele>
   </trkpt>
   <trkpt lat="-37.88432" lon="145.32141000000001">
    <ele>293.62000000000006</ele>
   </trkpt>
   <trkpt lat="-37.88443" lon="145.32186000000002">
    <ele>296.71000000000004</ele>
   </trkpt>
   <trkpt lat="-37.88447" lon="145.32227">
    <ele>302.57</ele>
   </trkpt>
   <trkpt lat="-37.884570000000004" lon="145.32260000000002">
    <ele>304.72</ele>
   </trkpt>
   <trkpt lat="-37.88447" lon="145.32227">
    <ele>301.93</ele>
   </trkpt>
   <trkpt lat="-37.88443" lon="145.32186000000002">
    <ele>296.71000000000004</ele>
   </trkpt>
   <trkpt lat="-37.88432" lon="145.32141000000001">
    <ele>291.96</ele>
   </trkpt>
   <trkpt lat="-37.88423" lon="145.32127">
    <ele>290.78000000000003</ele>
   </trkpt>
   <trkpt lat="-37.88416" lon="145.3211">
    <ele>288.93</ele>
   </trkpt>
   <trkpt lat="-37.88416" lon="145.32099000000002">
    <ele>286.40000000000003</ele>
   </trkpt>
   <trkpt lat="-37.88425" lon="145.32069">
    <ele>284.63000000000005</ele>
   </trkpt>
   <trkpt lat="-37.88429" lon="145.32048">
    <ele>282.46999999999997</ele>
   </trkpt>
   <trkpt lat="-37.88425" lon="145.3202">
    <ele>279.1</ele>
   </trkpt>
   <trkpt lat="-37.88416" lon="145.31998000000002">
    <ele>277.07000000000005</ele>
   </trkpt>
   <trkpt lat="-37.88416" lon="145.31972000000002">
    <ele>273.51000000000005</ele>
   </trkpt>
   <trkpt lat="-37.88409" lon="145.31915">
    <ele>268.65</ele>
   </trkpt>
   <trkpt lat="-37.884" lon="145.31884000000002">
    <ele>266.11</ele>
   </trkpt>
   <trkpt lat="-37.88378" lon="145.31852">
    <ele>262.86</ele>
   </trkpt>
   <trkpt lat="-37.88373" lon="145.31835">
    <ele>261.53999999999996</ele>
   </trkpt>
   <trkpt lat="-37.88396" lon="145.31833">
    <ele>257.54</ele>
   </trkpt>
   <trkpt lat="-37.88429" lon="145.31839000000002">
    <ele>254.17000000000002</ele>
   </trkpt>
   <trkpt lat="-37.88479" lon="145.31835">
    <ele>244.69000000000003</ele>
   </trkpt>
   <trkpt lat="-37.88528" lon="145.31820000000002">
    <ele>237.0</ele>
   </trkpt>
   <trkpt lat="-37.88537" lon="145.31811000000002">
    <ele>236.15000000000003</ele>
   </trkpt>
   <trkpt lat="-37.88546" lon="145.31806">
    <ele>235.48000000000002</ele>
   </trkpt>
   <trkpt lat="-37.88553" lon="145.31806">
    <ele>235.32000000000002</ele>
   </trkpt>
   <trkpt lat="-37.885740000000006" lon="145.31805">
    <ele>232.68</ele>
   </trkpt>
   <trkpt lat="-37.885830000000006" lon="145.31797">
    <ele>231.49000000000004</ele>
   </trkpt>
   <trkpt lat="-37.88611" lon="145.31784000000002">
    <ele>229.43</ele>
   </trkpt>
   <trkpt lat="-37.88667" lon="145.31742">
    <ele>227.94000000000003</ele>
   </trkpt>
   <trkpt lat="-37.886880000000005" lon="145.31755">
    <ele>225.07000000000002</ele>
   </trkpt>
   <trkpt lat="-37.88712" lon="145.31764">
    <ele>220.83</ele>
   </trkpt>
   <trkpt lat="-37.88761" lon="145.31761">
    <ele>213.96</ele>
   </trkpt>
   <trkpt lat="-37.88772" lon="145.31759000000002">
    <ele>212.26</ele>
   </trkpt>
   <trkpt lat="-37.88781" lon="145.31755">
    <ele>210.71</ele>
   </trkpt>
   <trkpt lat="-37.88799" lon="145.31761">
    <ele>210.31000000000003</ele>
   </trkpt>
   <trkpt lat="-37.88817" lon="145.31758000000002">
    <ele>208.38</ele>
   </trkpt>
   <trkpt lat="-37.88839" lon="145.31764">
    <ele>206.06000000000003</ele>
   </trkpt>
   <trkpt lat="-37.88846" lon="145.31753">
    <ele>204.24</ele>
   </trkpt>
   <trkpt lat="-37.88899" lon="145.31718">
    <ele>202.45000000000002</ele>
   </trkpt>
   <trkpt lat="-37.889680000000006" lon="145.31692">
    <ele>198.06</ele>
   </trkpt>
   <trkpt lat="-37.8902" lon="145.31674">
    <ele>191.60999999999999</ele>
   </trkpt>
   <trkpt lat="-37.89072" lon="145.31638">
    <ele>186.21</ele>
   </trkpt>
   <trkpt lat="-37.89099" lon="145.31613000000002">
    <ele>181.70000000000002</ele>
   </trkpt>
   <trkpt lat="-37.89099" lon="145.31640000000002">
    <ele>181.32</ele>
   </trkpt>
   <trkpt lat="-37.8909" lon="145.31665">
    <ele>181.32</ele>
   </trkpt>
   <trkpt lat="-37.890730000000005" lon="145.31686000000002">
    <ele>181.8</ele>
   </trkpt>
   <trkpt lat="-37.89049" lon="145.31721000000002">
    <ele>183.71</ele>
   </trkpt>
   <trkpt lat="-37.890280000000004" lon="145.31739000000002">
    <ele>185.8</ele>
   </trkpt>
   <trkpt lat="-37.8904" lon="145.31744">
    <ele>184.86</ele>
   </trkpt>
   <trkpt lat="-37.8905" lon="145.31752">
    <ele>184.36</ele>
   </trkpt>
  </trkseg>
 </trk>
</gpx>
