<?xml version="1.0" encoding="UTF-8"?>
<gpx creator="StravaGPX" version="1.1" xmlns="http://www.topografix.com/GPX/1/1" xmlns:xsi="http://www.w3.org/2001/XMLSchema-instance" xsi:schemaLocation="http://www.topografix.com/GPX/1/1 http://www.topografix.com/GPX/1/1/gpx.xsd">
 <metadata>
  <name>DTR 17th May - 8k</name>
  <author>
   <name>DTR  Runleaders</name>
   <link href="https://www.strava.com/athletes/194056408"/>
  </author>
  <copyright author="OpenStreetMap contributors">
   <year>2020</year>
   <license>https://www.openstreetmap.org/copyright</license>
  </copyright>
  <link href="https://www.strava.com/routes/3490207003988780576"/>
 </metadata>
 <trk>
  <name>DTR 17th May - 8k</name>
  <link href="https://www.strava.com/routes/3490207003988780576"/>
  <type>running</type>
  <trkseg>
   <trkpt lat="-37.85215" lon="145.3683">
    <ele>569.9300000000001</ele>
   </trkpt>
   <trkpt lat="-37.852070000000005" lon="145.36833000000001">
    <ele>569.49</ele>
   </trkpt>
   <trkpt lat="-37.851760000000006" lon="145.36859">
    <ele>565.8700000000001</ele>
   </trkpt>
   <trkpt lat="-37.85159" lon="145.36880000000002">
    <ele>564.0500000000001</ele>
   </trkpt>
   <trkpt lat="-37.85105" lon="145.36917000000003">
    <ele>562.22</ele>
   </trkpt>
   <trkpt lat="-37.85072" lon="145.36927">
    <ele>560.0200000000001</ele>
   </trkpt>
   <trkpt lat="-37.85065" lon="145.36927">
    <ele>559.59</ele>
   </trkpt>
   <trkpt lat="-37.850660000000005" lon="145.36927">
    <ele>559.61</ele>
   </trkpt>
   <trkpt lat="-37.850370000000005" lon="145.36927">
    <ele>557.6600000000001</ele>
   </trkpt>
   <trkpt lat="-37.849726003710735" lon="145.3687999835615">
    <ele>549.6</ele>
   </trkpt>
   <trkpt lat="-37.849082005553385" lon="145.36832997533335">
    <ele>539.96</ele>
   </trkpt>
   <trkpt lat="-37.84843800552803" lon="145.3678599753152">
    <ele>534.61</ele>
   </trkpt>
   <trkpt lat="-37.847794003634746" lon="145.3673899835068">
    <ele>534.2800000000001</ele>
   </trkpt>
   <trkpt lat="-37.847150000000006" lon="145.36692000000002">
    <ele>532.57</ele>
   </trkpt>
   <trkpt lat="-37.84709" lon="145.36679">
    <ele>531.98</ele>
   </trkpt>
   <trkpt lat="-37.84698" lon="145.36593000000002">
    <ele>524.3</ele>
   </trkpt>
   <trkpt lat="-37.84691" lon="145.36540000000002">
    <ele>517.0</ele>
   </trkpt>
   <trkpt lat="-37.84693" lon="145.36513000000002">
    <ele>512.5300000000001</ele>
   </trkpt>
   <trkpt lat="-37.84687" lon="145.36482">
    <ele>509.82000000000005</ele>
   </trkpt>
   <trkpt lat="-37.84678000163085" lon="145.36420499946612">
    <ele>498.97</ele>
   </trkpt>
   <trkpt lat="-37.84669" lon="145.36359000000002">
    <ele>490.49</ele>
   </trkpt>
   <trkpt lat="-37.84655000177262" lon="145.36294499883846">
    <ele>487.03000000000003</ele>
   </trkpt>
   <trkpt lat="-37.846410000000006" lon="145.3623">
    <ele>501.7600000000001</ele>
   </trkpt>
   <trkpt lat="-37.84630000000001" lon="145.3617">
    <ele>507.97</ele>
   </trkpt>
   <trkpt lat="-37.846230000000006" lon="145.36183000000003">
    <ele>507.45000000000005</ele>
   </trkpt>
   <trkpt lat="-37.84599" lon="145.36199000000002">
    <ele>505.83</ele>
   </trkpt>
   <trkpt lat="-37.84577" lon="145.36235000000002">
    <ele>502.72</ele>
   </trkpt>
   <trkpt lat="-37.84563" lon="145.36243000000002">
    <ele>501.75</ele>
   </trkpt>
   <trkpt lat="-37.8451" lon="145.36257">
    <ele>499.42</ele>
   </trkpt>
   <trkpt lat="-37.84483" lon="145.36253000000002">
    <ele>498.8</ele>
   </trkpt>
   <trkpt lat="-37.84425" lon="145.36255">
    <ele>494.14</ele>
   </trkpt>
   <trkpt lat="-37.844260000000006" lon="145.36255">
    <ele>494.3</ele>
   </trkpt>
   <trkpt lat="-37.84404" lon="145.36257">
    <ele>491.54</ele>
   </trkpt>
   <trkpt lat="-37.84396" lon="145.36256">
    <ele>490.77000000000004</ele>
   </trkpt>
   <trkpt lat="-37.84333" lon="145.36239">
    <ele>485.50000000000006</ele>
   </trkpt>
   <trkpt lat="-37.84324" lon="145.36229">
    <ele>485.05</ele>
   </trkpt>
   <trkpt lat="-37.84292000000001" lon="145.36152">
    <ele>484.6</ele>
   </trkpt>
   <trkpt lat="-37.842130000000004" lon="145.36174000000003">
    <ele>477.47</ele>
   </trkpt>
   <trkpt lat="-37.8421" lon="145.36245000000002">
    <ele>472.25000000000006</ele>
   </trkpt>
   <trkpt lat="-37.84223" lon="145.36280000000002">
    <ele>466.18</ele>
   </trkpt>
   <trkpt lat="-37.84281" lon="145.36349">
    <ele>457.92</ele>
   </trkpt>
   <trkpt lat="-37.84288" lon="145.36368000000002">
    <ele>458.05</ele>
   </trkpt>
   <trkpt lat="-37.84286" lon="145.36383">
    <ele>458.94</ele>
   </trkpt>
   <trkpt lat="-37.84281" lon="145.36392">
    <ele>459.91</ele>
   </trkpt>
   <trkpt lat="-37.842455000747556" lon="145.36434000201953">
    <ele>467.81000000000006</ele>
   </trkpt>
   <trkpt lat="-37.8421" lon="145.36476000000002">
    <ele>473.30000000000007</ele>
   </trkpt>
   <trkpt lat="-37.84199" lon="145.36499">
    <ele>474.69000000000005</ele>
   </trkpt>
   <trkpt lat="-37.841910000000006" lon="145.36531000000002">
    <ele>476.55</ele>
   </trkpt>
   <trkpt lat="-37.84192" lon="145.36546">
    <ele>476.55</ele>
   </trkpt>
   <trkpt lat="-37.84234" lon="145.36639000000002">
    <ele>478.66</ele>
   </trkpt>
   <trkpt lat="-37.8425" lon="145.36689">
    <ele>475.2</ele>
   </trkpt>
   <trkpt lat="-37.8425" lon="145.36701000000002">
    <ele>475.13000000000005</ele>
   </trkpt>
   <trkpt lat="-37.842470000000006" lon="145.36715">
    <ele>475.64000000000004</ele>
   </trkpt>
   <trkpt lat="-37.842290000000006" lon="145.36720000000003">
    <ele>477.83000000000004</ele>
   </trkpt>
   <trkpt lat="-37.84219" lon="145.36729000000003">
    <ele>481.82</ele>
   </trkpt>
   <trkpt lat="-37.84207" lon="145.36758">
    <ele>483.45000000000005</ele>
   </trkpt>
   <trkpt lat="-37.84207" lon="145.36757">
    <ele>483.4700000000001</ele>
   </trkpt>
   <trkpt lat="-37.84181" lon="145.36819">
    <ele>486.45000000000005</ele>
   </trkpt>
   <trkpt lat="-37.84169" lon="145.36817000000002">
    <ele>485.29</ele>
   </trkpt>
   <trkpt lat="-37.84096" lon="145.36811">
    <ele>476.1</ele>
   </trkpt>
   <trkpt lat="-37.840970000000006" lon="145.36842000000001">
    <ele>474.70000000000005</ele>
   </trkpt>
   <trkpt lat="-37.84087" lon="145.36892">
    <ele>472.17</ele>
   </trkpt>
   <trkpt lat="-37.84057" lon="145.36894">
    <ele>468.32</ele>
   </trkpt>
   <trkpt lat="-37.84022" lon="145.36902">
    <ele>463.16</ele>
   </trkpt>
   <trkpt lat="-37.83999" lon="145.36903">
    <ele>461.02000000000004</ele>
   </trkpt>
   <trkpt lat="-37.839940000000006" lon="145.36906000000002">
    <ele>459.93000000000006</ele>
   </trkpt>
   <trkpt lat="-37.83975" lon="145.36926000000003">
    <ele>455.79</ele>
   </trkpt>
   <trkpt lat="-37.839560000000006" lon="145.36941000000002">
    <ele>450.92</ele>
   </trkpt>
   <trkpt lat="-37.8391" lon="145.36968000000002">
    <ele>445.22</ele>
   </trkpt>
   <trkpt lat="-37.83885" lon="145.3698">
    <ele>442.32000000000005</ele>
   </trkpt>
   <trkpt lat="-37.83869" lon="145.36991">
    <ele>440.36</ele>
   </trkpt>
   <trkpt lat="-37.83856" lon="145.36995000000002">
    <ele>437.93</ele>
   </trkpt>
   <trkpt lat="-37.83856" lon="145.36994">
    <ele>438.07</ele>
   </trkpt>
   <trkpt lat="-37.83849" lon="145.36997000000002">
    <ele>436.55000000000007</ele>
   </trkpt>
   <trkpt lat="-37.83798" lon="145.37023000000002">
    <ele>430.34000000000003</ele>
   </trkpt>
   <trkpt lat="-37.83769" lon="145.37040000000002">
    <ele>430.11</ele>
   </trkpt>
   <trkpt lat="-37.83737" lon="145.37053">
    <ele>433.81</ele>
   </trkpt>
   <trkpt lat="-37.83701000000001" lon="145.37063">
    <ele>434.16</ele>
   </trkpt>
   <trkpt lat="-37.837030000000006" lon="145.37094000000002">
    <ele>433.38000000000005</ele>
   </trkpt>
   <trkpt lat="-37.83699" lon="145.37133">
    <ele>430.24</ele>
   </trkpt>
   <trkpt lat="-37.837030000000006" lon="145.3719">
    <ele>426.90000000000003</ele>
   </trkpt>
   <trkpt lat="-37.83699" lon="145.37235">
    <ele>422.89000000000004</ele>
   </trkpt>
   <trkpt lat="-37.83708" lon="145.37331">
    <ele>412.86000000000007</ele>
   </trkpt>
   <trkpt lat="-37.83719" lon="145.37388">
    <ele>408.89000000000004</ele>
   </trkpt>
   <trkpt lat="-37.83719" lon="145.37407000000002">
    <ele>408.47</ele>
   </trkpt>
   <trkpt lat="-37.83735" lon="145.37466">
    <ele>406.87</ele>
   </trkpt>
   <trkpt lat="-37.83746" lon="145.37449">
    <ele>406.52000000000004</ele>
   </trkpt>
   <trkpt lat="-37.83764" lon="145.37427000000002">
    <ele>404.47</ele>
   </trkpt>
   <trkpt lat="-37.83784" lon="145.37368">
    <ele>395.62</ele>
   </trkpt>
   <trkpt lat="-37.83791" lon="145.37358">
    <ele>393.45</ele>
   </trkpt>
   <trkpt lat="-37.83805" lon="145.37351">
    <ele>390.24</ele>
   </trkpt>
   <trkpt lat="-37.83822" lon="145.37348">
    <ele>384.21999999999997</ele>
   </trkpt>
   <trkpt lat="-37.83847" lon="145.37354000000002">
    <ele>381.15000000000003</ele>
   </trkpt>
   <trkpt lat="-37.83858" lon="145.37359">
    <ele>380.47</ele>
   </trkpt>
   <trkpt lat="-37.83883" lon="145.37376">
    <ele>380.14000000000004</ele>
   </trkpt>
   <trkpt lat="-37.8391" lon="145.37399000000002">
    <ele>379.26000000000005</ele>
   </trkpt>
   <trkpt lat="-37.83921" lon="145.37414">
    <ele>378.61000000000007</ele>
   </trkpt>
   <trkpt lat="-37.839435001975176" lon="145.3748249978843">
    <ele>370.59000000000003</ele>
   </trkpt>
   <trkpt lat="-37.83966" lon="145.37551000000002">
    <ele>364.15000000000003</ele>
   </trkpt>
   <trkpt lat="-37.83975" lon="145.37576">
    <ele>361.3</ele>
   </trkpt>
   <trkpt lat="-37.839995001151586" lon="145.37628499822682">
    <ele>355.06000000000006</ele>
   </trkpt>
   <trkpt lat="-37.84024" lon="145.37681">
    <ele>350.09000000000003</ele>
   </trkpt>
   <trkpt lat="-37.84046" lon="145.37711000000002">
    <ele>343.08000000000004</ele>
   </trkpt>
   <trkpt lat="-37.84089" lon="145.37754">
    <ele>334.76</ele>
   </trkpt>
   <trkpt lat="-37.840970000000006" lon="145.37764">
    <ele>333.54</ele>
   </trkpt>
   <trkpt lat="-37.840990000000005" lon="145.37779">
    <ele>332.90000000000003</ele>
   </trkpt>
   <trkpt lat="-37.84103" lon="145.37786">
    <ele>332.87000000000006</ele>
   </trkpt>
   <trkpt lat="-37.84122" lon="145.37847000000002">
    <ele>329.99</ele>
   </trkpt>
   <trkpt lat="-37.84154" lon="145.37922">
    <ele>328.13000000000005</ele>
   </trkpt>
   <trkpt lat="-37.84185" lon="145.37971000000002">
    <ele>326.17</ele>
   </trkpt>
   <trkpt lat="-37.84201" lon="145.38002">
    <ele>324.66</ele>
   </trkpt>
   <trkpt lat="-37.84205" lon="145.38012">
    <ele>324.61</ele>
   </trkpt>
   <trkpt lat="-37.84223" lon="145.38017000000002">
    <ele>327.52000000000004</ele>
   </trkpt>
   <trkpt lat="-37.842380000000006" lon="145.38016000000002">
    <ele>330.83</ele>
   </trkpt>
   <trkpt lat="-37.8425" lon="145.38008000000002">
    <ele>333.79</ele>
   </trkpt>
   <trkpt lat="-37.84257" lon="145.37998000000002">
    <ele>335.4200000000001</ele>
   </trkpt>
   <trkpt lat="-37.84277" lon="145.37985">
    <ele>339.05</ele>
   </trkpt>
   <trkpt lat="-37.84297" lon="145.37982000000002">
    <ele>342.21</ele>
   </trkpt>
   <trkpt lat="-37.84315" lon="145.37983">
    <ele>345.67</ele>
   </trkpt>
   <trkpt lat="-37.84396" lon="145.38022">
    <ele>357.05</ele>
   </trkpt>
   <trkpt lat="-37.84431" lon="145.38042000000002">
    <ele>362.57</ele>
   </trkpt>
   <trkpt lat="-37.844440000000006" lon="145.3804">
    <ele>365.50000000000006</ele>
   </trkpt>
   <trkpt lat="-37.84467" lon="145.38085">
    <ele>364.38000000000005</ele>
   </trkpt>
   <trkpt lat="-37.84501" lon="145.38152000000002">
    <ele>359.39000000000004</ele>
   </trkpt>
   <trkpt lat="-37.84521" lon="145.38202">
    <ele>355.09000000000003</ele>
   </trkpt>
   <trkpt lat="-37.84532" lon="145.38224000000002">
    <ele>353.7</ele>
   </trkpt>
   <trkpt lat="-37.84539" lon="145.38249000000002">
    <ele>352.37</ele>
   </trkpt>
   <trkpt lat="-37.84548" lon="145.38314000000003">
    <ele>345.68000000000006</ele>
   </trkpt>
   <trkpt lat="-37.84554" lon="145.38338000000002">
    <ele>343.04</ele>
   </trkpt>
   <trkpt lat="-37.84554" lon="145.38366000000002">
    <ele>338.26</ele>
   </trkpt>
   <trkpt lat="-37.84548" lon="145.38393000000002">
    <ele>334.69000000000005</ele>
   </trkpt>
   <trkpt lat="-37.84548" lon="145.38412000000002">
    <ele>331.44</ele>
   </trkpt>
   <trkpt lat="-37.84539" lon="145.38446000000002">
    <ele>327.91</ele>
   </trkpt>
   <trkpt lat="-37.84534" lon="145.3845">
    <ele>325.99</ele>
   </trkpt>
   <trkpt lat="-37.84528" lon="145.38482000000002">
    <ele>323.05</ele>
   </trkpt>
   <trkpt lat="-37.845040000000004" lon="145.38504">
    <ele>321.32000000000005</ele>
   </trkpt>
   <trkpt lat="-37.84512" lon="145.38515">
    <ele>321.01</ele>
   </trkpt>
   <trkpt lat="-37.8451" lon="145.38520000000003">
    <ele>321.01</ele>
   </trkpt>
   <trkpt lat="-37.84521" lon="145.38525">
    <ele>319.94</ele>
   </trkpt>
   <trkpt lat="-37.84568" lon="145.38528000000002">
    <ele>314.0</ele>
   </trkpt>
   <trkpt lat="-37.84601" lon="145.38532">
    <ele>309.70000000000005</ele>
   </trkpt>
   <trkpt lat="-37.84628" lon="145.3854">
    <ele>305.35</ele>
   </trkpt>
   <trkpt lat="-37.84655" lon="145.38557">
    <ele>302.31</ele>
   </trkpt>
   <trkpt lat="-37.847060000000006" lon="145.38603">
    <ele>296.45000000000005</ele>
   </trkpt>
   <trkpt lat="-37.84727" lon="145.38623">
    <ele>295.24</ele>
   </trkpt>
   <trkpt lat="-37.84749" lon="145.38625000000002">
    <ele>295.07</ele>
   </trkpt>
   <trkpt lat="-37.84774" lon="145.38622">
    <ele>295.73</ele>
   </trkpt>
   <trkpt lat="-37.84803" lon="145.38611">
    <ele>297.76</ele>
   </trkpt>
   <trkpt lat="-37.84821" lon="145.38600000000002">
    <ele>300.38000000000005</ele>
   </trkpt>
   <trkpt lat="-37.84841" lon="145.38582000000002">
    <ele>301.64</ele>
   </trkpt>
   <trkpt lat="-37.84886" lon="145.3855">
    <ele>306.13</ele>
   </trkpt>
   <trkpt lat="-37.84908" lon="145.38527000000002">
    <ele>309.78</ele>
   </trkpt>
   <trkpt lat="-37.84924" lon="145.38505">
    <ele>310.95</ele>
   </trkpt>
   <trkpt lat="-37.84946" lon="145.38481000000002">
    <ele>312.9</ele>
   </trkpt>
   <trkpt lat="-37.84962" lon="145.38474000000002">
    <ele>314.5</ele>
   </trkpt>
   <trkpt lat="-37.849700000000006" lon="145.38484000000003">
    <ele>315.44</ele>
   </trkpt>
   <trkpt lat="-37.84984" lon="145.38484000000003">
    <ele>316.67</ele>
   </trkpt>
   <trkpt lat="-37.8506" lon="145.38444">
    <ele>329.57000000000005</ele>
   </trkpt>
   <trkpt lat="-37.85094" lon="145.38438000000002">
    <ele>335.17</ele>
   </trkpt>
   <trkpt lat="-37.85145" lon="145.38439000000002">
    <ele>346.39000000000004</ele>
   </trkpt>
   <trkpt lat="-37.85168" lon="145.38429000000002">
    <ele>351.41</ele>
   </trkpt>
   <trkpt lat="-37.85181" lon="145.38418000000001">
    <ele>354.26</ele>
   </trkpt>
   <trkpt lat="-37.85195" lon="145.38403000000002">
    <ele>359.74</ele>
   </trkpt>
   <trkpt lat="-37.85224" lon="145.38383000000002">
    <ele>365.95000000000005</ele>
   </trkpt>
   <trkpt lat="-37.85253" lon="145.38368">
    <ele>372.63</ele>
   </trkpt>
   <trkpt lat="-37.852540000000005" lon="145.38368">
    <ele>372.78000000000003</ele>
   </trkpt>
   <trkpt lat="-37.85282" lon="145.38353">
    <ele>378.19</ele>
   </trkpt>
   <trkpt lat="-37.85329" lon="145.38318">
    <ele>389.55</ele>
   </trkpt>
   <trkpt lat="-37.85376" lon="145.38289">
    <ele>395.53000000000003</ele>
   </trkpt>
   <trkpt lat="-37.85412" lon="145.38276000000002">
    <ele>407.35</ele>
   </trkpt>
   <trkpt lat="-37.85453500053952" lon="145.38244000171923">
    <ele>414.92</ele>
   </trkpt>
   <trkpt lat="-37.85495" lon="145.38212000000001">
    <ele>421.07000000000005</ele>
   </trkpt>
   <trkpt lat="-37.85546" lon="145.38168000000002">
    <ele>431.99</ele>
   </trkpt>
   <trkpt lat="-37.855940000000004" lon="145.38131">
    <ele>437.82000000000005</ele>
   </trkpt>
   <trkpt lat="-37.856390000000005" lon="145.38117000000003">
    <ele>436.51</ele>
   </trkpt>
   <trkpt lat="-37.85669" lon="145.38112">
    <ele>436.85</ele>
   </trkpt>
   <trkpt lat="-37.85678" lon="145.38113">
    <ele>436.85</ele>
   </trkpt>
   <trkpt lat="-37.85687" lon="145.38117000000003">
    <ele>437.50000000000006</ele>
   </trkpt>
   <trkpt lat="-37.857020000000006" lon="145.38128">
    <ele>437.89000000000004</ele>
   </trkpt>
   <trkpt lat="-37.85712" lon="145.38146">
    <ele>438.21000000000004</ele>
   </trkpt>
   <trkpt lat="-37.857290000000006" lon="145.38182">
    <ele>438.87</ele>
   </trkpt>
   <trkpt lat="-37.8573" lon="145.38177000000002">
    <ele>443.27000000000004</ele>
   </trkpt>
   <trkpt lat="-37.85743" lon="145.38174">
    <ele>445.50000000000006</ele>
   </trkpt>
   <trkpt lat="-37.85754" lon="145.3818">
    <ele>449.40000000000003</ele>
   </trkpt>
   <trkpt lat="-37.857710000000004" lon="145.38183">
    <ele>452.83</ele>
   </trkpt>
   <trkpt lat="-37.85797" lon="145.38177000000002">
    <ele>462.11</ele>
   </trkpt>
   <trkpt lat="-37.85806" lon="145.38177000000002">
    <ele>462.11</ele>
   </trkpt>
   <trkpt lat="-37.858560000000004" lon="145.38183">
    <ele>479.0</ele>
   </trkpt>
   <trkpt lat="-37.85871" lon="145.38193">
    <ele>489.25</ele>
   </trkpt>
   <trkpt lat="-37.858900000000006" lon="145.38221000000001">
    <ele>498.35</ele>
   </trkpt>
   <trkpt lat="-37.858900000000006" lon="145.38222000000002">
    <ele>498.2900000000001</ele>
   </trkpt>
   <trkpt lat="-37.85918" lon="145.38267000000002">
    <ele>502.61</ele>
   </trkpt>
   <trkpt lat="-37.85938" lon="145.38271">
    <ele>506.32</ele>
   </trkpt>
   <trkpt lat="-37.85949" lon="145.38271">
    <ele>507.07</ele>
   </trkpt>
   <trkpt lat="-37.8596" lon="145.38279">
    <ele>509.9600000000001</ele>
   </trkpt>
   <trkpt lat="-37.85969" lon="145.38281">
    <ele>511.87000000000006</ele>
   </trkpt>
   <trkpt lat="-37.859770000000005" lon="145.38287000000003">
    <ele>513.94</ele>
   </trkpt>
   <trkpt lat="-37.85983" lon="145.38273">
    <ele>516.46</ele>
   </trkpt>
   <trkpt lat="-37.859930000000006" lon="145.38259000000002">
    <ele>518.14</ele>
   </trkpt>
   <trkpt lat="-37.85998" lon="145.38159000000002">
    <ele>519.5600000000001</ele>
   </trkpt>
   <trkpt lat="-37.860020000000006" lon="145.38135000000003">
    <ele>519.93</ele>
   </trkpt>
   <trkpt lat="-37.86007" lon="145.38119">
    <ele>519.45</ele>
   </trkpt>
   <trkpt lat="-37.86021" lon="145.38127">
    <ele>517.3000000000001</ele>
   </trkpt>
   <trkpt lat="-37.86027" lon="145.38124000000002">
    <ele>517.36</ele>
   </trkpt>
   <trkpt lat="-37.86032" lon="145.38089000000002">
    <ele>517.98</ele>
   </trkpt>
   <trkpt lat="-37.860330000000005" lon="145.38064">
    <ele>518.95</ele>
   </trkpt>
   <trkpt lat="-37.85992" lon="145.38004">
    <ele>523.07</ele>
   </trkpt>
   <trkpt lat="-37.85957000073842" lon="145.37964999825422">
    <ele>526.7</ele>
   </trkpt>
   <trkpt lat="-37.85922" lon="145.37926000000002">
    <ele>528.51</ele>
   </trkpt>
   <trkpt lat="-37.859" lon="145.37889">
    <ele>530.9200000000001</ele>
   </trkpt>
   <trkpt lat="-37.85889" lon="145.37864000000002">
    <ele>534.35</ele>
   </trkpt>
   <trkpt lat="-37.85854667060868" lon="145.37795666028717">
    <ele>542.21</ele>
   </trkpt>
   <trkpt lat="-37.858203337268435" lon="145.37727332694013">
    <ele>547.6800000000001</ele>
   </trkpt>
   <trkpt lat="-37.85786" lon="145.37659000000002">
    <ele>554.5</ele>
   </trkpt>
   <trkpt lat="-37.8575" lon="145.37597000000002">
    <ele>560.69</ele>
   </trkpt>
   <trkpt lat="-37.85714" lon="145.37555">
    <ele>565.44</ele>
   </trkpt>
   <trkpt lat="-37.85683" lon="145.37527">
    <ele>567.3600000000001</ele>
   </trkpt>
   <trkpt lat="-37.85622" lon="145.37490000000003">
    <ele>574.3100000000001</ele>
   </trkpt>
   <trkpt lat="-37.856260000000006" lon="145.37480000000002">
    <ele>574.26</ele>
   </trkpt>
   <trkpt lat="-37.856" lon="145.37456">
    <ele>577.01</ele>
   </trkpt>
   <trkpt lat="-37.8556750005453" lon="145.37416499811948">
    <ele>578.8000000000001</ele>
   </trkpt>
   <trkpt lat="-37.85535" lon="145.37377">
    <ele>578.22</ele>
   </trkpt>
   <trkpt lat="-37.85531" lon="145.37379">
    <ele>578.2700000000001</ele>
   </trkpt>
   <trkpt lat="-37.85521" lon="145.37367">
    <ele>578.19</ele>
   </trkpt>
   <trkpt lat="-37.854845000635606" lon="145.37326999797466">
    <ele>578.44</ele>
   </trkpt>
   <trkpt lat="-37.85448" lon="145.37287">
    <ele>579.2</ele>
   </trkpt>
   <trkpt lat="-37.8543" lon="145.37263000000002">
    <ele>579.37</ele>
   </trkpt>
   <trkpt lat="-37.85414" lon="145.37239000000002">
    <ele>579.76</ele>
   </trkpt>
   <trkpt lat="-37.85405" lon="145.37220000000002">
    <ele>579.84</ele>
   </trkpt>
   <trkpt lat="-37.854020000000006" lon="145.37182">
    <ele>579.4</ele>
   </trkpt>
   <trkpt lat="-37.854040000000005" lon="145.37130000000002">
    <ele>578.9200000000001</ele>
   </trkpt>
   <trkpt lat="-37.85412500394389" lon="145.37033500103993">
    <ele>575.79</ele>
   </trkpt>
   <trkpt lat="-37.85421" lon="145.36937">
    <ele>572.96</ele>
   </trkpt>
   <trkpt lat="-37.854220000000005" lon="145.36936">
    <ele>572.9399999999999</ele>
   </trkpt>
   <trkpt lat="-37.85441" lon="145.36911">
    <ele>572.5100000000001</ele>
   </trkpt>
   <trkpt lat="-37.85409000000001" lon="145.36882">
    <ele>576.23</ele>
   </trkpt>
   <trkpt lat="-37.853660000000005" lon="145.36857">
    <ele>579.0000000000001</ele>
   </trkpt>
   <trkpt lat="-37.85314" lon="145.36833000000001">
    <ele>578.2900000000001</ele>
   </trkpt>
   <trkpt lat="-37.85295" lon="145.36823">
    <ele>577.37</ele>
   </trkpt>
   <trkpt lat="-37.85264" lon="145.36819">
    <ele>574.3900000000001</ele>
   </trkpt>
   <trkpt lat="-37.852470000000004" lon="145.36822">
    <ele>573.72</ele>
   </trkpt>
  </trkseg>
 </trk>
</gpx>
