<?xml version="1.0" encoding="UTF-8"?>
<gpx creator="StravaGPX" version="1.1" xmlns="http://www.topografix.com/GPX/1/1" xmlns:xsi="http://www.w3.org/2001/XMLSchema-instance" xsi:schemaLocation="http://www.topografix.com/GPX/1/1 http://www.topografix.com/GPX/1/1/gpx.xsd">
 <metadata>
  <name>DTR 21k - 3rd My</name>
  <author>
   <name>DTR  Runleaders</name>
   <link href="https://www.strava.com/athletes/194056408"/>
  </author>
  <copyright author="OpenStreetMap contributors">
   <year>2020</year>
   <license>https://www.openstreetmap.org/copyright</license>
  </copyright>
  <link href="https://www.strava.com/routes/3485217910798530862"/>
 </metadata>
 <trk>
  <name>DTR 21k - 3rd My</name>
  <link href="https://www.strava.com/routes/3485217910798530862"/>
  <type>running</type>
  <trkseg>
   <trkpt lat="-37.862860000000005" lon="145.35357000000002">
    <ele>480.68000000000006</ele>
   </trkpt>
   <trkpt lat="-37.862820000000006" lon="145.3536">
    <ele>480.86000000000007</ele>
   </trkpt>
   <trkpt lat="-37.862860000000005" lon="145.35369">
    <ele>480.95000000000005</ele>
   </trkpt>
   <trkpt lat="-37.862840000000006" lon="145.35371">
    <ele>481.04</ele>
   </trkpt>
   <trkpt lat="-37.86298" lon="145.35408">
    <ele>481.84000000000003</ele>
   </trkpt>
   <trkpt lat="-37.86316" lon="145.35444">
    <ele>485.97</ele>
   </trkpt>
   <trkpt lat="-37.86334" lon="145.35477">
    <ele>476.69000000000005</ele>
   </trkpt>
   <trkpt lat="-37.86345" lon="145.35489">
    <ele>474.93</ele>
   </trkpt>
   <trkpt lat="-37.863600000000005" lon="145.35494">
    <ele>473.07000000000005</ele>
   </trkpt>
   <trkpt lat="-37.86415" lon="145.35496">
    <ele>464.37000000000006</ele>
   </trkpt>
   <trkpt lat="-37.86435" lon="145.35499000000002">
    <ele>461.46000000000004</ele>
   </trkpt>
   <trkpt lat="-37.8645" lon="145.35506">
    <ele>456.03000000000003</ele>
   </trkpt>
   <trkpt lat="-37.864850000000004" lon="145.35513">
    <ele>448.66</ele>
   </trkpt>
   <trkpt lat="-37.86502" lon="145.35512">
    <ele>446.65000000000003</ele>
   </trkpt>
   <trkpt lat="-37.8652" lon="145.35519000000002">
    <ele>444.83000000000004</ele>
   </trkpt>
   <trkpt lat="-37.86547" lon="145.35535000000002">
    <ele>440.15000000000003</ele>
   </trkpt>
   <trkpt lat="-37.86591000000001" lon="145.35539">
    <ele>435.78000000000003</ele>
   </trkpt>
   <trkpt lat="-37.86598" lon="145.35542">
    <ele>435.62000000000006</ele>
   </trkpt>
   <trkpt lat="-37.865990000000004" lon="145.35551">
    <ele>435.62000000000006</ele>
   </trkpt>
   <trkpt lat="-37.866" lon="145.35554000000002">
    <ele>435.62000000000006</ele>
   </trkpt>
   <trkpt lat="-37.86596" lon="145.35572000000002">
    <ele>435.46</ele>
   </trkpt>
   <trkpt lat="-37.865860000000005" lon="145.35572000000002">
    <ele>414.72</ele>
   </trkpt>
   <trkpt lat="-37.86589" lon="145.35592000000003">
    <ele>431.87</ele>
   </trkpt>
   <trkpt lat="-37.86585" lon="145.35607000000002">
    <ele>431.44000000000005</ele>
   </trkpt>
   <trkpt lat="-37.866" lon="145.35656">
    <ele>428.50000000000006</ele>
   </trkpt>
   <trkpt lat="-37.86623" lon="145.35682">
    <ele>426.13</ele>
   </trkpt>
   <trkpt lat="-37.86632" lon="145.35688000000002">
    <ele>425.54</ele>
   </trkpt>
   <trkpt lat="-37.86654" lon="145.35708000000002">
    <ele>422.56000000000006</ele>
   </trkpt>
   <trkpt lat="-37.86672" lon="145.35738">
    <ele>420.7</ele>
   </trkpt>
   <trkpt lat="-37.86675" lon="145.35739">
    <ele>420.7</ele>
   </trkpt>
   <trkpt lat="-37.86688" lon="145.35736">
    <ele>420.47</ele>
   </trkpt>
   <trkpt lat="-37.86715" lon="145.35776">
    <ele>420.93</ele>
   </trkpt>
   <trkpt lat="-37.86728" lon="145.35787000000002">
    <ele>419.83000000000004</ele>
   </trkpt>
   <trkpt lat="-37.86737" lon="145.35797000000002">
    <ele>419.6</ele>
   </trkpt>
   <trkpt lat="-37.86748" lon="145.35804000000002">
    <ele>419.62000000000006</ele>
   </trkpt>
   <trkpt lat="-37.86755" lon="145.35812">
    <ele>419.46000000000004</ele>
   </trkpt>
   <trkpt lat="-37.86766" lon="145.35817">
    <ele>419.44000000000005</ele>
   </trkpt>
   <trkpt lat="-37.86771" lon="145.35824000000002">
    <ele>419.48</ele>
   </trkpt>
   <trkpt lat="-37.86768" lon="145.35852">
    <ele>418.90000000000003</ele>
   </trkpt>
   <trkpt lat="-37.86773" lon="145.35860000000002">
    <ele>419.12000000000006</ele>
   </trkpt>
   <trkpt lat="-37.86793" lon="145.35878000000002">
    <ele>420.21000000000004</ele>
   </trkpt>
   <trkpt lat="-37.86806" lon="145.35901">
    <ele>419.6</ele>
   </trkpt>
   <trkpt lat="-37.8682" lon="145.35908">
    <ele>419.32</ele>
   </trkpt>
   <trkpt lat="-37.86871" lon="145.35917">
    <ele>419.64</ele>
   </trkpt>
   <trkpt lat="-37.86885" lon="145.35938000000002">
    <ele>418.00000000000006</ele>
   </trkpt>
   <trkpt lat="-37.86887" lon="145.35943">
    <ele>417.92</ele>
   </trkpt>
   <trkpt lat="-37.869220000000006" lon="145.35977000000003">
    <ele>416.11</ele>
   </trkpt>
   <trkpt lat="-37.8695" lon="145.36015">
    <ele>415.89000000000004</ele>
   </trkpt>
   <trkpt lat="-37.86963" lon="145.36053">
    <ele>413.59000000000003</ele>
   </trkpt>
   <trkpt lat="-37.86972" lon="145.36065000000002">
    <ele>412.77000000000004</ele>
   </trkpt>
   <trkpt lat="-37.86999" lon="145.36083000000002">
    <ele>412.83000000000004</ele>
   </trkpt>
   <trkpt lat="-37.87071" lon="145.36105">
    <ele>411.02000000000004</ele>
   </trkpt>
   <trkpt lat="-37.87113" lon="145.36123">
    <ele>410.16</ele>
   </trkpt>
   <trkpt lat="-37.87182" lon="145.36126000000002">
    <ele>410.11</ele>
   </trkpt>
   <trkpt lat="-37.87205" lon="145.36114">
    <ele>410.18000000000006</ele>
   </trkpt>
   <trkpt lat="-37.87221" lon="145.36118000000002">
    <ele>409.25000000000006</ele>
   </trkpt>
   <trkpt lat="-37.87234" lon="145.36127000000002">
    <ele>408.76</ele>
   </trkpt>
   <trkpt lat="-37.87243" lon="145.36129000000003">
    <ele>408.21000000000004</ele>
   </trkpt>
   <trkpt lat="-37.87292" lon="145.36119000000002">
    <ele>406.26</ele>
   </trkpt>
   <trkpt lat="-37.873360000000005" lon="145.36122">
    <ele>402.04</ele>
   </trkpt>
   <trkpt lat="-37.873400000000004" lon="145.36126000000002">
    <ele>401.41</ele>
   </trkpt>
   <trkpt lat="-37.873490000000004" lon="145.36143">
    <ele>400.70000000000005</ele>
   </trkpt>
   <trkpt lat="-37.873540000000006" lon="145.3614">
    <ele>400.52000000000004</ele>
   </trkpt>
   <trkpt lat="-37.873560000000005" lon="145.36141">
    <ele>400.38</ele>
   </trkpt>
   <trkpt lat="-37.87357" lon="145.36146000000002">
    <ele>400.22</ele>
   </trkpt>
   <trkpt lat="-37.87355" lon="145.36154000000002">
    <ele>400.05</ele>
   </trkpt>
   <trkpt lat="-37.87368" lon="145.36174000000003">
    <ele>397.27</ele>
   </trkpt>
   <trkpt lat="-37.87377" lon="145.36196">
    <ele>393.01</ele>
   </trkpt>
   <trkpt lat="-37.87377" lon="145.36206">
    <ele>392.42</ele>
   </trkpt>
   <trkpt lat="-37.873740000000005" lon="145.36213">
    <ele>377.59000000000003</ele>
   </trkpt>
   <trkpt lat="-37.87373" lon="145.36223">
    <ele>378.02000000000004</ele>
   </trkpt>
   <trkpt lat="-37.87382" lon="145.36244000000002">
    <ele>379.5</ele>
   </trkpt>
   <trkpt lat="-37.87402" lon="145.36301">
    <ele>382.12</ele>
   </trkpt>
   <trkpt lat="-37.87404" lon="145.36343000000002">
    <ele>385.28000000000003</ele>
   </trkpt>
   <trkpt lat="-37.874280000000006" lon="145.36379000000002">
    <ele>385.18</ele>
   </trkpt>
   <trkpt lat="-37.87438" lon="145.36402">
    <ele>384.92</ele>
   </trkpt>
   <trkpt lat="-37.87438" lon="145.3642">
    <ele>385.27000000000004</ele>
   </trkpt>
   <trkpt lat="-37.87435" lon="145.36442000000002">
    <ele>386.56</ele>
   </trkpt>
   <trkpt lat="-37.87435" lon="145.36469000000002">
    <ele>387.48</ele>
   </trkpt>
   <trkpt lat="-37.874660000000006" lon="145.36564">
    <ele>384.87000000000006</ele>
   </trkpt>
   <trkpt lat="-37.8748" lon="145.366">
    <ele>383.75</ele>
   </trkpt>
   <trkpt lat="-37.87482" lon="145.36644">
    <ele>385.92</ele>
   </trkpt>
   <trkpt lat="-37.87489" lon="145.36658">
    <ele>384.71000000000004</ele>
   </trkpt>
   <trkpt lat="-37.87514" lon="145.36678">
    <ele>381.61</ele>
   </trkpt>
   <trkpt lat="-37.87523" lon="145.36692000000002">
    <ele>381.46000000000004</ele>
   </trkpt>
   <trkpt lat="-37.87559" lon="145.36734">
    <ele>378.76000000000005</ele>
   </trkpt>
   <trkpt lat="-37.8757" lon="145.3675">
    <ele>376.6</ele>
   </trkpt>
   <trkpt lat="-37.875690000000006" lon="145.36763000000002">
    <ele>375.66</ele>
   </trkpt>
   <trkpt lat="-37.87561" lon="145.36791000000002">
    <ele>374.05000000000007</ele>
   </trkpt>
   <trkpt lat="-37.875510000000006" lon="145.36811">
    <ele>373.71000000000004</ele>
   </trkpt>
   <trkpt lat="-37.87545" lon="145.3683">
    <ele>373.51</ele>
   </trkpt>
   <trkpt lat="-37.87554" lon="145.36892">
    <ele>369.71000000000004</ele>
   </trkpt>
   <trkpt lat="-37.87554" lon="145.36915000000002">
    <ele>370.29</ele>
   </trkpt>
   <trkpt lat="-37.87545" lon="145.36945">
    <ele>372.48</ele>
   </trkpt>
   <trkpt lat="-37.87541" lon="145.36953000000003">
    <ele>373.54</ele>
   </trkpt>
   <trkpt lat="-37.87536" lon="145.36978000000002">
    <ele>374.8</ele>
   </trkpt>
   <trkpt lat="-37.87541" lon="145.37033000000002">
    <ele>368.83000000000004</ele>
   </trkpt>
   <trkpt lat="-37.8755" lon="145.37059000000002">
    <ele>365.08</ele>
   </trkpt>
   <trkpt lat="-37.875600000000006" lon="145.37072">
    <ele>363.39000000000004</ele>
   </trkpt>
   <trkpt lat="-37.87608" lon="145.37106">
    <ele>358.92</ele>
   </trkpt>
   <trkpt lat="-37.87614000000001" lon="145.37109">
    <ele>358.89000000000004</ele>
   </trkpt>
   <trkpt lat="-37.87635" lon="145.37115">
    <ele>335.41</ele>
   </trkpt>
   <trkpt lat="-37.8765" lon="145.37138000000002">
    <ele>335.41</ele>
   </trkpt>
   <trkpt lat="-37.87637" lon="145.37132000000003">
    <ele>336.08000000000004</ele>
   </trkpt>
   <trkpt lat="-37.87628" lon="145.37130000000002">
    <ele>336.61</ele>
   </trkpt>
   <trkpt lat="-37.87597" lon="145.37137">
    <ele>338.95000000000005</ele>
   </trkpt>
   <trkpt lat="-37.87579" lon="145.37137">
    <ele>339.91</ele>
   </trkpt>
   <trkpt lat="-37.875220000000006" lon="145.37127">
    <ele>344.22</ele>
   </trkpt>
   <trkpt lat="-37.875040000000006" lon="145.37126">
    <ele>344.78000000000003</ele>
   </trkpt>
   <trkpt lat="-37.874700000000004" lon="145.37130000000002">
    <ele>348.48</ele>
   </trkpt>
   <trkpt lat="-37.874660000000006" lon="145.3718">
    <ele>357.16</ele>
   </trkpt>
   <trkpt lat="-37.874495001515065" lon="145.37240000137075">
    <ele>385.70000000000005</ele>
   </trkpt>
   <trkpt lat="-37.87433" lon="145.37300000000002">
    <ele>396.76000000000005</ele>
   </trkpt>
   <trkpt lat="-37.87424" lon="145.37365">
    <ele>407.19000000000005</ele>
   </trkpt>
   <trkpt lat="-37.87405000200656" lon="145.37434000180457">
    <ele>421.87</ele>
   </trkpt>
   <trkpt lat="-37.87386" lon="145.37503">
    <ele>429.71000000000004</ele>
   </trkpt>
   <trkpt lat="-37.87373" lon="145.37591">
    <ele>440.50000000000006</ele>
   </trkpt>
   <trkpt lat="-37.873576671816934" lon="145.37669000322452">
    <ele>457.90000000000003</ele>
   </trkpt>
   <trkpt lat="-37.87342333848798" lon="145.37747000320218">
    <ele>468.95000000000005</ele>
   </trkpt>
   <trkpt lat="-37.873270000000005" lon="145.37825">
    <ele>475.23</ele>
   </trkpt>
   <trkpt lat="-37.87348" lon="145.37824">
    <ele>471.36000000000007</ele>
   </trkpt>
   <trkpt lat="-37.87355" lon="145.37819000000002">
    <ele>469.89000000000004</ele>
   </trkpt>
   <trkpt lat="-37.87367500139029" lon="145.37763000066312">
    <ele>464.05</ele>
   </trkpt>
   <trkpt lat="-37.8738" lon="145.37707">
    <ele>454.0</ele>
   </trkpt>
   <trkpt lat="-37.87388" lon="145.37688">
    <ele>451.75000000000006</ele>
   </trkpt>
   <trkpt lat="-37.87404" lon="145.37679">
    <ele>448.61000000000007</ele>
   </trkpt>
   <trkpt lat="-37.8742" lon="145.37679">
    <ele>444.09000000000003</ele>
   </trkpt>
   <trkpt lat="-37.87435" lon="145.37683">
    <ele>442.72</ele>
   </trkpt>
   <trkpt lat="-37.87447" lon="145.37691">
    <ele>441.15000000000003</ele>
   </trkpt>
   <trkpt lat="-37.87454" lon="145.37698">
    <ele>440.66</ele>
   </trkpt>
   <trkpt lat="-37.87494" lon="145.37748000000002">
    <ele>435.04</ele>
   </trkpt>
   <trkpt lat="-37.87505" lon="145.37776000000002">
    <ele>433.20000000000005</ele>
   </trkpt>
   <trkpt lat="-37.87507" lon="145.37810000000002">
    <ele>431.27000000000004</ele>
   </trkpt>
   <trkpt lat="-37.87494" lon="145.37863000000002">
    <ele>428.24</ele>
   </trkpt>
   <trkpt lat="-37.87487" lon="145.3787">
    <ele>427.00000000000006</ele>
   </trkpt>
   <trkpt lat="-37.875" lon="145.37864000000002">
    <ele>426.99</ele>
   </trkpt>
   <trkpt lat="-37.8755" lon="145.37829000000002">
    <ele>411.98</ele>
   </trkpt>
   <trkpt lat="-37.87576" lon="145.37800000000001">
    <ele>398.70000000000005</ele>
   </trkpt>
   <trkpt lat="-37.875960000000006" lon="145.3777">
    <ele>390.84000000000003</ele>
   </trkpt>
   <trkpt lat="-37.87606" lon="145.37757000000002">
    <ele>388.26000000000005</ele>
   </trkpt>
   <trkpt lat="-37.87612" lon="145.37747000000002">
    <ele>388.26000000000005</ele>
   </trkpt>
   <trkpt lat="-37.87619" lon="145.37722000000002">
    <ele>383.88000000000005</ele>
   </trkpt>
   <trkpt lat="-37.87628" lon="145.37718">
    <ele>381.82000000000005</ele>
   </trkpt>
   <trkpt lat="-37.876310000000004" lon="145.37720000000002">
    <ele>381.82000000000005</ele>
   </trkpt>
   <trkpt lat="-37.876400000000004" lon="145.37731000000002">
    <ele>379.99000000000007</ele>
   </trkpt>
   <trkpt lat="-37.8763" lon="145.37775000000002">
    <ele>387.73</ele>
   </trkpt>
   <trkpt lat="-37.87613" lon="145.37826">
    <ele>394.13000000000005</ele>
   </trkpt>
   <trkpt lat="-37.8761" lon="145.37839000000002">
    <ele>394.82000000000005</ele>
   </trkpt>
   <trkpt lat="-37.87601" lon="145.37847000000002">
    <ele>395.20000000000005</ele>
   </trkpt>
   <trkpt lat="-37.87601" lon="145.37852">
    <ele>395.14000000000004</ele>
   </trkpt>
   <trkpt lat="-37.87612" lon="145.37857000000002">
    <ele>394.61</ele>
   </trkpt>
   <trkpt lat="-37.87617" lon="145.37861">
    <ele>394.55</ele>
   </trkpt>
   <trkpt lat="-37.87639" lon="145.37884000000003">
    <ele>396.34000000000003</ele>
   </trkpt>
   <trkpt lat="-37.87639" lon="145.37887">
    <ele>396.94</ele>
   </trkpt>
   <trkpt lat="-37.87623" lon="145.37882000000002">
    <ele>399.07000000000005</ele>
   </trkpt>
   <trkpt lat="-37.87608" lon="145.37881000000002">
    <ele>399.07000000000005</ele>
   </trkpt>
   <trkpt lat="-37.8759" lon="145.37875000000003">
    <ele>403.96000000000004</ele>
   </trkpt>
   <trkpt lat="-37.87572" lon="145.37881000000002">
    <ele>407.69000000000005</ele>
   </trkpt>
   <trkpt lat="-37.8755" lon="145.37892000000002">
    <ele>414.0</ele>
   </trkpt>
   <trkpt lat="-37.875060000000005" lon="145.37898">
    <ele>427.00000000000006</ele>
   </trkpt>
   <trkpt lat="-37.87494" lon="145.37889">
    <ele>426.7900000000001</ele>
   </trkpt>
   <trkpt lat="-37.874930000000006" lon="145.37882000000002">
    <ele>427.00000000000006</ele>
   </trkpt>
   <trkpt lat="-37.874810000000004" lon="145.37889">
    <ele>433.99</ele>
   </trkpt>
   <trkpt lat="-37.874770000000005" lon="145.37899000000002">
    <ele>442.99000000000007</ele>
   </trkpt>
   <trkpt lat="-37.87478" lon="145.37901000000002">
    <ele>442.99000000000007</ele>
   </trkpt>
   <trkpt lat="-37.87476" lon="145.37904">
    <ele>442.99000000000007</ele>
   </trkpt>
   <trkpt lat="-37.87464000000001" lon="145.37901000000002">
    <ele>442.99000000000007</ele>
   </trkpt>
   <trkpt lat="-37.87462" lon="145.37890000000002">
    <ele>434.00000000000006</ele>
   </trkpt>
   <trkpt lat="-37.87458" lon="145.37898">
    <ele>442.99000000000007</ele>
   </trkpt>
   <trkpt lat="-37.874550000000006" lon="145.37896">
    <ele>442.99000000000007</ele>
   </trkpt>
   <trkpt lat="-37.874610000000004" lon="145.37868">
    <ele>433.91</ele>
   </trkpt>
   <trkpt lat="-37.874610000000004" lon="145.37867">
    <ele>434.06000000000006</ele>
   </trkpt>
   <trkpt lat="-37.874700000000004" lon="145.37849">
    <ele>427.99</ele>
   </trkpt>
   <trkpt lat="-37.874900000000004" lon="145.37821000000002">
    <ele>419.18000000000006</ele>
   </trkpt>
   <trkpt lat="-37.874880000000005" lon="145.37820000000002">
    <ele>419.12000000000006</ele>
   </trkpt>
   <trkpt lat="-37.87487" lon="145.37804">
    <ele>421.16</ele>
   </trkpt>
   <trkpt lat="-37.87485" lon="145.3779">
    <ele>424.07000000000005</ele>
   </trkpt>
   <trkpt lat="-37.87482" lon="145.3779">
    <ele>424.96000000000004</ele>
   </trkpt>
   <trkpt lat="-37.87469" lon="145.37810000000002">
    <ele>428.97</ele>
   </trkpt>
   <trkpt lat="-37.87467" lon="145.37810000000002">
    <ele>428.97</ele>
   </trkpt>
   <trkpt lat="-37.87465" lon="145.37808">
    <ele>428.97</ele>
   </trkpt>
   <trkpt lat="-37.87465" lon="145.37794000000002">
    <ele>431.7900000000001</ele>
   </trkpt>
   <trkpt lat="-37.87465" lon="145.37791">
    <ele>431.89000000000004</ele>
   </trkpt>
   <trkpt lat="-37.874660000000006" lon="145.37786">
    <ele>432.95000000000005</ele>
   </trkpt>
   <trkpt lat="-37.87462" lon="145.37781">
    <ele>434.98</ele>
   </trkpt>
   <trkpt lat="-37.87458" lon="145.37779">
    <ele>434.98</ele>
   </trkpt>
   <trkpt lat="-37.87447" lon="145.37784000000002">
    <ele>437.44000000000005</ele>
   </trkpt>
   <trkpt lat="-37.87442" lon="145.37759">
    <ele>439.56000000000006</ele>
   </trkpt>
   <trkpt lat="-37.87433" lon="145.37741000000003">
    <ele>442.20000000000005</ele>
   </trkpt>
   <trkpt lat="-37.874190000000006" lon="145.37721000000002">
    <ele>446.14000000000004</ele>
   </trkpt>
   <trkpt lat="-37.87411" lon="145.37718">
    <ele>448.94000000000005</ele>
   </trkpt>
   <trkpt lat="-37.87404" lon="145.37721000000002">
    <ele>449.85</ele>
   </trkpt>
   <trkpt lat="-37.87397" lon="145.37748000000002">
    <ele>454.0</ele>
   </trkpt>
   <trkpt lat="-37.873850000000004" lon="145.37747000000002">
    <ele>454.0</ele>
   </trkpt>
   <trkpt lat="-37.873720000000006" lon="145.37742">
    <ele>461.88</ele>
   </trkpt>
   <trkpt lat="-37.87355" lon="145.37819000000002">
    <ele>469.89000000000004</ele>
   </trkpt>
   <trkpt lat="-37.87348" lon="145.37824">
    <ele>471.36000000000007</ele>
   </trkpt>
   <trkpt lat="-37.873270000000005" lon="145.37825">
    <ele>475.23</ele>
   </trkpt>
   <trkpt lat="-37.873160001488884" lon="145.3788350006522">
    <ele>482.62000000000006</ele>
   </trkpt>
   <trkpt lat="-37.873050000000006" lon="145.37942">
    <ele>488.23</ele>
   </trkpt>
   <trkpt lat="-37.87295" lon="145.37977">
    <ele>492.02</ele>
   </trkpt>
   <trkpt lat="-37.87295" lon="145.37976">
    <ele>491.81</ele>
   </trkpt>
   <trkpt lat="-37.87279" lon="145.38043000000002">
    <ele>492.95000000000005</ele>
   </trkpt>
   <trkpt lat="-37.872690000000006" lon="145.38075">
    <ele>491.44000000000005</ele>
   </trkpt>
   <trkpt lat="-37.87261" lon="145.38073">
    <ele>492.6</ele>
   </trkpt>
   <trkpt lat="-37.872330000000005" lon="145.38058">
    <ele>494.45000000000005</ele>
   </trkpt>
   <trkpt lat="-37.87221" lon="145.38052000000002">
    <ele>495.09000000000003</ele>
   </trkpt>
   <trkpt lat="-37.87172500002051" lon="145.38032499865992">
    <ele>497.24</ele>
   </trkpt>
   <trkpt lat="-37.87124" lon="145.38013">
    <ele>499.81</ele>
   </trkpt>
   <trkpt lat="-37.87077" lon="145.37989000000002">
    <ele>504.41</ele>
   </trkpt>
   <trkpt lat="-37.87059" lon="145.37978">
    <ele>507.0</ele>
   </trkpt>
   <trkpt lat="-37.87039" lon="145.37975">
    <ele>510.58000000000004</ele>
   </trkpt>
   <trkpt lat="-37.87024" lon="145.37967">
    <ele>513.3199999999999</ele>
   </trkpt>
   <trkpt lat="-37.87006" lon="145.37962000000002">
    <ele>517.03</ele>
   </trkpt>
   <trkpt lat="-37.86988" lon="145.37951">
    <ele>519.03</ele>
   </trkpt>
   <trkpt lat="-37.8695" lon="145.37925">
    <ele>523.94</ele>
   </trkpt>
   <trkpt lat="-37.86899500047153" lon="145.37888999747807">
    <ele>529.52</ele>
   </trkpt>
   <trkpt lat="-37.86849" lon="145.37853">
    <ele>533.72</ele>
   </trkpt>
   <trkpt lat="-37.86802" lon="145.37826">
    <ele>535.58</ele>
   </trkpt>
   <trkpt lat="-37.86764" lon="145.37802000000002">
    <ele>536.64</ele>
   </trkpt>
   <trkpt lat="-37.867360000000005" lon="145.3778">
    <ele>538.25</ele>
   </trkpt>
   <trkpt lat="-37.86731" lon="145.37782">
    <ele>537.8900000000001</ele>
   </trkpt>
   <trkpt lat="-37.86694" lon="145.37748000000002">
    <ele>543.97</ele>
   </trkpt>
   <trkpt lat="-37.86663" lon="145.37732000000003">
    <ele>550.09</ele>
   </trkpt>
   <trkpt lat="-37.86632" lon="145.37727">
    <ele>553.86</ele>
   </trkpt>
   <trkpt lat="-37.86558" lon="145.3771">
    <ele>564.6600000000001</ele>
   </trkpt>
   <trkpt lat="-37.86547" lon="145.3771">
    <ele>565.6800000000001</ele>
   </trkpt>
   <trkpt lat="-37.86527" lon="145.37714000000003">
    <ele>567.69</ele>
   </trkpt>
   <trkpt lat="-37.865080000000006" lon="145.37709">
    <ele>569.52</ele>
   </trkpt>
   <trkpt lat="-37.86462" lon="145.37698">
    <ele>572.4200000000001</ele>
   </trkpt>
   <trkpt lat="-37.86428" lon="145.37687000000003">
    <ele>572.7500000000001</ele>
   </trkpt>
   <trkpt lat="-37.86352" lon="145.37678000000002">
    <ele>567.9200000000001</ele>
   </trkpt>
   <trkpt lat="-37.863350000000004" lon="145.3768">
    <ele>566.3100000000001</ele>
   </trkpt>
   <trkpt lat="-37.86325" lon="145.37676000000002">
    <ele>566.47</ele>
   </trkpt>
   <trkpt lat="-37.86263000012048" lon="145.37667999933907">
    <ele>565.7800000000001</ele>
   </trkpt>
   <trkpt lat="-37.862010000000005" lon="145.37660000000002">
    <ele>562.7</ele>
   </trkpt>
   <trkpt lat="-37.862" lon="145.37666000000002">
    <ele>562.7</ele>
   </trkpt>
   <trkpt lat="-37.86124500005699" lon="145.3765299986658">
    <ele>560.86</ele>
   </trkpt>
   <trkpt lat="-37.860490000000006" lon="145.37640000000002">
    <ele>560.64</ele>
   </trkpt>
   <trkpt lat="-37.86046" lon="145.37720000000002">
    <ele>558.1600000000001</ele>
   </trkpt>
   <trkpt lat="-37.86046" lon="145.37718">
    <ele>558.22</ele>
   </trkpt>
   <trkpt lat="-37.86043" lon="145.37803000000002">
    <ele>553.5300000000001</ele>
   </trkpt>
   <trkpt lat="-37.86032" lon="145.37913">
    <ele>538.5600000000001</ele>
   </trkpt>
   <trkpt lat="-37.86032000327456" lon="145.38001000005107">
    <ele>524.96</ele>
   </trkpt>
   <trkpt lat="-37.86032" lon="145.38089000000002">
    <ele>517.98</ele>
   </trkpt>
   <trkpt lat="-37.86027" lon="145.38124000000002">
    <ele>517.36</ele>
   </trkpt>
   <trkpt lat="-37.86021" lon="145.38127">
    <ele>517.3000000000001</ele>
   </trkpt>
   <trkpt lat="-37.86014" lon="145.38135000000003">
    <ele>517.0400000000001</ele>
   </trkpt>
   <trkpt lat="-37.86005" lon="145.38204000000002">
    <ele>516.1600000000001</ele>
   </trkpt>
   <trkpt lat="-37.86005" lon="145.38257000000002">
    <ele>515.5000000000001</ele>
   </trkpt>
   <trkpt lat="-37.86009" lon="145.38268000000002">
    <ele>515.19</ele>
   </trkpt>
   <trkpt lat="-37.86018" lon="145.38274">
    <ele>514.9200000000001</ele>
   </trkpt>
   <trkpt lat="-37.86023" lon="145.38275000000002">
    <ele>514.6200000000001</ele>
   </trkpt>
   <trkpt lat="-37.86027" lon="145.38273">
    <ele>514.6200000000001</ele>
   </trkpt>
   <trkpt lat="-37.86034" lon="145.38304000000002">
    <ele>512.34</ele>
   </trkpt>
   <trkpt lat="-37.86046" lon="145.38364">
    <ele>507.69000000000005</ele>
   </trkpt>
   <trkpt lat="-37.86045" lon="145.38364">
    <ele>507.71</ele>
   </trkpt>
   <trkpt lat="-37.86062000329707" lon="145.38452499788164">
    <ele>503.82000000000005</ele>
   </trkpt>
   <trkpt lat="-37.86079" lon="145.38541">
    <ele>504.84000000000003</ele>
   </trkpt>
   <trkpt lat="-37.86081667249244" lon="145.38623999939014">
    <ele>509.9600000000001</ele>
   </trkpt>
   <trkpt lat="-37.86084333915882" lon="145.3870699993809">
    <ele>516.75</ele>
   </trkpt>
   <trkpt lat="-37.860870000000006" lon="145.3879">
    <ele>520.97</ele>
   </trkpt>
   <trkpt lat="-37.86086" lon="145.38804000000002">
    <ele>521.5500000000001</ele>
   </trkpt>
   <trkpt lat="-37.86103000407774" lon="145.38902499758376">
    <ele>515.57</ele>
   </trkpt>
   <trkpt lat="-37.861200000000004" lon="145.39001000000002">
    <ele>506.63</ele>
   </trkpt>
   <trkpt lat="-37.8613900020636" lon="145.3907049982855">
    <ele>501.02000000000004</ele>
   </trkpt>
   <trkpt lat="-37.861580000000004" lon="145.3914">
    <ele>493.58</ele>
   </trkpt>
   <trkpt lat="-37.86191" lon="145.3924">
    <ele>478.13000000000005</ele>
   </trkpt>
   <trkpt lat="-37.86165001857088" lon="145.39344801481306">
    <ele>457.98</ele>
   </trkpt>
   <trkpt lat="-37.861390027853055" lon="145.39449602223223">
    <ele>432.54</ele>
   </trkpt>
   <trkpt lat="-37.86113002784669" lon="145.39554402225744">
    <ele>402.90000000000003</ele>
   </trkpt>
   <trkpt lat="-37.86087001855192" lon="145.3965920148885">
    <ele>378.81</ele>
   </trkpt>
   <trkpt lat="-37.86061" lon="145.39764000000002">
    <ele>357.99</ele>
   </trkpt>
   <trkpt lat="-37.86068" lon="145.39766">
    <ele>356.69</ele>
   </trkpt>
   <trkpt lat="-37.8607" lon="145.39795">
    <ele>354.00000000000006</ele>
   </trkpt>
   <trkpt lat="-37.8605550014475" lon="145.39854000126024">
    <ele>343.19000000000005</ele>
   </trkpt>
   <trkpt lat="-37.86041" lon="145.39913">
    <ele>333.92</ele>
   </trkpt>
   <trkpt lat="-37.860350000000004" lon="145.39968000000002">
    <ele>326.94</ele>
   </trkpt>
   <trkpt lat="-37.86034" lon="145.39987000000002">
    <ele>324.93000000000006</ele>
   </trkpt>
   <trkpt lat="-37.86036" lon="145.40025">
    <ele>322.72</ele>
   </trkpt>
   <trkpt lat="-37.86045" lon="145.40124">
    <ele>311.20000000000005</ele>
   </trkpt>
   <trkpt lat="-37.860520002544966" lon="145.40201499932158">
    <ele>303.55</ele>
   </trkpt>
   <trkpt lat="-37.86059" lon="145.40279">
    <ele>299.71000000000004</ele>
   </trkpt>
   <trkpt lat="-37.86061" lon="145.40297">
    <ele>299.17</ele>
   </trkpt>
   <trkpt lat="-37.86068" lon="145.40314">
    <ele>298.95000000000005</ele>
   </trkpt>
   <trkpt lat="-37.8613250032939" lon="145.4036499866057">
    <ele>297.74</ele>
   </trkpt>
   <trkpt lat="-37.86197000438819" lon="145.40415998213777">
    <ele>297.50000000000006</ele>
   </trkpt>
   <trkpt lat="-37.862615003282755" lon="145.4046699865965">
    <ele>300.26000000000005</ele>
   </trkpt>
   <trkpt lat="-37.863260000000004" lon="145.40518">
    <ele>301.45000000000005</ele>
   </trkpt>
   <trkpt lat="-37.8633" lon="145.40525000000002">
    <ele>301.44000000000005</ele>
   </trkpt>
   <trkpt lat="-37.86314502199778" lon="145.40627001072326">
    <ele>291.15000000000003</ele>
   </trkpt>
   <trkpt lat="-37.862990035196475" lon="145.4072900171565">
    <ele>284.59000000000003</ele>
   </trkpt>
   <trkpt lat="-37.8628350395962" lon="145.4083100192994">
    <ele>277.09</ele>
   </trkpt>
   <trkpt lat="-37.86268003519703" lon="145.4093300171519">
    <ele>268.3</ele>
   </trkpt>
   <trkpt lat="-37.862525021999055" lon="145.41035001071364">
    <ele>258.15999999999997</ele>
   </trkpt>
   <trkpt lat="-37.862370000000006" lon="145.41137">
    <ele>252.26000000000005</ele>
   </trkpt>
   <trkpt lat="-37.86224" lon="145.41172">
    <ele>250.54000000000005</ele>
   </trkpt>
   <trkpt lat="-37.86222" lon="145.41188000000002">
    <ele>250.26000000000002</ele>
   </trkpt>
   <trkpt lat="-37.86222" lon="145.41205000000002">
    <ele>250.02</ele>
   </trkpt>
   <trkpt lat="-37.86227" lon="145.41221000000002">
    <ele>249.98</ele>
   </trkpt>
   <trkpt lat="-37.86233" lon="145.41233000000003">
    <ele>249.99</ele>
   </trkpt>
   <trkpt lat="-37.86245" lon="145.41232000000002">
    <ele>249.49</ele>
   </trkpt>
   <trkpt lat="-37.86258" lon="145.41225">
    <ele>249.36</ele>
   </trkpt>
   <trkpt lat="-37.862790000000004" lon="145.4122">
    <ele>248.71</ele>
   </trkpt>
   <trkpt lat="-37.863350000095195" lon="145.41221499988853">
    <ele>245.3</ele>
   </trkpt>
   <trkpt lat="-37.863910000000004" lon="145.41223000000002">
    <ele>240.54000000000002</ele>
   </trkpt>
   <trkpt lat="-37.86446" lon="145.41224000000003">
    <ele>235.55</ele>
   </trkpt>
   <trkpt lat="-37.86495499987988" lon="145.41227999972108">
    <ele>236.96000000000004</ele>
   </trkpt>
   <trkpt lat="-37.86545" lon="145.41232000000002">
    <ele>245.93</ele>
   </trkpt>
   <trkpt lat="-37.865866670167385" lon="145.41167667394134">
    <ele>252.20000000000002</ele>
   </trkpt>
   <trkpt lat="-37.86628333683445" lon="145.4110333406075">
    <ele>253.60999999999999</ele>
   </trkpt>
   <trkpt lat="-37.8667" lon="145.41039">
    <ele>253.82999999999998</ele>
   </trkpt>
   <trkpt lat="-37.86681" lon="145.41032">
    <ele>254.16</ele>
   </trkpt>
   <trkpt lat="-37.86692" lon="145.41028">
    <ele>254.54000000000005</ele>
   </trkpt>
   <trkpt lat="-37.86762" lon="145.41032">
    <ele>258.95</ele>
   </trkpt>
   <trkpt lat="-37.86768" lon="145.41033000000002">
    <ele>258.84000000000003</ele>
   </trkpt>
   <trkpt lat="-37.867670000000004" lon="145.41041">
    <ele>258.84000000000003</ele>
   </trkpt>
   <trkpt lat="-37.86827999999442" lon="145.41042499987566">
    <ele>262.17</ele>
   </trkpt>
   <trkpt lat="-37.86889" lon="145.41044000000002">
    <ele>267.05</ele>
   </trkpt>
   <trkpt lat="-37.869612500031565" lon="145.4104649992654">
    <ele>270.7</ele>
   </trkpt>
   <trkpt lat="-37.87033500005784" lon="145.41048999902102">
    <ele>273.78000000000003</ele>
   </trkpt>
   <trkpt lat="-37.87105750007883" lon="145.410514999267">
    <ele>276.7</ele>
   </trkpt>
   <trkpt lat="-37.87178" lon="145.41054000000003">
    <ele>277.44</ele>
   </trkpt>
   <trkpt lat="-37.87189" lon="145.41049">
    <ele>276.85</ele>
   </trkpt>
   <trkpt lat="-37.87251750805918" lon="145.40969252039054">
    <ele>270.32</ele>
   </trkpt>
   <trkpt lat="-37.87314501073924" lon="145.4088950271959">
    <ele>265.07000000000005</ele>
   </trkpt>
   <trkpt lat="-37.87377250803996" lon="145.40809752041568">
    <ele>263.14000000000004</ele>
   </trkpt>
   <trkpt lat="-37.8744" lon="145.40730000000002">
    <ele>265.02000000000004</ele>
   </trkpt>
   <trkpt lat="-37.874410000000005" lon="145.40729000000002">
    <ele>265.05</ele>
   </trkpt>
   <trkpt lat="-37.874480000000005" lon="145.40719">
    <ele>265.38</ele>
   </trkpt>
   <trkpt lat="-37.874460000000006" lon="145.40716">
    <ele>265.46000000000004</ele>
   </trkpt>
   <trkpt lat="-37.87451" lon="145.4071">
    <ele>266.68</ele>
   </trkpt>
   <trkpt lat="-37.87449" lon="145.40705">
    <ele>266.72</ele>
   </trkpt>
   <trkpt lat="-37.87482" lon="145.40663">
    <ele>263.03000000000003</ele>
   </trkpt>
   <trkpt lat="-37.874210000000005" lon="145.40585000000002">
    <ele>266.8</ele>
   </trkpt>
   <trkpt lat="-37.87436" lon="145.40566">
    <ele>265.43</ele>
   </trkpt>
   <trkpt lat="-37.874370000000006" lon="145.40566">
    <ele>265.40000000000003</ele>
   </trkpt>
   <trkpt lat="-37.874210000000005" lon="145.40585000000002">
    <ele>266.8</ele>
   </trkpt>
   <trkpt lat="-37.87391" lon="145.40546">
    <ele>270.97</ele>
   </trkpt>
   <trkpt lat="-37.873780000000004" lon="145.40519">
    <ele>272.16</ele>
   </trkpt>
   <trkpt lat="-37.87417000000001" lon="145.40492">
    <ele>269.44</ele>
   </trkpt>
   <trkpt lat="-37.87422" lon="145.40494">
    <ele>269.02000000000004</ele>
   </trkpt>
   <trkpt lat="-37.87425" lon="145.40498000000002">
    <ele>269.02000000000004</ele>
   </trkpt>
   <trkpt lat="-37.87468500060773" lon="145.40467500165073">
    <ele>263.5</ele>
   </trkpt>
   <trkpt lat="-37.87512" lon="145.40437">
    <ele>255.79000000000002</ele>
   </trkpt>
   <trkpt lat="-37.87476" lon="145.40362000000002">
    <ele>253.87000000000003</ele>
   </trkpt>
   <trkpt lat="-37.874520000000004" lon="145.40336000000002">
    <ele>254.71000000000004</ele>
   </trkpt>
   <trkpt lat="-37.87429" lon="145.40313">
    <ele>256.88</ele>
   </trkpt>
   <trkpt lat="-37.87397" lon="145.40286">
    <ele>260.56</ele>
   </trkpt>
   <trkpt lat="-37.87366" lon="145.40205">
    <ele>267.03000000000003</ele>
   </trkpt>
   <trkpt lat="-37.873580000000004" lon="145.40196">
    <ele>268.77</ele>
   </trkpt>
   <trkpt lat="-37.873720000000006" lon="145.40184000000002">
    <ele>267.79</ele>
   </trkpt>
   <trkpt lat="-37.87395" lon="145.40178">
    <ele>262.33</ele>
   </trkpt>
   <trkpt lat="-37.87426" lon="145.40164000000001">
    <ele>259.65000000000003</ele>
   </trkpt>
   <trkpt lat="-37.874430000000004" lon="145.40147000000002">
    <ele>257.8</ele>
   </trkpt>
   <trkpt lat="-37.87444" lon="145.40146000000001">
    <ele>257.75000000000006</ele>
   </trkpt>
   <trkpt lat="-37.87458" lon="145.40119">
    <ele>256.77</ele>
   </trkpt>
   <trkpt lat="-37.875" lon="145.40078000000003">
    <ele>253.0</ele>
   </trkpt>
   <trkpt lat="-37.875530000000005" lon="145.40058000000002">
    <ele>241.91</ele>
   </trkpt>
   <trkpt lat="-37.87565" lon="145.40033000000003">
    <ele>241.45000000000002</ele>
   </trkpt>
   <trkpt lat="-37.87568" lon="145.40022000000002">
    <ele>241.48000000000002</ele>
   </trkpt>
   <trkpt lat="-37.87617" lon="145.39934000000002">
    <ele>241.89000000000001</ele>
   </trkpt>
   <trkpt lat="-37.8763" lon="145.3992">
    <ele>241.83</ele>
   </trkpt>
   <trkpt lat="-37.87653" lon="145.39909">
    <ele>241.64000000000001</ele>
   </trkpt>
   <trkpt lat="-37.8767" lon="145.39898000000002">
    <ele>242.09000000000003</ele>
   </trkpt>
   <trkpt lat="-37.87704" lon="145.39886">
    <ele>244.66000000000003</ele>
   </trkpt>
   <trkpt lat="-37.877140000000004" lon="145.39871000000002">
    <ele>244.66000000000003</ele>
   </trkpt>
   <trkpt lat="-37.87747" lon="145.39803">
    <ele>244.49</ele>
   </trkpt>
   <trkpt lat="-37.87758" lon="145.39795">
    <ele>244.87000000000003</ele>
   </trkpt>
   <trkpt lat="-37.87773" lon="145.39775">
    <ele>245.73000000000002</ele>
   </trkpt>
   <trkpt lat="-37.8778" lon="145.3975">
    <ele>244.88</ele>
   </trkpt>
   <trkpt lat="-37.8778" lon="145.39710000000002">
    <ele>242.03000000000003</ele>
   </trkpt>
   <trkpt lat="-37.87782" lon="145.39697">
    <ele>241.69</ele>
   </trkpt>
   <trkpt lat="-37.877950000000006" lon="145.39672000000002">
    <ele>240.89000000000001</ele>
   </trkpt>
   <trkpt lat="-37.878040000000006" lon="145.39666000000003">
    <ele>240.02</ele>
   </trkpt>
   <trkpt lat="-37.87834" lon="145.39653">
    <ele>238.5</ele>
   </trkpt>
   <trkpt lat="-37.878420000000006" lon="145.39647000000002">
    <ele>238.98000000000002</ele>
   </trkpt>
   <trkpt lat="-37.878460000000004" lon="145.39628000000002">
    <ele>238.88</ele>
   </trkpt>
   <trkpt lat="-37.87859" lon="145.39628000000002">
    <ele>238.86</ele>
   </trkpt>
   <trkpt lat="-37.878600000000006" lon="145.39610000000002">
    <ele>241.95000000000002</ele>
   </trkpt>
   <trkpt lat="-37.87888" lon="145.39579">
    <ele>249.48</ele>
   </trkpt>
   <trkpt lat="-37.879070000000006" lon="145.39567000000002">
    <ele>253.71000000000004</ele>
   </trkpt>
   <trkpt lat="-37.87921" lon="145.39564000000001">
    <ele>254.15000000000003</ele>
   </trkpt>
   <trkpt lat="-37.87937" lon="145.39569">
    <ele>255.04000000000005</ele>
   </trkpt>
   <trkpt lat="-37.87955" lon="145.39568">
    <ele>256.53000000000003</ele>
   </trkpt>
   <trkpt lat="-37.87968" lon="145.39564000000001">
    <ele>257.11</ele>
   </trkpt>
   <trkpt lat="-37.8798" lon="145.39555000000001">
    <ele>257.13</ele>
   </trkpt>
   <trkpt lat="-37.879810000000006" lon="145.39554">
    <ele>257.11</ele>
   </trkpt>
   <trkpt lat="-37.87982" lon="145.39553">
    <ele>257.11</ele>
   </trkpt>
   <trkpt lat="-37.87993" lon="145.3955">
    <ele>256.84000000000003</ele>
   </trkpt>
   <trkpt lat="-37.88009" lon="145.39517">
    <ele>256.59999999999997</ele>
   </trkpt>
   <trkpt lat="-37.88017" lon="145.39508">
    <ele>256.82000000000005</ele>
   </trkpt>
   <trkpt lat="-37.88035" lon="145.39497">
    <ele>257.83</ele>
   </trkpt>
   <trkpt lat="-37.88047" lon="145.3948">
    <ele>259.67</ele>
   </trkpt>
   <trkpt lat="-37.88053" lon="145.39459000000002">
    <ele>260.46000000000004</ele>
   </trkpt>
   <trkpt lat="-37.88067" lon="145.39444">
    <ele>259.65000000000003</ele>
   </trkpt>
   <trkpt lat="-37.88105" lon="145.39424000000002">
    <ele>259.64000000000004</ele>
   </trkpt>
   <trkpt lat="-37.8812" lon="145.3941">
    <ele>259.91</ele>
   </trkpt>
   <trkpt lat="-37.88129" lon="145.3939">
    <ele>260.49</ele>
   </trkpt>
   <trkpt lat="-37.88109" lon="145.39360000000002">
    <ele>263.66</ele>
   </trkpt>
   <trkpt lat="-37.881040000000006" lon="145.39341000000002">
    <ele>265.09000000000003</ele>
   </trkpt>
   <trkpt lat="-37.88103" lon="145.39316000000002">
    <ele>265.44</ele>
   </trkpt>
   <trkpt lat="-37.88105" lon="145.39290000000003">
    <ele>265.22</ele>
   </trkpt>
   <trkpt lat="-37.88114" lon="145.39270000000002">
    <ele>264.53000000000003</ele>
   </trkpt>
   <trkpt lat="-37.88125" lon="145.39251000000002">
    <ele>264.53000000000003</ele>
   </trkpt>
   <trkpt lat="-37.88129" lon="145.39199000000002">
    <ele>266.29</ele>
   </trkpt>
   <trkpt lat="-37.88138" lon="145.39182000000002">
    <ele>266.36</ele>
   </trkpt>
   <trkpt lat="-37.881510000000006" lon="145.39169">
    <ele>265.99</ele>
   </trkpt>
   <trkpt lat="-37.8817" lon="145.39170000000001">
    <ele>266.31000000000006</ele>
   </trkpt>
   <trkpt lat="-37.88181" lon="145.3916">
    <ele>267.15</ele>
   </trkpt>
   <trkpt lat="-37.88199" lon="145.39137000000002">
    <ele>267.99</ele>
   </trkpt>
   <trkpt lat="-37.88226" lon="145.39113">
    <ele>268.84000000000003</ele>
   </trkpt>
   <trkpt lat="-37.88232" lon="145.39103">
    <ele>269.21</ele>
   </trkpt>
   <trkpt lat="-37.882360000000006" lon="145.39082000000002">
    <ele>269.69000000000005</ele>
   </trkpt>
   <trkpt lat="-37.88235" lon="145.39065000000002">
    <ele>271.03000000000003</ele>
   </trkpt>
   <trkpt lat="-37.88223" lon="145.39036000000002">
    <ele>272.84000000000003</ele>
   </trkpt>
   <trkpt lat="-37.88223" lon="145.39020000000002">
    <ele>273.06</ele>
   </trkpt>
   <trkpt lat="-37.882070000000006" lon="145.38981">
    <ele>274.57000000000005</ele>
   </trkpt>
   <trkpt lat="-37.88208" lon="145.38973000000001">
    <ele>274.61</ele>
   </trkpt>
   <trkpt lat="-37.88221" lon="145.38958000000002">
    <ele>274.61</ele>
   </trkpt>
   <trkpt lat="-37.88239" lon="145.38930000000002">
    <ele>275.28000000000003</ele>
   </trkpt>
   <trkpt lat="-37.88244" lon="145.38894000000002">
    <ele>275.92</ele>
   </trkpt>
   <trkpt lat="-37.88255" lon="145.38872">
    <ele>276.57000000000005</ele>
   </trkpt>
   <trkpt lat="-37.882670000000005" lon="145.38839000000002">
    <ele>276.85</ele>
   </trkpt>
   <trkpt lat="-37.882830000000006" lon="145.38811">
    <ele>279.7</ele>
   </trkpt>
   <trkpt lat="-37.88295" lon="145.38770000000002">
    <ele>280.91</ele>
   </trkpt>
   <trkpt lat="-37.88311" lon="145.38696000000002">
    <ele>283.16</ele>
   </trkpt>
   <trkpt lat="-37.88313" lon="145.38674">
    <ele>284.03</ele>
   </trkpt>
   <trkpt lat="-37.88286" lon="145.38613">
    <ele>285.90000000000003</ele>
   </trkpt>
   <trkpt lat="-37.88277" lon="145.38558">
    <ele>288.31</ele>
   </trkpt>
   <trkpt lat="-37.88277" lon="145.38517000000002">
    <ele>290.59000000000003</ele>
   </trkpt>
   <trkpt lat="-37.88239" lon="145.38424">
    <ele>292.96</ele>
   </trkpt>
   <trkpt lat="-37.88241" lon="145.38393000000002">
    <ele>294.24</ele>
   </trkpt>
   <trkpt lat="-37.8823" lon="145.38363">
    <ele>296.16</ele>
   </trkpt>
   <trkpt lat="-37.881980000000006" lon="145.38336">
    <ele>297.32000000000005</ele>
   </trkpt>
   <trkpt lat="-37.88181" lon="145.38306">
    <ele>299.39000000000004</ele>
   </trkpt>
   <trkpt lat="-37.88183" lon="145.3829">
    <ele>300.11</ele>
   </trkpt>
   <trkpt lat="-37.88174" lon="145.38281">
    <ele>300.07</ele>
   </trkpt>
   <trkpt lat="-37.88163" lon="145.38285000000002">
    <ele>300.15000000000003</ele>
   </trkpt>
   <trkpt lat="-37.88156" lon="145.38291">
    <ele>300.29</ele>
   </trkpt>
   <trkpt lat="-37.88145" lon="145.38292">
    <ele>301.1</ele>
   </trkpt>
   <trkpt lat="-37.88123" lon="145.38276000000002">
    <ele>301.75</ele>
   </trkpt>
   <trkpt lat="-37.881" lon="145.38254">
    <ele>303.6700000000001</ele>
   </trkpt>
   <trkpt lat="-37.88094" lon="145.38244">
    <ele>303.92</ele>
   </trkpt>
   <trkpt lat="-37.88098" lon="145.38230000000001">
    <ele>304.72</ele>
   </trkpt>
   <trkpt lat="-37.88114" lon="145.38207">
    <ele>306.1</ele>
   </trkpt>
   <trkpt lat="-37.881190000000004" lon="145.38196000000002">
    <ele>306.38000000000005</ele>
   </trkpt>
   <trkpt lat="-37.881190000000004" lon="145.38195000000002">
    <ele>306.38000000000005</ele>
   </trkpt>
   <trkpt lat="-37.88123" lon="145.38188000000002">
    <ele>306.92</ele>
   </trkpt>
   <trkpt lat="-37.88078" lon="145.38125000000002">
    <ele>315.28</ele>
   </trkpt>
   <trkpt lat="-37.8804" lon="145.38083">
    <ele>317.90000000000003</ele>
   </trkpt>
   <trkpt lat="-37.88029" lon="145.38060000000002">
    <ele>316.14000000000004</ele>
   </trkpt>
   <trkpt lat="-37.88029" lon="145.38036000000002">
    <ele>316.06</ele>
   </trkpt>
   <trkpt lat="-37.88033" lon="145.3801">
    <ele>318.03000000000003</ele>
   </trkpt>
   <trkpt lat="-37.88026" lon="145.37994">
    <ele>320.1</ele>
   </trkpt>
   <trkpt lat="-37.88013" lon="145.37941">
    <ele>325.02000000000004</ele>
   </trkpt>
   <trkpt lat="-37.87997" lon="145.37905">
    <ele>323.77</ele>
   </trkpt>
   <trkpt lat="-37.87982" lon="145.37881000000002">
    <ele>322.76000000000005</ele>
   </trkpt>
   <trkpt lat="-37.87975" lon="145.37853">
    <ele>323.13</ele>
   </trkpt>
   <trkpt lat="-37.87966" lon="145.37843">
    <ele>325.09999999999997</ele>
   </trkpt>
   <trkpt lat="-37.87948" lon="145.37797">
    <ele>331.64000000000004</ele>
   </trkpt>
   <trkpt lat="-37.87912" lon="145.37754">
    <ele>339.62</ele>
   </trkpt>
   <trkpt lat="-37.87894" lon="145.37752">
    <ele>340.95000000000005</ele>
   </trkpt>
   <trkpt lat="-37.87852" lon="145.37720000000002">
    <ele>340.61</ele>
   </trkpt>
   <trkpt lat="-37.87841" lon="145.37688">
    <ele>336.27</ele>
   </trkpt>
   <trkpt lat="-37.87841" lon="145.3767">
    <ele>334.47</ele>
   </trkpt>
   <trkpt lat="-37.878510000000006" lon="145.37664">
    <ele>334.29</ele>
   </trkpt>
   <trkpt lat="-37.87854" lon="145.37655">
    <ele>334.59000000000003</ele>
   </trkpt>
   <trkpt lat="-37.87861" lon="145.37649000000002">
    <ele>335.24</ele>
   </trkpt>
   <trkpt lat="-37.8787" lon="145.37637">
    <ele>336.55</ele>
   </trkpt>
   <trkpt lat="-37.878710000000005" lon="145.37606000000002">
    <ele>338.33000000000004</ele>
   </trkpt>
   <trkpt lat="-37.87872" lon="145.37596000000002">
    <ele>338.21</ele>
   </trkpt>
   <trkpt lat="-37.87861" lon="145.37571">
    <ele>338.3</ele>
   </trkpt>
   <trkpt lat="-37.87854" lon="145.37534000000002">
    <ele>338.8</ele>
   </trkpt>
   <trkpt lat="-37.87843" lon="145.37523000000002">
    <ele>335.99</ele>
   </trkpt>
   <trkpt lat="-37.87825" lon="145.375">
    <ele>333.19000000000005</ele>
   </trkpt>
   <trkpt lat="-37.87816" lon="145.37472000000002">
    <ele>331.22</ele>
   </trkpt>
   <trkpt lat="-37.87823" lon="145.37415000000001">
    <ele>329.70000000000005</ele>
   </trkpt>
   <trkpt lat="-37.87829" lon="145.37389000000002">
    <ele>327.69000000000005</ele>
   </trkpt>
   <trkpt lat="-37.87829" lon="145.37361">
    <ele>323.86</ele>
   </trkpt>
   <trkpt lat="-37.87836" lon="145.37346000000002">
    <ele>324.99</ele>
   </trkpt>
   <trkpt lat="-37.878460000000004" lon="145.37306">
    <ele>328.08000000000004</ele>
   </trkpt>
   <trkpt lat="-37.87843" lon="145.37283000000002">
    <ele>339.14000000000004</ele>
   </trkpt>
   <trkpt lat="-37.87838" lon="145.37277">
    <ele>344.73</ele>
   </trkpt>
   <trkpt lat="-37.878310000000006" lon="145.37275000000002">
    <ele>344.65</ele>
   </trkpt>
   <trkpt lat="-37.87807" lon="145.37275000000002">
    <ele>343.56</ele>
   </trkpt>
   <trkpt lat="-37.87791" lon="145.37255000000002">
    <ele>344.6</ele>
   </trkpt>
   <trkpt lat="-37.87782" lon="145.37237000000002">
    <ele>345.89000000000004</ele>
   </trkpt>
   <trkpt lat="-37.87787" lon="145.37221000000002">
    <ele>345.91</ele>
   </trkpt>
   <trkpt lat="-37.87785" lon="145.37207">
    <ele>345.90000000000003</ele>
   </trkpt>
   <trkpt lat="-37.87785" lon="145.37195">
    <ele>345.76</ele>
   </trkpt>
   <trkpt lat="-37.87792" lon="145.37179">
    <ele>345.21000000000004</ele>
   </trkpt>
   <trkpt lat="-37.87778" lon="145.37164">
    <ele>347.22</ele>
   </trkpt>
   <trkpt lat="-37.87773" lon="145.3716">
    <ele>347.69000000000005</ele>
   </trkpt>
   <trkpt lat="-37.877700000000004" lon="145.37152">
    <ele>348.99</ele>
   </trkpt>
   <trkpt lat="-37.87811500257486" lon="145.37073000457394">
    <ele>353.05</ele>
   </trkpt>
   <trkpt lat="-37.878530000000005" lon="145.36994">
    <ele>355.00000000000006</ele>
   </trkpt>
   <trkpt lat="-37.879110000000004" lon="145.36958">
    <ele>359.96</ele>
   </trkpt>
   <trkpt lat="-37.879640000470616" lon="145.36926000228001">
    <ele>359.55</ele>
   </trkpt>
   <trkpt lat="-37.88017" lon="145.36894">
    <ele>369.00000000000006</ele>
   </trkpt>
   <trkpt lat="-37.880190000000006" lon="145.36891">
    <ele>371.92</ele>
   </trkpt>
   <trkpt lat="-37.88022" lon="145.36870000000002">
    <ele>375.02000000000004</ele>
   </trkpt>
   <trkpt lat="-37.88024" lon="145.36867">
    <ele>375.72</ele>
   </trkpt>
   <trkpt lat="-37.88094" lon="145.36870000000002">
    <ele>380.99000000000007</ele>
   </trkpt>
   <trkpt lat="-37.88109" lon="145.36876">
    <ele>380.74</ele>
   </trkpt>
   <trkpt lat="-37.88118" lon="145.36876">
    <ele>380.72</ele>
   </trkpt>
   <trkpt lat="-37.88152" lon="145.36864">
    <ele>386.74</ele>
   </trkpt>
   <trkpt lat="-37.88181" lon="145.36846">
    <ele>387.97</ele>
   </trkpt>
   <trkpt lat="-37.8819" lon="145.36846">
    <ele>389.87000000000006</ele>
   </trkpt>
   <trkpt lat="-37.88214" lon="145.36857">
    <ele>392.0</ele>
   </trkpt>
   <trkpt lat="-37.88246" lon="145.36877">
    <ele>388.48</ele>
   </trkpt>
   <trkpt lat="-37.88259" lon="145.36881000000002">
    <ele>387.98</ele>
   </trkpt>
   <trkpt lat="-37.88308" lon="145.36875">
    <ele>387.61</ele>
   </trkpt>
   <trkpt lat="-37.88355500021586" lon="145.36854500130582">
    <ele>387.46000000000004</ele>
   </trkpt>
   <trkpt lat="-37.88403" lon="145.36834000000002">
    <ele>380.55000000000007</ele>
   </trkpt>
   <trkpt lat="-37.88387" lon="145.36816000000002">
    <ele>385.37000000000006</ele>
   </trkpt>
   <trkpt lat="-37.88330000073707" lon="145.36774499679424">
    <ele>398.16</ele>
   </trkpt>
   <trkpt lat="-37.88273" lon="145.36733">
    <ele>414.46000000000004</ele>
   </trkpt>
   <trkpt lat="-37.88255" lon="145.36732">
    <ele>417.26</ele>
   </trkpt>
   <trkpt lat="-37.8823" lon="145.36705">
    <ele>425.64</ele>
   </trkpt>
   <trkpt lat="-37.882130000000004" lon="145.36676">
    <ele>432.77000000000004</ele>
   </trkpt>
   <trkpt lat="-37.88228" lon="145.36654000000001">
    <ele>437.25</ele>
   </trkpt>
   <trkpt lat="-37.88228" lon="145.36633">
    <ele>439.69</ele>
   </trkpt>
   <trkpt lat="-37.88199" lon="145.36610000000002">
    <ele>447.00000000000006</ele>
   </trkpt>
   <trkpt lat="-37.881710000000005" lon="145.36578">
    <ele>454.21000000000004</ele>
   </trkpt>
   <trkpt lat="-37.88165" lon="145.36581">
    <ele>454.43000000000006</ele>
   </trkpt>
   <trkpt lat="-37.88143" lon="145.36534">
    <ele>460.68</ele>
   </trkpt>
   <trkpt lat="-37.881150000000005" lon="145.36465">
    <ele>464.96000000000004</ele>
   </trkpt>
   <trkpt lat="-37.88103" lon="145.36409">
    <ele>469.08000000000004</ele>
   </trkpt>
   <trkpt lat="-37.88102000000001" lon="145.36369000000002">
    <ele>471.26</ele>
   </trkpt>
   <trkpt lat="-37.881045002681944" lon="145.36289499998617">
    <ele>475.16</ele>
   </trkpt>
   <trkpt lat="-37.88107" lon="145.3621">
    <ele>476.23</ele>
   </trkpt>
   <trkpt lat="-37.88105" lon="145.36171000000002">
    <ele>475.89000000000004</ele>
   </trkpt>
   <trkpt lat="-37.88096" lon="145.36137000000002">
    <ele>475.14000000000004</ele>
   </trkpt>
   <trkpt lat="-37.88076" lon="145.36099000000002">
    <ele>473.82</ele>
   </trkpt>
   <trkpt lat="-37.880660000000006" lon="145.36061">
    <ele>472.1</ele>
   </trkpt>
   <trkpt lat="-37.88073" lon="145.36056000000002">
    <ele>470.9200000000001</ele>
   </trkpt>
   <trkpt lat="-37.88058" lon="145.35969">
    <ele>467.12</ele>
   </trkpt>
   <trkpt lat="-37.88049" lon="145.35951">
    <ele>466.4800000000001</ele>
   </trkpt>
   <trkpt lat="-37.88055000000001" lon="145.35955">
    <ele>474.18000000000006</ele>
   </trkpt>
   <trkpt lat="-37.880680000000005" lon="145.35916">
    <ele>478.57000000000005</ele>
   </trkpt>
   <trkpt lat="-37.88062" lon="145.35906">
    <ele>480.67</ele>
   </trkpt>
   <trkpt lat="-37.88033" lon="145.3591">
    <ele>481.16</ele>
   </trkpt>
   <trkpt lat="-37.8802" lon="145.35908">
    <ele>481.21000000000004</ele>
   </trkpt>
   <trkpt lat="-37.88006" lon="145.35903000000002">
    <ele>481.11</ele>
   </trkpt>
   <trkpt lat="-37.87986" lon="145.35886000000002">
    <ele>480.51000000000005</ele>
   </trkpt>
   <trkpt lat="-37.87975" lon="145.35876000000002">
    <ele>480.19000000000005</ele>
   </trkpt>
   <trkpt lat="-37.87919" lon="145.35846">
    <ele>482.67</ele>
   </trkpt>
   <trkpt lat="-37.87876" lon="145.35838">
    <ele>484.51000000000005</ele>
   </trkpt>
   <trkpt lat="-37.878600000000006" lon="145.35829">
    <ele>484.59000000000003</ele>
   </trkpt>
   <trkpt lat="-37.87818" lon="145.35801">
    <ele>482.90000000000003</ele>
   </trkpt>
   <trkpt lat="-37.87798" lon="145.35797000000002">
    <ele>482.28000000000003</ele>
   </trkpt>
   <trkpt lat="-37.8778" lon="145.35791">
    <ele>481.63000000000005</ele>
   </trkpt>
   <trkpt lat="-37.877500000000005" lon="145.35765">
    <ele>480.22</ele>
   </trkpt>
   <trkpt lat="-37.87729000133645" lon="145.35708999843064">
    <ele>477.12000000000006</ele>
   </trkpt>
   <trkpt lat="-37.87708000000001" lon="145.35653000000002">
    <ele>475.96000000000004</ele>
   </trkpt>
   <trkpt lat="-37.876900000000006" lon="145.35659">
    <ele>460.34000000000003</ele>
   </trkpt>
   <trkpt lat="-37.876870000000004" lon="145.35659">
    <ele>463.62</ele>
   </trkpt>
   <trkpt lat="-37.87664" lon="145.35614">
    <ele>462.49</ele>
   </trkpt>
   <trkpt lat="-37.87639" lon="145.35572000000002">
    <ele>463.51000000000005</ele>
   </trkpt>
   <trkpt lat="-37.87617" lon="145.35548">
    <ele>465.52000000000004</ele>
   </trkpt>
   <trkpt lat="-37.876070000000006" lon="145.35525">
    <ele>466.63000000000005</ele>
   </trkpt>
   <trkpt lat="-37.87608" lon="145.35506">
    <ele>469.1</ele>
   </trkpt>
   <trkpt lat="-37.876180000000005" lon="145.35491000000002">
    <ele>469.33000000000004</ele>
   </trkpt>
   <trkpt lat="-37.8761" lon="145.35474000000002">
    <ele>470.41</ele>
   </trkpt>
   <trkpt lat="-37.87599" lon="145.35412000000002">
    <ele>475.99</ele>
   </trkpt>
   <trkpt lat="-37.87619" lon="145.35325">
    <ele>482.33000000000004</ele>
   </trkpt>
   <trkpt lat="-37.87619" lon="145.35324">
    <ele>482.43</ele>
   </trkpt>
   <trkpt lat="-37.87635" lon="145.35294000000002">
    <ele>486.19000000000005</ele>
   </trkpt>
   <trkpt lat="-37.87635" lon="145.35272">
    <ele>487.96000000000004</ele>
   </trkpt>
   <trkpt lat="-37.87621" lon="145.35214000000002">
    <ele>495.12000000000006</ele>
   </trkpt>
   <trkpt lat="-37.87621" lon="145.35187000000002">
    <ele>499.50000000000006</ele>
   </trkpt>
   <trkpt lat="-37.87617" lon="145.35168000000002">
    <ele>500.86000000000007</ele>
   </trkpt>
   <trkpt lat="-37.875980000000006" lon="145.35139">
    <ele>503.51</ele>
   </trkpt>
   <trkpt lat="-37.87594" lon="145.35117000000002">
    <ele>508.6700000000001</ele>
   </trkpt>
   <trkpt lat="-37.87581" lon="145.35093">
    <ele>512.76</ele>
   </trkpt>
   <trkpt lat="-37.87576" lon="145.35080000000002">
    <ele>512.76</ele>
   </trkpt>
   <trkpt lat="-37.87561" lon="145.35064">
    <ele>515.7400000000001</ele>
   </trkpt>
   <trkpt lat="-37.87554" lon="145.35052000000002">
    <ele>517.34</ele>
   </trkpt>
   <trkpt lat="-37.87518" lon="145.35024">
    <ele>519.3800000000001</ele>
   </trkpt>
   <trkpt lat="-37.87482" lon="145.34974000000003">
    <ele>523.02</ele>
   </trkpt>
   <trkpt lat="-37.8746" lon="145.34956000000003">
    <ele>523.1800000000001</ele>
   </trkpt>
   <trkpt lat="-37.87438" lon="145.3494">
    <ele>522.84</ele>
   </trkpt>
   <trkpt lat="-37.87433" lon="145.34928000000002">
    <ele>522.95</ele>
   </trkpt>
   <trkpt lat="-37.87413" lon="145.34910000000002">
    <ele>523.4000000000001</ele>
   </trkpt>
   <trkpt lat="-37.87397" lon="145.34883000000002">
    <ele>524.3</ele>
   </trkpt>
   <trkpt lat="-37.87397" lon="145.34874000000002">
    <ele>525.0600000000001</ele>
   </trkpt>
   <trkpt lat="-37.8742" lon="145.34820000000002">
    <ele>526.39</ele>
   </trkpt>
   <trkpt lat="-37.87453" lon="145.34727">
    <ele>525.14</ele>
   </trkpt>
   <trkpt lat="-37.87453" lon="145.34695000000002">
    <ele>525.2900000000001</ele>
   </trkpt>
   <trkpt lat="-37.874370000000006" lon="145.34650000000002">
    <ele>527.1300000000001</ele>
   </trkpt>
   <trkpt lat="-37.874120000000005" lon="145.34580000000003">
    <ele>528.61</ele>
   </trkpt>
   <trkpt lat="-37.874080000000006" lon="145.34573">
    <ele>526.39</ele>
   </trkpt>
   <trkpt lat="-37.87366" lon="145.34601">
    <ele>531.5600000000001</ele>
   </trkpt>
   <trkpt lat="-37.87292" lon="145.34658000000002">
    <ele>536.6200000000001</ele>
   </trkpt>
   <trkpt lat="-37.87254" lon="145.34681">
    <ele>536.94</ele>
   </trkpt>
   <trkpt lat="-37.872059999990576" lon="145.3469850011908">
    <ele>534.88</ele>
   </trkpt>
   <trkpt lat="-37.87158" lon="145.34716">
    <ele>531.49</ele>
   </trkpt>
   <trkpt lat="-37.87075" lon="145.34751">
    <ele>526.6899999999999</ele>
   </trkpt>
   <trkpt lat="-37.870430000000006" lon="145.34763">
    <ele>526.6200000000001</ele>
   </trkpt>
   <trkpt lat="-37.87044" lon="145.34763">
    <ele>526.6200000000001</ele>
   </trkpt>
   <trkpt lat="-37.87017" lon="145.34773">
    <ele>526.32</ele>
   </trkpt>
   <trkpt lat="-37.870140000000006" lon="145.34777000000003">
    <ele>526.2800000000001</ele>
   </trkpt>
   <trkpt lat="-37.87008" lon="145.3477">
    <ele>525.5200000000001</ele>
   </trkpt>
   <trkpt lat="-37.86946500252455" lon="145.34847500648823">
    <ele>524.27</ele>
   </trkpt>
   <trkpt lat="-37.86885" lon="145.34925">
    <ele>520.8900000000001</ele>
   </trkpt>
   <trkpt lat="-37.86867" lon="145.34957">
    <ele>519.07</ele>
   </trkpt>
   <trkpt lat="-37.86833" lon="145.35041">
    <ele>514.94</ele>
   </trkpt>
   <trkpt lat="-37.86825" lon="145.35064">
    <ele>513.6400000000001</ele>
   </trkpt>
   <trkpt lat="-37.86824" lon="145.35085">
    <ele>511.5200000000001</ele>
   </trkpt>
   <trkpt lat="-37.86829" lon="145.35101">
    <ele>511.5200000000001</ele>
   </trkpt>
   <trkpt lat="-37.86862" lon="145.35204000000002">
    <ele>505.82000000000005</ele>
   </trkpt>
   <trkpt lat="-37.86865" lon="145.35217">
    <ele>505.2000000000001</ele>
   </trkpt>
   <trkpt lat="-37.86858" lon="145.35242000000002">
    <ele>503.73</ele>
   </trkpt>
   <trkpt lat="-37.86851" lon="145.35256">
    <ele>503.73</ele>
   </trkpt>
   <trkpt lat="-37.86842" lon="145.35266000000001">
    <ele>499.46</ele>
   </trkpt>
   <trkpt lat="-37.868280000000006" lon="145.35275000000001">
    <ele>499.46</ele>
   </trkpt>
   <trkpt lat="-37.868120000000005" lon="145.35282">
    <ele>501.12</ele>
   </trkpt>
   <trkpt lat="-37.867960000000004" lon="145.35287000000002">
    <ele>500.69000000000005</ele>
   </trkpt>
   <trkpt lat="-37.867470000000004" lon="145.3529">
    <ele>496.27000000000004</ele>
   </trkpt>
   <trkpt lat="-37.86681" lon="145.35287000000002">
    <ele>492.16</ele>
   </trkpt>
   <trkpt lat="-37.86663" lon="145.35284000000001">
    <ele>491.45000000000005</ele>
   </trkpt>
   <trkpt lat="-37.86645" lon="145.35275000000001">
    <ele>491.05</ele>
   </trkpt>
   <trkpt lat="-37.86605" lon="145.35250000000002">
    <ele>490.93</ele>
   </trkpt>
   <trkpt lat="-37.8658" lon="145.35241000000002">
    <ele>490.41</ele>
   </trkpt>
   <trkpt lat="-37.865100000000005" lon="145.35235">
    <ele>487.62000000000006</ele>
   </trkpt>
   <trkpt lat="-37.865030000000004" lon="145.35241000000002">
    <ele>485.85</ele>
   </trkpt>
   <trkpt lat="-37.86439" lon="145.35256">
    <ele>481.87</ele>
   </trkpt>
   <trkpt lat="-37.86421" lon="145.35266000000001">
    <ele>480.63000000000005</ele>
   </trkpt>
   <trkpt lat="-37.86415" lon="145.35265">
    <ele>480.33000000000004</ele>
   </trkpt>
   <trkpt lat="-37.863820000000004" lon="145.35289">
    <ele>480.0</ele>
   </trkpt>
   <trkpt lat="-37.86383" lon="145.35289">
    <ele>480.0</ele>
   </trkpt>
   <trkpt lat="-37.86342500025003" lon="145.35317500163202">
    <ele>479.54</ele>
   </trkpt>
   <trkpt lat="-37.863020000000006" lon="145.35346">
    <ele>480.19000000000005</ele>
   </trkpt>
  </trkseg>
 </trk>
</gpx>
