<?xml version="1.0" encoding="UTF-8"?>
<gpx creator="StravaGPX" version="1.1" xmlns="http://www.topografix.com/GPX/1/1" xmlns:xsi="http://www.w3.org/2001/XMLSchema-instance" xsi:schemaLocation="http://www.topografix.com/GPX/1/1 http://www.topografix.com/GPX/1/1/gpx.xsd">
 <metadata>
  <name>DTR 14k May 8 2026</name>
  <author>
   <name>Richard Jones</name>
   <link href="https://www.strava.com/athletes/38085969"/>
  </author>
  <copyright author="OpenStreetMap contributors">
   <year>2020</year>
   <license>https://www.openstreetmap.org/copyright</license>
  </copyright>
  <link href="https://www.strava.com/routes/3487641006759458894"/>
 </metadata>
 <trk>
  <name>DTR 14k May 8 2026</name>
  <link href="https://www.strava.com/routes/3487641006759458894"/>
  <type>trail_running</type>
  <trkseg>
   <trkpt lat="-37.88721" lon="145.37030000000001">
    <ele>366.53000000000003</ele>
   </trkpt>
   <trkpt lat="-37.88729" lon="145.37024000000002">
    <ele>366.21000000000004</ele>
   </trkpt>
   <trkpt lat="-37.887350000000005" lon="145.37013000000002">
    <ele>366.05</ele>
   </trkpt>
   <trkpt lat="-37.88731000000001" lon="145.37011">
    <ele>366.13</ele>
   </trkpt>
   <trkpt lat="-37.88683" lon="145.37049000000002">
    <ele>366.47</ele>
   </trkpt>
   <trkpt lat="-37.886520000000004" lon="145.37046">
    <ele>364.27000000000004</ele>
   </trkpt>
   <trkpt lat="-37.88644" lon="145.37038">
    <ele>364.58</ele>
   </trkpt>
   <trkpt lat="-37.88627" lon="145.37005000000002">
    <ele>366.00000000000006</ele>
   </trkpt>
   <trkpt lat="-37.88608" lon="145.37001">
    <ele>366.08</ele>
   </trkpt>
   <trkpt lat="-37.885920000000006" lon="145.36992">
    <ele>366.45000000000005</ele>
   </trkpt>
   <trkpt lat="-37.88528" lon="145.36944000000003">
    <ele>369.68</ele>
   </trkpt>
   <trkpt lat="-37.88517" lon="145.36938">
    <ele>369.68</ele>
   </trkpt>
   <trkpt lat="-37.88505" lon="145.36935000000003">
    <ele>371.07</ele>
   </trkpt>
   <trkpt lat="-37.88501" lon="145.36937">
    <ele>371.07</ele>
   </trkpt>
   <trkpt lat="-37.88499" lon="145.36944000000003">
    <ele>371.07</ele>
   </trkpt>
   <trkpt lat="-37.884840000000004" lon="145.36943000000002">
    <ele>369.71000000000004</ele>
   </trkpt>
   <trkpt lat="-37.88481" lon="145.36937">
    <ele>369.71000000000004</ele>
   </trkpt>
   <trkpt lat="-37.88472" lon="145.36936">
    <ele>369.71000000000004</ele>
   </trkpt>
   <trkpt lat="-37.88463" lon="145.36942000000002">
    <ele>370.16</ele>
   </trkpt>
   <trkpt lat="-37.883950000000006" lon="145.37016">
    <ele>368.14000000000004</ele>
   </trkpt>
   <trkpt lat="-37.88369" lon="145.37046">
    <ele>367.78000000000003</ele>
   </trkpt>
   <trkpt lat="-37.883500000000005" lon="145.37063">
    <ele>366.08</ele>
   </trkpt>
   <trkpt lat="-37.883500000000005" lon="145.37074">
    <ele>366.08</ele>
   </trkpt>
   <trkpt lat="-37.88331" lon="145.37095000000002">
    <ele>365.71000000000004</ele>
   </trkpt>
   <trkpt lat="-37.88315" lon="145.371">
    <ele>365.71000000000004</ele>
   </trkpt>
   <trkpt lat="-37.88313" lon="145.37095000000002">
    <ele>365.71000000000004</ele>
   </trkpt>
   <trkpt lat="-37.88266" lon="145.37129000000002">
    <ele>364.41</ele>
   </trkpt>
   <trkpt lat="-37.8821" lon="145.37149000000002">
    <ele>360.86</ele>
   </trkpt>
   <trkpt lat="-37.88201" lon="145.3716">
    <ele>360.71000000000004</ele>
   </trkpt>
   <trkpt lat="-37.88192" lon="145.37164">
    <ele>360.45000000000005</ele>
   </trkpt>
   <trkpt lat="-37.88195" lon="145.37149000000002">
    <ele>357.28000000000003</ele>
   </trkpt>
   <trkpt lat="-37.882250000000006" lon="145.37132000000003">
    <ele>359.36</ele>
   </trkpt>
   <trkpt lat="-37.882250000000006" lon="145.37127">
    <ele>359.36</ele>
   </trkpt>
   <trkpt lat="-37.88203" lon="145.37136">
    <ele>358.16</ele>
   </trkpt>
   <trkpt lat="-37.881490000301625" lon="145.37169000251674">
    <ele>354.53000000000003</ele>
   </trkpt>
   <trkpt lat="-37.880950000000006" lon="145.37202000000002">
    <ele>350.77000000000004</ele>
   </trkpt>
   <trkpt lat="-37.88076" lon="145.37211000000002">
    <ele>349.53</ele>
   </trkpt>
   <trkpt lat="-37.88029" lon="145.37224">
    <ele>346.92</ele>
   </trkpt>
   <trkpt lat="-37.88017" lon="145.37225">
    <ele>345.75</ele>
   </trkpt>
   <trkpt lat="-37.880010000000006" lon="145.37222">
    <ele>344.72</ele>
   </trkpt>
   <trkpt lat="-37.87952000000001" lon="145.37219000000002">
    <ele>342.27000000000004</ele>
   </trkpt>
   <trkpt lat="-37.87932" lon="145.37222">
    <ele>341.39000000000004</ele>
   </trkpt>
   <trkpt lat="-37.87908" lon="145.37229000000002">
    <ele>338.59</ele>
   </trkpt>
   <trkpt lat="-37.87876" lon="145.37249">
    <ele>336.29</ele>
   </trkpt>
   <trkpt lat="-37.87861" lon="145.37267">
    <ele>333.26</ele>
   </trkpt>
   <trkpt lat="-37.87845" lon="145.37303">
    <ele>330.46000000000004</ele>
   </trkpt>
   <trkpt lat="-37.87843" lon="145.37283000000002">
    <ele>344.73</ele>
   </trkpt>
   <trkpt lat="-37.87838" lon="145.37277">
    <ele>344.65</ele>
   </trkpt>
   <trkpt lat="-37.878310000000006" lon="145.37275000000002">
    <ele>344.01000000000005</ele>
   </trkpt>
   <trkpt lat="-37.87807" lon="145.37275000000002">
    <ele>343.88</ele>
   </trkpt>
   <trkpt lat="-37.87791" lon="145.37255000000002">
    <ele>344.6</ele>
   </trkpt>
   <trkpt lat="-37.87782" lon="145.37237000000002">
    <ele>346.65000000000003</ele>
   </trkpt>
   <trkpt lat="-37.87778" lon="145.37220000000002">
    <ele>347.88</ele>
   </trkpt>
   <trkpt lat="-37.87773" lon="145.37208">
    <ele>348.40000000000003</ele>
   </trkpt>
   <trkpt lat="-37.87767" lon="145.37204">
    <ele>348.43</ele>
   </trkpt>
   <trkpt lat="-37.87767" lon="145.37203000000002">
    <ele>348.43</ele>
   </trkpt>
   <trkpt lat="-37.877570000000006" lon="145.37197">
    <ele>348.53</ele>
   </trkpt>
   <trkpt lat="-37.87713" lon="145.37159000000003">
    <ele>350.62000000000006</ele>
   </trkpt>
   <trkpt lat="-37.87693" lon="145.37134">
    <ele>353.34000000000003</ele>
   </trkpt>
   <trkpt lat="-37.87691" lon="145.37124">
    <ele>353.34000000000003</ele>
   </trkpt>
   <trkpt lat="-37.876850000000005" lon="145.37126">
    <ele>335.53000000000003</ele>
   </trkpt>
   <trkpt lat="-37.87675" lon="145.37167000000002">
    <ele>334.73</ele>
   </trkpt>
   <trkpt lat="-37.8765" lon="145.37138000000002">
    <ele>335.41</ele>
   </trkpt>
   <trkpt lat="-37.87635" lon="145.37115">
    <ele>358.89000000000004</ele>
   </trkpt>
   <trkpt lat="-37.87614000000001" lon="145.37109">
    <ele>358.89000000000004</ele>
   </trkpt>
   <trkpt lat="-37.87608" lon="145.37106">
    <ele>358.92</ele>
   </trkpt>
   <trkpt lat="-37.875600000000006" lon="145.37072">
    <ele>363.39000000000004</ele>
   </trkpt>
   <trkpt lat="-37.8755" lon="145.37059000000002">
    <ele>365.76000000000005</ele>
   </trkpt>
   <trkpt lat="-37.87541" lon="145.37033000000002">
    <ele>369.57</ele>
   </trkpt>
   <trkpt lat="-37.87536" lon="145.36978000000002">
    <ele>374.89000000000004</ele>
   </trkpt>
   <trkpt lat="-37.87541" lon="145.36953000000003">
    <ele>373.54</ele>
   </trkpt>
   <trkpt lat="-37.87545" lon="145.36945">
    <ele>372.48</ele>
   </trkpt>
   <trkpt lat="-37.87554" lon="145.36915000000002">
    <ele>370.29</ele>
   </trkpt>
   <trkpt lat="-37.87554" lon="145.36892">
    <ele>369.71000000000004</ele>
   </trkpt>
   <trkpt lat="-37.87545" lon="145.3683">
    <ele>373.58000000000004</ele>
   </trkpt>
   <trkpt lat="-37.875510000000006" lon="145.36811">
    <ele>373.78000000000003</ele>
   </trkpt>
   <trkpt lat="-37.87561" lon="145.36791000000002">
    <ele>374.05000000000007</ele>
   </trkpt>
   <trkpt lat="-37.875690000000006" lon="145.36763000000002">
    <ele>376.11000000000007</ele>
   </trkpt>
   <trkpt lat="-37.8757" lon="145.3675">
    <ele>377.13</ele>
   </trkpt>
   <trkpt lat="-37.87559" lon="145.36734">
    <ele>379.16</ele>
   </trkpt>
   <trkpt lat="-37.87523" lon="145.36692000000002">
    <ele>381.46000000000004</ele>
   </trkpt>
   <trkpt lat="-37.87514" lon="145.36678">
    <ele>381.83000000000004</ele>
   </trkpt>
   <trkpt lat="-37.875040000000006" lon="145.36669">
    <ele>382.74</ele>
   </trkpt>
   <trkpt lat="-37.87489" lon="145.36658">
    <ele>384.71000000000004</ele>
   </trkpt>
   <trkpt lat="-37.87482" lon="145.36644">
    <ele>385.92</ele>
   </trkpt>
   <trkpt lat="-37.8748" lon="145.366">
    <ele>383.75</ele>
   </trkpt>
   <trkpt lat="-37.874660000000006" lon="145.36564">
    <ele>384.87000000000006</ele>
   </trkpt>
   <trkpt lat="-37.87435" lon="145.36469000000002">
    <ele>387.18</ele>
   </trkpt>
   <trkpt lat="-37.87435" lon="145.36442000000002">
    <ele>386.56</ele>
   </trkpt>
   <trkpt lat="-37.87438" lon="145.3642">
    <ele>385.27000000000004</ele>
   </trkpt>
   <trkpt lat="-37.87438" lon="145.36402">
    <ele>384.92</ele>
   </trkpt>
   <trkpt lat="-37.87426" lon="145.36375">
    <ele>385.45</ele>
   </trkpt>
   <trkpt lat="-37.87404" lon="145.36343000000002">
    <ele>385.28000000000003</ele>
   </trkpt>
   <trkpt lat="-37.87402" lon="145.36301">
    <ele>382.12</ele>
   </trkpt>
   <trkpt lat="-37.87382" lon="145.36244000000002">
    <ele>379.5</ele>
   </trkpt>
   <trkpt lat="-37.87373" lon="145.36223">
    <ele>377.78</ele>
   </trkpt>
   <trkpt lat="-37.873740000000005" lon="145.36213">
    <ele>377.59000000000003</ele>
   </trkpt>
   <trkpt lat="-37.87377" lon="145.36206">
    <ele>392.42</ele>
   </trkpt>
   <trkpt lat="-37.87377" lon="145.36196">
    <ele>393.01</ele>
   </trkpt>
   <trkpt lat="-37.87368" lon="145.36174000000003">
    <ele>397.27</ele>
   </trkpt>
   <trkpt lat="-37.87355" lon="145.36154000000002">
    <ele>400.05</ele>
   </trkpt>
   <trkpt lat="-37.87357" lon="145.36146000000002">
    <ele>400.38</ele>
   </trkpt>
   <trkpt lat="-37.873560000000005" lon="145.36141">
    <ele>400.52000000000004</ele>
   </trkpt>
   <trkpt lat="-37.873540000000006" lon="145.3614">
    <ele>400.52000000000004</ele>
   </trkpt>
   <trkpt lat="-37.873490000000004" lon="145.36143">
    <ele>400.70000000000005</ele>
   </trkpt>
   <trkpt lat="-37.873400000000004" lon="145.36126000000002">
    <ele>402.04</ele>
   </trkpt>
   <trkpt lat="-37.873360000000005" lon="145.36122">
    <ele>402.04</ele>
   </trkpt>
   <trkpt lat="-37.87322" lon="145.36120000000003">
    <ele>403.61</ele>
   </trkpt>
   <trkpt lat="-37.87292" lon="145.36119000000002">
    <ele>406.26</ele>
   </trkpt>
   <trkpt lat="-37.87243" lon="145.36129000000003">
    <ele>408.21000000000004</ele>
   </trkpt>
   <trkpt lat="-37.87234" lon="145.36127000000002">
    <ele>408.76</ele>
   </trkpt>
   <trkpt lat="-37.87221" lon="145.36118000000002">
    <ele>409.92</ele>
   </trkpt>
   <trkpt lat="-37.87205" lon="145.36114">
    <ele>410.18000000000006</ele>
   </trkpt>
   <trkpt lat="-37.87182" lon="145.36126000000002">
    <ele>410.11</ele>
   </trkpt>
   <trkpt lat="-37.87113" lon="145.36123">
    <ele>410.16</ele>
   </trkpt>
   <trkpt lat="-37.87071" lon="145.36105">
    <ele>411.02000000000004</ele>
   </trkpt>
   <trkpt lat="-37.86999" lon="145.36083000000002">
    <ele>412.83000000000004</ele>
   </trkpt>
   <trkpt lat="-37.86972" lon="145.36065000000002">
    <ele>413.01000000000005</ele>
   </trkpt>
   <trkpt lat="-37.86963" lon="145.36053">
    <ele>413.59000000000003</ele>
   </trkpt>
   <trkpt lat="-37.8695" lon="145.36015">
    <ele>415.89000000000004</ele>
   </trkpt>
   <trkpt lat="-37.869220000000006" lon="145.35977000000003">
    <ele>416.11</ele>
   </trkpt>
   <trkpt lat="-37.86887" lon="145.35943">
    <ele>417.92</ele>
   </trkpt>
   <trkpt lat="-37.86871" lon="145.35917">
    <ele>419.71000000000004</ele>
   </trkpt>
   <trkpt lat="-37.8682" lon="145.35908">
    <ele>419.31</ele>
   </trkpt>
   <trkpt lat="-37.86806" lon="145.35901">
    <ele>419.6</ele>
   </trkpt>
   <trkpt lat="-37.86793" lon="145.35878000000002">
    <ele>420.07000000000005</ele>
   </trkpt>
   <trkpt lat="-37.86773" lon="145.35860000000002">
    <ele>418.96000000000004</ele>
   </trkpt>
   <trkpt lat="-37.86768" lon="145.35852">
    <ele>418.94</ele>
   </trkpt>
   <trkpt lat="-37.86771" lon="145.35824000000002">
    <ele>419.44000000000005</ele>
   </trkpt>
   <trkpt lat="-37.86766" lon="145.35817">
    <ele>419.44000000000005</ele>
   </trkpt>
   <trkpt lat="-37.86755" lon="145.35812">
    <ele>419.55</ele>
   </trkpt>
   <trkpt lat="-37.86748" lon="145.35804000000002">
    <ele>419.64</ele>
   </trkpt>
   <trkpt lat="-37.86737" lon="145.35797000000002">
    <ele>419.6</ele>
   </trkpt>
   <trkpt lat="-37.86728" lon="145.35787000000002">
    <ele>420.09000000000003</ele>
   </trkpt>
   <trkpt lat="-37.86715" lon="145.35776">
    <ele>421.04</ele>
   </trkpt>
   <trkpt lat="-37.86688" lon="145.35736">
    <ele>420.47</ele>
   </trkpt>
   <trkpt lat="-37.86675" lon="145.35739">
    <ele>420.7</ele>
   </trkpt>
   <trkpt lat="-37.86672" lon="145.35738">
    <ele>420.7</ele>
   </trkpt>
   <trkpt lat="-37.86654" lon="145.35708000000002">
    <ele>423.04</ele>
   </trkpt>
   <trkpt lat="-37.86632" lon="145.35688000000002">
    <ele>425.86</ele>
   </trkpt>
   <trkpt lat="-37.86623" lon="145.35682">
    <ele>426.62000000000006</ele>
   </trkpt>
   <trkpt lat="-37.866" lon="145.35656">
    <ele>429.27000000000004</ele>
   </trkpt>
   <trkpt lat="-37.86585" lon="145.35607000000002">
    <ele>431.87</ele>
   </trkpt>
   <trkpt lat="-37.86589" lon="145.35592000000003">
    <ele>434.3</ele>
   </trkpt>
   <trkpt lat="-37.865860000000005" lon="145.35572000000002">
    <ele>435.33000000000004</ele>
   </trkpt>
   <trkpt lat="-37.86596" lon="145.35572000000002">
    <ele>435.53000000000003</ele>
   </trkpt>
   <trkpt lat="-37.866" lon="145.35554000000002">
    <ele>435.62000000000006</ele>
   </trkpt>
   <trkpt lat="-37.865990000000004" lon="145.35551">
    <ele>435.62000000000006</ele>
   </trkpt>
   <trkpt lat="-37.86598" lon="145.35542">
    <ele>435.78000000000003</ele>
   </trkpt>
   <trkpt lat="-37.86591000000001" lon="145.35539">
    <ele>436.51</ele>
   </trkpt>
   <trkpt lat="-37.86547" lon="145.35535000000002">
    <ele>441.79</ele>
   </trkpt>
   <trkpt lat="-37.8652" lon="145.35519000000002">
    <ele>444.83000000000004</ele>
   </trkpt>
   <trkpt lat="-37.86502" lon="145.35512">
    <ele>448.61000000000007</ele>
   </trkpt>
   <trkpt lat="-37.864850000000004" lon="145.35513">
    <ele>448.66</ele>
   </trkpt>
   <trkpt lat="-37.8645" lon="145.35506">
    <ele>458.07000000000005</ele>
   </trkpt>
   <trkpt lat="-37.86435" lon="145.35499000000002">
    <ele>461.46000000000004</ele>
   </trkpt>
   <trkpt lat="-37.86415" lon="145.35496">
    <ele>465.86000000000007</ele>
   </trkpt>
   <trkpt lat="-37.863600000000005" lon="145.35494">
    <ele>473.62</ele>
   </trkpt>
   <trkpt lat="-37.86345" lon="145.35489">
    <ele>476.69000000000005</ele>
   </trkpt>
   <trkpt lat="-37.86334" lon="145.35477">
    <ele>476.69000000000005</ele>
   </trkpt>
   <trkpt lat="-37.86316" lon="145.35444">
    <ele>485.7</ele>
   </trkpt>
   <trkpt lat="-37.86298" lon="145.35408">
    <ele>481.84000000000003</ele>
   </trkpt>
   <trkpt lat="-37.862840000000006" lon="145.35371">
    <ele>480.95000000000005</ele>
   </trkpt>
   <trkpt lat="-37.862860000000005" lon="145.35369">
    <ele>480.86000000000007</ele>
   </trkpt>
   <trkpt lat="-37.862820000000006" lon="145.3536">
    <ele>480.68000000000006</ele>
   </trkpt>
   <trkpt lat="-37.863240000000005" lon="145.35331000000002">
    <ele>479.6</ele>
   </trkpt>
   <trkpt lat="-37.86365" lon="145.35302000000001">
    <ele>479.95000000000005</ele>
   </trkpt>
   <trkpt lat="-37.863385001477255" lon="145.35243999803427">
    <ele>483.30000000000007</ele>
   </trkpt>
   <trkpt lat="-37.86312" lon="145.35186000000002">
    <ele>479.85</ele>
   </trkpt>
   <trkpt lat="-37.86309" lon="145.35176">
    <ele>479.43</ele>
   </trkpt>
   <trkpt lat="-37.863110000000006" lon="145.35169000000002">
    <ele>479.27000000000004</ele>
   </trkpt>
   <trkpt lat="-37.8633" lon="145.35153000000003">
    <ele>479.94</ele>
   </trkpt>
   <trkpt lat="-37.863420000000005" lon="145.35147">
    <ele>480.48</ele>
   </trkpt>
   <trkpt lat="-37.8633" lon="145.35153000000003">
    <ele>479.94</ele>
   </trkpt>
   <trkpt lat="-37.863110000000006" lon="145.35169000000002">
    <ele>479.27000000000004</ele>
   </trkpt>
   <trkpt lat="-37.8633" lon="145.35153000000003">
    <ele>479.94</ele>
   </trkpt>
   <trkpt lat="-37.863420000000005" lon="145.35147">
    <ele>480.48</ele>
   </trkpt>
   <trkpt lat="-37.863490000000006" lon="145.3514">
    <ele>481.58000000000004</ele>
   </trkpt>
   <trkpt lat="-37.8635" lon="145.35133000000002">
    <ele>482.22</ele>
   </trkpt>
   <trkpt lat="-37.86359" lon="145.35126000000002">
    <ele>483.75</ele>
   </trkpt>
   <trkpt lat="-37.8637" lon="145.35125000000002">
    <ele>486.49</ele>
   </trkpt>
   <trkpt lat="-37.86379" lon="145.35118">
    <ele>488.6</ele>
   </trkpt>
   <trkpt lat="-37.864050000000006" lon="145.35102">
    <ele>496.98</ele>
   </trkpt>
   <trkpt lat="-37.8641" lon="145.35089000000002">
    <ele>498.49</ele>
   </trkpt>
   <trkpt lat="-37.8641" lon="145.35074">
    <ele>499.62000000000006</ele>
   </trkpt>
   <trkpt lat="-37.86417" lon="145.35060000000001">
    <ele>501.72</ele>
   </trkpt>
   <trkpt lat="-37.86448" lon="145.34977">
    <ele>512.69</ele>
   </trkpt>
   <trkpt lat="-37.864695001533185" lon="145.34917000172027">
    <ele>519.14</ele>
   </trkpt>
   <trkpt lat="-37.86491" lon="145.34857000000002">
    <ele>523.7700000000001</ele>
   </trkpt>
   <trkpt lat="-37.86497" lon="145.34822">
    <ele>525.32</ele>
   </trkpt>
   <trkpt lat="-37.86491" lon="145.34814">
    <ele>525.32</ele>
   </trkpt>
   <trkpt lat="-37.86484" lon="145.34797">
    <ele>520.5300000000001</ele>
   </trkpt>
   <trkpt lat="-37.864810000000006" lon="145.34757000000002">
    <ele>515.4000000000001</ele>
   </trkpt>
   <trkpt lat="-37.86482" lon="145.34718">
    <ele>512.15</ele>
   </trkpt>
   <trkpt lat="-37.86502" lon="145.34686000000002">
    <ele>509.18000000000006</ele>
   </trkpt>
   <trkpt lat="-37.865370000000006" lon="145.34673">
    <ele>506.41</ele>
   </trkpt>
   <trkpt lat="-37.8659" lon="145.34657">
    <ele>501.89000000000004</ele>
   </trkpt>
   <trkpt lat="-37.86589" lon="145.34647">
    <ele>501.89000000000004</ele>
   </trkpt>
   <trkpt lat="-37.86598" lon="145.34626">
    <ele>497.33000000000004</ele>
   </trkpt>
   <trkpt lat="-37.866" lon="145.34609">
    <ele>493.1</ele>
   </trkpt>
   <trkpt lat="-37.866" lon="145.34597000000002">
    <ele>491.27000000000004</ele>
   </trkpt>
   <trkpt lat="-37.865990000000004" lon="145.34596000000002">
    <ele>491.2</ele>
   </trkpt>
   <trkpt lat="-37.86589" lon="145.34556">
    <ele>485.74000000000007</ele>
   </trkpt>
   <trkpt lat="-37.86594" lon="145.34547">
    <ele>476.87</ele>
   </trkpt>
   <trkpt lat="-37.86621" lon="145.34518">
    <ele>471.86000000000007</ele>
   </trkpt>
   <trkpt lat="-37.86697" lon="145.34459">
    <ele>479.99</ele>
   </trkpt>
   <trkpt lat="-37.86706" lon="145.34457">
    <ele>481.86000000000007</ele>
   </trkpt>
   <trkpt lat="-37.867070000000005" lon="145.34457">
    <ele>482.04</ele>
   </trkpt>
   <trkpt lat="-37.86741" lon="145.34451">
    <ele>484.79</ele>
   </trkpt>
   <trkpt lat="-37.86792500001225" lon="145.3444400004904">
    <ele>489.05</ele>
   </trkpt>
   <trkpt lat="-37.86844" lon="145.34437">
    <ele>491.47</ele>
   </trkpt>
   <trkpt lat="-37.86862" lon="145.34431">
    <ele>492.2</ele>
   </trkpt>
   <trkpt lat="-37.86889" lon="145.34432">
    <ele>493.88000000000005</ele>
   </trkpt>
   <trkpt lat="-37.86907" lon="145.34435000000002">
    <ele>495.25</ele>
   </trkpt>
   <trkpt lat="-37.86968" lon="145.34463000000002">
    <ele>503.18000000000006</ele>
   </trkpt>
   <trkpt lat="-37.86983" lon="145.34473">
    <ele>505.0</ele>
   </trkpt>
   <trkpt lat="-37.87024" lon="145.34483">
    <ele>505.8</ele>
   </trkpt>
   <trkpt lat="-37.87071" lon="145.34472000000002">
    <ele>508.02000000000004</ele>
   </trkpt>
   <trkpt lat="-37.87109" lon="145.34422">
    <ele>508.56</ele>
   </trkpt>
   <trkpt lat="-37.87088" lon="145.34415">
    <ele>505.5200000000001</ele>
   </trkpt>
   <trkpt lat="-37.87066" lon="145.34400000000002">
    <ele>499.66</ele>
   </trkpt>
   <trkpt lat="-37.87037" lon="145.34387">
    <ele>494.05</ele>
   </trkpt>
   <trkpt lat="-37.87026" lon="145.34375">
    <ele>493.2</ele>
   </trkpt>
   <trkpt lat="-37.87001" lon="145.34359">
    <ele>496.04</ele>
   </trkpt>
   <trkpt lat="-37.86985" lon="145.34342">
    <ele>497.53000000000003</ele>
   </trkpt>
   <trkpt lat="-37.86979" lon="145.34337000000002">
    <ele>497.34000000000003</ele>
   </trkpt>
   <trkpt lat="-37.86914" lon="145.34323">
    <ele>494.17</ele>
   </trkpt>
   <trkpt lat="-37.86891" lon="145.34316">
    <ele>492.73</ele>
   </trkpt>
   <trkpt lat="-37.86838" lon="145.34305">
    <ele>489.52000000000004</ele>
   </trkpt>
   <trkpt lat="-37.86766" lon="145.34284000000002">
    <ele>484.94000000000005</ele>
   </trkpt>
   <trkpt lat="-37.86741" lon="145.34287">
    <ele>481.06000000000006</ele>
   </trkpt>
   <trkpt lat="-37.86717" lon="145.34283000000002">
    <ele>478.51000000000005</ele>
   </trkpt>
   <trkpt lat="-37.86663" lon="145.34261">
    <ele>477.21000000000004</ele>
   </trkpt>
   <trkpt lat="-37.86634" lon="145.34241">
    <ele>478.44</ele>
   </trkpt>
   <trkpt lat="-37.86587" lon="145.34215">
    <ele>479.98</ele>
   </trkpt>
   <trkpt lat="-37.86565" lon="145.34188">
    <ele>481.48</ele>
   </trkpt>
   <trkpt lat="-37.865610000000004" lon="145.34172">
    <ele>482.02000000000004</ele>
   </trkpt>
   <trkpt lat="-37.86567" lon="145.3417">
    <ele>481.87</ele>
   </trkpt>
   <trkpt lat="-37.86571" lon="145.34146">
    <ele>480.97</ele>
   </trkpt>
   <trkpt lat="-37.8658" lon="145.34115">
    <ele>477.31</ele>
   </trkpt>
   <trkpt lat="-37.86590000144569" lon="145.34057000065286">
    <ele>471.59000000000003</ele>
   </trkpt>
   <trkpt lat="-37.866" lon="145.33999">
    <ele>467.34000000000003</ele>
   </trkpt>
   <trkpt lat="-37.86612" lon="145.33962000000002">
    <ele>465.5400000000001</ele>
   </trkpt>
   <trkpt lat="-37.86621" lon="145.33929">
    <ele>461.66</ele>
   </trkpt>
   <trkpt lat="-37.86619" lon="145.33934000000002">
    <ele>462.09000000000003</ele>
   </trkpt>
   <trkpt lat="-37.86639" lon="145.33861000000002">
    <ele>456.78000000000003</ele>
   </trkpt>
   <trkpt lat="-37.86647" lon="145.33834000000002">
    <ele>453.5</ele>
   </trkpt>
   <trkpt lat="-37.86652" lon="145.33824">
    <ele>453.5</ele>
   </trkpt>
   <trkpt lat="-37.86663" lon="145.33813">
    <ele>452.64000000000004</ele>
   </trkpt>
   <trkpt lat="-37.8667" lon="145.33810000000003">
    <ele>450.43000000000006</ele>
   </trkpt>
   <trkpt lat="-37.86679" lon="145.33809000000002">
    <ele>450.43000000000006</ele>
   </trkpt>
   <trkpt lat="-37.867250000000006" lon="145.33818000000002">
    <ele>444.69</ele>
   </trkpt>
   <trkpt lat="-37.86755" lon="145.33847">
    <ele>444.22</ele>
   </trkpt>
   <trkpt lat="-37.86771" lon="145.33857">
    <ele>444.88000000000005</ele>
   </trkpt>
   <trkpt lat="-37.86786" lon="145.33862000000002">
    <ele>446.8</ele>
   </trkpt>
   <trkpt lat="-37.86822" lon="145.33868">
    <ele>450.03000000000003</ele>
   </trkpt>
   <trkpt lat="-37.86849" lon="145.33881000000002">
    <ele>451.95</ele>
   </trkpt>
   <trkpt lat="-37.86891" lon="145.33893">
    <ele>455.99000000000007</ele>
   </trkpt>
   <trkpt lat="-37.86918" lon="145.33896000000001">
    <ele>457.81000000000006</ele>
   </trkpt>
   <trkpt lat="-37.86941" lon="145.33893">
    <ele>460.3</ele>
   </trkpt>
   <trkpt lat="-37.86954" lon="145.33893">
    <ele>460.97</ele>
   </trkpt>
   <trkpt lat="-37.8701" lon="145.33884">
    <ele>462.47</ele>
   </trkpt>
   <trkpt lat="-37.87019" lon="145.33884">
    <ele>462.57000000000005</ele>
   </trkpt>
   <trkpt lat="-37.87037" lon="145.33894">
    <ele>463.84000000000003</ele>
   </trkpt>
   <trkpt lat="-37.87059" lon="145.33917000000002">
    <ele>464.91</ele>
   </trkpt>
   <trkpt lat="-37.87082" lon="145.33948">
    <ele>467.58000000000004</ele>
   </trkpt>
   <trkpt lat="-37.87109" lon="145.33964">
    <ele>469.38</ele>
   </trkpt>
   <trkpt lat="-37.87131" lon="145.33968000000002">
    <ele>471.9200000000001</ele>
   </trkpt>
   <trkpt lat="-37.87153" lon="145.33975">
    <ele>473.1</ele>
   </trkpt>
   <trkpt lat="-37.87185" lon="145.33992">
    <ele>476.91</ele>
   </trkpt>
   <trkpt lat="-37.87214" lon="145.34019">
    <ele>478.88</ele>
   </trkpt>
   <trkpt lat="-37.87241" lon="145.34055">
    <ele>481.64</ele>
   </trkpt>
   <trkpt lat="-37.87263" lon="145.34077000000002">
    <ele>484.22</ele>
   </trkpt>
   <trkpt lat="-37.87306" lon="145.34097">
    <ele>486.48</ele>
   </trkpt>
   <trkpt lat="-37.87375" lon="145.34154">
    <ele>492.13000000000005</ele>
   </trkpt>
   <trkpt lat="-37.87406" lon="145.34185000000002">
    <ele>495.40000000000003</ele>
   </trkpt>
   <trkpt lat="-37.8744" lon="145.34218">
    <ele>496.41</ele>
   </trkpt>
   <trkpt lat="-37.87505" lon="145.34289">
    <ele>502.56</ele>
   </trkpt>
   <trkpt lat="-37.8751" lon="145.34298">
    <ele>502.28000000000003</ele>
   </trkpt>
   <trkpt lat="-37.875350000000005" lon="145.3428">
    <ele>502.65999999999997</ele>
   </trkpt>
   <trkpt lat="-37.875370000000004" lon="145.34295">
    <ele>503.06000000000006</ele>
   </trkpt>
   <trkpt lat="-37.875510000000006" lon="145.34301000000002">
    <ele>504.70000000000005</ele>
   </trkpt>
   <trkpt lat="-37.8757" lon="145.34294">
    <ele>512.0600000000001</ele>
   </trkpt>
   <trkpt lat="-37.875980000000006" lon="145.34273000000002">
    <ele>511.85</ele>
   </trkpt>
   <trkpt lat="-37.8761" lon="145.34269">
    <ele>511.87000000000006</ele>
   </trkpt>
   <trkpt lat="-37.876290000000004" lon="145.34269">
    <ele>512.08</ele>
   </trkpt>
   <trkpt lat="-37.87642" lon="145.34273000000002">
    <ele>511.2300000000001</ele>
   </trkpt>
   <trkpt lat="-37.8767" lon="145.34279">
    <ele>509.19</ele>
   </trkpt>
   <trkpt lat="-37.87688" lon="145.3428">
    <ele>508.95</ele>
   </trkpt>
   <trkpt lat="-37.87722" lon="145.34272">
    <ele>509.02000000000004</ele>
   </trkpt>
   <trkpt lat="-37.87778" lon="145.34271">
    <ele>506.62000000000006</ele>
   </trkpt>
   <trkpt lat="-37.87791" lon="145.34269">
    <ele>505.95</ele>
   </trkpt>
   <trkpt lat="-37.87807" lon="145.34255000000002">
    <ele>506.21000000000004</ele>
   </trkpt>
   <trkpt lat="-37.87832" lon="145.34217">
    <ele>507.21999999999997</ele>
   </trkpt>
   <trkpt lat="-37.87847" lon="145.34209">
    <ele>504.58000000000004</ele>
   </trkpt>
   <trkpt lat="-37.87856" lon="145.34212000000002">
    <ele>502.63</ele>
   </trkpt>
   <trkpt lat="-37.8787" lon="145.34225">
    <ele>497.41</ele>
   </trkpt>
   <trkpt lat="-37.87874" lon="145.34236">
    <ele>497.41</ele>
   </trkpt>
   <trkpt lat="-37.878690000000006" lon="145.34248000000002">
    <ele>494.48</ele>
   </trkpt>
   <trkpt lat="-37.87865" lon="145.34264000000002">
    <ele>492.2900000000001</ele>
   </trkpt>
   <trkpt lat="-37.87865" lon="145.34273000000002">
    <ele>491.98</ele>
   </trkpt>
   <trkpt lat="-37.87877" lon="145.34292000000002">
    <ele>493.32000000000005</ele>
   </trkpt>
   <trkpt lat="-37.87892" lon="145.34343">
    <ele>497.43</ele>
   </trkpt>
   <trkpt lat="-37.879070000000006" lon="145.34405">
    <ele>499.72</ele>
   </trkpt>
   <trkpt lat="-37.87919" lon="145.34452000000002">
    <ele>500.24</ele>
   </trkpt>
   <trkpt lat="-37.87944" lon="145.34486">
    <ele>502.32</ele>
   </trkpt>
   <trkpt lat="-37.87973" lon="145.34534000000002">
    <ele>500.30000000000007</ele>
   </trkpt>
   <trkpt lat="-37.88007500116351" lon="145.34583999781185">
    <ele>498.15000000000003</ele>
   </trkpt>
   <trkpt lat="-37.88042" lon="145.34634">
    <ele>494.8</ele>
   </trkpt>
   <trkpt lat="-37.88067" lon="145.34663">
    <ele>493.41</ele>
   </trkpt>
   <trkpt lat="-37.880860000000006" lon="145.34682">
    <ele>492.8500000000001</ele>
   </trkpt>
   <trkpt lat="-37.88105" lon="145.34695000000002">
    <ele>492.43</ele>
   </trkpt>
   <trkpt lat="-37.88154" lon="145.34723000000002">
    <ele>489.31</ele>
   </trkpt>
   <trkpt lat="-37.88167" lon="145.34744">
    <ele>486.66</ele>
   </trkpt>
   <trkpt lat="-37.88201" lon="145.34819000000002">
    <ele>482.21000000000004</ele>
   </trkpt>
   <trkpt lat="-37.88226" lon="145.34839000000002">
    <ele>481.16</ele>
   </trkpt>
   <trkpt lat="-37.88255" lon="145.34856000000002">
    <ele>480.55</ele>
   </trkpt>
   <trkpt lat="-37.88302" lon="145.3487">
    <ele>480.5</ele>
   </trkpt>
   <trkpt lat="-37.88311" lon="145.34876">
    <ele>480.43</ele>
   </trkpt>
   <trkpt lat="-37.8836" lon="145.34926000000002">
    <ele>479.35</ele>
   </trkpt>
   <trkpt lat="-37.88405" lon="145.34945000000002">
    <ele>478.41</ele>
   </trkpt>
   <trkpt lat="-37.88436" lon="145.34969">
    <ele>477.63000000000005</ele>
   </trkpt>
   <trkpt lat="-37.88456" lon="145.35004">
    <ele>475.33000000000004</ele>
   </trkpt>
   <trkpt lat="-37.88461" lon="145.35017000000002">
    <ele>473.25000000000006</ele>
   </trkpt>
   <trkpt lat="-37.884640000000005" lon="145.35035000000002">
    <ele>473.25000000000006</ele>
   </trkpt>
   <trkpt lat="-37.88461" lon="145.35046">
    <ele>472.19000000000005</ele>
   </trkpt>
   <trkpt lat="-37.88461" lon="145.35066">
    <ele>469.19000000000005</ele>
   </trkpt>
   <trkpt lat="-37.884710000000005" lon="145.35090000000002">
    <ele>468.13000000000005</ele>
   </trkpt>
   <trkpt lat="-37.88477" lon="145.35099000000002">
    <ele>469.88</ele>
   </trkpt>
   <trkpt lat="-37.8853" lon="145.3514">
    <ele>470.68</ele>
   </trkpt>
   <trkpt lat="-37.88552" lon="145.35153000000003">
    <ele>469.59000000000003</ele>
   </trkpt>
   <trkpt lat="-37.88562" lon="145.35154">
    <ele>469.11</ele>
   </trkpt>
   <trkpt lat="-37.88584" lon="145.35157">
    <ele>467.65000000000003</ele>
   </trkpt>
   <trkpt lat="-37.886030000000005" lon="145.35156">
    <ele>466.0400000000001</ele>
   </trkpt>
   <trkpt lat="-37.88615" lon="145.35176">
    <ele>468.91</ele>
   </trkpt>
   <trkpt lat="-37.88626" lon="145.35184">
    <ele>468.72</ele>
   </trkpt>
   <trkpt lat="-37.88662" lon="145.352">
    <ele>466.5</ele>
   </trkpt>
   <trkpt lat="-37.88678" lon="145.35202">
    <ele>465.72</ele>
   </trkpt>
   <trkpt lat="-37.88696" lon="145.35202">
    <ele>463.15000000000003</ele>
   </trkpt>
   <trkpt lat="-37.887240000000006" lon="145.35214000000002">
    <ele>457.70000000000005</ele>
   </trkpt>
   <trkpt lat="-37.88745" lon="145.35251000000002">
    <ele>451.25000000000006</ele>
   </trkpt>
   <trkpt lat="-37.88765" lon="145.35301">
    <ele>442.20000000000005</ele>
   </trkpt>
   <trkpt lat="-37.88772" lon="145.35336">
    <ele>439.24</ele>
   </trkpt>
   <trkpt lat="-37.88781" lon="145.35358000000002">
    <ele>436.01</ele>
   </trkpt>
   <trkpt lat="-37.88792" lon="145.35378">
    <ele>431.44000000000005</ele>
   </trkpt>
   <trkpt lat="-37.8881" lon="145.35416">
    <ele>427.06000000000006</ele>
   </trkpt>
   <trkpt lat="-37.88828" lon="145.35435">
    <ele>422.66</ele>
   </trkpt>
   <trkpt lat="-37.88848" lon="145.35468">
    <ele>415.77000000000004</ele>
   </trkpt>
   <trkpt lat="-37.88857" lon="145.35492000000002">
    <ele>411.88</ele>
   </trkpt>
   <trkpt lat="-37.88855" lon="145.35496">
    <ele>411.88</ele>
   </trkpt>
   <trkpt lat="-37.888600000000004" lon="145.35502000000002">
    <ele>411.25000000000006</ele>
   </trkpt>
   <trkpt lat="-37.888630000000006" lon="145.35499000000002">
    <ele>410.58000000000004</ele>
   </trkpt>
   <trkpt lat="-37.88893" lon="145.35489">
    <ele>403.91</ele>
   </trkpt>
   <trkpt lat="-37.88915" lon="145.35486">
    <ele>401.76</ele>
   </trkpt>
   <trkpt lat="-37.88922" lon="145.35487">
    <ele>401.76</ele>
   </trkpt>
   <trkpt lat="-37.88958" lon="145.35502000000002">
    <ele>397.95000000000005</ele>
   </trkpt>
   <trkpt lat="-37.88964" lon="145.35511000000002">
    <ele>396.70000000000005</ele>
   </trkpt>
   <trkpt lat="-37.88985" lon="145.35506">
    <ele>390.48</ele>
   </trkpt>
   <trkpt lat="-37.889880000000005" lon="145.35507">
    <ele>390.48</ele>
   </trkpt>
   <trkpt lat="-37.89014" lon="145.35523">
    <ele>387.40000000000003</ele>
   </trkpt>
   <trkpt lat="-37.89034" lon="145.35532">
    <ele>384.35</ele>
   </trkpt>
   <trkpt lat="-37.89049" lon="145.35545000000002">
    <ele>382.66</ele>
   </trkpt>
   <trkpt lat="-37.891200000000005" lon="145.35612">
    <ele>373.98</ele>
   </trkpt>
   <trkpt lat="-37.891740000000006" lon="145.35659">
    <ele>364.81</ele>
   </trkpt>
   <trkpt lat="-37.89186" lon="145.35682">
    <ele>361.93</ele>
   </trkpt>
   <trkpt lat="-37.89195" lon="145.35690000000002">
    <ele>358.29</ele>
   </trkpt>
   <trkpt lat="-37.89246" lon="145.35709">
    <ele>349.49</ele>
   </trkpt>
   <trkpt lat="-37.89258" lon="145.35709">
    <ele>349.49</ele>
   </trkpt>
   <trkpt lat="-37.89273" lon="145.35704">
    <ele>345.47</ele>
   </trkpt>
   <trkpt lat="-37.89287" lon="145.35705000000002">
    <ele>345.47</ele>
   </trkpt>
   <trkpt lat="-37.89298" lon="145.35709">
    <ele>344.01000000000005</ele>
   </trkpt>
   <trkpt lat="-37.89316" lon="145.35723000000002">
    <ele>342.19000000000005</ele>
   </trkpt>
   <trkpt lat="-37.89329" lon="145.35727">
    <ele>341.87</ele>
   </trkpt>
   <trkpt lat="-37.89372" lon="145.35718">
    <ele>337.35</ele>
   </trkpt>
   <trkpt lat="-37.89408" lon="145.35721">
    <ele>331.81000000000006</ele>
   </trkpt>
   <trkpt lat="-37.89434" lon="145.35721">
    <ele>325.96000000000004</ele>
   </trkpt>
   <trkpt lat="-37.89457" lon="145.35724000000002">
    <ele>321.70000000000005</ele>
   </trkpt>
   <trkpt lat="-37.89488" lon="145.35737">
    <ele>317.69</ele>
   </trkpt>
   <trkpt lat="-37.89504" lon="145.35737">
    <ele>315.93000000000006</ele>
   </trkpt>
   <trkpt lat="-37.89522" lon="145.35726000000003">
    <ele>314.0</ele>
   </trkpt>
   <trkpt lat="-37.89531" lon="145.35732000000002">
    <ele>313.57</ele>
   </trkpt>
   <trkpt lat="-37.89558" lon="145.35738">
    <ele>309.82000000000005</ele>
   </trkpt>
   <trkpt lat="-37.89598" lon="145.35736">
    <ele>306.93</ele>
   </trkpt>
   <trkpt lat="-37.89616" lon="145.35745">
    <ele>305.43</ele>
   </trkpt>
   <trkpt lat="-37.89629" lon="145.35743000000002">
    <ele>305.1700000000001</ele>
   </trkpt>
   <trkpt lat="-37.89654" lon="145.35726000000003">
    <ele>303.02</ele>
   </trkpt>
   <trkpt lat="-37.8967" lon="145.357">
    <ele>301.55</ele>
   </trkpt>
   <trkpt lat="-37.89676" lon="145.35695">
    <ele>301.55</ele>
   </trkpt>
   <trkpt lat="-37.89728" lon="145.35668">
    <ele>295.68</ele>
   </trkpt>
   <trkpt lat="-37.89748" lon="145.35624">
    <ele>292.44000000000005</ele>
   </trkpt>
   <trkpt lat="-37.89795" lon="145.35578">
    <ele>286.58</ele>
   </trkpt>
   <trkpt lat="-37.89804" lon="145.35571000000002">
    <ele>285.74000000000007</ele>
   </trkpt>
   <trkpt lat="-37.89819" lon="145.35568">
    <ele>284.61</ele>
   </trkpt>
   <trkpt lat="-37.8984" lon="145.35568">
    <ele>281.64</ele>
   </trkpt>
   <trkpt lat="-37.89873" lon="145.35563000000002">
    <ele>279.26</ele>
   </trkpt>
   <trkpt lat="-37.89898" lon="145.3557">
    <ele>276.98</ele>
   </trkpt>
   <trkpt lat="-37.899170000000005" lon="145.35578">
    <ele>275.40000000000003</ele>
   </trkpt>
   <trkpt lat="-37.89927" lon="145.35586">
    <ele>274.99</ele>
   </trkpt>
   <trkpt lat="-37.89923" lon="145.35597">
    <ele>274.49</ele>
   </trkpt>
   <trkpt lat="-37.89932" lon="145.35603">
    <ele>274.13000000000005</ele>
   </trkpt>
   <trkpt lat="-37.89958" lon="145.35626000000002">
    <ele>271.22</ele>
   </trkpt>
   <trkpt lat="-37.89967" lon="145.35628">
    <ele>269.94</ele>
   </trkpt>
   <trkpt lat="-37.899730000000005" lon="145.35632">
    <ele>269.94</ele>
   </trkpt>
   <trkpt lat="-37.89974" lon="145.35645000000002">
    <ele>269.43</ele>
   </trkpt>
   <trkpt lat="-37.89985" lon="145.35665">
    <ele>268.89</ele>
   </trkpt>
   <trkpt lat="-37.89996" lon="145.35677">
    <ele>268.22</ele>
   </trkpt>
   <trkpt lat="-37.900110000000005" lon="145.35685">
    <ele>267.05</ele>
   </trkpt>
   <trkpt lat="-37.9001" lon="145.35691">
    <ele>267.05</ele>
   </trkpt>
   <trkpt lat="-37.90001" lon="145.35687000000001">
    <ele>267.05</ele>
   </trkpt>
   <trkpt lat="-37.89994" lon="145.35687000000001">
    <ele>256.92</ele>
   </trkpt>
   <trkpt lat="-37.89985" lon="145.35690000000002">
    <ele>256.92</ele>
   </trkpt>
   <trkpt lat="-37.89996" lon="145.35696000000002">
    <ele>256.91</ele>
   </trkpt>
   <trkpt lat="-37.900000000000006" lon="145.35713">
    <ele>266.14000000000004</ele>
   </trkpt>
   <trkpt lat="-37.900000000000006" lon="145.35732000000002">
    <ele>273.15</ele>
   </trkpt>
   <trkpt lat="-37.89992" lon="145.35755">
    <ele>276.39000000000004</ele>
   </trkpt>
   <trkpt lat="-37.89992" lon="145.35763">
    <ele>283.5</ele>
   </trkpt>
   <trkpt lat="-37.900000000000006" lon="145.35778000000002">
    <ele>286.81</ele>
   </trkpt>
   <trkpt lat="-37.9001" lon="145.35835">
    <ele>299.82000000000005</ele>
   </trkpt>
   <trkpt lat="-37.9001" lon="145.35860000000002">
    <ele>302.56000000000006</ele>
   </trkpt>
   <trkpt lat="-37.9003" lon="145.35946">
    <ele>318.63</ele>
   </trkpt>
   <trkpt lat="-37.90039" lon="145.35974000000002">
    <ele>328.41</ele>
   </trkpt>
   <trkpt lat="-37.90054000000001" lon="145.36029000000002">
    <ele>337.67</ele>
   </trkpt>
   <trkpt lat="-37.90057" lon="145.36046000000002">
    <ele>338.58000000000004</ele>
   </trkpt>
   <trkpt lat="-37.90059" lon="145.36069">
    <ele>338.83000000000004</ele>
   </trkpt>
   <trkpt lat="-37.90077" lon="145.36145000000002">
    <ele>334.61</ele>
   </trkpt>
   <trkpt lat="-37.900830000000006" lon="145.36186">
    <ele>333.70000000000005</ele>
   </trkpt>
   <trkpt lat="-37.90086" lon="145.36205">
    <ele>334.83</ele>
   </trkpt>
   <trkpt lat="-37.9010500020421" lon="145.36273999832102">
    <ele>339.18</ele>
   </trkpt>
   <trkpt lat="-37.90124" lon="145.36343000000002">
    <ele>346.1</ele>
   </trkpt>
   <trkpt lat="-37.901450000000004" lon="145.36383">
    <ele>347.16</ele>
   </trkpt>
   <trkpt lat="-37.90122" lon="145.36398">
    <ele>348.76</ele>
   </trkpt>
   <trkpt lat="-37.90095" lon="145.36405000000002">
    <ele>351.26</ele>
   </trkpt>
   <trkpt lat="-37.9007" lon="145.36419">
    <ele>354.35</ele>
   </trkpt>
   <trkpt lat="-37.90052" lon="145.36433000000002">
    <ele>356.31</ele>
   </trkpt>
   <trkpt lat="-37.90034" lon="145.36439000000001">
    <ele>357.79</ele>
   </trkpt>
   <trkpt lat="-37.9001" lon="145.36443">
    <ele>359.33000000000004</ele>
   </trkpt>
   <trkpt lat="-37.899530000000006" lon="145.36441000000002">
    <ele>361.68000000000006</ele>
   </trkpt>
   <trkpt lat="-37.8994" lon="145.36443">
    <ele>361.68000000000006</ele>
   </trkpt>
   <trkpt lat="-37.89931" lon="145.36448000000001">
    <ele>362.95000000000005</ele>
   </trkpt>
   <trkpt lat="-37.8992" lon="145.36459000000002">
    <ele>363.41</ele>
   </trkpt>
   <trkpt lat="-37.89909" lon="145.36476000000002">
    <ele>364.38000000000005</ele>
   </trkpt>
   <trkpt lat="-37.89887" lon="145.36534">
    <ele>366.71000000000004</ele>
   </trkpt>
   <trkpt lat="-37.89871" lon="145.36567000000002">
    <ele>367.6</ele>
   </trkpt>
   <trkpt lat="-37.89851" lon="145.36595">
    <ele>368.93</ele>
   </trkpt>
   <trkpt lat="-37.8984" lon="145.36607">
    <ele>370.02</ele>
   </trkpt>
   <trkpt lat="-37.89802" lon="145.36632">
    <ele>373.19</ele>
   </trkpt>
   <trkpt lat="-37.89743" lon="145.36684000000002">
    <ele>375.62</ele>
   </trkpt>
   <trkpt lat="-37.89685" lon="145.36728000000002">
    <ele>375.18</ele>
   </trkpt>
   <trkpt lat="-37.8964" lon="145.36767">
    <ele>372.6700000000001</ele>
   </trkpt>
   <trkpt lat="-37.89622" lon="145.36780000000002">
    <ele>372.3</ele>
   </trkpt>
   <trkpt lat="-37.896" lon="145.36790000000002">
    <ele>371.51</ele>
   </trkpt>
   <trkpt lat="-37.89578" lon="145.36797">
    <ele>371.19</ele>
   </trkpt>
   <trkpt lat="-37.89508" lon="145.36802">
    <ele>370.9</ele>
   </trkpt>
   <trkpt lat="-37.89464" lon="145.36809000000002">
    <ele>369.92</ele>
   </trkpt>
   <trkpt lat="-37.89439" lon="145.3681">
    <ele>369.22</ele>
   </trkpt>
   <trkpt lat="-37.89414" lon="145.36802">
    <ele>368.95000000000005</ele>
   </trkpt>
   <trkpt lat="-37.89349" lon="145.36792">
    <ele>366.29</ele>
   </trkpt>
   <trkpt lat="-37.89316" lon="145.36801">
    <ele>364.96</ele>
   </trkpt>
   <trkpt lat="-37.89269" lon="145.36831">
    <ele>364.01000000000005</ele>
   </trkpt>
   <trkpt lat="-37.89226" lon="145.36863000000002">
    <ele>364.37</ele>
   </trkpt>
   <trkpt lat="-37.89184" lon="145.36885">
    <ele>364.88000000000005</ele>
   </trkpt>
   <trkpt lat="-37.89146" lon="145.369">
    <ele>366.63</ele>
   </trkpt>
   <trkpt lat="-37.89101" lon="145.36944000000003">
    <ele>368.81</ele>
   </trkpt>
   <trkpt lat="-37.89074" lon="145.36965">
    <ele>370.68</ele>
   </trkpt>
   <trkpt lat="-37.890150000000006" lon="145.36999">
    <ele>371.08000000000004</ele>
   </trkpt>
   <trkpt lat="-37.88996" lon="145.37003">
    <ele>370.74</ele>
   </trkpt>
   <trkpt lat="-37.889770000000006" lon="145.37002">
    <ele>370.26000000000005</ele>
   </trkpt>
   <trkpt lat="-37.889540000000004" lon="145.37005000000002">
    <ele>369.37</ele>
   </trkpt>
   <trkpt lat="-37.88904499995207" lon="145.37000499969233">
    <ele>366.00000000000006</ele>
   </trkpt>
   <trkpt lat="-37.88855" lon="145.36996000000002">
    <ele>363.54</ele>
   </trkpt>
   <trkpt lat="-37.88812" lon="145.36999">
    <ele>362.6</ele>
   </trkpt>
   <trkpt lat="-37.887620000000005" lon="145.36993">
    <ele>361.56000000000006</ele>
   </trkpt>
   <trkpt lat="-37.88749" lon="145.36999">
    <ele>361.96</ele>
   </trkpt>
   <trkpt lat="-37.88738" lon="145.37008">
    <ele>363.72</ele>
   </trkpt>
   <trkpt lat="-37.88729" lon="145.37024000000002">
    <ele>366.31</ele>
   </trkpt>
   <trkpt lat="-37.88727" lon="145.37025">
    <ele>366.31</ele>
   </trkpt>
  </trkseg>
 </trk>
</gpx>
