<?xml version="1.0" encoding="UTF-8"?>
<gpx creator="StravaGPX" version="1.1" xmlns="http://www.topografix.com/GPX/1/1" xmlns:xsi="http://www.w3.org/2001/XMLSchema-instance" xsi:schemaLocation="http://www.topografix.com/GPX/1/1 http://www.topografix.com/GPX/1/1/gpx.xsd">
 <metadata>
  <name>DTR 20k 17th May</name>
  <author>
   <name>DTR  Runleaders</name>
   <link href="https://www.strava.com/athletes/194056408"/>
  </author>
  <copyright author="OpenStreetMap contributors">
   <year>2020</year>
   <license>https://www.openstreetmap.org/copyright</license>
  </copyright>
  <link href="https://www.strava.com/routes/3490212355164544926"/>
 </metadata>
 <trk>
  <name>DTR 20k 17th May</name>
  <link href="https://www.strava.com/routes/3490212355164544926"/>
  <type>running</type>
  <trkseg>
   <trkpt lat="-37.85215" lon="145.3683">
    <ele>569.9300000000001</ele>
   </trkpt>
   <trkpt lat="-37.852070000000005" lon="145.36833000000001">
    <ele>569.49</ele>
   </trkpt>
   <trkpt lat="-37.851760000000006" lon="145.36859">
    <ele>565.8700000000001</ele>
   </trkpt>
   <trkpt lat="-37.85159" lon="145.36880000000002">
    <ele>564.0500000000001</ele>
   </trkpt>
   <trkpt lat="-37.85105" lon="145.36917000000003">
    <ele>562.22</ele>
   </trkpt>
   <trkpt lat="-37.85072" lon="145.36927">
    <ele>560.0200000000001</ele>
   </trkpt>
   <trkpt lat="-37.8506" lon="145.36927">
    <ele>559.18</ele>
   </trkpt>
   <trkpt lat="-37.850370000000005" lon="145.36927">
    <ele>557.6600000000001</ele>
   </trkpt>
   <trkpt lat="-37.84981500071805" lon="145.3688699970191">
    <ele>550.7200000000001</ele>
   </trkpt>
   <trkpt lat="-37.84926" lon="145.36847">
    <ele>542.5000000000001</ele>
   </trkpt>
   <trkpt lat="-37.848570001130305" lon="145.36796499531246">
    <ele>534.96</ele>
   </trkpt>
   <trkpt lat="-37.84788" lon="145.36746000000002">
    <ele>533.9</ele>
   </trkpt>
   <trkpt lat="-37.847150000000006" lon="145.36692000000002">
    <ele>532.57</ele>
   </trkpt>
   <trkpt lat="-37.84709" lon="145.36679">
    <ele>531.98</ele>
   </trkpt>
   <trkpt lat="-37.847" lon="145.36608">
    <ele>526.15</ele>
   </trkpt>
   <trkpt lat="-37.847" lon="145.36609">
    <ele>526.15</ele>
   </trkpt>
   <trkpt lat="-37.84691" lon="145.36540000000002">
    <ele>517.0</ele>
   </trkpt>
   <trkpt lat="-37.84693" lon="145.36513000000002">
    <ele>512.5300000000001</ele>
   </trkpt>
   <trkpt lat="-37.84687" lon="145.36482">
    <ele>509.82000000000005</ele>
   </trkpt>
   <trkpt lat="-37.846720000000005" lon="145.36382">
    <ele>493.74000000000007</ele>
   </trkpt>
   <trkpt lat="-37.84669" lon="145.36359000000002">
    <ele>490.49</ele>
   </trkpt>
   <trkpt lat="-37.84655000177262" lon="145.36294499883846">
    <ele>487.03000000000003</ele>
   </trkpt>
   <trkpt lat="-37.846410000000006" lon="145.3623">
    <ele>501.7600000000001</ele>
   </trkpt>
   <trkpt lat="-37.84630000000001" lon="145.3617">
    <ele>507.97</ele>
   </trkpt>
   <trkpt lat="-37.84619" lon="145.36064000000002">
    <ele>511.93</ele>
   </trkpt>
   <trkpt lat="-37.84655" lon="145.36054000000001">
    <ele>511.73</ele>
   </trkpt>
   <trkpt lat="-37.84682" lon="145.36052">
    <ele>511.6</ele>
   </trkpt>
   <trkpt lat="-37.84698" lon="145.36054000000001">
    <ele>511.38000000000005</ele>
   </trkpt>
   <trkpt lat="-37.847030000000004" lon="145.36045000000001">
    <ele>512.54</ele>
   </trkpt>
   <trkpt lat="-37.84707" lon="145.3604">
    <ele>512.54</ele>
   </trkpt>
   <trkpt lat="-37.84713" lon="145.36037000000002">
    <ele>512.1</ele>
   </trkpt>
   <trkpt lat="-37.84738" lon="145.36030000000002">
    <ele>511.83</ele>
   </trkpt>
   <trkpt lat="-37.84716" lon="145.35931000000002">
    <ele>516.15</ele>
   </trkpt>
   <trkpt lat="-37.84704" lon="145.35884000000001">
    <ele>517.4100000000001</ele>
   </trkpt>
   <trkpt lat="-37.84709" lon="145.35882">
    <ele>518.4300000000001</ele>
   </trkpt>
   <trkpt lat="-37.84695" lon="145.35840000000002">
    <ele>516.71</ele>
   </trkpt>
   <trkpt lat="-37.84664" lon="145.35795000000002">
    <ele>512.7700000000001</ele>
   </trkpt>
   <trkpt lat="-37.846540000000005" lon="145.35771000000003">
    <ele>510.46000000000004</ele>
   </trkpt>
   <trkpt lat="-37.84644" lon="145.35760000000002">
    <ele>510.12</ele>
   </trkpt>
   <trkpt lat="-37.846360000000004" lon="145.35734000000002">
    <ele>509.2000000000001</ele>
   </trkpt>
   <trkpt lat="-37.84622" lon="145.35708000000002">
    <ele>508.73</ele>
   </trkpt>
   <trkpt lat="-37.845760003177254" lon="145.3562149946302">
    <ele>510.63</ele>
   </trkpt>
   <trkpt lat="-37.8453" lon="145.35535000000002">
    <ele>511.18000000000006</ele>
   </trkpt>
   <trkpt lat="-37.845220000000005" lon="145.35527000000002">
    <ele>511.71</ele>
   </trkpt>
   <trkpt lat="-37.845746668159556" lon="145.35486000580076">
    <ele>511.01000000000005</ele>
   </trkpt>
   <trkpt lat="-37.84627333489767" lon="145.35445000574518">
    <ele>509.27</ele>
   </trkpt>
   <trkpt lat="-37.8468" lon="145.35404">
    <ele>506.84000000000003</ele>
   </trkpt>
   <trkpt lat="-37.846830000000004" lon="145.35398">
    <ele>506.84000000000003</ele>
   </trkpt>
   <trkpt lat="-37.846900000000005" lon="145.35394000000002">
    <ele>506.84000000000003</ele>
   </trkpt>
   <trkpt lat="-37.84682" lon="145.35361">
    <ele>508.93</ele>
   </trkpt>
   <trkpt lat="-37.84671" lon="145.35329000000002">
    <ele>510.2</ele>
   </trkpt>
   <trkpt lat="-37.8466" lon="145.35308">
    <ele>511.36</ele>
   </trkpt>
   <trkpt lat="-37.84657" lon="145.35303000000002">
    <ele>511.38000000000005</ele>
   </trkpt>
   <trkpt lat="-37.84633" lon="145.35282">
    <ele>513.0400000000001</ele>
   </trkpt>
   <trkpt lat="-37.846230000000006" lon="145.35278000000002">
    <ele>513.3100000000001</ele>
   </trkpt>
   <trkpt lat="-37.84601" lon="145.35263">
    <ele>513.7400000000001</ele>
   </trkpt>
   <trkpt lat="-37.845850000000006" lon="145.35258000000002">
    <ele>513.1800000000001</ele>
   </trkpt>
   <trkpt lat="-37.84568" lon="145.35239">
    <ele>511.19</ele>
   </trkpt>
   <trkpt lat="-37.84557" lon="145.35234">
    <ele>510.95</ele>
   </trkpt>
   <trkpt lat="-37.84503" lon="145.3523">
    <ele>510.38000000000005</ele>
   </trkpt>
   <trkpt lat="-37.84476" lon="145.35224000000002">
    <ele>510.05</ele>
   </trkpt>
   <trkpt lat="-37.84454" lon="145.35216">
    <ele>510.53000000000003</ele>
   </trkpt>
   <trkpt lat="-37.844350000000006" lon="145.35216">
    <ele>512.9</ele>
   </trkpt>
   <trkpt lat="-37.84407" lon="145.35236">
    <ele>519.97</ele>
   </trkpt>
   <trkpt lat="-37.843790000000006" lon="145.35248">
    <ele>524.4300000000001</ele>
   </trkpt>
   <trkpt lat="-37.8436" lon="145.35240000000002">
    <ele>525.11</ele>
   </trkpt>
   <trkpt lat="-37.84348" lon="145.3523">
    <ele>525.49</ele>
   </trkpt>
   <trkpt lat="-37.84335" lon="145.35238">
    <ele>526.73</ele>
   </trkpt>
   <trkpt lat="-37.84364" lon="145.35284000000001">
    <ele>529.05</ele>
   </trkpt>
   <trkpt lat="-37.84366" lon="145.35302000000001">
    <ele>532.2900000000001</ele>
   </trkpt>
   <trkpt lat="-37.843560000000004" lon="145.35325">
    <ele>533.22</ele>
   </trkpt>
   <trkpt lat="-37.84307500040495" lon="145.35308499901353">
    <ele>535.6800000000001</ele>
   </trkpt>
   <trkpt lat="-37.84259" lon="145.35292">
    <ele>539.0400000000001</ele>
   </trkpt>
   <trkpt lat="-37.84199" lon="145.35289">
    <ele>543.98</ele>
   </trkpt>
   <trkpt lat="-37.84185" lon="145.35291">
    <ele>544.4100000000001</ele>
   </trkpt>
   <trkpt lat="-37.841440000000006" lon="145.35304000000002">
    <ele>545.73</ele>
   </trkpt>
   <trkpt lat="-37.84116" lon="145.35311000000002">
    <ele>546.49</ele>
   </trkpt>
   <trkpt lat="-37.84062" lon="145.35322000000002">
    <ele>548.0400000000001</ele>
   </trkpt>
   <trkpt lat="-37.84055" lon="145.35266000000001">
    <ele>548.6600000000001</ele>
   </trkpt>
   <trkpt lat="-37.84051" lon="145.35259000000002">
    <ele>548.74</ele>
   </trkpt>
   <trkpt lat="-37.839930000190904" lon="145.35228499749527">
    <ele>550.7800000000001</ele>
   </trkpt>
   <trkpt lat="-37.83935" lon="145.35198000000003">
    <ele>552.76</ele>
   </trkpt>
   <trkpt lat="-37.83894" lon="145.35178000000002">
    <ele>555.6500000000001</ele>
   </trkpt>
   <trkpt lat="-37.83878" lon="145.35166">
    <ele>557.32</ele>
   </trkpt>
   <trkpt lat="-37.83867" lon="145.35154">
    <ele>558.7800000000001</ele>
   </trkpt>
   <trkpt lat="-37.83839000126711" lon="145.3510149981981">
    <ele>561.8000000000001</ele>
   </trkpt>
   <trkpt lat="-37.83811" lon="145.35049">
    <ele>564.33</ele>
   </trkpt>
   <trkpt lat="-37.837740000000004" lon="145.34965000000003">
    <ele>568.91</ele>
   </trkpt>
   <trkpt lat="-37.83773" lon="145.34956000000003">
    <ele>569.3600000000001</ele>
   </trkpt>
   <trkpt lat="-37.8378" lon="145.34934">
    <ele>569.6600000000001</ele>
   </trkpt>
   <trkpt lat="-37.83782" lon="145.34913">
    <ele>570.72</ele>
   </trkpt>
   <trkpt lat="-37.83789" lon="145.34899000000001">
    <ele>571.77</ele>
   </trkpt>
   <trkpt lat="-37.83793" lon="145.34877">
    <ele>573.47</ele>
   </trkpt>
   <trkpt lat="-37.83811" lon="145.34829000000002">
    <ele>576.9399999999999</ele>
   </trkpt>
   <trkpt lat="-37.83825" lon="145.34805">
    <ele>580.1400000000001</ele>
   </trkpt>
   <trkpt lat="-37.83831" lon="145.34782">
    <ele>583.0200000000001</ele>
   </trkpt>
   <trkpt lat="-37.83822" lon="145.34768000000003">
    <ele>587.8100000000001</ele>
   </trkpt>
   <trkpt lat="-37.8382" lon="145.34754">
    <ele>589.94</ele>
   </trkpt>
   <trkpt lat="-37.83858" lon="145.34734">
    <ele>584.9000000000001</ele>
   </trkpt>
   <trkpt lat="-37.83869" lon="145.34720000000002">
    <ele>584.5400000000001</ele>
   </trkpt>
   <trkpt lat="-37.83869" lon="145.34719">
    <ele>584.5400000000001</ele>
   </trkpt>
   <trkpt lat="-37.83885" lon="145.34699">
    <ele>582.38</ele>
   </trkpt>
   <trkpt lat="-37.8391" lon="145.34675000000001">
    <ele>576.45</ele>
   </trkpt>
   <trkpt lat="-37.83914" lon="145.34669000000002">
    <ele>576.45</ele>
   </trkpt>
   <trkpt lat="-37.83914" lon="145.34647">
    <ele>572.25</ele>
   </trkpt>
   <trkpt lat="-37.8391" lon="145.34637">
    <ele>570.1400000000001</ele>
   </trkpt>
   <trkpt lat="-37.83894" lon="145.3462">
    <ele>567.59</ele>
   </trkpt>
   <trkpt lat="-37.83896" lon="145.34608">
    <ele>566.28</ele>
   </trkpt>
   <trkpt lat="-37.83872" lon="145.34589000000003">
    <ele>565.5</ele>
   </trkpt>
   <trkpt lat="-37.83856" lon="145.34584">
    <ele>566.72</ele>
   </trkpt>
   <trkpt lat="-37.83843" lon="145.34587000000002">
    <ele>569.7800000000001</ele>
   </trkpt>
   <trkpt lat="-37.83834" lon="145.34596000000002">
    <ele>571.09</ele>
   </trkpt>
   <trkpt lat="-37.83813" lon="145.34605000000002">
    <ele>580.38</ele>
   </trkpt>
   <trkpt lat="-37.83791" lon="145.34608">
    <ele>584.4100000000001</ele>
   </trkpt>
   <trkpt lat="-37.83766" lon="145.34623000000002">
    <ele>592.82</ele>
   </trkpt>
   <trkpt lat="-37.83733" lon="145.34626">
    <ele>599.09</ele>
   </trkpt>
   <trkpt lat="-37.83726" lon="145.34629">
    <ele>601.07</ele>
   </trkpt>
   <trkpt lat="-37.83693" lon="145.34661">
    <ele>610.11</ele>
   </trkpt>
   <trkpt lat="-37.83681" lon="145.34659000000002">
    <ele>610.9300000000001</ele>
   </trkpt>
   <trkpt lat="-37.83668" lon="145.34660000000002">
    <ele>610.7</ele>
   </trkpt>
   <trkpt lat="-37.836560000000006" lon="145.34659000000002">
    <ele>609.51</ele>
   </trkpt>
   <trkpt lat="-37.8363" lon="145.34654">
    <ele>606.87</ele>
   </trkpt>
   <trkpt lat="-37.83614" lon="145.34654">
    <ele>604.72</ele>
   </trkpt>
   <trkpt lat="-37.83615" lon="145.34654">
    <ele>604.8</ele>
   </trkpt>
   <trkpt lat="-37.83574" lon="145.34658000000002">
    <ele>600.1200000000001</ele>
   </trkpt>
   <trkpt lat="-37.835150000000006" lon="145.34676000000002">
    <ele>596.9100000000001</ele>
   </trkpt>
   <trkpt lat="-37.83491" lon="145.3468">
    <ele>596.28</ele>
   </trkpt>
   <trkpt lat="-37.8344" lon="145.34703000000002">
    <ele>596.1700000000001</ele>
   </trkpt>
   <trkpt lat="-37.83413" lon="145.34727">
    <ele>596.74</ele>
   </trkpt>
   <trkpt lat="-37.83379500086186" lon="145.3476750016354">
    <ele>596.75</ele>
   </trkpt>
   <trkpt lat="-37.83346" lon="145.34808">
    <ele>594.6400000000001</ele>
   </trkpt>
   <trkpt lat="-37.83339" lon="145.34822">
    <ele>594.8500000000001</ele>
   </trkpt>
   <trkpt lat="-37.83328" lon="145.3487">
    <ele>594.86</ele>
   </trkpt>
   <trkpt lat="-37.83321" lon="145.34907">
    <ele>592.48</ele>
   </trkpt>
   <trkpt lat="-37.83316000000001" lon="145.34919000000002">
    <ele>592.48</ele>
   </trkpt>
   <trkpt lat="-37.83274" lon="145.34954000000002">
    <ele>587.22</ele>
   </trkpt>
   <trkpt lat="-37.83267" lon="145.34969">
    <ele>586.4</ele>
   </trkpt>
   <trkpt lat="-37.83231" lon="145.35010000000003">
    <ele>578.6600000000001</ele>
   </trkpt>
   <trkpt lat="-37.83196" lon="145.35046">
    <ele>570.71</ele>
   </trkpt>
   <trkpt lat="-37.83162" lon="145.35071000000002">
    <ele>561.57</ele>
   </trkpt>
   <trkpt lat="-37.83122" lon="145.35091">
    <ele>556.82</ele>
   </trkpt>
   <trkpt lat="-37.83093" lon="145.35097000000002">
    <ele>557.32</ele>
   </trkpt>
   <trkpt lat="-37.83066" lon="145.35092">
    <ele>559.4800000000001</ele>
   </trkpt>
   <trkpt lat="-37.83032" lon="145.35069000000001">
    <ele>561.4800000000001</ele>
   </trkpt>
   <trkpt lat="-37.82999" lon="145.35055">
    <ele>564.9000000000001</ele>
   </trkpt>
   <trkpt lat="-37.82963" lon="145.35047">
    <ele>567.59</ele>
   </trkpt>
   <trkpt lat="-37.82943" lon="145.35047">
    <ele>569.52</ele>
   </trkpt>
   <trkpt lat="-37.82911" lon="145.35060000000001">
    <ele>576.1800000000001</ele>
   </trkpt>
   <trkpt lat="-37.828629999903704" lon="145.35060500003354">
    <ele>577.95</ele>
   </trkpt>
   <trkpt lat="-37.82815" lon="145.35061000000002">
    <ele>575.0600000000001</ele>
   </trkpt>
   <trkpt lat="-37.82746" lon="145.35075">
    <ele>576.59</ele>
   </trkpt>
   <trkpt lat="-37.827470000000005" lon="145.35075">
    <ele>576.5300000000001</ele>
   </trkpt>
   <trkpt lat="-37.82701" lon="145.35084">
    <ele>578.09</ele>
   </trkpt>
   <trkpt lat="-37.82658" lon="145.35101">
    <ele>577.1400000000001</ele>
   </trkpt>
   <trkpt lat="-37.82625" lon="145.35123000000002">
    <ele>579.09</ele>
   </trkpt>
   <trkpt lat="-37.82596" lon="145.35162000000003">
    <ele>582.11</ele>
   </trkpt>
   <trkpt lat="-37.82558" lon="145.35231000000002">
    <ele>584.87</ele>
   </trkpt>
   <trkpt lat="-37.82551" lon="145.35260000000002">
    <ele>585.61</ele>
   </trkpt>
   <trkpt lat="-37.82547" lon="145.35287000000002">
    <ele>585.86</ele>
   </trkpt>
   <trkpt lat="-37.825520000000004" lon="145.35319">
    <ele>587.09</ele>
   </trkpt>
   <trkpt lat="-37.8256" lon="145.35319">
    <ele>589.5799999999999</ele>
   </trkpt>
   <trkpt lat="-37.82564" lon="145.35313000000002">
    <ele>590.95</ele>
   </trkpt>
   <trkpt lat="-37.8258" lon="145.35314000000002">
    <ele>597.1200000000001</ele>
   </trkpt>
   <trkpt lat="-37.82589" lon="145.35312000000002">
    <ele>600.4</ele>
   </trkpt>
   <trkpt lat="-37.82602" lon="145.35317">
    <ele>609.0000000000001</ele>
   </trkpt>
   <trkpt lat="-37.826220000000006" lon="145.35317">
    <ele>613.9300000000001</ele>
   </trkpt>
   <trkpt lat="-37.82634" lon="145.35316">
    <ele>618.39</ele>
   </trkpt>
   <trkpt lat="-37.826440000000005" lon="145.35313000000002">
    <ele>622.71</ele>
   </trkpt>
   <trkpt lat="-37.82659" lon="145.35302000000001">
    <ele>623.94</ele>
   </trkpt>
   <trkpt lat="-37.826620000000005" lon="145.3529">
    <ele>624.1000000000001</ele>
   </trkpt>
   <trkpt lat="-37.826710000000006" lon="145.35296000000002">
    <ele>625.57</ele>
   </trkpt>
   <trkpt lat="-37.826730000000005" lon="145.35275000000001">
    <ele>626.82</ele>
   </trkpt>
   <trkpt lat="-37.82676" lon="145.35276000000002">
    <ele>626.65</ele>
   </trkpt>
   <trkpt lat="-37.82674" lon="145.35293000000001">
    <ele>626.22</ele>
   </trkpt>
   <trkpt lat="-37.82676" lon="145.35284000000001">
    <ele>626.09</ele>
   </trkpt>
   <trkpt lat="-37.8269" lon="145.3529">
    <ele>625.63</ele>
   </trkpt>
   <trkpt lat="-37.8269" lon="145.35302000000001">
    <ele>625.4200000000001</ele>
   </trkpt>
   <trkpt lat="-37.82696" lon="145.35287000000002">
    <ele>624.7</ele>
   </trkpt>
   <trkpt lat="-37.8269" lon="145.35302000000001">
    <ele>625.4200000000001</ele>
   </trkpt>
   <trkpt lat="-37.8269" lon="145.3529">
    <ele>625.63</ele>
   </trkpt>
   <trkpt lat="-37.826840000000004" lon="145.35287000000002">
    <ele>625.78</ele>
   </trkpt>
   <trkpt lat="-37.82679" lon="145.35327">
    <ele>625.6</ele>
   </trkpt>
   <trkpt lat="-37.826800000000006" lon="145.35342">
    <ele>625.62</ele>
   </trkpt>
   <trkpt lat="-37.826910000000005" lon="145.35350000000003">
    <ele>625.6700000000001</ele>
   </trkpt>
   <trkpt lat="-37.826980000000006" lon="145.35382">
    <ele>622.4000000000001</ele>
   </trkpt>
   <trkpt lat="-37.82714" lon="145.35408">
    <ele>617.0300000000001</ele>
   </trkpt>
   <trkpt lat="-37.8273" lon="145.35427">
    <ele>613.6400000000001</ele>
   </trkpt>
   <trkpt lat="-37.82755" lon="145.35451">
    <ele>609.68</ele>
   </trkpt>
   <trkpt lat="-37.82784" lon="145.35498">
    <ele>603.62</ele>
   </trkpt>
   <trkpt lat="-37.82804" lon="145.35517000000002">
    <ele>601.37</ele>
   </trkpt>
   <trkpt lat="-37.82835" lon="145.35532">
    <ele>595.9000000000001</ele>
   </trkpt>
   <trkpt lat="-37.828390000000006" lon="145.35532">
    <ele>595.9000000000001</ele>
   </trkpt>
   <trkpt lat="-37.8284" lon="145.35532">
    <ele>595.7</ele>
   </trkpt>
   <trkpt lat="-37.82858" lon="145.35532">
    <ele>593.57</ele>
   </trkpt>
   <trkpt lat="-37.82909" lon="145.35526000000002">
    <ele>590.48</ele>
   </trkpt>
   <trkpt lat="-37.82918" lon="145.35529000000002">
    <ele>589.75</ele>
   </trkpt>
   <trkpt lat="-37.82934" lon="145.35541">
    <ele>588.45</ele>
   </trkpt>
   <trkpt lat="-37.829370000000004" lon="145.35552">
    <ele>587.67</ele>
   </trkpt>
   <trkpt lat="-37.829240000000006" lon="145.35557">
    <ele>587.48</ele>
   </trkpt>
   <trkpt lat="-37.828790000170144" lon="145.3557750012536">
    <ele>585.52</ele>
   </trkpt>
   <trkpt lat="-37.828340000000004" lon="145.35598000000002">
    <ele>584.35</ele>
   </trkpt>
   <trkpt lat="-37.82837" lon="145.3561">
    <ele>583.0200000000001</ele>
   </trkpt>
   <trkpt lat="-37.82831" lon="145.35626000000002">
    <ele>582.21</ele>
   </trkpt>
   <trkpt lat="-37.828190000000006" lon="145.35636000000002">
    <ele>582.1200000000001</ele>
   </trkpt>
   <trkpt lat="-37.828210000000006" lon="145.35653000000002">
    <ele>582.04</ele>
   </trkpt>
   <trkpt lat="-37.82793" lon="145.35668">
    <ele>575.99</ele>
   </trkpt>
   <trkpt lat="-37.82777" lon="145.35693">
    <ele>573.89</ele>
   </trkpt>
   <trkpt lat="-37.827780000000004" lon="145.35693">
    <ele>574.0200000000001</ele>
   </trkpt>
   <trkpt lat="-37.82764" lon="145.35731">
    <ele>571.0</ele>
   </trkpt>
   <trkpt lat="-37.82759" lon="145.35757">
    <ele>565.33</ele>
   </trkpt>
   <trkpt lat="-37.82737" lon="145.35789000000003">
    <ele>561.9399999999999</ele>
   </trkpt>
   <trkpt lat="-37.82721" lon="145.3582">
    <ele>555.6000000000001</ele>
   </trkpt>
   <trkpt lat="-37.82699" lon="145.35844">
    <ele>549.24</ele>
   </trkpt>
   <trkpt lat="-37.82683" lon="145.35869000000002">
    <ele>545.0200000000001</ele>
   </trkpt>
   <trkpt lat="-37.82678000000001" lon="145.35874">
    <ele>543.22</ele>
   </trkpt>
   <trkpt lat="-37.82681" lon="145.35894000000002">
    <ele>540.6800000000001</ele>
   </trkpt>
   <trkpt lat="-37.82687" lon="145.35904000000002">
    <ele>538.5000000000001</ele>
   </trkpt>
   <trkpt lat="-37.82694" lon="145.35909">
    <ele>537.95</ele>
   </trkpt>
   <trkpt lat="-37.82705" lon="145.35911000000002">
    <ele>537.09</ele>
   </trkpt>
   <trkpt lat="-37.827180000000006" lon="145.35917">
    <ele>535.59</ele>
   </trkpt>
   <trkpt lat="-37.82728" lon="145.35929000000002">
    <ele>534.19</ele>
   </trkpt>
   <trkpt lat="-37.82772000000001" lon="145.35955">
    <ele>527.5000000000001</ele>
   </trkpt>
   <trkpt lat="-37.82786" lon="145.3596">
    <ele>523.45</ele>
   </trkpt>
   <trkpt lat="-37.82797" lon="145.35967000000002">
    <ele>515.1300000000001</ele>
   </trkpt>
   <trkpt lat="-37.82802" lon="145.35974000000002">
    <ele>511.70000000000005</ele>
   </trkpt>
   <trkpt lat="-37.828030000000005" lon="145.35981">
    <ele>510.2300000000001</ele>
   </trkpt>
   <trkpt lat="-37.82788" lon="145.35998">
    <ele>510.30000000000007</ele>
   </trkpt>
   <trkpt lat="-37.82804" lon="145.36018">
    <ele>516.81</ele>
   </trkpt>
   <trkpt lat="-37.828210000000006" lon="145.36031">
    <ele>513.63</ele>
   </trkpt>
   <trkpt lat="-37.828300000000006" lon="145.36042">
    <ele>510.11000000000007</ele>
   </trkpt>
   <trkpt lat="-37.82831" lon="145.36051">
    <ele>509.29</ele>
   </trkpt>
   <trkpt lat="-37.82831" lon="145.36064000000002">
    <ele>507.82000000000005</ele>
   </trkpt>
   <trkpt lat="-37.82824" lon="145.36102000000002">
    <ele>503.9800000000001</ele>
   </trkpt>
   <trkpt lat="-37.82826" lon="145.36134">
    <ele>499.96</ele>
   </trkpt>
   <trkpt lat="-37.828210000000006" lon="145.3615">
    <ele>499.09000000000003</ele>
   </trkpt>
   <trkpt lat="-37.82826" lon="145.36181000000002">
    <ele>498.87</ele>
   </trkpt>
   <trkpt lat="-37.82837" lon="145.36183000000003">
    <ele>498.83000000000004</ele>
   </trkpt>
   <trkpt lat="-37.82835" lon="145.36207000000002">
    <ele>498.7300000000001</ele>
   </trkpt>
   <trkpt lat="-37.82842" lon="145.36242000000001">
    <ele>496.66</ele>
   </trkpt>
   <trkpt lat="-37.82849" lon="145.36258">
    <ele>495.16</ele>
   </trkpt>
   <trkpt lat="-37.8286" lon="145.36275">
    <ele>494.62000000000006</ele>
   </trkpt>
   <trkpt lat="-37.82894" lon="145.36309">
    <ele>498.59000000000003</ele>
   </trkpt>
   <trkpt lat="-37.82916" lon="145.36327">
    <ele>497.86</ele>
   </trkpt>
   <trkpt lat="-37.82925" lon="145.36343000000002">
    <ele>498.07000000000005</ele>
   </trkpt>
   <trkpt lat="-37.82932" lon="145.36349">
    <ele>498.18000000000006</ele>
   </trkpt>
   <trkpt lat="-37.82938" lon="145.36346">
    <ele>498.31</ele>
   </trkpt>
   <trkpt lat="-37.82943" lon="145.36349">
    <ele>498.65000000000003</ele>
   </trkpt>
   <trkpt lat="-37.82938" lon="145.36354">
    <ele>498.47</ele>
   </trkpt>
   <trkpt lat="-37.82967" lon="145.3639">
    <ele>496.52</ele>
   </trkpt>
   <trkpt lat="-37.83028" lon="145.36438">
    <ele>493.53000000000003</ele>
   </trkpt>
   <trkpt lat="-37.83028" lon="145.36444">
    <ele>493.55</ele>
   </trkpt>
   <trkpt lat="-37.83032" lon="145.36453">
    <ele>493.59000000000003</ele>
   </trkpt>
   <trkpt lat="-37.8305" lon="145.36457000000001">
    <ele>493.70000000000005</ele>
   </trkpt>
   <trkpt lat="-37.83062" lon="145.36463">
    <ele>493.65000000000003</ele>
   </trkpt>
   <trkpt lat="-37.83113" lon="145.36483">
    <ele>493.42</ele>
   </trkpt>
   <trkpt lat="-37.83124" lon="145.36485000000002">
    <ele>492.66</ele>
   </trkpt>
   <trkpt lat="-37.831480000000006" lon="145.365">
    <ele>489.17</ele>
   </trkpt>
   <trkpt lat="-37.83164" lon="145.365">
    <ele>488.28000000000003</ele>
   </trkpt>
   <trkpt lat="-37.83196" lon="145.36511000000002">
    <ele>484.16</ele>
   </trkpt>
   <trkpt lat="-37.83207" lon="145.36518">
    <ele>482.51000000000005</ele>
   </trkpt>
   <trkpt lat="-37.83209" lon="145.36526">
    <ele>480.7</ele>
   </trkpt>
   <trkpt lat="-37.8322" lon="145.36537">
    <ele>478.74000000000007</ele>
   </trkpt>
   <trkpt lat="-37.832240000000006" lon="145.36546">
    <ele>477.32</ele>
   </trkpt>
   <trkpt lat="-37.8322" lon="145.36557000000002">
    <ele>477.24000000000007</ele>
   </trkpt>
   <trkpt lat="-37.83229" lon="145.3656">
    <ele>475.80000000000007</ele>
   </trkpt>
   <trkpt lat="-37.83234" lon="145.36567000000002">
    <ele>473.57000000000005</ele>
   </trkpt>
   <trkpt lat="-37.83252" lon="145.36566000000002">
    <ele>471.67</ele>
   </trkpt>
   <trkpt lat="-37.83263" lon="145.36575000000002">
    <ele>470.63000000000005</ele>
   </trkpt>
   <trkpt lat="-37.83268" lon="145.36575000000002">
    <ele>470.63000000000005</ele>
   </trkpt>
   <trkpt lat="-37.83269000000001" lon="145.36567000000002">
    <ele>469.27000000000004</ele>
   </trkpt>
   <trkpt lat="-37.83272" lon="145.36565000000002">
    <ele>467.39000000000004</ele>
   </trkpt>
   <trkpt lat="-37.833000000000006" lon="145.36563">
    <ele>463.09000000000003</ele>
   </trkpt>
   <trkpt lat="-37.833020000000005" lon="145.36566000000002">
    <ele>463.09000000000003</ele>
   </trkpt>
   <trkpt lat="-37.83346" lon="145.36599">
    <ele>456.26000000000005</ele>
   </trkpt>
   <trkpt lat="-37.83372" lon="145.36615">
    <ele>452.72</ele>
   </trkpt>
   <trkpt lat="-37.83428" lon="145.3666">
    <ele>442.35</ele>
   </trkpt>
   <trkpt lat="-37.8344" lon="145.36679">
    <ele>440.13</ele>
   </trkpt>
   <trkpt lat="-37.83469" lon="145.36711000000003">
    <ele>434.21000000000004</ele>
   </trkpt>
   <trkpt lat="-37.83482" lon="145.36722">
    <ele>432.39000000000004</ele>
   </trkpt>
   <trkpt lat="-37.83509" lon="145.3673">
    <ele>427.15000000000003</ele>
   </trkpt>
   <trkpt lat="-37.83527" lon="145.36759">
    <ele>425.03000000000003</ele>
   </trkpt>
   <trkpt lat="-37.83536" lon="145.3684">
    <ele>426.05</ele>
   </trkpt>
   <trkpt lat="-37.83547" lon="145.36883">
    <ele>425.00000000000006</ele>
   </trkpt>
   <trkpt lat="-37.83558" lon="145.36916000000002">
    <ele>424.26</ele>
   </trkpt>
   <trkpt lat="-37.83572" lon="145.36931">
    <ele>421.99</ele>
   </trkpt>
   <trkpt lat="-37.83583" lon="145.36949">
    <ele>418.72</ele>
   </trkpt>
   <trkpt lat="-37.83583" lon="145.36973">
    <ele>418.16</ele>
   </trkpt>
   <trkpt lat="-37.83578" lon="145.37018">
    <ele>415.57000000000005</ele>
   </trkpt>
   <trkpt lat="-37.83576" lon="145.37064">
    <ele>409.45000000000005</ele>
   </trkpt>
   <trkpt lat="-37.83574" lon="145.37077000000002">
    <ele>408.56</ele>
   </trkpt>
   <trkpt lat="-37.83534" lon="145.37146">
    <ele>404.79</ele>
   </trkpt>
   <trkpt lat="-37.835350000000005" lon="145.37146">
    <ele>404.77000000000004</ele>
   </trkpt>
   <trkpt lat="-37.835" lon="145.37205">
    <ele>405.07000000000005</ele>
   </trkpt>
   <trkpt lat="-37.83491" lon="145.37243">
    <ele>406.48</ele>
   </trkpt>
   <trkpt lat="-37.83491" lon="145.37251">
    <ele>406.83000000000004</ele>
   </trkpt>
   <trkpt lat="-37.835" lon="145.37262">
    <ele>406.6</ele>
   </trkpt>
   <trkpt lat="-37.83525" lon="145.37281000000002">
    <ele>402.47</ele>
   </trkpt>
   <trkpt lat="-37.83529" lon="145.37287">
    <ele>402.25000000000006</ele>
   </trkpt>
   <trkpt lat="-37.83534" lon="145.37307">
    <ele>401.87000000000006</ele>
   </trkpt>
   <trkpt lat="-37.83534" lon="145.37347000000003">
    <ele>397.33</ele>
   </trkpt>
   <trkpt lat="-37.8352" lon="145.37391000000002">
    <ele>387.84000000000003</ele>
   </trkpt>
   <trkpt lat="-37.83516" lon="145.37397">
    <ele>386.49000000000007</ele>
   </trkpt>
   <trkpt lat="-37.835060000000006" lon="145.37404">
    <ele>384.95</ele>
   </trkpt>
   <trkpt lat="-37.83478" lon="145.37412">
    <ele>379.43000000000006</ele>
   </trkpt>
   <trkpt lat="-37.83442" lon="145.37417000000002">
    <ele>372.4</ele>
   </trkpt>
   <trkpt lat="-37.83413" lon="145.37428">
    <ele>361.62000000000006</ele>
   </trkpt>
   <trkpt lat="-37.83379" lon="145.3745">
    <ele>350.2</ele>
   </trkpt>
   <trkpt lat="-37.8337" lon="145.37454000000002">
    <ele>347.90000000000003</ele>
   </trkpt>
   <trkpt lat="-37.83357" lon="145.37456">
    <ele>345.49</ele>
   </trkpt>
   <trkpt lat="-37.83328" lon="145.37453000000002">
    <ele>341.89000000000004</ele>
   </trkpt>
   <trkpt lat="-37.83315" lon="145.37453000000002">
    <ele>340.31</ele>
   </trkpt>
   <trkpt lat="-37.833180000000006" lon="145.37453000000002">
    <ele>340.53000000000003</ele>
   </trkpt>
   <trkpt lat="-37.83283" lon="145.37455">
    <ele>333.8</ele>
   </trkpt>
   <trkpt lat="-37.83261" lon="145.37459">
    <ele>331.33</ele>
   </trkpt>
   <trkpt lat="-37.83238" lon="145.37460000000002">
    <ele>327.71</ele>
   </trkpt>
   <trkpt lat="-37.83209" lon="145.37465">
    <ele>326.64000000000004</ele>
   </trkpt>
   <trkpt lat="-37.8316" lon="145.37477">
    <ele>325.48</ele>
   </trkpt>
   <trkpt lat="-37.83142" lon="145.37479000000002">
    <ele>324.69000000000005</ele>
   </trkpt>
   <trkpt lat="-37.83099" lon="145.37507000000002">
    <ele>318.5</ele>
   </trkpt>
   <trkpt lat="-37.8305" lon="145.3753">
    <ele>311.4</ele>
   </trkpt>
   <trkpt lat="-37.83019" lon="145.37534000000002">
    <ele>308.15000000000003</ele>
   </trkpt>
   <trkpt lat="-37.8299" lon="145.37518">
    <ele>305.93</ele>
   </trkpt>
   <trkpt lat="-37.8297" lon="145.37526000000003">
    <ele>302.96</ele>
   </trkpt>
   <trkpt lat="-37.82947" lon="145.37548">
    <ele>300.49</ele>
   </trkpt>
   <trkpt lat="-37.82934" lon="145.37553">
    <ele>299.6</ele>
   </trkpt>
   <trkpt lat="-37.82903" lon="145.37557">
    <ele>297.28000000000003</ele>
   </trkpt>
   <trkpt lat="-37.82898" lon="145.37562">
    <ele>297.27000000000004</ele>
   </trkpt>
   <trkpt lat="-37.82884" lon="145.37587000000002">
    <ele>290.2</ele>
   </trkpt>
   <trkpt lat="-37.82876" lon="145.37608">
    <ele>284.82</ele>
   </trkpt>
   <trkpt lat="-37.828880000000005" lon="145.37612000000001">
    <ele>284.68000000000006</ele>
   </trkpt>
   <trkpt lat="-37.82893" lon="145.37623000000002">
    <ele>284.23</ele>
   </trkpt>
   <trkpt lat="-37.82893" lon="145.37641000000002">
    <ele>283.87</ele>
   </trkpt>
   <trkpt lat="-37.82887" lon="145.37672">
    <ele>283.04</ele>
   </trkpt>
   <trkpt lat="-37.82873" lon="145.37708">
    <ele>281.74000000000007</ele>
   </trkpt>
   <trkpt lat="-37.82867" lon="145.37720000000002">
    <ele>281.23</ele>
   </trkpt>
   <trkpt lat="-37.82867" lon="145.37719">
    <ele>281.21000000000004</ele>
   </trkpt>
   <trkpt lat="-37.8286" lon="145.37732000000003">
    <ele>280.55</ele>
   </trkpt>
   <trkpt lat="-37.82824" lon="145.37775000000002">
    <ele>274.49</ele>
   </trkpt>
   <trkpt lat="-37.827920000000006" lon="145.37805">
    <ele>271.72</ele>
   </trkpt>
   <trkpt lat="-37.82799" lon="145.37812000000002">
    <ele>272.0</ele>
   </trkpt>
   <trkpt lat="-37.82799" lon="145.37820000000002">
    <ele>272.36</ele>
   </trkpt>
   <trkpt lat="-37.82793" lon="145.37837000000002">
    <ele>273.23</ele>
   </trkpt>
   <trkpt lat="-37.8279" lon="145.3785">
    <ele>274.85</ele>
   </trkpt>
   <trkpt lat="-37.82797" lon="145.37874000000002">
    <ele>278.69000000000005</ele>
   </trkpt>
   <trkpt lat="-37.828120000000006" lon="145.37881000000002">
    <ele>280.95000000000005</ele>
   </trkpt>
   <trkpt lat="-37.8282" lon="145.37878">
    <ele>283.06</ele>
   </trkpt>
   <trkpt lat="-37.82833" lon="145.37879">
    <ele>283.79</ele>
   </trkpt>
   <trkpt lat="-37.82882" lon="145.37863000000002">
    <ele>294.13</ele>
   </trkpt>
   <trkpt lat="-37.82907" lon="145.3786">
    <ele>300.14</ele>
   </trkpt>
   <trkpt lat="-37.82954" lon="145.37861">
    <ele>309.44000000000005</ele>
   </trkpt>
   <trkpt lat="-37.82981" lon="145.37858">
    <ele>314.75</ele>
   </trkpt>
   <trkpt lat="-37.8299" lon="145.37852">
    <ele>320.97</ele>
   </trkpt>
   <trkpt lat="-37.8301" lon="145.37836000000001">
    <ele>324.15000000000003</ele>
   </trkpt>
   <trkpt lat="-37.83032" lon="145.37802000000002">
    <ele>332.77</ele>
   </trkpt>
   <trkpt lat="-37.83088" lon="145.37755">
    <ele>353.35</ele>
   </trkpt>
   <trkpt lat="-37.83106" lon="145.37746">
    <ele>357.88000000000005</ele>
   </trkpt>
   <trkpt lat="-37.83131" lon="145.37743">
    <ele>365.96</ele>
   </trkpt>
   <trkpt lat="-37.83164" lon="145.37725">
    <ele>371.84</ele>
   </trkpt>
   <trkpt lat="-37.83187" lon="145.37702000000002">
    <ele>373.82000000000005</ele>
   </trkpt>
   <trkpt lat="-37.83202" lon="145.37691">
    <ele>375.50000000000006</ele>
   </trkpt>
   <trkpt lat="-37.83211" lon="145.37687000000003">
    <ele>376.78</ele>
   </trkpt>
   <trkpt lat="-37.8324" lon="145.37684000000002">
    <ele>381.37000000000006</ele>
   </trkpt>
   <trkpt lat="-37.83274" lon="145.37673">
    <ele>385.63</ele>
   </trkpt>
   <trkpt lat="-37.83281" lon="145.37665">
    <ele>385.97</ele>
   </trkpt>
   <trkpt lat="-37.832820000000005" lon="145.37665">
    <ele>385.98</ele>
   </trkpt>
   <trkpt lat="-37.8329" lon="145.37657000000002">
    <ele>386.15000000000003</ele>
   </trkpt>
   <trkpt lat="-37.83314" lon="145.37650000000002">
    <ele>387.15000000000003</ele>
   </trkpt>
   <trkpt lat="-37.83343" lon="145.37654">
    <ele>389.84000000000003</ele>
   </trkpt>
   <trkpt lat="-37.83388" lon="145.37678000000002">
    <ele>393.05</ele>
   </trkpt>
   <trkpt lat="-37.83408" lon="145.37692">
    <ele>396.17</ele>
   </trkpt>
   <trkpt lat="-37.83446" lon="145.37709">
    <ele>404.32</ele>
   </trkpt>
   <trkpt lat="-37.83475" lon="145.37727">
    <ele>409.27000000000004</ele>
   </trkpt>
   <trkpt lat="-37.83498" lon="145.3775">
    <ele>412.23</ele>
   </trkpt>
   <trkpt lat="-37.83518" lon="145.37775000000002">
    <ele>417.80000000000007</ele>
   </trkpt>
   <trkpt lat="-37.83545" lon="145.37794000000002">
    <ele>422.01000000000005</ele>
   </trkpt>
   <trkpt lat="-37.83556" lon="145.37798">
    <ele>423.90000000000003</ele>
   </trkpt>
   <trkpt lat="-37.83565" lon="145.37799">
    <ele>424.94000000000005</ele>
   </trkpt>
   <trkpt lat="-37.83592" lon="145.37798">
    <ele>427.84000000000003</ele>
   </trkpt>
   <trkpt lat="-37.8361" lon="145.37802000000002">
    <ele>430.67</ele>
   </trkpt>
   <trkpt lat="-37.83619" lon="145.37801000000002">
    <ele>431.82000000000005</ele>
   </trkpt>
   <trkpt lat="-37.836310000000005" lon="145.37792000000002">
    <ele>432.66</ele>
   </trkpt>
   <trkpt lat="-37.83672000053975" lon="145.3775850018086">
    <ele>427.45000000000005</ele>
   </trkpt>
   <trkpt lat="-37.83713" lon="145.37725">
    <ele>422.83000000000004</ele>
   </trkpt>
   <trkpt lat="-37.83722" lon="145.37716">
    <ele>422.24000000000007</ele>
   </trkpt>
   <trkpt lat="-37.83731" lon="145.37695000000002">
    <ele>418.50000000000006</ele>
   </trkpt>
   <trkpt lat="-37.83731" lon="145.37681">
    <ele>416.90000000000003</ele>
   </trkpt>
   <trkpt lat="-37.83722" lon="145.37645">
    <ele>414.01000000000005</ele>
   </trkpt>
   <trkpt lat="-37.83724" lon="145.3762">
    <ele>413.18000000000006</ele>
   </trkpt>
   <trkpt lat="-37.83724" lon="145.37557">
    <ele>407.95000000000005</ele>
   </trkpt>
   <trkpt lat="-37.83728" lon="145.37513">
    <ele>406.15</ele>
   </trkpt>
   <trkpt lat="-37.83731" lon="145.37496000000002">
    <ele>406.32</ele>
   </trkpt>
   <trkpt lat="-37.83738" lon="145.37475">
    <ele>406.78000000000003</ele>
   </trkpt>
   <trkpt lat="-37.8376" lon="145.37522">
    <ele>406.29</ele>
   </trkpt>
   <trkpt lat="-37.83773" lon="145.37587000000002">
    <ele>407.5</ele>
   </trkpt>
   <trkpt lat="-37.83816" lon="145.37661">
    <ele>400.96000000000004</ele>
   </trkpt>
   <trkpt lat="-37.83834" lon="145.37685000000002">
    <ele>398.99</ele>
   </trkpt>
   <trkpt lat="-37.83838" lon="145.37712000000002">
    <ele>396.72</ele>
   </trkpt>
   <trkpt lat="-37.83838" lon="145.37723000000003">
    <ele>395.94</ele>
   </trkpt>
   <trkpt lat="-37.83825" lon="145.37757000000002">
    <ele>393.59000000000003</ele>
   </trkpt>
   <trkpt lat="-37.83825" lon="145.37769">
    <ele>393.59000000000003</ele>
   </trkpt>
   <trkpt lat="-37.83829" lon="145.37793000000002">
    <ele>391.54</ele>
   </trkpt>
   <trkpt lat="-37.83849" lon="145.37836000000001">
    <ele>388.98</ele>
   </trkpt>
   <trkpt lat="-37.83858" lon="145.37865000000002">
    <ele>387.65000000000003</ele>
   </trkpt>
   <trkpt lat="-37.83867" lon="145.3788">
    <ele>387.14000000000004</ele>
   </trkpt>
   <trkpt lat="-37.838890000000006" lon="145.37906">
    <ele>385.21000000000004</ele>
   </trkpt>
   <trkpt lat="-37.8391" lon="145.37933">
    <ele>382.19</ele>
   </trkpt>
   <trkpt lat="-37.83921" lon="145.37961">
    <ele>380.41</ele>
   </trkpt>
   <trkpt lat="-37.83923" lon="145.37973000000002">
    <ele>380.41</ele>
   </trkpt>
   <trkpt lat="-37.83921" lon="145.37984">
    <ele>378.56</ele>
   </trkpt>
   <trkpt lat="-37.83912" lon="145.37999000000002">
    <ele>377.77000000000004</ele>
   </trkpt>
   <trkpt lat="-37.83867" lon="145.38033000000001">
    <ele>372.51</ele>
   </trkpt>
   <trkpt lat="-37.838420000000006" lon="145.38066">
    <ele>369.64000000000004</ele>
   </trkpt>
   <trkpt lat="-37.83845" lon="145.38077">
    <ele>369.64000000000004</ele>
   </trkpt>
   <trkpt lat="-37.83863" lon="145.38101">
    <ele>364.8</ele>
   </trkpt>
   <trkpt lat="-37.83885" lon="145.38114000000002">
    <ele>362.68</ele>
   </trkpt>
   <trkpt lat="-37.83894" lon="145.38115000000002">
    <ele>362.44000000000005</ele>
   </trkpt>
   <trkpt lat="-37.83919" lon="145.38108000000003">
    <ele>361.98</ele>
   </trkpt>
   <trkpt lat="-37.83928" lon="145.38109">
    <ele>361.13</ele>
   </trkpt>
   <trkpt lat="-37.839380000000006" lon="145.38116000000002">
    <ele>358.69</ele>
   </trkpt>
   <trkpt lat="-37.8397" lon="145.38205000000002">
    <ele>337.53000000000003</ele>
   </trkpt>
   <trkpt lat="-37.839760000000005" lon="145.38223000000002">
    <ele>333.61</ele>
   </trkpt>
   <trkpt lat="-37.8399" lon="145.38273">
    <ele>322.56</ele>
   </trkpt>
   <trkpt lat="-37.83993" lon="145.383">
    <ele>318.84000000000003</ele>
   </trkpt>
   <trkpt lat="-37.83968" lon="145.38363">
    <ele>310.94000000000005</ele>
   </trkpt>
   <trkpt lat="-37.83928" lon="145.38444">
    <ele>305.02</ele>
   </trkpt>
   <trkpt lat="-37.83906" lon="145.38516">
    <ele>298.53000000000003</ele>
   </trkpt>
   <trkpt lat="-37.8395" lon="145.38522">
    <ele>295.36</ele>
   </trkpt>
   <trkpt lat="-37.83975" lon="145.38520000000003">
    <ele>294.47</ele>
   </trkpt>
   <trkpt lat="-37.83997" lon="145.38510000000002">
    <ele>294.58</ele>
   </trkpt>
   <trkpt lat="-37.84022" lon="145.38496">
    <ele>296.01000000000005</ele>
   </trkpt>
   <trkpt lat="-37.84073" lon="145.38456000000002">
    <ele>297.3</ele>
   </trkpt>
   <trkpt lat="-37.84089" lon="145.38447000000002">
    <ele>297.03000000000003</ele>
   </trkpt>
   <trkpt lat="-37.841" lon="145.38444">
    <ele>296.48</ele>
   </trkpt>
   <trkpt lat="-37.84129" lon="145.38446000000002">
    <ele>293.45000000000005</ele>
   </trkpt>
   <trkpt lat="-37.841440000000006" lon="145.38451">
    <ele>290.90000000000003</ele>
   </trkpt>
   <trkpt lat="-37.84154" lon="145.38462">
    <ele>290.90000000000003</ele>
   </trkpt>
   <trkpt lat="-37.84165" lon="145.38485">
    <ele>285.71000000000004</ele>
   </trkpt>
   <trkpt lat="-37.84178" lon="145.38521">
    <ele>279.92</ele>
   </trkpt>
   <trkpt lat="-37.84196" lon="145.38561">
    <ele>275.05</ele>
   </trkpt>
   <trkpt lat="-37.84205" lon="145.38577">
    <ele>273.8</ele>
   </trkpt>
   <trkpt lat="-37.84216" lon="145.38590000000002">
    <ele>273.81</ele>
   </trkpt>
   <trkpt lat="-37.84223" lon="145.38594">
    <ele>273.93</ele>
   </trkpt>
   <trkpt lat="-37.84237" lon="145.38589000000002">
    <ele>274.28000000000003</ele>
   </trkpt>
   <trkpt lat="-37.842470000000006" lon="145.38578">
    <ele>274.98</ele>
   </trkpt>
   <trkpt lat="-37.84254" lon="145.38564000000002">
    <ele>275.57000000000005</ele>
   </trkpt>
   <trkpt lat="-37.84266" lon="145.38509000000002">
    <ele>279.49</ele>
   </trkpt>
   <trkpt lat="-37.84272" lon="145.38490000000002">
    <ele>280.5</ele>
   </trkpt>
   <trkpt lat="-37.84281" lon="145.38477">
    <ele>281.25</ele>
   </trkpt>
   <trkpt lat="-37.84288" lon="145.38473000000002">
    <ele>281.66</ele>
   </trkpt>
   <trkpt lat="-37.84292000000001" lon="145.38473000000002">
    <ele>281.66</ele>
   </trkpt>
   <trkpt lat="-37.84299" lon="145.38485">
    <ele>281.34000000000003</ele>
   </trkpt>
   <trkpt lat="-37.84304" lon="145.38501000000002">
    <ele>280.63000000000005</ele>
   </trkpt>
   <trkpt lat="-37.84299" lon="145.38529">
    <ele>279.81</ele>
   </trkpt>
   <trkpt lat="-37.84286" lon="145.38585">
    <ele>278.28000000000003</ele>
   </trkpt>
   <trkpt lat="-37.84277" lon="145.38612">
    <ele>277.68</ele>
   </trkpt>
   <trkpt lat="-37.8427" lon="145.38637">
    <ele>277.47</ele>
   </trkpt>
   <trkpt lat="-37.84261" lon="145.38726">
    <ele>278.46000000000004</ele>
   </trkpt>
   <trkpt lat="-37.842470000000006" lon="145.38771">
    <ele>279.19000000000005</ele>
   </trkpt>
   <trkpt lat="-37.84237" lon="145.38825">
    <ele>281.31</ele>
   </trkpt>
   <trkpt lat="-37.84237" lon="145.38848000000002">
    <ele>281.72</ele>
   </trkpt>
   <trkpt lat="-37.84243" lon="145.38848000000002">
    <ele>282.48</ele>
   </trkpt>
   <trkpt lat="-37.842830000000006" lon="145.38816">
    <ele>286.51000000000005</ele>
   </trkpt>
   <trkpt lat="-37.84306" lon="145.38855">
    <ele>282.85</ele>
   </trkpt>
   <trkpt lat="-37.8431" lon="145.38876000000002">
    <ele>278.83000000000004</ele>
   </trkpt>
   <trkpt lat="-37.84315" lon="145.38891">
    <ele>278.09</ele>
   </trkpt>
   <trkpt lat="-37.84329" lon="145.389">
    <ele>276.12</ele>
   </trkpt>
   <trkpt lat="-37.843320000000006" lon="145.38902000000002">
    <ele>276.14</ele>
   </trkpt>
   <trkpt lat="-37.84351" lon="145.38905000000003">
    <ele>274.27</ele>
   </trkpt>
   <trkpt lat="-37.84375" lon="145.38884000000002">
    <ele>275.38</ele>
   </trkpt>
   <trkpt lat="-37.84393" lon="145.38879">
    <ele>274.99</ele>
   </trkpt>
   <trkpt lat="-37.844100000000005" lon="145.38879">
    <ele>272.85</ele>
   </trkpt>
   <trkpt lat="-37.844210000000004" lon="145.38883">
    <ele>271.25000000000006</ele>
   </trkpt>
   <trkpt lat="-37.84427" lon="145.38897">
    <ele>269.69000000000005</ele>
   </trkpt>
   <trkpt lat="-37.84427" lon="145.38914000000003">
    <ele>269.6</ele>
   </trkpt>
   <trkpt lat="-37.8442" lon="145.38957000000002">
    <ele>272.26</ele>
   </trkpt>
   <trkpt lat="-37.844260000000006" lon="145.39003000000002">
    <ele>276.38</ele>
   </trkpt>
   <trkpt lat="-37.84416" lon="145.39043">
    <ele>279.03</ele>
   </trkpt>
   <trkpt lat="-37.84416" lon="145.39055000000002">
    <ele>280.05</ele>
   </trkpt>
   <trkpt lat="-37.84452" lon="145.39135000000002">
    <ele>290.24</ele>
   </trkpt>
   <trkpt lat="-37.844630001627664" lon="145.39072500106786">
    <ele>288.46999999999997</ele>
   </trkpt>
   <trkpt lat="-37.84474" lon="145.39010000000002">
    <ele>286.2</ele>
   </trkpt>
   <trkpt lat="-37.84478" lon="145.38966000000002">
    <ele>283.69</ele>
   </trkpt>
   <trkpt lat="-37.84487" lon="145.38931000000002">
    <ele>282.95000000000005</ele>
   </trkpt>
   <trkpt lat="-37.845060000000004" lon="145.38899">
    <ele>282.81</ele>
   </trkpt>
   <trkpt lat="-37.845060000000004" lon="145.38898">
    <ele>282.82</ele>
   </trkpt>
   <trkpt lat="-37.84523" lon="145.38868000000002">
    <ele>282.29</ele>
   </trkpt>
   <trkpt lat="-37.84539" lon="145.38825">
    <ele>282.1</ele>
   </trkpt>
   <trkpt lat="-37.84557" lon="145.388">
    <ele>282.40000000000003</ele>
   </trkpt>
   <trkpt lat="-37.84577" lon="145.38776000000001">
    <ele>283.5</ele>
   </trkpt>
   <trkpt lat="-37.84613" lon="145.38748">
    <ele>285.90999999999997</ele>
   </trkpt>
   <trkpt lat="-37.84628" lon="145.38743000000002">
    <ele>286.32</ele>
   </trkpt>
   <trkpt lat="-37.84651" lon="145.38742000000002">
    <ele>286.72</ele>
   </trkpt>
   <trkpt lat="-37.84671" lon="145.38737">
    <ele>287.25</ele>
   </trkpt>
   <trkpt lat="-37.84691" lon="145.38723000000002">
    <ele>289.04</ele>
   </trkpt>
   <trkpt lat="-37.8472" lon="145.38689000000002">
    <ele>292.09000000000003</ele>
   </trkpt>
   <trkpt lat="-37.84736" lon="145.38680000000002">
    <ele>293.59000000000003</ele>
   </trkpt>
   <trkpt lat="-37.84751" lon="145.38669000000002">
    <ele>294.35</ele>
   </trkpt>
   <trkpt lat="-37.84812" lon="145.38636000000002">
    <ele>301.74</ele>
   </trkpt>
   <trkpt lat="-37.84834" lon="145.38619">
    <ele>303.41</ele>
   </trkpt>
   <trkpt lat="-37.84854" lon="145.38608000000002">
    <ele>305.33000000000004</ele>
   </trkpt>
   <trkpt lat="-37.84904" lon="145.38596">
    <ele>312.24</ele>
   </trkpt>
   <trkpt lat="-37.849500000000006" lon="145.38575">
    <ele>319.20000000000005</ele>
   </trkpt>
   <trkpt lat="-37.8498" lon="145.38495">
    <ele>315.61</ele>
   </trkpt>
   <trkpt lat="-37.849700000000006" lon="145.38484000000003">
    <ele>315.44</ele>
   </trkpt>
   <trkpt lat="-37.84984" lon="145.38484000000003">
    <ele>316.67</ele>
   </trkpt>
   <trkpt lat="-37.8506" lon="145.38444">
    <ele>329.99</ele>
   </trkpt>
   <trkpt lat="-37.850640000000006" lon="145.38443">
    <ele>329.99</ele>
   </trkpt>
   <trkpt lat="-37.85065" lon="145.38443">
    <ele>329.98</ele>
   </trkpt>
   <trkpt lat="-37.85094" lon="145.38438000000002">
    <ele>335.17</ele>
   </trkpt>
   <trkpt lat="-37.85145" lon="145.38439000000002">
    <ele>346.39000000000004</ele>
   </trkpt>
   <trkpt lat="-37.85168" lon="145.38429000000002">
    <ele>351.41</ele>
   </trkpt>
   <trkpt lat="-37.85181" lon="145.38418000000001">
    <ele>354.26</ele>
   </trkpt>
   <trkpt lat="-37.85195" lon="145.38403000000002">
    <ele>359.74</ele>
   </trkpt>
   <trkpt lat="-37.85224" lon="145.38383000000002">
    <ele>365.95000000000005</ele>
   </trkpt>
   <trkpt lat="-37.85282" lon="145.38353">
    <ele>378.19</ele>
   </trkpt>
   <trkpt lat="-37.85329" lon="145.38318">
    <ele>387.94</ele>
   </trkpt>
   <trkpt lat="-37.85376" lon="145.38289">
    <ele>395.53000000000003</ele>
   </trkpt>
   <trkpt lat="-37.85412" lon="145.38276000000002">
    <ele>407.35</ele>
   </trkpt>
   <trkpt lat="-37.85453500053952" lon="145.38244000171923">
    <ele>414.92</ele>
   </trkpt>
   <trkpt lat="-37.85495" lon="145.38212000000001">
    <ele>421.07000000000005</ele>
   </trkpt>
   <trkpt lat="-37.855250000000005" lon="145.38186000000002">
    <ele>428.38000000000005</ele>
   </trkpt>
   <trkpt lat="-37.85526" lon="145.38186000000002">
    <ele>428.57000000000005</ele>
   </trkpt>
   <trkpt lat="-37.85546" lon="145.38168000000002">
    <ele>431.99</ele>
   </trkpt>
   <trkpt lat="-37.855940000000004" lon="145.38131">
    <ele>437.82000000000005</ele>
   </trkpt>
   <trkpt lat="-37.856390000000005" lon="145.38117000000003">
    <ele>436.51</ele>
   </trkpt>
   <trkpt lat="-37.85669" lon="145.38112">
    <ele>436.85</ele>
   </trkpt>
   <trkpt lat="-37.85678" lon="145.38113">
    <ele>436.85</ele>
   </trkpt>
   <trkpt lat="-37.85687" lon="145.38117000000003">
    <ele>437.50000000000006</ele>
   </trkpt>
   <trkpt lat="-37.857020000000006" lon="145.38128">
    <ele>437.89000000000004</ele>
   </trkpt>
   <trkpt lat="-37.85712" lon="145.38146">
    <ele>438.21000000000004</ele>
   </trkpt>
   <trkpt lat="-37.857290000000006" lon="145.38182">
    <ele>438.87</ele>
   </trkpt>
   <trkpt lat="-37.85736" lon="145.38193">
    <ele>439.05000000000007</ele>
   </trkpt>
   <trkpt lat="-37.857440000000004" lon="145.38230000000001">
    <ele>439.1</ele>
   </trkpt>
   <trkpt lat="-37.85707" lon="145.38234">
    <ele>429.69</ele>
   </trkpt>
   <trkpt lat="-37.85674" lon="145.38225">
    <ele>423.25</ele>
   </trkpt>
   <trkpt lat="-37.85665" lon="145.38232000000002">
    <ele>421.00000000000006</ele>
   </trkpt>
   <trkpt lat="-37.8566" lon="145.38243">
    <ele>418.83000000000004</ele>
   </trkpt>
   <trkpt lat="-37.85667" lon="145.38279">
    <ele>413.67</ele>
   </trkpt>
   <trkpt lat="-37.85663" lon="145.38306">
    <ele>409.79</ele>
   </trkpt>
   <trkpt lat="-37.85654" lon="145.38322000000002">
    <ele>408.28000000000003</ele>
   </trkpt>
   <trkpt lat="-37.85638" lon="145.38374000000002">
    <ele>409.88</ele>
   </trkpt>
   <trkpt lat="-37.85636" lon="145.38406">
    <ele>412.82</ele>
   </trkpt>
   <trkpt lat="-37.85636" lon="145.38443">
    <ele>415.82</ele>
   </trkpt>
   <trkpt lat="-37.85642" lon="145.38466000000003">
    <ele>416.94</ele>
   </trkpt>
   <trkpt lat="-37.85651" lon="145.38478">
    <ele>419.50000000000006</ele>
   </trkpt>
   <trkpt lat="-37.85705" lon="145.38525">
    <ele>424.45000000000005</ele>
   </trkpt>
   <trkpt lat="-37.85712" lon="145.38534">
    <ele>425.2</ele>
   </trkpt>
   <trkpt lat="-37.85712" lon="145.38546000000002">
    <ele>426.09000000000003</ele>
   </trkpt>
   <trkpt lat="-37.85694" lon="145.38588000000001">
    <ele>429.62000000000006</ele>
   </trkpt>
   <trkpt lat="-37.856770000000004" lon="145.38613">
    <ele>432.18</ele>
   </trkpt>
   <trkpt lat="-37.856790000000004" lon="145.38611">
    <ele>432.09000000000003</ele>
   </trkpt>
   <trkpt lat="-37.85667" lon="145.38628">
    <ele>432.93</ele>
   </trkpt>
   <trkpt lat="-37.85656" lon="145.38636000000002">
    <ele>432.41</ele>
   </trkpt>
   <trkpt lat="-37.85645" lon="145.38638">
    <ele>431.71000000000004</ele>
   </trkpt>
   <trkpt lat="-37.85618" lon="145.38636000000002">
    <ele>428.39000000000004</ele>
   </trkpt>
   <trkpt lat="-37.85604" lon="145.38625000000002">
    <ele>424.37</ele>
   </trkpt>
   <trkpt lat="-37.856" lon="145.38617000000002">
    <ele>423.58</ele>
   </trkpt>
   <trkpt lat="-37.85586" lon="145.38612">
    <ele>422.18000000000006</ele>
   </trkpt>
   <trkpt lat="-37.85575" lon="145.38613">
    <ele>422.14</ele>
   </trkpt>
   <trkpt lat="-37.855610000000006" lon="145.3861">
    <ele>422.65000000000003</ele>
   </trkpt>
   <trkpt lat="-37.85557" lon="145.38625000000002">
    <ele>424.84000000000003</ele>
   </trkpt>
   <trkpt lat="-37.85551" lon="145.38635000000002">
    <ele>425.72</ele>
   </trkpt>
   <trkpt lat="-37.85542" lon="145.3864">
    <ele>426.08</ele>
   </trkpt>
   <trkpt lat="-37.85524" lon="145.3864">
    <ele>426.02</ele>
   </trkpt>
   <trkpt lat="-37.85504" lon="145.38646">
    <ele>425.95000000000005</ele>
   </trkpt>
   <trkpt lat="-37.85497" lon="145.38651000000002">
    <ele>426.68000000000006</ele>
   </trkpt>
   <trkpt lat="-37.85497" lon="145.38656">
    <ele>427.26000000000005</ele>
   </trkpt>
   <trkpt lat="-37.855450000000005" lon="145.38713">
    <ele>438.53000000000003</ele>
   </trkpt>
   <trkpt lat="-37.85573" lon="145.38751000000002">
    <ele>443.47</ele>
   </trkpt>
   <trkpt lat="-37.85613" lon="145.38815000000002">
    <ele>454.17</ele>
   </trkpt>
   <trkpt lat="-37.85618" lon="145.38828">
    <ele>457.32000000000005</ele>
   </trkpt>
   <trkpt lat="-37.85624" lon="145.38842000000002">
    <ele>459.35</ele>
   </trkpt>
   <trkpt lat="-37.85618" lon="145.38847">
    <ele>459.35</ele>
   </trkpt>
   <trkpt lat="-37.85607" lon="145.38864">
    <ele>459.88</ele>
   </trkpt>
   <trkpt lat="-37.855970000000006" lon="145.38856">
    <ele>459.97</ele>
   </trkpt>
   <trkpt lat="-37.85584" lon="145.38871">
    <ele>457.25000000000006</ele>
   </trkpt>
   <trkpt lat="-37.85578" lon="145.38892">
    <ele>461.13000000000005</ele>
   </trkpt>
   <trkpt lat="-37.855720000000005" lon="145.38911000000002">
    <ele>465.47</ele>
   </trkpt>
   <trkpt lat="-37.85582" lon="145.38917">
    <ele>466.27</ele>
   </trkpt>
   <trkpt lat="-37.85661" lon="145.38925">
    <ele>472.25000000000006</ele>
   </trkpt>
   <trkpt lat="-37.85732" lon="145.38933">
    <ele>479.61</ele>
   </trkpt>
   <trkpt lat="-37.85801499999899" lon="145.38933499995287">
    <ele>490.11</ele>
   </trkpt>
   <trkpt lat="-37.85871" lon="145.38934">
    <ele>501.21000000000004</ele>
   </trkpt>
   <trkpt lat="-37.85938" lon="145.38928">
    <ele>508.7900000000001</ele>
   </trkpt>
   <trkpt lat="-37.85965" lon="145.3891">
    <ele>512.34</ele>
   </trkpt>
   <trkpt lat="-37.85994" lon="145.38885000000002">
    <ele>515.75</ele>
   </trkpt>
   <trkpt lat="-37.86054" lon="145.38838">
    <ele>520.12</ele>
   </trkpt>
   <trkpt lat="-37.86086" lon="145.38804000000002">
    <ele>521.5500000000001</ele>
   </trkpt>
   <trkpt lat="-37.860870000000006" lon="145.3879">
    <ele>520.97</ele>
   </trkpt>
   <trkpt lat="-37.860843339159715" lon="145.38706999940868">
    <ele>516.75</ele>
   </trkpt>
   <trkpt lat="-37.86081667249333" lon="145.38623999941788">
    <ele>509.9600000000001</ele>
   </trkpt>
   <trkpt lat="-37.86079" lon="145.38541">
    <ele>504.84000000000003</ele>
   </trkpt>
   <trkpt lat="-37.860580000000006" lon="145.38432">
    <ele>503.95</ele>
   </trkpt>
   <trkpt lat="-37.860460001716454" lon="145.38367999887507">
    <ele>506.82000000000005</ele>
   </trkpt>
   <trkpt lat="-37.86034" lon="145.38304000000002">
    <ele>512.34</ele>
   </trkpt>
   <trkpt lat="-37.86027" lon="145.38273">
    <ele>514.6200000000001</ele>
   </trkpt>
   <trkpt lat="-37.86023" lon="145.38234">
    <ele>515.93</ele>
   </trkpt>
   <trkpt lat="-37.86023" lon="145.38201">
    <ele>516.11</ele>
   </trkpt>
   <trkpt lat="-37.86027" lon="145.38124000000002">
    <ele>517.36</ele>
   </trkpt>
   <trkpt lat="-37.86021" lon="145.38127">
    <ele>517.3000000000001</ele>
   </trkpt>
   <trkpt lat="-37.86007" lon="145.38119">
    <ele>519.45</ele>
   </trkpt>
   <trkpt lat="-37.859550000000006" lon="145.38082">
    <ele>515.5300000000001</ele>
   </trkpt>
   <trkpt lat="-37.85895" lon="145.38031">
    <ele>505.50000000000006</ele>
   </trkpt>
   <trkpt lat="-37.85862" lon="145.37993">
    <ele>501.96000000000004</ele>
   </trkpt>
   <trkpt lat="-37.8583" lon="145.3796">
    <ele>498.44000000000005</ele>
   </trkpt>
   <trkpt lat="-37.85803000000001" lon="145.37949">
    <ele>497.61</ele>
   </trkpt>
   <trkpt lat="-37.85792" lon="145.37946000000002">
    <ele>497.62000000000006</ele>
   </trkpt>
   <trkpt lat="-37.85761" lon="145.3793">
    <ele>496.58</ele>
   </trkpt>
   <trkpt lat="-37.85734" lon="145.37910000000002">
    <ele>495.51000000000005</ele>
   </trkpt>
   <trkpt lat="-37.857110000000006" lon="145.37887">
    <ele>492.88000000000005</ele>
   </trkpt>
   <trkpt lat="-37.85687" lon="145.37876">
    <ele>489.86</ele>
   </trkpt>
   <trkpt lat="-37.8568" lon="145.37876">
    <ele>488.64</ele>
   </trkpt>
   <trkpt lat="-37.85656" lon="145.37885">
    <ele>486.79</ele>
   </trkpt>
   <trkpt lat="-37.85647" lon="145.37894">
    <ele>486.15000000000003</ele>
   </trkpt>
   <trkpt lat="-37.85642" lon="145.37909000000002">
    <ele>485.55</ele>
   </trkpt>
   <trkpt lat="-37.85642" lon="145.3796">
    <ele>482.49</ele>
   </trkpt>
   <trkpt lat="-37.85636" lon="145.37995">
    <ele>476.84000000000003</ele>
   </trkpt>
   <trkpt lat="-37.85609" lon="145.38024000000001">
    <ele>474.08000000000004</ele>
   </trkpt>
   <trkpt lat="-37.85575" lon="145.38047">
    <ele>470.86000000000007</ele>
   </trkpt>
   <trkpt lat="-37.85564" lon="145.38064">
    <ele>468.58000000000004</ele>
   </trkpt>
   <trkpt lat="-37.85521500025335" lon="145.38042999882236">
    <ele>474.03000000000003</ele>
   </trkpt>
   <trkpt lat="-37.85479" lon="145.38022">
    <ele>479.78000000000003</ele>
   </trkpt>
   <trkpt lat="-37.85434" lon="145.38005">
    <ele>487.6</ele>
   </trkpt>
   <trkpt lat="-37.85409000000001" lon="145.37993">
    <ele>491.82000000000005</ele>
   </trkpt>
   <trkpt lat="-37.85383" lon="145.37978">
    <ele>498.00000000000006</ele>
   </trkpt>
   <trkpt lat="-37.85349" lon="145.3795">
    <ele>507.77000000000004</ele>
   </trkpt>
   <trkpt lat="-37.853350000000006" lon="145.37931">
    <ele>511.9100000000001</ele>
   </trkpt>
   <trkpt lat="-37.85351" lon="145.37909000000002">
    <ele>513.87</ele>
   </trkpt>
   <trkpt lat="-37.85387" lon="145.37866000000002">
    <ele>520.37</ele>
   </trkpt>
   <trkpt lat="-37.85427" lon="145.37793000000002">
    <ele>533.24</ele>
   </trkpt>
   <trkpt lat="-37.85468" lon="145.37727">
    <ele>545.63</ele>
   </trkpt>
   <trkpt lat="-37.854690000000005" lon="145.37725">
    <ele>545.98</ele>
   </trkpt>
   <trkpt lat="-37.85501" lon="145.37684000000002">
    <ele>552.83</ele>
   </trkpt>
   <trkpt lat="-37.85533" lon="145.37614000000002">
    <ele>563.69</ele>
   </trkpt>
   <trkpt lat="-37.85571" lon="145.37552000000002">
    <ele>569.6300000000001</ele>
   </trkpt>
   <trkpt lat="-37.85604" lon="145.37508000000003">
    <ele>572.89</ele>
   </trkpt>
   <trkpt lat="-37.85622" lon="145.37490000000003">
    <ele>574.3100000000001</ele>
   </trkpt>
   <trkpt lat="-37.856260000000006" lon="145.37480000000002">
    <ele>574.26</ele>
   </trkpt>
   <trkpt lat="-37.856" lon="145.37456">
    <ele>577.01</ele>
   </trkpt>
   <trkpt lat="-37.8556750005453" lon="145.37416499811948">
    <ele>578.8000000000001</ele>
   </trkpt>
   <trkpt lat="-37.85535" lon="145.37377">
    <ele>578.22</ele>
   </trkpt>
   <trkpt lat="-37.85531" lon="145.37379">
    <ele>578.2700000000001</ele>
   </trkpt>
   <trkpt lat="-37.85521" lon="145.37367">
    <ele>578.19</ele>
   </trkpt>
   <trkpt lat="-37.854845000635606" lon="145.37326999797466">
    <ele>578.44</ele>
   </trkpt>
   <trkpt lat="-37.85448" lon="145.37287">
    <ele>579.2</ele>
   </trkpt>
   <trkpt lat="-37.8543" lon="145.37263000000002">
    <ele>579.37</ele>
   </trkpt>
   <trkpt lat="-37.85414" lon="145.37239000000002">
    <ele>579.76</ele>
   </trkpt>
   <trkpt lat="-37.85405" lon="145.37220000000002">
    <ele>579.84</ele>
   </trkpt>
   <trkpt lat="-37.854020000000006" lon="145.37182">
    <ele>579.4</ele>
   </trkpt>
   <trkpt lat="-37.854040000000005" lon="145.37130000000002">
    <ele>578.9200000000001</ele>
   </trkpt>
   <trkpt lat="-37.85394" lon="145.37123000000003">
    <ele>578.98</ele>
   </trkpt>
   <trkpt lat="-37.85396" lon="145.37069000000002">
    <ele>576.85</ele>
   </trkpt>
   <trkpt lat="-37.854040000000005" lon="145.37004000000002">
    <ele>575.0900000000001</ele>
   </trkpt>
   <trkpt lat="-37.854040000000005" lon="145.37003">
    <ele>575.0500000000001</ele>
   </trkpt>
   <trkpt lat="-37.85405" lon="145.36988000000002">
    <ele>574.7</ele>
   </trkpt>
   <trkpt lat="-37.85401" lon="145.36961000000002">
    <ele>574.0</ele>
   </trkpt>
   <trkpt lat="-37.85412" lon="145.36953000000003">
    <ele>573.16</ele>
   </trkpt>
   <trkpt lat="-37.85419" lon="145.36952000000002">
    <ele>573.16</ele>
   </trkpt>
   <trkpt lat="-37.85421" lon="145.36937">
    <ele>573.16</ele>
   </trkpt>
   <trkpt lat="-37.85441" lon="145.36911">
    <ele>572.5100000000001</ele>
   </trkpt>
   <trkpt lat="-37.85409000000001" lon="145.36882">
    <ele>576.23</ele>
   </trkpt>
   <trkpt lat="-37.853660000000005" lon="145.36857">
    <ele>579.0000000000001</ele>
   </trkpt>
   <trkpt lat="-37.85314" lon="145.36833000000001">
    <ele>578.2900000000001</ele>
   </trkpt>
   <trkpt lat="-37.85295" lon="145.36823">
    <ele>577.37</ele>
   </trkpt>
   <trkpt lat="-37.85264" lon="145.36819">
    <ele>574.3900000000001</ele>
   </trkpt>
   <trkpt lat="-37.852450000000005" lon="145.36822">
    <ele>573.5100000000001</ele>
   </trkpt>
  </trkseg>
 </trk>
</gpx>
