<?xml version="1.0" encoding="UTF-8"?>
<gpx creator="StravaGPX" version="1.1" xmlns="http://www.topografix.com/GPX/1/1" xmlns:xsi="http://www.w3.org/2001/XMLSchema-instance" xsi:schemaLocation="http://www.topografix.com/GPX/1/1 http://www.topografix.com/GPX/1/1/gpx.xsd">
 <metadata>
  <name>DTR 03rd May - 14k</name>
  <author>
   <name>DTR  Runleaders</name>
   <link href="https://www.strava.com/athletes/194056408"/>
  </author>
  <copyright author="OpenStreetMap contributors">
   <year>2020</year>
   <license>https://www.openstreetmap.org/copyright</license>
  </copyright>
  <link href="https://www.strava.com/routes/3485217910798378286"/>
 </metadata>
 <trk>
  <name>DTR 03rd May - 14k</name>
  <link href="https://www.strava.com/routes/3485217910798378286"/>
  <type>trail_running</type>
  <trkseg>
   <trkpt lat="-37.86287" lon="145.3538">
    <ele>481.13000000000005</ele>
   </trkpt>
   <trkpt lat="-37.86316" lon="145.35444">
    <ele>485.97</ele>
   </trkpt>
   <trkpt lat="-37.86334" lon="145.35477">
    <ele>476.69000000000005</ele>
   </trkpt>
   <trkpt lat="-37.86345" lon="145.35489">
    <ele>475.75000000000006</ele>
   </trkpt>
   <trkpt lat="-37.863600000000005" lon="145.35494">
    <ele>473.07000000000005</ele>
   </trkpt>
   <trkpt lat="-37.86415" lon="145.35496">
    <ele>465.15000000000003</ele>
   </trkpt>
   <trkpt lat="-37.86435" lon="145.35499000000002">
    <ele>461.46000000000004</ele>
   </trkpt>
   <trkpt lat="-37.8645" lon="145.35506">
    <ele>456.03000000000003</ele>
   </trkpt>
   <trkpt lat="-37.864850000000004" lon="145.35513">
    <ele>448.66</ele>
   </trkpt>
   <trkpt lat="-37.86502" lon="145.35512">
    <ele>446.65000000000003</ele>
   </trkpt>
   <trkpt lat="-37.8652" lon="145.35519000000002">
    <ele>444.83000000000004</ele>
   </trkpt>
   <trkpt lat="-37.86547" lon="145.35535000000002">
    <ele>440.15000000000003</ele>
   </trkpt>
   <trkpt lat="-37.86591000000001" lon="145.35539">
    <ele>435.78000000000003</ele>
   </trkpt>
   <trkpt lat="-37.86598" lon="145.35542">
    <ele>435.62000000000006</ele>
   </trkpt>
   <trkpt lat="-37.865990000000004" lon="145.35551">
    <ele>435.62000000000006</ele>
   </trkpt>
   <trkpt lat="-37.866" lon="145.35554000000002">
    <ele>435.62000000000006</ele>
   </trkpt>
   <trkpt lat="-37.86596" lon="145.35572000000002">
    <ele>435.46</ele>
   </trkpt>
   <trkpt lat="-37.865860000000005" lon="145.35572000000002">
    <ele>414.72</ele>
   </trkpt>
   <trkpt lat="-37.86589" lon="145.35592000000003">
    <ele>431.87</ele>
   </trkpt>
   <trkpt lat="-37.86585" lon="145.35607000000002">
    <ele>431.87</ele>
   </trkpt>
   <trkpt lat="-37.866" lon="145.35656">
    <ele>428.50000000000006</ele>
   </trkpt>
   <trkpt lat="-37.86623" lon="145.35682">
    <ele>426.13</ele>
   </trkpt>
   <trkpt lat="-37.86632" lon="145.35688000000002">
    <ele>425.54</ele>
   </trkpt>
   <trkpt lat="-37.86654" lon="145.35708000000002">
    <ele>422.56000000000006</ele>
   </trkpt>
   <trkpt lat="-37.86672" lon="145.35738">
    <ele>420.7</ele>
   </trkpt>
   <trkpt lat="-37.86675" lon="145.35739">
    <ele>420.7</ele>
   </trkpt>
   <trkpt lat="-37.86688" lon="145.35736">
    <ele>420.47</ele>
   </trkpt>
   <trkpt lat="-37.86715" lon="145.35776">
    <ele>420.93</ele>
   </trkpt>
   <trkpt lat="-37.86728" lon="145.35787000000002">
    <ele>419.83000000000004</ele>
   </trkpt>
   <trkpt lat="-37.86737" lon="145.35797000000002">
    <ele>419.6</ele>
   </trkpt>
   <trkpt lat="-37.86748" lon="145.35804000000002">
    <ele>419.62000000000006</ele>
   </trkpt>
   <trkpt lat="-37.86755" lon="145.35812">
    <ele>419.46000000000004</ele>
   </trkpt>
   <trkpt lat="-37.86766" lon="145.35817">
    <ele>419.44000000000005</ele>
   </trkpt>
   <trkpt lat="-37.86771" lon="145.35824000000002">
    <ele>419.48</ele>
   </trkpt>
   <trkpt lat="-37.86768" lon="145.35852">
    <ele>418.90000000000003</ele>
   </trkpt>
   <trkpt lat="-37.86773" lon="145.35860000000002">
    <ele>419.12000000000006</ele>
   </trkpt>
   <trkpt lat="-37.86793" lon="145.35878000000002">
    <ele>420.21000000000004</ele>
   </trkpt>
   <trkpt lat="-37.86806" lon="145.35901">
    <ele>419.6</ele>
   </trkpt>
   <trkpt lat="-37.8682" lon="145.35908">
    <ele>419.32</ele>
   </trkpt>
   <trkpt lat="-37.86871" lon="145.35917">
    <ele>419.64</ele>
   </trkpt>
   <trkpt lat="-37.86887" lon="145.35943">
    <ele>417.59000000000003</ele>
   </trkpt>
   <trkpt lat="-37.869220000000006" lon="145.35977000000003">
    <ele>416.11</ele>
   </trkpt>
   <trkpt lat="-37.869460000000004" lon="145.36008">
    <ele>416.04</ele>
   </trkpt>
   <trkpt lat="-37.8695" lon="145.36015">
    <ele>415.89000000000004</ele>
   </trkpt>
   <trkpt lat="-37.86963" lon="145.36053">
    <ele>413.59000000000003</ele>
   </trkpt>
   <trkpt lat="-37.86972" lon="145.36065000000002">
    <ele>412.77000000000004</ele>
   </trkpt>
   <trkpt lat="-37.86999" lon="145.36083000000002">
    <ele>412.83000000000004</ele>
   </trkpt>
   <trkpt lat="-37.87071" lon="145.36105">
    <ele>411.02000000000004</ele>
   </trkpt>
   <trkpt lat="-37.87113" lon="145.36123">
    <ele>410.16</ele>
   </trkpt>
   <trkpt lat="-37.87182" lon="145.36126000000002">
    <ele>410.11</ele>
   </trkpt>
   <trkpt lat="-37.87205" lon="145.36114">
    <ele>410.18000000000006</ele>
   </trkpt>
   <trkpt lat="-37.87221" lon="145.36118000000002">
    <ele>409.25000000000006</ele>
   </trkpt>
   <trkpt lat="-37.87234" lon="145.36127000000002">
    <ele>408.76</ele>
   </trkpt>
   <trkpt lat="-37.87243" lon="145.36129000000003">
    <ele>408.21000000000004</ele>
   </trkpt>
   <trkpt lat="-37.87292" lon="145.36119000000002">
    <ele>406.26</ele>
   </trkpt>
   <trkpt lat="-37.87322" lon="145.36120000000003">
    <ele>403.61</ele>
   </trkpt>
   <trkpt lat="-37.873360000000005" lon="145.36122">
    <ele>402.04</ele>
   </trkpt>
   <trkpt lat="-37.873400000000004" lon="145.36126000000002">
    <ele>401.41</ele>
   </trkpt>
   <trkpt lat="-37.873490000000004" lon="145.36143">
    <ele>400.70000000000005</ele>
   </trkpt>
   <trkpt lat="-37.873540000000006" lon="145.3614">
    <ele>400.52000000000004</ele>
   </trkpt>
   <trkpt lat="-37.873560000000005" lon="145.36141">
    <ele>400.52000000000004</ele>
   </trkpt>
   <trkpt lat="-37.87357" lon="145.36146000000002">
    <ele>400.22</ele>
   </trkpt>
   <trkpt lat="-37.87355" lon="145.36154000000002">
    <ele>400.05</ele>
   </trkpt>
   <trkpt lat="-37.87368" lon="145.36174000000003">
    <ele>397.27</ele>
   </trkpt>
   <trkpt lat="-37.87377" lon="145.36196">
    <ele>393.01</ele>
   </trkpt>
   <trkpt lat="-37.87377" lon="145.36206">
    <ele>392.42</ele>
   </trkpt>
   <trkpt lat="-37.873740000000005" lon="145.36213">
    <ele>377.59000000000003</ele>
   </trkpt>
   <trkpt lat="-37.87373" lon="145.36223">
    <ele>378.02000000000004</ele>
   </trkpt>
   <trkpt lat="-37.87382" lon="145.36244000000002">
    <ele>379.5</ele>
   </trkpt>
   <trkpt lat="-37.87402" lon="145.36301">
    <ele>382.12</ele>
   </trkpt>
   <trkpt lat="-37.87404" lon="145.36343000000002">
    <ele>385.28000000000003</ele>
   </trkpt>
   <trkpt lat="-37.87426" lon="145.36375">
    <ele>385.45</ele>
   </trkpt>
   <trkpt lat="-37.87438" lon="145.36402">
    <ele>384.92</ele>
   </trkpt>
   <trkpt lat="-37.87438" lon="145.3642">
    <ele>385.27000000000004</ele>
   </trkpt>
   <trkpt lat="-37.87435" lon="145.36442000000002">
    <ele>386.56</ele>
   </trkpt>
   <trkpt lat="-37.87435" lon="145.36469000000002">
    <ele>387.48</ele>
   </trkpt>
   <trkpt lat="-37.874660000000006" lon="145.36564">
    <ele>384.87000000000006</ele>
   </trkpt>
   <trkpt lat="-37.8748" lon="145.366">
    <ele>383.75</ele>
   </trkpt>
   <trkpt lat="-37.87482" lon="145.36644">
    <ele>385.92</ele>
   </trkpt>
   <trkpt lat="-37.87489" lon="145.36658">
    <ele>384.71000000000004</ele>
   </trkpt>
   <trkpt lat="-37.87514" lon="145.36678">
    <ele>381.61</ele>
   </trkpt>
   <trkpt lat="-37.87523" lon="145.36692000000002">
    <ele>381.46000000000004</ele>
   </trkpt>
   <trkpt lat="-37.87559" lon="145.36734">
    <ele>378.76000000000005</ele>
   </trkpt>
   <trkpt lat="-37.8757" lon="145.3675">
    <ele>376.6</ele>
   </trkpt>
   <trkpt lat="-37.875690000000006" lon="145.36763000000002">
    <ele>375.66</ele>
   </trkpt>
   <trkpt lat="-37.87561" lon="145.36791000000002">
    <ele>374.05000000000007</ele>
   </trkpt>
   <trkpt lat="-37.875510000000006" lon="145.36811">
    <ele>373.71000000000004</ele>
   </trkpt>
   <trkpt lat="-37.87545" lon="145.3683">
    <ele>373.51</ele>
   </trkpt>
   <trkpt lat="-37.87547" lon="145.36842000000001">
    <ele>373.3</ele>
   </trkpt>
   <trkpt lat="-37.87547" lon="145.36843000000002">
    <ele>373.29</ele>
   </trkpt>
   <trkpt lat="-37.87554" lon="145.36892">
    <ele>369.71000000000004</ele>
   </trkpt>
   <trkpt lat="-37.87554" lon="145.36915000000002">
    <ele>370.29</ele>
   </trkpt>
   <trkpt lat="-37.87545" lon="145.36945">
    <ele>372.48</ele>
   </trkpt>
   <trkpt lat="-37.87541" lon="145.36953000000003">
    <ele>374.04</ele>
   </trkpt>
   <trkpt lat="-37.87536" lon="145.36978000000002">
    <ele>374.89000000000004</ele>
   </trkpt>
   <trkpt lat="-37.87541" lon="145.37033000000002">
    <ele>369.57</ele>
   </trkpt>
   <trkpt lat="-37.8755" lon="145.37059000000002">
    <ele>365.08</ele>
   </trkpt>
   <trkpt lat="-37.875600000000006" lon="145.37072">
    <ele>363.39000000000004</ele>
   </trkpt>
   <trkpt lat="-37.87608" lon="145.37106">
    <ele>358.92</ele>
   </trkpt>
   <trkpt lat="-37.87614000000001" lon="145.37109">
    <ele>358.89000000000004</ele>
   </trkpt>
   <trkpt lat="-37.87635" lon="145.37115">
    <ele>358.89000000000004</ele>
   </trkpt>
   <trkpt lat="-37.8765" lon="145.37138000000002">
    <ele>335.41</ele>
   </trkpt>
   <trkpt lat="-37.87637" lon="145.37132000000003">
    <ele>336.08000000000004</ele>
   </trkpt>
   <trkpt lat="-37.87628" lon="145.37130000000002">
    <ele>336.61</ele>
   </trkpt>
   <trkpt lat="-37.87597" lon="145.37137">
    <ele>338.95000000000005</ele>
   </trkpt>
   <trkpt lat="-37.87579" lon="145.37137">
    <ele>339.91</ele>
   </trkpt>
   <trkpt lat="-37.875220000000006" lon="145.37127">
    <ele>344.22</ele>
   </trkpt>
   <trkpt lat="-37.875040000000006" lon="145.37126">
    <ele>344.78000000000003</ele>
   </trkpt>
   <trkpt lat="-37.874700000000004" lon="145.37130000000002">
    <ele>347.42</ele>
   </trkpt>
   <trkpt lat="-37.874660000000006" lon="145.3718">
    <ele>357.16</ele>
   </trkpt>
   <trkpt lat="-37.874495001515065" lon="145.37240000137075">
    <ele>374.45</ele>
   </trkpt>
   <trkpt lat="-37.87433" lon="145.37300000000002">
    <ele>396.76000000000005</ele>
   </trkpt>
   <trkpt lat="-37.87424" lon="145.37365">
    <ele>410.09</ele>
   </trkpt>
   <trkpt lat="-37.87405000200656" lon="145.37434000180457">
    <ele>421.87</ele>
   </trkpt>
   <trkpt lat="-37.87386" lon="145.37503">
    <ele>429.71000000000004</ele>
   </trkpt>
   <trkpt lat="-37.87373" lon="145.37591">
    <ele>448.53000000000003</ele>
   </trkpt>
   <trkpt lat="-37.873610000000006" lon="145.37654">
    <ele>455.01</ele>
   </trkpt>
   <trkpt lat="-37.873610000000006" lon="145.37653">
    <ele>455.06</ele>
   </trkpt>
   <trkpt lat="-37.873423341188804" lon="145.37749333818252">
    <ele>468.95000000000005</ele>
   </trkpt>
   <trkpt lat="-37.87323667452842" lon="145.3784566714833">
    <ele>477.15000000000003</ele>
   </trkpt>
   <trkpt lat="-37.873050000000006" lon="145.37942">
    <ele>488.23</ele>
   </trkpt>
   <trkpt lat="-37.8729" lon="145.37994">
    <ele>493.39000000000004</ele>
   </trkpt>
   <trkpt lat="-37.87279" lon="145.38043000000002">
    <ele>492.66</ele>
   </trkpt>
   <trkpt lat="-37.872690000000006" lon="145.38075">
    <ele>491.44000000000005</ele>
   </trkpt>
   <trkpt lat="-37.87283" lon="145.38095">
    <ele>490.32000000000005</ele>
   </trkpt>
   <trkpt lat="-37.873070000000006" lon="145.38148">
    <ele>489.09000000000003</ele>
   </trkpt>
   <trkpt lat="-37.873090000000005" lon="145.38162">
    <ele>488.67</ele>
   </trkpt>
   <trkpt lat="-37.87339" lon="145.38197000000002">
    <ele>492.46000000000004</ele>
   </trkpt>
   <trkpt lat="-37.87344" lon="145.38215000000002">
    <ele>492.46000000000004</ele>
   </trkpt>
   <trkpt lat="-37.874100000000006" lon="145.3829">
    <ele>492.46000000000004</ele>
   </trkpt>
   <trkpt lat="-37.87429" lon="145.38327">
    <ele>508.71</ele>
   </trkpt>
   <trkpt lat="-37.87422" lon="145.38351">
    <ele>508.71</ele>
   </trkpt>
   <trkpt lat="-37.87413" lon="145.38433">
    <ele>508.71</ele>
   </trkpt>
   <trkpt lat="-37.874190000000006" lon="145.38435">
    <ele>508.71</ele>
   </trkpt>
   <trkpt lat="-37.874120000000005" lon="145.38504">
    <ele>511.0800000000001</ele>
   </trkpt>
   <trkpt lat="-37.874120000000005" lon="145.38503">
    <ele>511.0800000000001</ele>
   </trkpt>
   <trkpt lat="-37.87398" lon="145.38603">
    <ele>507.65000000000003</ele>
   </trkpt>
   <trkpt lat="-37.873920000000005" lon="145.38667">
    <ele>499.95000000000005</ele>
   </trkpt>
   <trkpt lat="-37.87382" lon="145.3874">
    <ele>489.39000000000004</ele>
   </trkpt>
   <trkpt lat="-37.873760000000004" lon="145.38772">
    <ele>486.00000000000006</ele>
   </trkpt>
   <trkpt lat="-37.87375" lon="145.38798">
    <ele>482.73</ele>
   </trkpt>
   <trkpt lat="-37.87393" lon="145.38854">
    <ele>475.03000000000003</ele>
   </trkpt>
   <trkpt lat="-37.87428500302352" lon="145.38938999582737">
    <ele>464.15000000000003</ele>
   </trkpt>
   <trkpt lat="-37.87464000000001" lon="145.39024">
    <ele>453.81000000000006</ele>
   </trkpt>
   <trkpt lat="-37.87499500389469" lon="145.3911949954992">
    <ele>437.22</ele>
   </trkpt>
   <trkpt lat="-37.875350000000005" lon="145.39215000000002">
    <ele>422.18000000000006</ele>
   </trkpt>
   <trkpt lat="-37.87538" lon="145.39227000000002">
    <ele>419.06000000000006</ele>
   </trkpt>
   <trkpt lat="-37.87520000000001" lon="145.39285">
    <ele>405.0</ele>
   </trkpt>
   <trkpt lat="-37.87523" lon="145.39307000000002">
    <ele>399.06</ele>
   </trkpt>
   <trkpt lat="-37.87491" lon="145.39403000000001">
    <ele>377.85</ele>
   </trkpt>
   <trkpt lat="-37.87476" lon="145.39414000000002">
    <ele>370.34000000000003</ele>
   </trkpt>
   <trkpt lat="-37.87476" lon="145.39427">
    <ele>368.1</ele>
   </trkpt>
   <trkpt lat="-37.8748" lon="145.39439000000002">
    <ele>366.01000000000005</ele>
   </trkpt>
   <trkpt lat="-37.87471" lon="145.39434">
    <ele>365.93</ele>
   </trkpt>
   <trkpt lat="-37.874460000000006" lon="145.39537">
    <ele>346.0</ele>
   </trkpt>
   <trkpt lat="-37.87426" lon="145.39608">
    <ele>324.0</ele>
   </trkpt>
   <trkpt lat="-37.874190000000006" lon="145.39654000000002">
    <ele>311.99000000000007</ele>
   </trkpt>
   <trkpt lat="-37.87415" lon="145.39704">
    <ele>305.91</ele>
   </trkpt>
   <trkpt lat="-37.87422" lon="145.39722">
    <ele>302.27000000000004</ele>
   </trkpt>
   <trkpt lat="-37.87429" lon="145.39729">
    <ele>298.84000000000003</ele>
   </trkpt>
   <trkpt lat="-37.874190000000006" lon="145.3975">
    <ele>296.8</ele>
   </trkpt>
   <trkpt lat="-37.87413" lon="145.39767">
    <ele>293.04</ele>
   </trkpt>
   <trkpt lat="-37.87407" lon="145.39805">
    <ele>290.96</ele>
   </trkpt>
   <trkpt lat="-37.874010000000006" lon="145.39806000000002">
    <ele>289.39000000000004</ele>
   </trkpt>
   <trkpt lat="-37.873990000000006" lon="145.3982">
    <ele>288.76</ele>
   </trkpt>
   <trkpt lat="-37.873990000000006" lon="145.39819">
    <ele>288.95000000000005</ele>
   </trkpt>
   <trkpt lat="-37.87391" lon="145.39917">
    <ele>282.99</ele>
   </trkpt>
   <trkpt lat="-37.87363333882676" lon="145.3999766727556">
    <ele>278.98</ele>
   </trkpt>
   <trkpt lat="-37.87335667214974" lon="145.4007833394524">
    <ele>274.0</ele>
   </trkpt>
   <trkpt lat="-37.87308" lon="145.40159">
    <ele>274.38</ele>
   </trkpt>
   <trkpt lat="-37.873580000000004" lon="145.40196">
    <ele>268.77</ele>
   </trkpt>
   <trkpt lat="-37.873720000000006" lon="145.40184000000002">
    <ele>267.79</ele>
   </trkpt>
   <trkpt lat="-37.87395" lon="145.40178">
    <ele>262.33</ele>
   </trkpt>
   <trkpt lat="-37.87426" lon="145.40164000000001">
    <ele>259.65000000000003</ele>
   </trkpt>
   <trkpt lat="-37.87444" lon="145.40146000000001">
    <ele>257.59000000000003</ele>
   </trkpt>
   <trkpt lat="-37.87458" lon="145.40119">
    <ele>256.77</ele>
   </trkpt>
   <trkpt lat="-37.874790000000004" lon="145.401">
    <ele>256.0</ele>
   </trkpt>
   <trkpt lat="-37.875" lon="145.40078000000003">
    <ele>253.0</ele>
   </trkpt>
   <trkpt lat="-37.875530000000005" lon="145.40058000000002">
    <ele>241.91</ele>
   </trkpt>
   <trkpt lat="-37.87565" lon="145.40033000000003">
    <ele>241.45000000000002</ele>
   </trkpt>
   <trkpt lat="-37.87568" lon="145.40022000000002">
    <ele>241.48000000000002</ele>
   </trkpt>
   <trkpt lat="-37.87617" lon="145.39934000000002">
    <ele>241.89000000000001</ele>
   </trkpt>
   <trkpt lat="-37.8763" lon="145.3992">
    <ele>241.83</ele>
   </trkpt>
   <trkpt lat="-37.87653" lon="145.39909">
    <ele>241.64000000000001</ele>
   </trkpt>
   <trkpt lat="-37.8767" lon="145.39898000000002">
    <ele>242.09000000000003</ele>
   </trkpt>
   <trkpt lat="-37.87704" lon="145.39886">
    <ele>244.66000000000003</ele>
   </trkpt>
   <trkpt lat="-37.877140000000004" lon="145.39871000000002">
    <ele>244.66000000000003</ele>
   </trkpt>
   <trkpt lat="-37.87747" lon="145.39803">
    <ele>244.49</ele>
   </trkpt>
   <trkpt lat="-37.87758" lon="145.39795">
    <ele>245.05</ele>
   </trkpt>
   <trkpt lat="-37.87773" lon="145.39775">
    <ele>245.73000000000002</ele>
   </trkpt>
   <trkpt lat="-37.8778" lon="145.3975">
    <ele>244.88</ele>
   </trkpt>
   <trkpt lat="-37.8778" lon="145.39710000000002">
    <ele>242.03000000000003</ele>
   </trkpt>
   <trkpt lat="-37.87782" lon="145.39697">
    <ele>241.69</ele>
   </trkpt>
   <trkpt lat="-37.877950000000006" lon="145.39672000000002">
    <ele>240.89000000000001</ele>
   </trkpt>
   <trkpt lat="-37.878040000000006" lon="145.39666000000003">
    <ele>239.49</ele>
   </trkpt>
   <trkpt lat="-37.87834" lon="145.39653">
    <ele>238.5</ele>
   </trkpt>
   <trkpt lat="-37.878420000000006" lon="145.39647000000002">
    <ele>238.98000000000002</ele>
   </trkpt>
   <trkpt lat="-37.878460000000004" lon="145.39628000000002">
    <ele>238.88</ele>
   </trkpt>
   <trkpt lat="-37.87859" lon="145.39628000000002">
    <ele>238.86</ele>
   </trkpt>
   <trkpt lat="-37.878600000000006" lon="145.39610000000002">
    <ele>241.95000000000002</ele>
   </trkpt>
   <trkpt lat="-37.87888" lon="145.39579">
    <ele>249.48</ele>
   </trkpt>
   <trkpt lat="-37.879070000000006" lon="145.39567000000002">
    <ele>253.71000000000004</ele>
   </trkpt>
   <trkpt lat="-37.87921" lon="145.39564000000001">
    <ele>254.15000000000003</ele>
   </trkpt>
   <trkpt lat="-37.87937" lon="145.39569">
    <ele>255.04000000000005</ele>
   </trkpt>
   <trkpt lat="-37.87955" lon="145.39568">
    <ele>256.53000000000003</ele>
   </trkpt>
   <trkpt lat="-37.87968" lon="145.39564000000001">
    <ele>257.11</ele>
   </trkpt>
   <trkpt lat="-37.87975" lon="145.3956">
    <ele>257.19</ele>
   </trkpt>
   <trkpt lat="-37.87982" lon="145.39553">
    <ele>257.02000000000004</ele>
   </trkpt>
   <trkpt lat="-37.87993" lon="145.3955">
    <ele>256.84000000000003</ele>
   </trkpt>
   <trkpt lat="-37.88009" lon="145.39517">
    <ele>256.59999999999997</ele>
   </trkpt>
   <trkpt lat="-37.88017" lon="145.39508">
    <ele>256.82000000000005</ele>
   </trkpt>
   <trkpt lat="-37.880280000000006" lon="145.39501">
    <ele>257.42</ele>
   </trkpt>
   <trkpt lat="-37.88029" lon="145.39501">
    <ele>257.43000000000006</ele>
   </trkpt>
   <trkpt lat="-37.88035" lon="145.39497">
    <ele>257.83</ele>
   </trkpt>
   <trkpt lat="-37.88047" lon="145.3948">
    <ele>259.67</ele>
   </trkpt>
   <trkpt lat="-37.88053" lon="145.39459000000002">
    <ele>260.43</ele>
   </trkpt>
   <trkpt lat="-37.88067" lon="145.39444">
    <ele>259.65000000000003</ele>
   </trkpt>
   <trkpt lat="-37.88105" lon="145.39424000000002">
    <ele>259.64000000000004</ele>
   </trkpt>
   <trkpt lat="-37.8812" lon="145.3941">
    <ele>259.91</ele>
   </trkpt>
   <trkpt lat="-37.88129" lon="145.3939">
    <ele>260.49</ele>
   </trkpt>
   <trkpt lat="-37.88109" lon="145.39360000000002">
    <ele>263.66</ele>
   </trkpt>
   <trkpt lat="-37.881040000000006" lon="145.39341000000002">
    <ele>265.09000000000003</ele>
   </trkpt>
   <trkpt lat="-37.88103" lon="145.39316000000002">
    <ele>265.44</ele>
   </trkpt>
   <trkpt lat="-37.88105" lon="145.39290000000003">
    <ele>265.22</ele>
   </trkpt>
   <trkpt lat="-37.88114" lon="145.39270000000002">
    <ele>264.53000000000003</ele>
   </trkpt>
   <trkpt lat="-37.88125" lon="145.39251000000002">
    <ele>264.53000000000003</ele>
   </trkpt>
   <trkpt lat="-37.88129" lon="145.39199000000002">
    <ele>266.29</ele>
   </trkpt>
   <trkpt lat="-37.88138" lon="145.39182000000002">
    <ele>266.36</ele>
   </trkpt>
   <trkpt lat="-37.881510000000006" lon="145.39169">
    <ele>265.99</ele>
   </trkpt>
   <trkpt lat="-37.8817" lon="145.39170000000001">
    <ele>266.31000000000006</ele>
   </trkpt>
   <trkpt lat="-37.88181" lon="145.3916">
    <ele>267.15</ele>
   </trkpt>
   <trkpt lat="-37.88199" lon="145.39137000000002">
    <ele>267.99</ele>
   </trkpt>
   <trkpt lat="-37.88226" lon="145.39113">
    <ele>268.84000000000003</ele>
   </trkpt>
   <trkpt lat="-37.88232" lon="145.39103">
    <ele>269.21</ele>
   </trkpt>
   <trkpt lat="-37.882360000000006" lon="145.39082000000002">
    <ele>269.69000000000005</ele>
   </trkpt>
   <trkpt lat="-37.88235" lon="145.39065000000002">
    <ele>271.03000000000003</ele>
   </trkpt>
   <trkpt lat="-37.88223" lon="145.39036000000002">
    <ele>272.34000000000003</ele>
   </trkpt>
   <trkpt lat="-37.88223" lon="145.39020000000002">
    <ele>273.06</ele>
   </trkpt>
   <trkpt lat="-37.882070000000006" lon="145.38981">
    <ele>274.57000000000005</ele>
   </trkpt>
   <trkpt lat="-37.88208" lon="145.38973000000001">
    <ele>274.61</ele>
   </trkpt>
   <trkpt lat="-37.88221" lon="145.38958000000002">
    <ele>274.61</ele>
   </trkpt>
   <trkpt lat="-37.88239" lon="145.38930000000002">
    <ele>275.28000000000003</ele>
   </trkpt>
   <trkpt lat="-37.88244" lon="145.38894000000002">
    <ele>275.92</ele>
   </trkpt>
   <trkpt lat="-37.88255" lon="145.38872">
    <ele>276.57000000000005</ele>
   </trkpt>
   <trkpt lat="-37.882670000000005" lon="145.38839000000002">
    <ele>276.85</ele>
   </trkpt>
   <trkpt lat="-37.882830000000006" lon="145.38811">
    <ele>279.7</ele>
   </trkpt>
   <trkpt lat="-37.88295" lon="145.38770000000002">
    <ele>280.56</ele>
   </trkpt>
   <trkpt lat="-37.88311" lon="145.38696000000002">
    <ele>283.16</ele>
   </trkpt>
   <trkpt lat="-37.88313" lon="145.38674">
    <ele>284.03</ele>
   </trkpt>
   <trkpt lat="-37.88286" lon="145.38613">
    <ele>285.90000000000003</ele>
   </trkpt>
   <trkpt lat="-37.88277" lon="145.38558">
    <ele>288.31</ele>
   </trkpt>
   <trkpt lat="-37.88277" lon="145.38517000000002">
    <ele>290.59000000000003</ele>
   </trkpt>
   <trkpt lat="-37.88239" lon="145.38424">
    <ele>292.96</ele>
   </trkpt>
   <trkpt lat="-37.88241" lon="145.38393000000002">
    <ele>294.24</ele>
   </trkpt>
   <trkpt lat="-37.8823" lon="145.38363">
    <ele>295.90000000000003</ele>
   </trkpt>
   <trkpt lat="-37.881980000000006" lon="145.38336">
    <ele>297.32000000000005</ele>
   </trkpt>
   <trkpt lat="-37.88181" lon="145.38306">
    <ele>299.37</ele>
   </trkpt>
   <trkpt lat="-37.881820000000005" lon="145.38301">
    <ele>299.37</ele>
   </trkpt>
   <trkpt lat="-37.881820000000005" lon="145.383">
    <ele>299.34000000000003</ele>
   </trkpt>
   <trkpt lat="-37.88183" lon="145.3829">
    <ele>299.98</ele>
   </trkpt>
   <trkpt lat="-37.88174" lon="145.38281">
    <ele>300.15000000000003</ele>
   </trkpt>
   <trkpt lat="-37.88163" lon="145.38285000000002">
    <ele>300.07</ele>
   </trkpt>
   <trkpt lat="-37.88156" lon="145.38291">
    <ele>300.29</ele>
   </trkpt>
   <trkpt lat="-37.88145" lon="145.38292">
    <ele>301.1</ele>
   </trkpt>
   <trkpt lat="-37.88123" lon="145.38276000000002">
    <ele>301.75</ele>
   </trkpt>
   <trkpt lat="-37.881" lon="145.38254">
    <ele>302.83000000000004</ele>
   </trkpt>
   <trkpt lat="-37.88094" lon="145.38244">
    <ele>303.6700000000001</ele>
   </trkpt>
   <trkpt lat="-37.88098" lon="145.38230000000001">
    <ele>304.14000000000004</ele>
   </trkpt>
   <trkpt lat="-37.88114" lon="145.38207">
    <ele>305.20000000000005</ele>
   </trkpt>
   <trkpt lat="-37.88123" lon="145.38188000000002">
    <ele>306.92</ele>
   </trkpt>
   <trkpt lat="-37.88078" lon="145.38125000000002">
    <ele>312.42</ele>
   </trkpt>
   <trkpt lat="-37.8804" lon="145.38083">
    <ele>317.90000000000003</ele>
   </trkpt>
   <trkpt lat="-37.88029" lon="145.38060000000002">
    <ele>316.14000000000004</ele>
   </trkpt>
   <trkpt lat="-37.88029" lon="145.38036000000002">
    <ele>316.06</ele>
   </trkpt>
   <trkpt lat="-37.88033" lon="145.3801">
    <ele>318.03000000000003</ele>
   </trkpt>
   <trkpt lat="-37.88026" lon="145.37994">
    <ele>320.1</ele>
   </trkpt>
   <trkpt lat="-37.88013" lon="145.37941">
    <ele>324.99</ele>
   </trkpt>
   <trkpt lat="-37.87997" lon="145.37905">
    <ele>323.77</ele>
   </trkpt>
   <trkpt lat="-37.87982" lon="145.37881000000002">
    <ele>322.76000000000005</ele>
   </trkpt>
   <trkpt lat="-37.87975" lon="145.37853">
    <ele>323.13</ele>
   </trkpt>
   <trkpt lat="-37.87966" lon="145.37843">
    <ele>325.09999999999997</ele>
   </trkpt>
   <trkpt lat="-37.87948" lon="145.37797">
    <ele>331.64000000000004</ele>
   </trkpt>
   <trkpt lat="-37.87912" lon="145.37754">
    <ele>339.62</ele>
   </trkpt>
   <trkpt lat="-37.87894" lon="145.37752">
    <ele>340.95000000000005</ele>
   </trkpt>
   <trkpt lat="-37.87852" lon="145.37720000000002">
    <ele>340.61</ele>
   </trkpt>
   <trkpt lat="-37.87841" lon="145.37688">
    <ele>336.27</ele>
   </trkpt>
   <trkpt lat="-37.87841" lon="145.3767">
    <ele>334.76</ele>
   </trkpt>
   <trkpt lat="-37.878510000000006" lon="145.37664">
    <ele>334.29</ele>
   </trkpt>
   <trkpt lat="-37.87854" lon="145.37655">
    <ele>334.59000000000003</ele>
   </trkpt>
   <trkpt lat="-37.87861" lon="145.37649000000002">
    <ele>335.24</ele>
   </trkpt>
   <trkpt lat="-37.8787" lon="145.37637">
    <ele>336.55</ele>
   </trkpt>
   <trkpt lat="-37.878710000000005" lon="145.37606000000002">
    <ele>338.33000000000004</ele>
   </trkpt>
   <trkpt lat="-37.87872" lon="145.37596000000002">
    <ele>338.36000000000007</ele>
   </trkpt>
   <trkpt lat="-37.87861" lon="145.37571">
    <ele>338.13000000000005</ele>
   </trkpt>
   <trkpt lat="-37.87854" lon="145.37534000000002">
    <ele>338.8</ele>
   </trkpt>
   <trkpt lat="-37.87843" lon="145.37523000000002">
    <ele>336.0</ele>
   </trkpt>
   <trkpt lat="-37.87825" lon="145.37499000000003">
    <ele>333.19000000000005</ele>
   </trkpt>
   <trkpt lat="-37.87816" lon="145.37472000000002">
    <ele>331.22</ele>
   </trkpt>
   <trkpt lat="-37.87823" lon="145.37415000000001">
    <ele>329.70000000000005</ele>
   </trkpt>
   <trkpt lat="-37.87829" lon="145.37389000000002">
    <ele>327.69000000000005</ele>
   </trkpt>
   <trkpt lat="-37.87829" lon="145.37361">
    <ele>323.86</ele>
   </trkpt>
   <trkpt lat="-37.87836" lon="145.37346000000002">
    <ele>324.99</ele>
   </trkpt>
   <trkpt lat="-37.878460000000004" lon="145.37306">
    <ele>328.08000000000004</ele>
   </trkpt>
   <trkpt lat="-37.87843" lon="145.37283000000002">
    <ele>339.14000000000004</ele>
   </trkpt>
   <trkpt lat="-37.87838" lon="145.37277">
    <ele>344.73</ele>
   </trkpt>
   <trkpt lat="-37.878310000000006" lon="145.37275000000002">
    <ele>344.65</ele>
   </trkpt>
   <trkpt lat="-37.87807" lon="145.37275000000002">
    <ele>343.56</ele>
   </trkpt>
   <trkpt lat="-37.87791" lon="145.37255000000002">
    <ele>344.6</ele>
   </trkpt>
   <trkpt lat="-37.87782" lon="145.37237000000002">
    <ele>345.89000000000004</ele>
   </trkpt>
   <trkpt lat="-37.87787" lon="145.37221000000002">
    <ele>345.91</ele>
   </trkpt>
   <trkpt lat="-37.87785" lon="145.37207">
    <ele>345.90000000000003</ele>
   </trkpt>
   <trkpt lat="-37.87785" lon="145.37195">
    <ele>345.76</ele>
   </trkpt>
   <trkpt lat="-37.87792" lon="145.37179">
    <ele>345.21000000000004</ele>
   </trkpt>
   <trkpt lat="-37.87773" lon="145.3716">
    <ele>348.32</ele>
   </trkpt>
   <trkpt lat="-37.877700000000004" lon="145.37152">
    <ele>348.99</ele>
   </trkpt>
   <trkpt lat="-37.87811500257486" lon="145.37073000457394">
    <ele>353.05</ele>
   </trkpt>
   <trkpt lat="-37.878530000000005" lon="145.36994">
    <ele>355.00000000000006</ele>
   </trkpt>
   <trkpt lat="-37.879110000000004" lon="145.36958">
    <ele>359.96</ele>
   </trkpt>
   <trkpt lat="-37.87962500054081" lon="145.3692200025223">
    <ele>360.33000000000004</ele>
   </trkpt>
   <trkpt lat="-37.880140000000004" lon="145.36886">
    <ele>370.11000000000007</ele>
   </trkpt>
   <trkpt lat="-37.880190000000006" lon="145.36891">
    <ele>371.92</ele>
   </trkpt>
   <trkpt lat="-37.88022" lon="145.36870000000002">
    <ele>375.02000000000004</ele>
   </trkpt>
   <trkpt lat="-37.88024" lon="145.36867">
    <ele>375.72</ele>
   </trkpt>
   <trkpt lat="-37.88094" lon="145.36870000000002">
    <ele>380.99000000000007</ele>
   </trkpt>
   <trkpt lat="-37.88109" lon="145.36876">
    <ele>380.74</ele>
   </trkpt>
   <trkpt lat="-37.88118" lon="145.36876">
    <ele>380.72</ele>
   </trkpt>
   <trkpt lat="-37.88152" lon="145.36864">
    <ele>386.74</ele>
   </trkpt>
   <trkpt lat="-37.88181" lon="145.36846">
    <ele>387.97</ele>
   </trkpt>
   <trkpt lat="-37.8819" lon="145.36846">
    <ele>389.87000000000006</ele>
   </trkpt>
   <trkpt lat="-37.88214" lon="145.36857">
    <ele>392.0</ele>
   </trkpt>
   <trkpt lat="-37.88246" lon="145.36877">
    <ele>388.48</ele>
   </trkpt>
   <trkpt lat="-37.88259" lon="145.36881000000002">
    <ele>387.98</ele>
   </trkpt>
   <trkpt lat="-37.88308" lon="145.36875">
    <ele>387.61</ele>
   </trkpt>
   <trkpt lat="-37.88355500021586" lon="145.36854500130582">
    <ele>387.46000000000004</ele>
   </trkpt>
   <trkpt lat="-37.88403" lon="145.36834000000002">
    <ele>380.55000000000007</ele>
   </trkpt>
   <trkpt lat="-37.88387" lon="145.36816000000002">
    <ele>385.37000000000006</ele>
   </trkpt>
   <trkpt lat="-37.88330000073707" lon="145.36774499679424">
    <ele>398.16</ele>
   </trkpt>
   <trkpt lat="-37.88273" lon="145.36733">
    <ele>414.46000000000004</ele>
   </trkpt>
   <trkpt lat="-37.88255" lon="145.36732">
    <ele>417.26</ele>
   </trkpt>
   <trkpt lat="-37.8823" lon="145.36705">
    <ele>425.64</ele>
   </trkpt>
   <trkpt lat="-37.882130000000004" lon="145.36676">
    <ele>432.77000000000004</ele>
   </trkpt>
   <trkpt lat="-37.88228" lon="145.36654000000001">
    <ele>437.25</ele>
   </trkpt>
   <trkpt lat="-37.88228" lon="145.36633">
    <ele>439.69</ele>
   </trkpt>
   <trkpt lat="-37.88199" lon="145.36610000000002">
    <ele>448.47</ele>
   </trkpt>
   <trkpt lat="-37.88192" lon="145.36602000000002">
    <ele>448.47</ele>
   </trkpt>
   <trkpt lat="-37.881710000000005" lon="145.36578">
    <ele>454.21000000000004</ele>
   </trkpt>
   <trkpt lat="-37.88165" lon="145.36581">
    <ele>454.43000000000006</ele>
   </trkpt>
   <trkpt lat="-37.88143" lon="145.36534">
    <ele>460.68</ele>
   </trkpt>
   <trkpt lat="-37.881150000000005" lon="145.36465">
    <ele>464.96000000000004</ele>
   </trkpt>
   <trkpt lat="-37.88103" lon="145.36409">
    <ele>469.08000000000004</ele>
   </trkpt>
   <trkpt lat="-37.88102000000001" lon="145.36369000000002">
    <ele>471.26</ele>
   </trkpt>
   <trkpt lat="-37.881045002681944" lon="145.36289499998617">
    <ele>475.16</ele>
   </trkpt>
   <trkpt lat="-37.88107" lon="145.3621">
    <ele>476.23</ele>
   </trkpt>
   <trkpt lat="-37.88105" lon="145.36171000000002">
    <ele>475.89000000000004</ele>
   </trkpt>
   <trkpt lat="-37.88096" lon="145.36137000000002">
    <ele>475.14000000000004</ele>
   </trkpt>
   <trkpt lat="-37.88076" lon="145.36099000000002">
    <ele>473.82</ele>
   </trkpt>
   <trkpt lat="-37.880660000000006" lon="145.36061">
    <ele>472.1</ele>
   </trkpt>
   <trkpt lat="-37.88049" lon="145.35966000000002">
    <ele>468.34000000000003</ele>
   </trkpt>
   <trkpt lat="-37.88015" lon="145.35936">
    <ele>466.97</ele>
   </trkpt>
   <trkpt lat="-37.88008000000001" lon="145.35903000000002">
    <ele>479.42</ele>
   </trkpt>
   <trkpt lat="-37.87991" lon="145.35891">
    <ele>481.02000000000004</ele>
   </trkpt>
   <trkpt lat="-37.87975" lon="145.35876000000002">
    <ele>480.19000000000005</ele>
   </trkpt>
   <trkpt lat="-37.87919" lon="145.35846">
    <ele>482.67</ele>
   </trkpt>
   <trkpt lat="-37.87876" lon="145.35838">
    <ele>484.51000000000005</ele>
   </trkpt>
   <trkpt lat="-37.878600000000006" lon="145.35829">
    <ele>484.59000000000003</ele>
   </trkpt>
   <trkpt lat="-37.87818" lon="145.35801">
    <ele>482.90000000000003</ele>
   </trkpt>
   <trkpt lat="-37.87798" lon="145.35797000000002">
    <ele>482.28000000000003</ele>
   </trkpt>
   <trkpt lat="-37.8778" lon="145.35791">
    <ele>481.63000000000005</ele>
   </trkpt>
   <trkpt lat="-37.877500000000005" lon="145.35765">
    <ele>480.22</ele>
   </trkpt>
   <trkpt lat="-37.87729000133645" lon="145.35708999843064">
    <ele>477.12000000000006</ele>
   </trkpt>
   <trkpt lat="-37.87708000000001" lon="145.35653000000002">
    <ele>475.96000000000004</ele>
   </trkpt>
   <trkpt lat="-37.876900000000006" lon="145.35659">
    <ele>460.34000000000003</ele>
   </trkpt>
   <trkpt lat="-37.876870000000004" lon="145.35659">
    <ele>463.62</ele>
   </trkpt>
   <trkpt lat="-37.87664" lon="145.35614">
    <ele>462.49</ele>
   </trkpt>
   <trkpt lat="-37.87639" lon="145.35572000000002">
    <ele>463.51000000000005</ele>
   </trkpt>
   <trkpt lat="-37.876250000000006" lon="145.35556000000003">
    <ele>464.67</ele>
   </trkpt>
   <trkpt lat="-37.87617" lon="145.35548">
    <ele>465.52000000000004</ele>
   </trkpt>
   <trkpt lat="-37.876070000000006" lon="145.35523">
    <ele>468.81000000000006</ele>
   </trkpt>
   <trkpt lat="-37.87608" lon="145.35506">
    <ele>469.1</ele>
   </trkpt>
   <trkpt lat="-37.876180000000005" lon="145.35491000000002">
    <ele>469.33000000000004</ele>
   </trkpt>
   <trkpt lat="-37.8761" lon="145.35474000000002">
    <ele>470.41</ele>
   </trkpt>
   <trkpt lat="-37.87599" lon="145.35412000000002">
    <ele>475.99</ele>
   </trkpt>
   <trkpt lat="-37.87619" lon="145.35323000000002">
    <ele>483.07000000000005</ele>
   </trkpt>
   <trkpt lat="-37.87635" lon="145.35294000000002">
    <ele>486.19000000000005</ele>
   </trkpt>
   <trkpt lat="-37.87635" lon="145.35272">
    <ele>487.96000000000004</ele>
   </trkpt>
   <trkpt lat="-37.87621" lon="145.35214000000002">
    <ele>495.12000000000006</ele>
   </trkpt>
   <trkpt lat="-37.87621" lon="145.35187000000002">
    <ele>499.50000000000006</ele>
   </trkpt>
   <trkpt lat="-37.87617" lon="145.35168000000002">
    <ele>500.86000000000007</ele>
   </trkpt>
   <trkpt lat="-37.875980000000006" lon="145.35139">
    <ele>503.51</ele>
   </trkpt>
   <trkpt lat="-37.87594" lon="145.35117000000002">
    <ele>508.6700000000001</ele>
   </trkpt>
   <trkpt lat="-37.87581" lon="145.35093">
    <ele>512.76</ele>
   </trkpt>
   <trkpt lat="-37.87576" lon="145.35080000000002">
    <ele>514.02</ele>
   </trkpt>
   <trkpt lat="-37.87561" lon="145.35064">
    <ele>515.7400000000001</ele>
   </trkpt>
   <trkpt lat="-37.87554" lon="145.35052000000002">
    <ele>517.34</ele>
   </trkpt>
   <trkpt lat="-37.87518" lon="145.35024">
    <ele>519.3800000000001</ele>
   </trkpt>
   <trkpt lat="-37.87482" lon="145.34974000000003">
    <ele>523.02</ele>
   </trkpt>
   <trkpt lat="-37.8746" lon="145.34956000000003">
    <ele>523.1800000000001</ele>
   </trkpt>
   <trkpt lat="-37.87438" lon="145.3494">
    <ele>522.84</ele>
   </trkpt>
   <trkpt lat="-37.87433" lon="145.34928000000002">
    <ele>522.95</ele>
   </trkpt>
   <trkpt lat="-37.87413" lon="145.34910000000002">
    <ele>523.4000000000001</ele>
   </trkpt>
   <trkpt lat="-37.87397" lon="145.34883000000002">
    <ele>524.3</ele>
   </trkpt>
   <trkpt lat="-37.87397" lon="145.34874000000002">
    <ele>525.0600000000001</ele>
   </trkpt>
   <trkpt lat="-37.8742" lon="145.34820000000002">
    <ele>526.39</ele>
   </trkpt>
   <trkpt lat="-37.87435" lon="145.34778">
    <ele>525.91</ele>
   </trkpt>
   <trkpt lat="-37.87436" lon="145.34777000000003">
    <ele>525.86</ele>
   </trkpt>
   <trkpt lat="-37.87453" lon="145.34727">
    <ele>525.14</ele>
   </trkpt>
   <trkpt lat="-37.87453" lon="145.34695000000002">
    <ele>525.2900000000001</ele>
   </trkpt>
   <trkpt lat="-37.87432500137439" lon="145.34637499833306">
    <ele>527.73</ele>
   </trkpt>
   <trkpt lat="-37.874120000000005" lon="145.34580000000003">
    <ele>528.61</ele>
   </trkpt>
   <trkpt lat="-37.874080000000006" lon="145.34573">
    <ele>526.39</ele>
   </trkpt>
   <trkpt lat="-37.87366" lon="145.34601">
    <ele>531.5600000000001</ele>
   </trkpt>
   <trkpt lat="-37.87292" lon="145.34658000000002">
    <ele>536.6200000000001</ele>
   </trkpt>
   <trkpt lat="-37.872690000000006" lon="145.34672">
    <ele>537.0</ele>
   </trkpt>
   <trkpt lat="-37.8727" lon="145.34671">
    <ele>537.0</ele>
   </trkpt>
   <trkpt lat="-37.87254" lon="145.34681">
    <ele>536.94</ele>
   </trkpt>
   <trkpt lat="-37.872059999990576" lon="145.3469850011908">
    <ele>534.88</ele>
   </trkpt>
   <trkpt lat="-37.87158" lon="145.34716">
    <ele>531.49</ele>
   </trkpt>
   <trkpt lat="-37.87075" lon="145.34751">
    <ele>526.6899999999999</ele>
   </trkpt>
   <trkpt lat="-37.87017" lon="145.34773">
    <ele>526.32</ele>
   </trkpt>
   <trkpt lat="-37.870140000000006" lon="145.34777000000003">
    <ele>526.2800000000001</ele>
   </trkpt>
   <trkpt lat="-37.87008" lon="145.3477">
    <ele>525.5200000000001</ele>
   </trkpt>
   <trkpt lat="-37.86946500252455" lon="145.34847500648823">
    <ele>524.27</ele>
   </trkpt>
   <trkpt lat="-37.86885" lon="145.34925">
    <ele>520.8900000000001</ele>
   </trkpt>
   <trkpt lat="-37.86867" lon="145.34957">
    <ele>519.07</ele>
   </trkpt>
   <trkpt lat="-37.86846000110641" lon="145.35010500178967">
    <ele>516.19</ele>
   </trkpt>
   <trkpt lat="-37.86825" lon="145.35064">
    <ele>513.6400000000001</ele>
   </trkpt>
   <trkpt lat="-37.86824" lon="145.35085">
    <ele>511.5200000000001</ele>
   </trkpt>
   <trkpt lat="-37.86829" lon="145.35101">
    <ele>511.5200000000001</ele>
   </trkpt>
   <trkpt lat="-37.86862" lon="145.35204000000002">
    <ele>505.82000000000005</ele>
   </trkpt>
   <trkpt lat="-37.86865" lon="145.35217">
    <ele>505.2000000000001</ele>
   </trkpt>
   <trkpt lat="-37.86858" lon="145.35242000000002">
    <ele>503.73</ele>
   </trkpt>
   <trkpt lat="-37.86851" lon="145.35256">
    <ele>500.97</ele>
   </trkpt>
   <trkpt lat="-37.86842" lon="145.35266000000001">
    <ele>500.97</ele>
   </trkpt>
   <trkpt lat="-37.86842" lon="145.35265">
    <ele>509.94000000000005</ele>
   </trkpt>
   <trkpt lat="-37.86757" lon="145.35287000000002">
    <ele>502.8</ele>
   </trkpt>
   <trkpt lat="-37.8674" lon="145.35311000000002">
    <ele>493.13</ele>
   </trkpt>
   <trkpt lat="-37.86688" lon="145.35313000000002">
    <ele>490.44000000000005</ele>
   </trkpt>
   <trkpt lat="-37.866690000000006" lon="145.35307">
    <ele>489.67</ele>
   </trkpt>
   <trkpt lat="-37.86623" lon="145.35282">
    <ele>487.77000000000004</ele>
   </trkpt>
   <trkpt lat="-37.86614" lon="145.35273">
    <ele>487.77000000000004</ele>
   </trkpt>
   <trkpt lat="-37.8659" lon="145.35260000000002">
    <ele>486.75</ele>
   </trkpt>
   <trkpt lat="-37.865880000000004" lon="145.35255">
    <ele>486.73</ele>
   </trkpt>
   <trkpt lat="-37.86567" lon="145.35250000000002">
    <ele>486.04</ele>
   </trkpt>
   <trkpt lat="-37.86543" lon="145.35247">
    <ele>485.14</ele>
   </trkpt>
   <trkpt lat="-37.865230000000004" lon="145.35247">
    <ele>484.82</ele>
   </trkpt>
   <trkpt lat="-37.86504" lon="145.35240000000002">
    <ele>485.85</ele>
   </trkpt>
   <trkpt lat="-37.865030000000004" lon="145.35241000000002">
    <ele>485.85</ele>
   </trkpt>
   <trkpt lat="-37.864850000000004" lon="145.35246">
    <ele>483.81</ele>
   </trkpt>
   <trkpt lat="-37.86439" lon="145.35256">
    <ele>481.87</ele>
   </trkpt>
   <trkpt lat="-37.86421" lon="145.35266000000001">
    <ele>480.63000000000005</ele>
   </trkpt>
   <trkpt lat="-37.86415" lon="145.35265">
    <ele>480.33000000000004</ele>
   </trkpt>
   <trkpt lat="-37.86365" lon="145.35302000000001">
    <ele>479.95000000000005</ele>
   </trkpt>
   <trkpt lat="-37.86323500027689" lon="145.35331000168807">
    <ele>479.6</ele>
   </trkpt>
   <trkpt lat="-37.862820000000006" lon="145.3536">
    <ele>480.86000000000007</ele>
   </trkpt>
   <trkpt lat="-37.862860000000005" lon="145.35369">
    <ele>480.95000000000005</ele>
   </trkpt>
   <trkpt lat="-37.862840000000006" lon="145.35371">
    <ele>481.04</ele>
   </trkpt>
  </trkseg>
 </trk>
</gpx>
