<?xml version="1.0" encoding="UTF-8"?>
<gpx creator="StravaGPX" version="1.1" xmlns="http://www.topografix.com/GPX/1/1" xmlns:xsi="http://www.w3.org/2001/XMLSchema-instance" xsi:schemaLocation="http://www.topografix.com/GPX/1/1 http://www.topografix.com/GPX/1/1/gpx.xsd">
 <metadata>
  <name>DTR 17th May 14k</name>
  <author>
   <name>DTR  Runleaders</name>
   <link href="https://www.strava.com/athletes/194056408"/>
  </author>
  <copyright author="OpenStreetMap contributors">
   <year>2020</year>
   <license>https://www.openstreetmap.org/copyright</license>
  </copyright>
  <link href="https://www.strava.com/routes/3490212355166449566"/>
 </metadata>
 <trk>
  <name>DTR 17th May 14k</name>
  <link href="https://www.strava.com/routes/3490212355166449566"/>
  <type>running</type>
  <trkseg>
   <trkpt lat="-37.85215" lon="145.3683">
    <ele>569.9300000000001</ele>
   </trkpt>
   <trkpt lat="-37.852070000000005" lon="145.36833000000001">
    <ele>569.49</ele>
   </trkpt>
   <trkpt lat="-37.851760000000006" lon="145.36859">
    <ele>565.8700000000001</ele>
   </trkpt>
   <trkpt lat="-37.85159" lon="145.36880000000002">
    <ele>564.0500000000001</ele>
   </trkpt>
   <trkpt lat="-37.85105" lon="145.36917000000003">
    <ele>562.22</ele>
   </trkpt>
   <trkpt lat="-37.85072" lon="145.36927">
    <ele>560.0200000000001</ele>
   </trkpt>
   <trkpt lat="-37.850370000000005" lon="145.36927">
    <ele>557.6600000000001</ele>
   </trkpt>
   <trkpt lat="-37.84976500077521" lon="145.36882999635813">
    <ele>550.7200000000001</ele>
   </trkpt>
   <trkpt lat="-37.849160000000005" lon="145.36839">
    <ele>540.94</ele>
   </trkpt>
   <trkpt lat="-37.84849000202483" lon="145.36789999109135">
    <ele>534.61</ele>
   </trkpt>
   <trkpt lat="-37.84782000201931" lon="145.36740999108747">
    <ele>533.97</ele>
   </trkpt>
   <trkpt lat="-37.847150000000006" lon="145.36692000000002">
    <ele>532.57</ele>
   </trkpt>
   <trkpt lat="-37.84709" lon="145.36679">
    <ele>531.98</ele>
   </trkpt>
   <trkpt lat="-37.84700000200787" lon="145.36609499888638">
    <ele>526.47</ele>
   </trkpt>
   <trkpt lat="-37.84691" lon="145.36540000000002">
    <ele>517.0</ele>
   </trkpt>
   <trkpt lat="-37.84693" lon="145.36513000000002">
    <ele>512.5300000000001</ele>
   </trkpt>
   <trkpt lat="-37.84687" lon="145.36482">
    <ele>509.06000000000006</ele>
   </trkpt>
   <trkpt lat="-37.846830000000004" lon="145.36456">
    <ele>505.6400000000001</ele>
   </trkpt>
   <trkpt lat="-37.84669" lon="145.36359000000002">
    <ele>490.49</ele>
   </trkpt>
   <trkpt lat="-37.84655000177262" lon="145.36294499883846">
    <ele>487.03000000000003</ele>
   </trkpt>
   <trkpt lat="-37.846410000000006" lon="145.3623">
    <ele>501.7600000000001</ele>
   </trkpt>
   <trkpt lat="-37.84630000000001" lon="145.3617">
    <ele>507.97</ele>
   </trkpt>
   <trkpt lat="-37.84619" lon="145.36064000000002">
    <ele>511.93</ele>
   </trkpt>
   <trkpt lat="-37.84655" lon="145.36054000000001">
    <ele>511.73</ele>
   </trkpt>
   <trkpt lat="-37.84682" lon="145.36052">
    <ele>511.6</ele>
   </trkpt>
   <trkpt lat="-37.84698" lon="145.36054000000001">
    <ele>511.38000000000005</ele>
   </trkpt>
   <trkpt lat="-37.84698" lon="145.36053">
    <ele>512.84</ele>
   </trkpt>
   <trkpt lat="-37.84732" lon="145.36025">
    <ele>512.0300000000001</ele>
   </trkpt>
   <trkpt lat="-37.84738" lon="145.36030000000002">
    <ele>511.83</ele>
   </trkpt>
   <trkpt lat="-37.84716" lon="145.35931000000002">
    <ele>516.15</ele>
   </trkpt>
   <trkpt lat="-37.84704" lon="145.35884000000001">
    <ele>517.4100000000001</ele>
   </trkpt>
   <trkpt lat="-37.84709" lon="145.35882">
    <ele>518.4300000000001</ele>
   </trkpt>
   <trkpt lat="-37.84695" lon="145.35840000000002">
    <ele>516.71</ele>
   </trkpt>
   <trkpt lat="-37.84664" lon="145.35795000000002">
    <ele>512.7700000000001</ele>
   </trkpt>
   <trkpt lat="-37.846540000000005" lon="145.35771000000003">
    <ele>510.46000000000004</ele>
   </trkpt>
   <trkpt lat="-37.84648" lon="145.35763">
    <ele>510.24</ele>
   </trkpt>
   <trkpt lat="-37.846540000000005" lon="145.35771000000003">
    <ele>510.46000000000004</ele>
   </trkpt>
   <trkpt lat="-37.84644" lon="145.35760000000002">
    <ele>510.12</ele>
   </trkpt>
   <trkpt lat="-37.846360000000004" lon="145.35734000000002">
    <ele>509.2000000000001</ele>
   </trkpt>
   <trkpt lat="-37.846006670389734" lon="145.35667666031446">
    <ele>509.26000000000005</ele>
   </trkpt>
   <trkpt lat="-37.84565333705871" lon="145.35601332698553">
    <ele>510.70000000000005</ele>
   </trkpt>
   <trkpt lat="-37.8453" lon="145.35535000000002">
    <ele>511.18000000000006</ele>
   </trkpt>
   <trkpt lat="-37.845220000000005" lon="145.35527000000002">
    <ele>511.71</ele>
   </trkpt>
   <trkpt lat="-37.84574500086746" lon="145.35486000279653">
    <ele>511.01000000000005</ele>
   </trkpt>
   <trkpt lat="-37.846270000000004" lon="145.35445">
    <ele>509.44</ele>
   </trkpt>
   <trkpt lat="-37.84628" lon="145.35445">
    <ele>509.4000000000001</ele>
   </trkpt>
   <trkpt lat="-37.8468" lon="145.35404">
    <ele>506.84000000000003</ele>
   </trkpt>
   <trkpt lat="-37.846830000000004" lon="145.35398">
    <ele>506.84000000000003</ele>
   </trkpt>
   <trkpt lat="-37.846900000000005" lon="145.35394000000002">
    <ele>506.84000000000003</ele>
   </trkpt>
   <trkpt lat="-37.84682" lon="145.35361">
    <ele>508.93</ele>
   </trkpt>
   <trkpt lat="-37.84671" lon="145.35329000000002">
    <ele>510.2</ele>
   </trkpt>
   <trkpt lat="-37.84657" lon="145.35303000000002">
    <ele>511.68</ele>
   </trkpt>
   <trkpt lat="-37.84633" lon="145.35282">
    <ele>513.0400000000001</ele>
   </trkpt>
   <trkpt lat="-37.846230000000006" lon="145.35278000000002">
    <ele>513.3100000000001</ele>
   </trkpt>
   <trkpt lat="-37.84601" lon="145.35263">
    <ele>513.7400000000001</ele>
   </trkpt>
   <trkpt lat="-37.845850000000006" lon="145.35258000000002">
    <ele>513.1800000000001</ele>
   </trkpt>
   <trkpt lat="-37.84568" lon="145.35239">
    <ele>511.19</ele>
   </trkpt>
   <trkpt lat="-37.84557" lon="145.35234">
    <ele>510.95</ele>
   </trkpt>
   <trkpt lat="-37.84503" lon="145.3523">
    <ele>510.38000000000005</ele>
   </trkpt>
   <trkpt lat="-37.844800000000006" lon="145.35224000000002">
    <ele>510.09000000000003</ele>
   </trkpt>
   <trkpt lat="-37.84454" lon="145.35216">
    <ele>510.53000000000003</ele>
   </trkpt>
   <trkpt lat="-37.844350000000006" lon="145.35216">
    <ele>512.9</ele>
   </trkpt>
   <trkpt lat="-37.84407" lon="145.35236">
    <ele>520.85</ele>
   </trkpt>
   <trkpt lat="-37.843790000000006" lon="145.35248">
    <ele>524.4300000000001</ele>
   </trkpt>
   <trkpt lat="-37.8436" lon="145.35240000000002">
    <ele>525.11</ele>
   </trkpt>
   <trkpt lat="-37.84348" lon="145.3523">
    <ele>525.49</ele>
   </trkpt>
   <trkpt lat="-37.84335" lon="145.35238">
    <ele>526.73</ele>
   </trkpt>
   <trkpt lat="-37.84364" lon="145.35284000000001">
    <ele>529.05</ele>
   </trkpt>
   <trkpt lat="-37.84366" lon="145.35302000000001">
    <ele>532.2900000000001</ele>
   </trkpt>
   <trkpt lat="-37.843560000000004" lon="145.35325">
    <ele>533.22</ele>
   </trkpt>
   <trkpt lat="-37.84307500040495" lon="145.35308499901353">
    <ele>535.6800000000001</ele>
   </trkpt>
   <trkpt lat="-37.84259" lon="145.35292">
    <ele>539.0400000000001</ele>
   </trkpt>
   <trkpt lat="-37.84199" lon="145.35289">
    <ele>543.98</ele>
   </trkpt>
   <trkpt lat="-37.84185" lon="145.35291">
    <ele>544.4100000000001</ele>
   </trkpt>
   <trkpt lat="-37.841260000000005" lon="145.35308">
    <ele>546.1</ele>
   </trkpt>
   <trkpt lat="-37.84127" lon="145.35308">
    <ele>546.09</ele>
   </trkpt>
   <trkpt lat="-37.84062" lon="145.35322000000002">
    <ele>548.0400000000001</ele>
   </trkpt>
   <trkpt lat="-37.84055" lon="145.35266000000001">
    <ele>548.6600000000001</ele>
   </trkpt>
   <trkpt lat="-37.84051" lon="145.35259000000002">
    <ele>548.74</ele>
   </trkpt>
   <trkpt lat="-37.83972500076495" lon="145.35218499572662">
    <ele>551.36</ele>
   </trkpt>
   <trkpt lat="-37.83894" lon="145.35178000000002">
    <ele>555.6500000000001</ele>
   </trkpt>
   <trkpt lat="-37.83878" lon="145.35166">
    <ele>557.32</ele>
   </trkpt>
   <trkpt lat="-37.83867" lon="145.35154">
    <ele>558.7800000000001</ele>
   </trkpt>
   <trkpt lat="-37.83831" lon="145.35084">
    <ele>562.06</ele>
   </trkpt>
   <trkpt lat="-37.83811" lon="145.35049">
    <ele>564.33</ele>
   </trkpt>
   <trkpt lat="-37.837740000000004" lon="145.34965000000003">
    <ele>568.91</ele>
   </trkpt>
   <trkpt lat="-37.83773" lon="145.34956000000003">
    <ele>568.91</ele>
   </trkpt>
   <trkpt lat="-37.8378" lon="145.34934">
    <ele>569.6600000000001</ele>
   </trkpt>
   <trkpt lat="-37.83782" lon="145.34913">
    <ele>570.4</ele>
   </trkpt>
   <trkpt lat="-37.83789" lon="145.34899000000001">
    <ele>571.77</ele>
   </trkpt>
   <trkpt lat="-37.83793" lon="145.34877">
    <ele>573.47</ele>
   </trkpt>
   <trkpt lat="-37.83811" lon="145.34829000000002">
    <ele>576.9399999999999</ele>
   </trkpt>
   <trkpt lat="-37.83825" lon="145.34805">
    <ele>579.46</ele>
   </trkpt>
   <trkpt lat="-37.83831" lon="145.34782">
    <ele>583.0200000000001</ele>
   </trkpt>
   <trkpt lat="-37.83822" lon="145.34768000000003">
    <ele>587.8100000000001</ele>
   </trkpt>
   <trkpt lat="-37.8382" lon="145.34754">
    <ele>589.94</ele>
   </trkpt>
   <trkpt lat="-37.83858" lon="145.34734">
    <ele>585.09</ele>
   </trkpt>
   <trkpt lat="-37.838680000000004" lon="145.34721000000002">
    <ele>584.57</ele>
   </trkpt>
   <trkpt lat="-37.83869" lon="145.34721000000002">
    <ele>584.57</ele>
   </trkpt>
   <trkpt lat="-37.83885" lon="145.34699">
    <ele>582.38</ele>
   </trkpt>
   <trkpt lat="-37.8391" lon="145.34675000000001">
    <ele>576.45</ele>
   </trkpt>
   <trkpt lat="-37.83914" lon="145.34669000000002">
    <ele>576.45</ele>
   </trkpt>
   <trkpt lat="-37.83914" lon="145.34647">
    <ele>572.25</ele>
   </trkpt>
   <trkpt lat="-37.8391" lon="145.34637">
    <ele>570.1400000000001</ele>
   </trkpt>
   <trkpt lat="-37.83894" lon="145.3462">
    <ele>567.59</ele>
   </trkpt>
   <trkpt lat="-37.83896" lon="145.34608">
    <ele>566.28</ele>
   </trkpt>
   <trkpt lat="-37.83872" lon="145.34589000000003">
    <ele>565.5</ele>
   </trkpt>
   <trkpt lat="-37.83856" lon="145.34584">
    <ele>566.72</ele>
   </trkpt>
   <trkpt lat="-37.83843" lon="145.34587000000002">
    <ele>569.7800000000001</ele>
   </trkpt>
   <trkpt lat="-37.83834" lon="145.34596000000002">
    <ele>571.09</ele>
   </trkpt>
   <trkpt lat="-37.83813" lon="145.34605000000002">
    <ele>580.38</ele>
   </trkpt>
   <trkpt lat="-37.83791" lon="145.34608">
    <ele>584.4100000000001</ele>
   </trkpt>
   <trkpt lat="-37.83766" lon="145.34623000000002">
    <ele>592.82</ele>
   </trkpt>
   <trkpt lat="-37.83733" lon="145.34626">
    <ele>599.09</ele>
   </trkpt>
   <trkpt lat="-37.83729" lon="145.34628">
    <ele>600.0500000000001</ele>
   </trkpt>
   <trkpt lat="-37.83729" lon="145.34627">
    <ele>599.9000000000001</ele>
   </trkpt>
   <trkpt lat="-37.83722" lon="145.34633000000002">
    <ele>602.1800000000001</ele>
   </trkpt>
   <trkpt lat="-37.83693" lon="145.34661">
    <ele>610.11</ele>
   </trkpt>
   <trkpt lat="-37.83681" lon="145.34659000000002">
    <ele>610.9300000000001</ele>
   </trkpt>
   <trkpt lat="-37.83668" lon="145.34660000000002">
    <ele>610.7</ele>
   </trkpt>
   <trkpt lat="-37.836560000000006" lon="145.34659000000002">
    <ele>609.96</ele>
   </trkpt>
   <trkpt lat="-37.8363" lon="145.34654">
    <ele>606.87</ele>
   </trkpt>
   <trkpt lat="-37.83601" lon="145.34655">
    <ele>603.0699999999999</ele>
   </trkpt>
   <trkpt lat="-37.83574" lon="145.34658000000002">
    <ele>600.1200000000001</ele>
   </trkpt>
   <trkpt lat="-37.835150000000006" lon="145.34676000000002">
    <ele>596.9100000000001</ele>
   </trkpt>
   <trkpt lat="-37.83491" lon="145.3468">
    <ele>596.28</ele>
   </trkpt>
   <trkpt lat="-37.8344" lon="145.34703000000002">
    <ele>596.1700000000001</ele>
   </trkpt>
   <trkpt lat="-37.83413" lon="145.34727">
    <ele>596.32</ele>
   </trkpt>
   <trkpt lat="-37.834070000000004" lon="145.34733">
    <ele>596.74</ele>
   </trkpt>
   <trkpt lat="-37.83408" lon="145.34733">
    <ele>596.7</ele>
   </trkpt>
   <trkpt lat="-37.83346" lon="145.34808">
    <ele>594.6400000000001</ele>
   </trkpt>
   <trkpt lat="-37.83339" lon="145.34822">
    <ele>594.8500000000001</ele>
   </trkpt>
   <trkpt lat="-37.83328" lon="145.3487">
    <ele>594.86</ele>
   </trkpt>
   <trkpt lat="-37.83321" lon="145.34907">
    <ele>592.48</ele>
   </trkpt>
   <trkpt lat="-37.83316000000001" lon="145.34919000000002">
    <ele>592.48</ele>
   </trkpt>
   <trkpt lat="-37.83274" lon="145.34954000000002">
    <ele>587.22</ele>
   </trkpt>
   <trkpt lat="-37.83267" lon="145.34969">
    <ele>586.4</ele>
   </trkpt>
   <trkpt lat="-37.83231" lon="145.35010000000003">
    <ele>578.6600000000001</ele>
   </trkpt>
   <trkpt lat="-37.83196" lon="145.35046">
    <ele>570.71</ele>
   </trkpt>
   <trkpt lat="-37.83162" lon="145.35071000000002">
    <ele>561.57</ele>
   </trkpt>
   <trkpt lat="-37.83122" lon="145.35091">
    <ele>556.9300000000001</ele>
   </trkpt>
   <trkpt lat="-37.83093" lon="145.35097000000002">
    <ele>557.32</ele>
   </trkpt>
   <trkpt lat="-37.83066" lon="145.35092">
    <ele>559.4800000000001</ele>
   </trkpt>
   <trkpt lat="-37.83032" lon="145.35069000000001">
    <ele>561.4800000000001</ele>
   </trkpt>
   <trkpt lat="-37.82999" lon="145.35055">
    <ele>564.9000000000001</ele>
   </trkpt>
   <trkpt lat="-37.82963" lon="145.35047">
    <ele>567.59</ele>
   </trkpt>
   <trkpt lat="-37.82943" lon="145.35047">
    <ele>569.52</ele>
   </trkpt>
   <trkpt lat="-37.82911" lon="145.35060000000001">
    <ele>576.1800000000001</ele>
   </trkpt>
   <trkpt lat="-37.828629999903704" lon="145.35060500003354">
    <ele>577.95</ele>
   </trkpt>
   <trkpt lat="-37.82815" lon="145.35061000000002">
    <ele>575.0600000000001</ele>
   </trkpt>
   <trkpt lat="-37.82758000003291" lon="145.35072500089296">
    <ele>575.8100000000001</ele>
   </trkpt>
   <trkpt lat="-37.82701" lon="145.35084">
    <ele>578.09</ele>
   </trkpt>
   <trkpt lat="-37.82686" lon="145.35090000000002">
    <ele>577.7500000000001</ele>
   </trkpt>
   <trkpt lat="-37.82686" lon="145.35089000000002">
    <ele>577.8199999999999</ele>
   </trkpt>
   <trkpt lat="-37.82658" lon="145.35101">
    <ele>577.1400000000001</ele>
   </trkpt>
   <trkpt lat="-37.82625" lon="145.35123000000002">
    <ele>579.09</ele>
   </trkpt>
   <trkpt lat="-37.82596" lon="145.35162000000003">
    <ele>582.11</ele>
   </trkpt>
   <trkpt lat="-37.82558" lon="145.35231000000002">
    <ele>584.87</ele>
   </trkpt>
   <trkpt lat="-37.82551" lon="145.35260000000002">
    <ele>585.61</ele>
   </trkpt>
   <trkpt lat="-37.82547" lon="145.35287000000002">
    <ele>585.86</ele>
   </trkpt>
   <trkpt lat="-37.825520000000004" lon="145.35319">
    <ele>587.09</ele>
   </trkpt>
   <trkpt lat="-37.8256" lon="145.35319">
    <ele>589.5799999999999</ele>
   </trkpt>
   <trkpt lat="-37.82564" lon="145.35313000000002">
    <ele>590.95</ele>
   </trkpt>
   <trkpt lat="-37.8258" lon="145.35314000000002">
    <ele>597.1200000000001</ele>
   </trkpt>
   <trkpt lat="-37.82589" lon="145.35312000000002">
    <ele>600.4</ele>
   </trkpt>
   <trkpt lat="-37.82602" lon="145.35317">
    <ele>609.0000000000001</ele>
   </trkpt>
   <trkpt lat="-37.826220000000006" lon="145.35317">
    <ele>613.9300000000001</ele>
   </trkpt>
   <trkpt lat="-37.826440000000005" lon="145.35313000000002">
    <ele>622.71</ele>
   </trkpt>
   <trkpt lat="-37.82659" lon="145.35302000000001">
    <ele>623.94</ele>
   </trkpt>
   <trkpt lat="-37.826620000000005" lon="145.3529">
    <ele>624.1000000000001</ele>
   </trkpt>
   <trkpt lat="-37.826710000000006" lon="145.35296000000002">
    <ele>625.57</ele>
   </trkpt>
   <trkpt lat="-37.826730000000005" lon="145.35275000000001">
    <ele>626.82</ele>
   </trkpt>
   <trkpt lat="-37.82676" lon="145.35276000000002">
    <ele>626.82</ele>
   </trkpt>
   <trkpt lat="-37.82674" lon="145.35293000000001">
    <ele>626.22</ele>
   </trkpt>
   <trkpt lat="-37.82676" lon="145.35284000000001">
    <ele>626.09</ele>
   </trkpt>
   <trkpt lat="-37.82688" lon="145.35289">
    <ele>625.63</ele>
   </trkpt>
   <trkpt lat="-37.826840000000004" lon="145.35287000000002">
    <ele>625.78</ele>
   </trkpt>
   <trkpt lat="-37.82679" lon="145.35327">
    <ele>625.6</ele>
   </trkpt>
   <trkpt lat="-37.826800000000006" lon="145.35342">
    <ele>625.62</ele>
   </trkpt>
   <trkpt lat="-37.826910000000005" lon="145.35350000000003">
    <ele>625.6700000000001</ele>
   </trkpt>
   <trkpt lat="-37.826980000000006" lon="145.35382">
    <ele>622.4000000000001</ele>
   </trkpt>
   <trkpt lat="-37.82714" lon="145.35408">
    <ele>617.0300000000001</ele>
   </trkpt>
   <trkpt lat="-37.8273" lon="145.35427">
    <ele>613.6400000000001</ele>
   </trkpt>
   <trkpt lat="-37.82755" lon="145.35451">
    <ele>609.68</ele>
   </trkpt>
   <trkpt lat="-37.82784" lon="145.35498">
    <ele>603.62</ele>
   </trkpt>
   <trkpt lat="-37.828030000000005" lon="145.35515">
    <ele>601.82</ele>
   </trkpt>
   <trkpt lat="-37.82835" lon="145.35532">
    <ele>595.89</ele>
   </trkpt>
   <trkpt lat="-37.82858" lon="145.35532">
    <ele>593.57</ele>
   </trkpt>
   <trkpt lat="-37.82909" lon="145.35526000000002">
    <ele>590.48</ele>
   </trkpt>
   <trkpt lat="-37.82918" lon="145.35529000000002">
    <ele>589.75</ele>
   </trkpt>
   <trkpt lat="-37.82934" lon="145.35541">
    <ele>588.45</ele>
   </trkpt>
   <trkpt lat="-37.829370000000004" lon="145.35552">
    <ele>587.67</ele>
   </trkpt>
   <trkpt lat="-37.829240000000006" lon="145.35557">
    <ele>587.48</ele>
   </trkpt>
   <trkpt lat="-37.828790000170144" lon="145.3557750012536">
    <ele>585.52</ele>
   </trkpt>
   <trkpt lat="-37.828340000000004" lon="145.35598000000002">
    <ele>584.35</ele>
   </trkpt>
   <trkpt lat="-37.82837" lon="145.3561">
    <ele>583.0200000000001</ele>
   </trkpt>
   <trkpt lat="-37.82831" lon="145.35626000000002">
    <ele>582.21</ele>
   </trkpt>
   <trkpt lat="-37.828190000000006" lon="145.35636000000002">
    <ele>582.1200000000001</ele>
   </trkpt>
   <trkpt lat="-37.828210000000006" lon="145.35653000000002">
    <ele>582.04</ele>
   </trkpt>
   <trkpt lat="-37.82793" lon="145.35668">
    <ele>575.99</ele>
   </trkpt>
   <trkpt lat="-37.82775" lon="145.35697000000002">
    <ele>573.6300000000001</ele>
   </trkpt>
   <trkpt lat="-37.82771" lon="145.35709">
    <ele>572.65</ele>
   </trkpt>
   <trkpt lat="-37.82772000000001" lon="145.35709">
    <ele>572.8000000000001</ele>
   </trkpt>
   <trkpt lat="-37.82764" lon="145.35731">
    <ele>571.0</ele>
   </trkpt>
   <trkpt lat="-37.82759" lon="145.35757">
    <ele>565.33</ele>
   </trkpt>
   <trkpt lat="-37.82737" lon="145.35789000000003">
    <ele>561.9399999999999</ele>
   </trkpt>
   <trkpt lat="-37.82721" lon="145.3582">
    <ele>555.6000000000001</ele>
   </trkpt>
   <trkpt lat="-37.82699" lon="145.35844">
    <ele>549.24</ele>
   </trkpt>
   <trkpt lat="-37.82683" lon="145.35869000000002">
    <ele>545.0200000000001</ele>
   </trkpt>
   <trkpt lat="-37.82678000000001" lon="145.35874">
    <ele>543.22</ele>
   </trkpt>
   <trkpt lat="-37.82681" lon="145.35894000000002">
    <ele>540.6800000000001</ele>
   </trkpt>
   <trkpt lat="-37.82687" lon="145.35904000000002">
    <ele>538.5000000000001</ele>
   </trkpt>
   <trkpt lat="-37.82694" lon="145.35909">
    <ele>537.95</ele>
   </trkpt>
   <trkpt lat="-37.82705" lon="145.35911000000002">
    <ele>537.09</ele>
   </trkpt>
   <trkpt lat="-37.827180000000006" lon="145.35917">
    <ele>535.59</ele>
   </trkpt>
   <trkpt lat="-37.82728" lon="145.35929000000002">
    <ele>534.19</ele>
   </trkpt>
   <trkpt lat="-37.82772000000001" lon="145.35955">
    <ele>527.5000000000001</ele>
   </trkpt>
   <trkpt lat="-37.82786" lon="145.3596">
    <ele>523.45</ele>
   </trkpt>
   <trkpt lat="-37.82797" lon="145.35967000000002">
    <ele>515.1300000000001</ele>
   </trkpt>
   <trkpt lat="-37.82802" lon="145.35974000000002">
    <ele>511.70000000000005</ele>
   </trkpt>
   <trkpt lat="-37.828030000000005" lon="145.35981">
    <ele>510.2300000000001</ele>
   </trkpt>
   <trkpt lat="-37.82788" lon="145.35998">
    <ele>510.30000000000007</ele>
   </trkpt>
   <trkpt lat="-37.82804" lon="145.36018">
    <ele>516.81</ele>
   </trkpt>
   <trkpt lat="-37.828210000000006" lon="145.36031">
    <ele>513.63</ele>
   </trkpt>
   <trkpt lat="-37.828300000000006" lon="145.36042">
    <ele>510.11000000000007</ele>
   </trkpt>
   <trkpt lat="-37.82831" lon="145.36051">
    <ele>509.29</ele>
   </trkpt>
   <trkpt lat="-37.82831" lon="145.36064000000002">
    <ele>507.58000000000004</ele>
   </trkpt>
   <trkpt lat="-37.82824" lon="145.36102000000002">
    <ele>503.9800000000001</ele>
   </trkpt>
   <trkpt lat="-37.82826" lon="145.36134">
    <ele>499.96</ele>
   </trkpt>
   <trkpt lat="-37.828210000000006" lon="145.3615">
    <ele>499.09000000000003</ele>
   </trkpt>
   <trkpt lat="-37.82826" lon="145.36181000000002">
    <ele>498.87</ele>
   </trkpt>
   <trkpt lat="-37.82837" lon="145.36183000000003">
    <ele>498.83000000000004</ele>
   </trkpt>
   <trkpt lat="-37.82835" lon="145.36207000000002">
    <ele>498.7300000000001</ele>
   </trkpt>
   <trkpt lat="-37.82842" lon="145.36245000000002">
    <ele>496.04</ele>
   </trkpt>
   <trkpt lat="-37.8286" lon="145.36275">
    <ele>494.62000000000006</ele>
   </trkpt>
   <trkpt lat="-37.82894" lon="145.36309">
    <ele>498.59000000000003</ele>
   </trkpt>
   <trkpt lat="-37.82916" lon="145.36327">
    <ele>498.02</ele>
   </trkpt>
   <trkpt lat="-37.82925" lon="145.36343000000002">
    <ele>498.07000000000005</ele>
   </trkpt>
   <trkpt lat="-37.82932" lon="145.36349">
    <ele>498.18000000000006</ele>
   </trkpt>
   <trkpt lat="-37.82938" lon="145.36346">
    <ele>498.31</ele>
   </trkpt>
   <trkpt lat="-37.82943" lon="145.36349">
    <ele>498.65000000000003</ele>
   </trkpt>
   <trkpt lat="-37.82938" lon="145.36354">
    <ele>498.47</ele>
   </trkpt>
   <trkpt lat="-37.82967" lon="145.3639">
    <ele>496.52</ele>
   </trkpt>
   <trkpt lat="-37.83028" lon="145.36438">
    <ele>493.53000000000003</ele>
   </trkpt>
   <trkpt lat="-37.83028" lon="145.36444">
    <ele>493.55</ele>
   </trkpt>
   <trkpt lat="-37.83032" lon="145.36453">
    <ele>493.59000000000003</ele>
   </trkpt>
   <trkpt lat="-37.8305" lon="145.36457000000001">
    <ele>493.70000000000005</ele>
   </trkpt>
   <trkpt lat="-37.83062" lon="145.36463">
    <ele>493.65000000000003</ele>
   </trkpt>
   <trkpt lat="-37.83113" lon="145.36483">
    <ele>493.42</ele>
   </trkpt>
   <trkpt lat="-37.83124" lon="145.36485000000002">
    <ele>492.66</ele>
   </trkpt>
   <trkpt lat="-37.831480000000006" lon="145.365">
    <ele>489.17</ele>
   </trkpt>
   <trkpt lat="-37.83164" lon="145.365">
    <ele>488.28000000000003</ele>
   </trkpt>
   <trkpt lat="-37.83196" lon="145.36511000000002">
    <ele>484.16</ele>
   </trkpt>
   <trkpt lat="-37.83207" lon="145.36518">
    <ele>482.51000000000005</ele>
   </trkpt>
   <trkpt lat="-37.83209" lon="145.36526">
    <ele>480.7</ele>
   </trkpt>
   <trkpt lat="-37.8322" lon="145.36537">
    <ele>478.74000000000007</ele>
   </trkpt>
   <trkpt lat="-37.832240000000006" lon="145.36546">
    <ele>477.32</ele>
   </trkpt>
   <trkpt lat="-37.8322" lon="145.36557000000002">
    <ele>477.24000000000007</ele>
   </trkpt>
   <trkpt lat="-37.83229" lon="145.3656">
    <ele>475.80000000000007</ele>
   </trkpt>
   <trkpt lat="-37.83234" lon="145.36567000000002">
    <ele>473.57000000000005</ele>
   </trkpt>
   <trkpt lat="-37.83252" lon="145.36566000000002">
    <ele>471.67</ele>
   </trkpt>
   <trkpt lat="-37.83263" lon="145.36575000000002">
    <ele>470.63000000000005</ele>
   </trkpt>
   <trkpt lat="-37.83268" lon="145.36575000000002">
    <ele>470.63000000000005</ele>
   </trkpt>
   <trkpt lat="-37.83269000000001" lon="145.36567000000002">
    <ele>469.27000000000004</ele>
   </trkpt>
   <trkpt lat="-37.83272" lon="145.36565000000002">
    <ele>467.39000000000004</ele>
   </trkpt>
   <trkpt lat="-37.833000000000006" lon="145.36563">
    <ele>463.09000000000003</ele>
   </trkpt>
   <trkpt lat="-37.833020000000005" lon="145.36566000000002">
    <ele>462.81000000000006</ele>
   </trkpt>
   <trkpt lat="-37.83346" lon="145.36599">
    <ele>455.46000000000004</ele>
   </trkpt>
   <trkpt lat="-37.83372" lon="145.36615">
    <ele>452.72</ele>
   </trkpt>
   <trkpt lat="-37.83428" lon="145.3666">
    <ele>442.35</ele>
   </trkpt>
   <trkpt lat="-37.8344" lon="145.36679">
    <ele>438.33000000000004</ele>
   </trkpt>
   <trkpt lat="-37.834720000000004" lon="145.36713">
    <ele>433.81</ele>
   </trkpt>
   <trkpt lat="-37.83482" lon="145.36722">
    <ele>432.39000000000004</ele>
   </trkpt>
   <trkpt lat="-37.83509" lon="145.3673">
    <ele>427.15000000000003</ele>
   </trkpt>
   <trkpt lat="-37.835190000000004" lon="145.36743">
    <ele>425.92</ele>
   </trkpt>
   <trkpt lat="-37.83527" lon="145.36734">
    <ele>425.39000000000004</ele>
   </trkpt>
   <trkpt lat="-37.83536" lon="145.36729000000003">
    <ele>425.39000000000004</ele>
   </trkpt>
   <trkpt lat="-37.83545" lon="145.36728000000002">
    <ele>425.62000000000006</ele>
   </trkpt>
   <trkpt lat="-37.83554" lon="145.36737000000002">
    <ele>425.98</ele>
   </trkpt>
   <trkpt lat="-37.83583" lon="145.36804">
    <ele>428.62000000000006</ele>
   </trkpt>
   <trkpt lat="-37.83628" lon="145.36864">
    <ele>434.50000000000006</ele>
   </trkpt>
   <trkpt lat="-37.83677" lon="145.36924000000002">
    <ele>440.72</ele>
   </trkpt>
   <trkpt lat="-37.8369" lon="145.36938">
    <ele>442.47</ele>
   </trkpt>
   <trkpt lat="-37.83708" lon="145.36950000000002">
    <ele>444.01</ele>
   </trkpt>
   <trkpt lat="-37.83719" lon="145.36952000000002">
    <ele>444.46000000000004</ele>
   </trkpt>
   <trkpt lat="-37.83719" lon="145.36971">
    <ele>442.90000000000003</ele>
   </trkpt>
   <trkpt lat="-37.83706" lon="145.3701">
    <ele>437.64000000000004</ele>
   </trkpt>
   <trkpt lat="-37.83701000000001" lon="145.37063">
    <ele>434.16</ele>
   </trkpt>
   <trkpt lat="-37.837030000000006" lon="145.37094000000002">
    <ele>430.92</ele>
   </trkpt>
   <trkpt lat="-37.83699" lon="145.37133">
    <ele>429.2900000000001</ele>
   </trkpt>
   <trkpt lat="-37.837030000000006" lon="145.3719">
    <ele>426.90000000000003</ele>
   </trkpt>
   <trkpt lat="-37.83699" lon="145.37235">
    <ele>423.46000000000004</ele>
   </trkpt>
   <trkpt lat="-37.83708" lon="145.37331">
    <ele>412.86000000000007</ele>
   </trkpt>
   <trkpt lat="-37.83719" lon="145.37388">
    <ele>408.89000000000004</ele>
   </trkpt>
   <trkpt lat="-37.83719" lon="145.37407000000002">
    <ele>408.12</ele>
   </trkpt>
   <trkpt lat="-37.83735" lon="145.37466">
    <ele>406.87</ele>
   </trkpt>
   <trkpt lat="-37.83746" lon="145.37449">
    <ele>406.52000000000004</ele>
   </trkpt>
   <trkpt lat="-37.83764" lon="145.37427000000002">
    <ele>401.71</ele>
   </trkpt>
   <trkpt lat="-37.83784" lon="145.37368">
    <ele>395.62</ele>
   </trkpt>
   <trkpt lat="-37.83791" lon="145.37358">
    <ele>393.45</ele>
   </trkpt>
   <trkpt lat="-37.83805" lon="145.37351">
    <ele>390.24</ele>
   </trkpt>
   <trkpt lat="-37.83822" lon="145.37348">
    <ele>384.21999999999997</ele>
   </trkpt>
   <trkpt lat="-37.83847" lon="145.37354000000002">
    <ele>381.15000000000003</ele>
   </trkpt>
   <trkpt lat="-37.83858" lon="145.37359">
    <ele>380.31</ele>
   </trkpt>
   <trkpt lat="-37.83883" lon="145.37376">
    <ele>380.14000000000004</ele>
   </trkpt>
   <trkpt lat="-37.8391" lon="145.37399000000002">
    <ele>379.26000000000005</ele>
   </trkpt>
   <trkpt lat="-37.83921" lon="145.37414">
    <ele>378.61000000000007</ele>
   </trkpt>
   <trkpt lat="-37.83943500195288" lon="145.3748199979196">
    <ele>370.59000000000003</ele>
   </trkpt>
   <trkpt lat="-37.83966" lon="145.37550000000002">
    <ele>364.19</ele>
   </trkpt>
   <trkpt lat="-37.83975" lon="145.37576">
    <ele>361.3</ele>
   </trkpt>
   <trkpt lat="-37.839995001151586" lon="145.37628499822682">
    <ele>355.06000000000006</ele>
   </trkpt>
   <trkpt lat="-37.84024" lon="145.37681">
    <ele>350.09000000000003</ele>
   </trkpt>
   <trkpt lat="-37.84046" lon="145.37711000000002">
    <ele>343.08000000000004</ele>
   </trkpt>
   <trkpt lat="-37.84089" lon="145.37754">
    <ele>334.76</ele>
   </trkpt>
   <trkpt lat="-37.840970000000006" lon="145.37764">
    <ele>333.54</ele>
   </trkpt>
   <trkpt lat="-37.840990000000005" lon="145.37779">
    <ele>332.90000000000003</ele>
   </trkpt>
   <trkpt lat="-37.84103" lon="145.37786">
    <ele>332.87000000000006</ele>
   </trkpt>
   <trkpt lat="-37.84122" lon="145.37847000000002">
    <ele>329.99</ele>
   </trkpt>
   <trkpt lat="-37.84154" lon="145.37922">
    <ele>328.13000000000005</ele>
   </trkpt>
   <trkpt lat="-37.84185" lon="145.37971000000002">
    <ele>326.17</ele>
   </trkpt>
   <trkpt lat="-37.84201" lon="145.38002">
    <ele>324.66</ele>
   </trkpt>
   <trkpt lat="-37.84205" lon="145.38012">
    <ele>324.61</ele>
   </trkpt>
   <trkpt lat="-37.8423" lon="145.38066">
    <ele>320.6</ele>
   </trkpt>
   <trkpt lat="-37.84243" lon="145.38109">
    <ele>316.01</ele>
   </trkpt>
   <trkpt lat="-37.84248" lon="145.38133000000002">
    <ele>313.97</ele>
   </trkpt>
   <trkpt lat="-37.84248" lon="145.38167">
    <ele>311.88000000000005</ele>
   </trkpt>
   <trkpt lat="-37.84263" lon="145.38217">
    <ele>305.76000000000005</ele>
   </trkpt>
   <trkpt lat="-37.84272" lon="145.38237">
    <ele>303.94000000000005</ele>
   </trkpt>
   <trkpt lat="-37.84279" lon="145.38266000000002">
    <ele>300.12</ele>
   </trkpt>
   <trkpt lat="-37.84281" lon="145.38304000000002">
    <ele>295.73</ele>
   </trkpt>
   <trkpt lat="-37.84281" lon="145.38376000000002">
    <ele>291.64</ele>
   </trkpt>
   <trkpt lat="-37.84286" lon="145.38411000000002">
    <ele>287.83000000000004</ele>
   </trkpt>
   <trkpt lat="-37.842940000000006" lon="145.38429000000002">
    <ele>285.71000000000004</ele>
   </trkpt>
   <trkpt lat="-37.84297" lon="145.38451">
    <ele>283.33000000000004</ele>
   </trkpt>
   <trkpt lat="-37.84292000000001" lon="145.38473000000002">
    <ele>281.66</ele>
   </trkpt>
   <trkpt lat="-37.84299" lon="145.38485">
    <ele>281.34000000000003</ele>
   </trkpt>
   <trkpt lat="-37.84304" lon="145.38501000000002">
    <ele>280.63000000000005</ele>
   </trkpt>
   <trkpt lat="-37.84299" lon="145.38529">
    <ele>280.63000000000005</ele>
   </trkpt>
   <trkpt lat="-37.84286" lon="145.38585">
    <ele>278.28000000000003</ele>
   </trkpt>
   <trkpt lat="-37.84277" lon="145.38612">
    <ele>277.68</ele>
   </trkpt>
   <trkpt lat="-37.8427" lon="145.38637">
    <ele>277.47</ele>
   </trkpt>
   <trkpt lat="-37.84261" lon="145.38726">
    <ele>278.46000000000004</ele>
   </trkpt>
   <trkpt lat="-37.842470000000006" lon="145.38771">
    <ele>279.01000000000005</ele>
   </trkpt>
   <trkpt lat="-37.84237" lon="145.38825">
    <ele>280.99</ele>
   </trkpt>
   <trkpt lat="-37.84237" lon="145.38848000000002">
    <ele>281.72</ele>
   </trkpt>
   <trkpt lat="-37.84243" lon="145.38848000000002">
    <ele>282.48</ele>
   </trkpt>
   <trkpt lat="-37.842830000000006" lon="145.38816">
    <ele>288.56000000000006</ele>
   </trkpt>
   <trkpt lat="-37.84297" lon="145.38794000000001">
    <ele>288.56000000000006</ele>
   </trkpt>
   <trkpt lat="-37.84317" lon="145.38776000000001">
    <ele>291.71000000000004</ele>
   </trkpt>
   <trkpt lat="-37.84337" lon="145.38748">
    <ele>294.19</ele>
   </trkpt>
   <trkpt lat="-37.84369" lon="145.38717000000003">
    <ele>298.96</ele>
   </trkpt>
   <trkpt lat="-37.8438" lon="145.38695">
    <ele>302.42</ele>
   </trkpt>
   <trkpt lat="-37.84407" lon="145.38666">
    <ele>305.76000000000005</ele>
   </trkpt>
   <trkpt lat="-37.84445000101221" lon="145.38614000285875">
    <ele>312.53000000000003</ele>
   </trkpt>
   <trkpt lat="-37.84483" lon="145.38562000000002">
    <ele>319.04</ele>
   </trkpt>
   <trkpt lat="-37.84487" lon="145.3854">
    <ele>320.12</ele>
   </trkpt>
   <trkpt lat="-37.844930000000005" lon="145.38529">
    <ele>320.76000000000005</ele>
   </trkpt>
   <trkpt lat="-37.84483" lon="145.38527000000002">
    <ele>320.8</ele>
   </trkpt>
   <trkpt lat="-37.84481" lon="145.38522">
    <ele>320.87000000000006</ele>
   </trkpt>
   <trkpt lat="-37.84478" lon="145.38508000000002">
    <ele>320.99000000000007</ele>
   </trkpt>
   <trkpt lat="-37.844820000000006" lon="145.38501000000002">
    <ele>321.13</ele>
   </trkpt>
   <trkpt lat="-37.844820000000006" lon="145.38500000000002">
    <ele>321.13</ele>
   </trkpt>
   <trkpt lat="-37.84487" lon="145.38497">
    <ele>321.13</ele>
   </trkpt>
   <trkpt lat="-37.84494" lon="145.38497">
    <ele>321.33</ele>
   </trkpt>
   <trkpt lat="-37.84501" lon="145.38500000000002">
    <ele>321.35</ele>
   </trkpt>
   <trkpt lat="-37.845040000000004" lon="145.38504">
    <ele>321.32000000000005</ele>
   </trkpt>
   <trkpt lat="-37.84528" lon="145.38482000000002">
    <ele>323.05</ele>
   </trkpt>
   <trkpt lat="-37.84534" lon="145.3845">
    <ele>325.99</ele>
   </trkpt>
   <trkpt lat="-37.84539" lon="145.38446000000002">
    <ele>327.91</ele>
   </trkpt>
   <trkpt lat="-37.84548" lon="145.38412000000002">
    <ele>331.44</ele>
   </trkpt>
   <trkpt lat="-37.84548" lon="145.38393000000002">
    <ele>334.69000000000005</ele>
   </trkpt>
   <trkpt lat="-37.84554" lon="145.38366000000002">
    <ele>338.26</ele>
   </trkpt>
   <trkpt lat="-37.84554" lon="145.3835">
    <ele>341.49</ele>
   </trkpt>
   <trkpt lat="-37.84554" lon="145.38349000000002">
    <ele>341.7</ele>
   </trkpt>
   <trkpt lat="-37.84554" lon="145.38338000000002">
    <ele>343.04</ele>
   </trkpt>
   <trkpt lat="-37.84548" lon="145.38314000000003">
    <ele>345.68000000000006</ele>
   </trkpt>
   <trkpt lat="-37.84539" lon="145.38249000000002">
    <ele>352.37</ele>
   </trkpt>
   <trkpt lat="-37.84532" lon="145.38224000000002">
    <ele>353.7</ele>
   </trkpt>
   <trkpt lat="-37.84521" lon="145.38202">
    <ele>355.09000000000003</ele>
   </trkpt>
   <trkpt lat="-37.84501" lon="145.38152000000002">
    <ele>359.79</ele>
   </trkpt>
   <trkpt lat="-37.84472500136598" lon="145.38095999791466">
    <ele>363.88000000000005</ele>
   </trkpt>
   <trkpt lat="-37.844440000000006" lon="145.3804">
    <ele>365.50000000000006</ele>
   </trkpt>
   <trkpt lat="-37.84449" lon="145.38033000000001">
    <ele>367.85</ele>
   </trkpt>
   <trkpt lat="-37.84451" lon="145.3802">
    <ele>369.35</ele>
   </trkpt>
   <trkpt lat="-37.84451" lon="145.38000000000002">
    <ele>370.71000000000004</ele>
   </trkpt>
   <trkpt lat="-37.8444" lon="145.37967">
    <ele>376.20000000000005</ele>
   </trkpt>
   <trkpt lat="-37.84427" lon="145.37936000000002">
    <ele>378.82000000000005</ele>
   </trkpt>
   <trkpt lat="-37.84411" lon="145.37913">
    <ele>383.66</ele>
   </trkpt>
   <trkpt lat="-37.84375" lon="145.37878">
    <ele>388.04</ele>
   </trkpt>
   <trkpt lat="-37.84333" lon="145.37800000000001">
    <ele>398.17</ele>
   </trkpt>
   <trkpt lat="-37.84326" lon="145.3778">
    <ele>399.93</ele>
   </trkpt>
   <trkpt lat="-37.84324" lon="145.37767000000002">
    <ele>400.88</ele>
   </trkpt>
   <trkpt lat="-37.84326" lon="145.37756000000002">
    <ele>402.63000000000005</ele>
   </trkpt>
   <trkpt lat="-37.84333" lon="145.37742">
    <ele>404.87</ele>
   </trkpt>
   <trkpt lat="-37.84346" lon="145.37734">
    <ele>407.65</ele>
   </trkpt>
   <trkpt lat="-37.8436" lon="145.37728">
    <ele>407.65</ele>
   </trkpt>
   <trkpt lat="-37.84384" lon="145.37723000000003">
    <ele>415.64</ele>
   </trkpt>
   <trkpt lat="-37.84431" lon="145.37730000000002">
    <ele>426.47</ele>
   </trkpt>
   <trkpt lat="-37.844750000000005" lon="145.37729000000002">
    <ele>433.40000000000003</ele>
   </trkpt>
   <trkpt lat="-37.84476" lon="145.37729000000002">
    <ele>433.52</ele>
   </trkpt>
   <trkpt lat="-37.84492" lon="145.37729000000002">
    <ele>437.11000000000007</ele>
   </trkpt>
   <trkpt lat="-37.84523" lon="145.37737">
    <ele>441.90000000000003</ele>
   </trkpt>
   <trkpt lat="-37.84582" lon="145.37730000000002">
    <ele>455.76000000000005</ele>
   </trkpt>
   <trkpt lat="-37.8459" lon="145.37727">
    <ele>458.56</ele>
   </trkpt>
   <trkpt lat="-37.8461" lon="145.37725">
    <ele>458.56</ele>
   </trkpt>
   <trkpt lat="-37.84633" lon="145.37718">
    <ele>465.78000000000003</ele>
   </trkpt>
   <trkpt lat="-37.84646" lon="145.37716">
    <ele>468.33000000000004</ele>
   </trkpt>
   <trkpt lat="-37.84666" lon="145.37718">
    <ele>473.67</ele>
   </trkpt>
   <trkpt lat="-37.8468" lon="145.37722000000002">
    <ele>473.67</ele>
   </trkpt>
   <trkpt lat="-37.84729" lon="145.37757000000002">
    <ele>483.71000000000004</ele>
   </trkpt>
   <trkpt lat="-37.84742" lon="145.3778">
    <ele>485.25</ele>
   </trkpt>
   <trkpt lat="-37.84747" lon="145.37811000000002">
    <ele>485.24000000000007</ele>
   </trkpt>
   <trkpt lat="-37.8476" lon="145.37832">
    <ele>484.59000000000003</ele>
   </trkpt>
   <trkpt lat="-37.84774" lon="145.37846000000002">
    <ele>484.58000000000004</ele>
   </trkpt>
   <trkpt lat="-37.84794" lon="145.37849">
    <ele>485.30000000000007</ele>
   </trkpt>
   <trkpt lat="-37.84825" lon="145.37846000000002">
    <ele>486.90000000000003</ele>
   </trkpt>
   <trkpt lat="-37.84848" lon="145.3784">
    <ele>487.86</ele>
   </trkpt>
   <trkpt lat="-37.8491" lon="145.37814">
    <ele>493.31</ele>
   </trkpt>
   <trkpt lat="-37.84951" lon="145.37792000000002">
    <ele>500.29</ele>
   </trkpt>
   <trkpt lat="-37.84964" lon="145.37782">
    <ele>500.29</ele>
   </trkpt>
   <trkpt lat="-37.85029" lon="145.3775">
    <ele>507.87000000000006</ele>
   </trkpt>
   <trkpt lat="-37.85047" lon="145.37738000000002">
    <ele>509.48</ele>
   </trkpt>
   <trkpt lat="-37.85085" lon="145.37730000000002">
    <ele>512.09</ele>
   </trkpt>
   <trkpt lat="-37.85121" lon="145.37741000000003">
    <ele>512.66</ele>
   </trkpt>
   <trkpt lat="-37.85157" lon="145.3776">
    <ele>509.9600000000001</ele>
   </trkpt>
   <trkpt lat="-37.85172" lon="145.37773">
    <ele>509.38000000000005</ele>
   </trkpt>
   <trkpt lat="-37.85188" lon="145.37808">
    <ele>506.36</ele>
   </trkpt>
   <trkpt lat="-37.85201" lon="145.37857000000002">
    <ele>504.34</ele>
   </trkpt>
   <trkpt lat="-37.85228" lon="145.37909000000002">
    <ele>506.51</ele>
   </trkpt>
   <trkpt lat="-37.85251" lon="145.37935000000002">
    <ele>507.97</ele>
   </trkpt>
   <trkpt lat="-37.85282" lon="145.3796">
    <ele>510.13000000000005</ele>
   </trkpt>
   <trkpt lat="-37.85293" lon="145.37962000000002">
    <ele>511.07</ele>
   </trkpt>
   <trkpt lat="-37.853080000000006" lon="145.37959">
    <ele>511.62000000000006</ele>
   </trkpt>
   <trkpt lat="-37.853350000000006" lon="145.37931">
    <ele>511.9100000000001</ele>
   </trkpt>
   <trkpt lat="-37.85351" lon="145.37909000000002">
    <ele>513.87</ele>
   </trkpt>
   <trkpt lat="-37.85387" lon="145.37866000000002">
    <ele>520.37</ele>
   </trkpt>
   <trkpt lat="-37.85427" lon="145.37793000000002">
    <ele>533.24</ele>
   </trkpt>
   <trkpt lat="-37.85468" lon="145.37728">
    <ele>545.9000000000001</ele>
   </trkpt>
   <trkpt lat="-37.854850000000006" lon="145.37705000000003">
    <ele>549.27</ele>
   </trkpt>
   <trkpt lat="-37.854850000000006" lon="145.37704000000002">
    <ele>549.35</ele>
   </trkpt>
   <trkpt lat="-37.85501" lon="145.37684000000002">
    <ele>552.83</ele>
   </trkpt>
   <trkpt lat="-37.85533" lon="145.37614000000002">
    <ele>563.1400000000001</ele>
   </trkpt>
   <trkpt lat="-37.85571" lon="145.37552000000002">
    <ele>569.6300000000001</ele>
   </trkpt>
   <trkpt lat="-37.85604" lon="145.37508000000003">
    <ele>572.2</ele>
   </trkpt>
   <trkpt lat="-37.85622" lon="145.37490000000003">
    <ele>574.3100000000001</ele>
   </trkpt>
   <trkpt lat="-37.856260000000006" lon="145.37480000000002">
    <ele>574.26</ele>
   </trkpt>
   <trkpt lat="-37.856" lon="145.37456">
    <ele>577.01</ele>
   </trkpt>
   <trkpt lat="-37.8556750005453" lon="145.37416499811948">
    <ele>578.8000000000001</ele>
   </trkpt>
   <trkpt lat="-37.85535" lon="145.37377">
    <ele>578.22</ele>
   </trkpt>
   <trkpt lat="-37.85531" lon="145.37379">
    <ele>578.2700000000001</ele>
   </trkpt>
   <trkpt lat="-37.85521" lon="145.37367">
    <ele>578.19</ele>
   </trkpt>
   <trkpt lat="-37.854845000635606" lon="145.37326999797466">
    <ele>578.44</ele>
   </trkpt>
   <trkpt lat="-37.85448" lon="145.37287">
    <ele>579.2</ele>
   </trkpt>
   <trkpt lat="-37.8543" lon="145.37263000000002">
    <ele>579.37</ele>
   </trkpt>
   <trkpt lat="-37.85414" lon="145.37239000000002">
    <ele>579.76</ele>
   </trkpt>
   <trkpt lat="-37.85405" lon="145.37220000000002">
    <ele>579.84</ele>
   </trkpt>
   <trkpt lat="-37.854020000000006" lon="145.37182">
    <ele>579.4</ele>
   </trkpt>
   <trkpt lat="-37.854020000000006" lon="145.3717">
    <ele>579.22</ele>
   </trkpt>
   <trkpt lat="-37.8541050050113" lon="145.3706100014149">
    <ele>576.6300000000001</ele>
   </trkpt>
   <trkpt lat="-37.85419" lon="145.36952000000002">
    <ele>573.16</ele>
   </trkpt>
   <trkpt lat="-37.85421" lon="145.36937">
    <ele>572.74</ele>
   </trkpt>
   <trkpt lat="-37.85441" lon="145.36911">
    <ele>572.5100000000001</ele>
   </trkpt>
   <trkpt lat="-37.85409000000001" lon="145.36882">
    <ele>576.23</ele>
   </trkpt>
   <trkpt lat="-37.853660000000005" lon="145.36857">
    <ele>579.0000000000001</ele>
   </trkpt>
   <trkpt lat="-37.85314" lon="145.36833000000001">
    <ele>578.2900000000001</ele>
   </trkpt>
   <trkpt lat="-37.85295" lon="145.36823">
    <ele>577.37</ele>
   </trkpt>
   <trkpt lat="-37.85264" lon="145.36819">
    <ele>574.3900000000001</ele>
   </trkpt>
   <trkpt lat="-37.85237" lon="145.36823">
    <ele>572.19</ele>
   </trkpt>
  </trkseg>
 </trk>
</gpx>
