<?xml version="1.0" encoding="UTF-8"?>
<gpx creator="StravaGPX" version="1.1" xmlns="http://www.topografix.com/GPX/1/1" xmlns:xsi="http://www.w3.org/2001/XMLSchema-instance" xsi:schemaLocation="http://www.topografix.com/GPX/1/1 http://www.topografix.com/GPX/1/1/gpx.xsd">
 <metadata>
  <name>DTR 20k May 8 2026</name>
  <author>
   <name>Richard Jones</name>
   <link href="https://www.strava.com/athletes/38085969"/>
  </author>
  <copyright author="OpenStreetMap contributors">
   <year>2020</year>
   <license>https://www.openstreetmap.org/copyright</license>
  </copyright>
  <link href="https://www.strava.com/routes/3487614118108730522"/>
 </metadata>
 <trk>
  <name>DTR 20k May 8 2026</name>
  <link href="https://www.strava.com/routes/3487614118108730522"/>
  <type>trail_running</type>
  <trkseg>
   <trkpt lat="-37.88721" lon="145.37030000000001">
    <ele>366.53000000000003</ele>
   </trkpt>
   <trkpt lat="-37.88729" lon="145.37024000000002">
    <ele>366.21000000000004</ele>
   </trkpt>
   <trkpt lat="-37.887350000000005" lon="145.37013000000002">
    <ele>366.05</ele>
   </trkpt>
   <trkpt lat="-37.88731000000001" lon="145.37011">
    <ele>366.13</ele>
   </trkpt>
   <trkpt lat="-37.88683" lon="145.37049000000002">
    <ele>366.47</ele>
   </trkpt>
   <trkpt lat="-37.886520000000004" lon="145.37046">
    <ele>364.27000000000004</ele>
   </trkpt>
   <trkpt lat="-37.88644" lon="145.37038">
    <ele>364.58</ele>
   </trkpt>
   <trkpt lat="-37.88627" lon="145.37005000000002">
    <ele>366.00000000000006</ele>
   </trkpt>
   <trkpt lat="-37.88608" lon="145.37001">
    <ele>366.08</ele>
   </trkpt>
   <trkpt lat="-37.885920000000006" lon="145.36992">
    <ele>366.45000000000005</ele>
   </trkpt>
   <trkpt lat="-37.88528" lon="145.36944000000003">
    <ele>369.68</ele>
   </trkpt>
   <trkpt lat="-37.88517" lon="145.36938">
    <ele>369.68</ele>
   </trkpt>
   <trkpt lat="-37.88505" lon="145.36935000000003">
    <ele>371.07</ele>
   </trkpt>
   <trkpt lat="-37.88501" lon="145.36937">
    <ele>371.07</ele>
   </trkpt>
   <trkpt lat="-37.88499" lon="145.36944000000003">
    <ele>371.07</ele>
   </trkpt>
   <trkpt lat="-37.884840000000004" lon="145.36943000000002">
    <ele>369.71000000000004</ele>
   </trkpt>
   <trkpt lat="-37.88481" lon="145.36937">
    <ele>369.71000000000004</ele>
   </trkpt>
   <trkpt lat="-37.88472" lon="145.36936">
    <ele>369.71000000000004</ele>
   </trkpt>
   <trkpt lat="-37.88463" lon="145.36942000000002">
    <ele>370.16</ele>
   </trkpt>
   <trkpt lat="-37.883950000000006" lon="145.37016">
    <ele>368.14000000000004</ele>
   </trkpt>
   <trkpt lat="-37.88369" lon="145.37046">
    <ele>367.78000000000003</ele>
   </trkpt>
   <trkpt lat="-37.883500000000005" lon="145.37063">
    <ele>366.08</ele>
   </trkpt>
   <trkpt lat="-37.883500000000005" lon="145.37074">
    <ele>366.08</ele>
   </trkpt>
   <trkpt lat="-37.88331" lon="145.37095000000002">
    <ele>365.71000000000004</ele>
   </trkpt>
   <trkpt lat="-37.88315" lon="145.371">
    <ele>365.71000000000004</ele>
   </trkpt>
   <trkpt lat="-37.88313" lon="145.37095000000002">
    <ele>365.71000000000004</ele>
   </trkpt>
   <trkpt lat="-37.88266" lon="145.37129000000002">
    <ele>364.41</ele>
   </trkpt>
   <trkpt lat="-37.8821" lon="145.37149000000002">
    <ele>360.86</ele>
   </trkpt>
   <trkpt lat="-37.88201" lon="145.3716">
    <ele>360.71000000000004</ele>
   </trkpt>
   <trkpt lat="-37.88192" lon="145.37164">
    <ele>360.45000000000005</ele>
   </trkpt>
   <trkpt lat="-37.88195" lon="145.37149000000002">
    <ele>357.28000000000003</ele>
   </trkpt>
   <trkpt lat="-37.882250000000006" lon="145.37132000000003">
    <ele>359.36</ele>
   </trkpt>
   <trkpt lat="-37.882250000000006" lon="145.37127">
    <ele>359.36</ele>
   </trkpt>
   <trkpt lat="-37.88203" lon="145.37136">
    <ele>358.16</ele>
   </trkpt>
   <trkpt lat="-37.881490000301625" lon="145.37169000251674">
    <ele>354.53000000000003</ele>
   </trkpt>
   <trkpt lat="-37.880950000000006" lon="145.37202000000002">
    <ele>350.77000000000004</ele>
   </trkpt>
   <trkpt lat="-37.88076" lon="145.37211000000002">
    <ele>349.53</ele>
   </trkpt>
   <trkpt lat="-37.88029" lon="145.37224">
    <ele>346.92</ele>
   </trkpt>
   <trkpt lat="-37.88017" lon="145.37225">
    <ele>345.75</ele>
   </trkpt>
   <trkpt lat="-37.880010000000006" lon="145.37222">
    <ele>344.72</ele>
   </trkpt>
   <trkpt lat="-37.87952000000001" lon="145.37219000000002">
    <ele>342.27000000000004</ele>
   </trkpt>
   <trkpt lat="-37.87932" lon="145.37222">
    <ele>341.39000000000004</ele>
   </trkpt>
   <trkpt lat="-37.87908" lon="145.37229000000002">
    <ele>338.59</ele>
   </trkpt>
   <trkpt lat="-37.87876" lon="145.37249">
    <ele>336.29</ele>
   </trkpt>
   <trkpt lat="-37.87861" lon="145.37267">
    <ele>333.26</ele>
   </trkpt>
   <trkpt lat="-37.87845" lon="145.37303">
    <ele>330.46000000000004</ele>
   </trkpt>
   <trkpt lat="-37.87843" lon="145.37283000000002">
    <ele>344.73</ele>
   </trkpt>
   <trkpt lat="-37.87838" lon="145.37277">
    <ele>344.65</ele>
   </trkpt>
   <trkpt lat="-37.878310000000006" lon="145.37275000000002">
    <ele>344.01000000000005</ele>
   </trkpt>
   <trkpt lat="-37.87807" lon="145.37275000000002">
    <ele>343.88</ele>
   </trkpt>
   <trkpt lat="-37.87791" lon="145.37255000000002">
    <ele>344.6</ele>
   </trkpt>
   <trkpt lat="-37.87782" lon="145.37237000000002">
    <ele>346.65000000000003</ele>
   </trkpt>
   <trkpt lat="-37.87778" lon="145.37220000000002">
    <ele>347.88</ele>
   </trkpt>
   <trkpt lat="-37.87773" lon="145.37208">
    <ele>348.40000000000003</ele>
   </trkpt>
   <trkpt lat="-37.87767" lon="145.37204">
    <ele>348.43</ele>
   </trkpt>
   <trkpt lat="-37.87767" lon="145.37203000000002">
    <ele>348.43</ele>
   </trkpt>
   <trkpt lat="-37.877570000000006" lon="145.37197">
    <ele>348.53</ele>
   </trkpt>
   <trkpt lat="-37.87713" lon="145.37159000000003">
    <ele>350.62000000000006</ele>
   </trkpt>
   <trkpt lat="-37.87693" lon="145.37134">
    <ele>353.34000000000003</ele>
   </trkpt>
   <trkpt lat="-37.87691" lon="145.37124">
    <ele>353.34000000000003</ele>
   </trkpt>
   <trkpt lat="-37.876850000000005" lon="145.37126">
    <ele>335.53000000000003</ele>
   </trkpt>
   <trkpt lat="-37.87675" lon="145.37167000000002">
    <ele>334.73</ele>
   </trkpt>
   <trkpt lat="-37.8765" lon="145.37138000000002">
    <ele>335.41</ele>
   </trkpt>
   <trkpt lat="-37.87635" lon="145.37115">
    <ele>358.89000000000004</ele>
   </trkpt>
   <trkpt lat="-37.87614000000001" lon="145.37109">
    <ele>358.89000000000004</ele>
   </trkpt>
   <trkpt lat="-37.87608" lon="145.37106">
    <ele>358.92</ele>
   </trkpt>
   <trkpt lat="-37.875600000000006" lon="145.37072">
    <ele>363.39000000000004</ele>
   </trkpt>
   <trkpt lat="-37.8755" lon="145.37059000000002">
    <ele>365.76000000000005</ele>
   </trkpt>
   <trkpt lat="-37.87541" lon="145.37033000000002">
    <ele>369.57</ele>
   </trkpt>
   <trkpt lat="-37.87536" lon="145.36978000000002">
    <ele>374.89000000000004</ele>
   </trkpt>
   <trkpt lat="-37.87541" lon="145.36953000000003">
    <ele>373.54</ele>
   </trkpt>
   <trkpt lat="-37.87545" lon="145.36945">
    <ele>372.48</ele>
   </trkpt>
   <trkpt lat="-37.87554" lon="145.36915000000002">
    <ele>370.29</ele>
   </trkpt>
   <trkpt lat="-37.87554" lon="145.36892">
    <ele>369.71000000000004</ele>
   </trkpt>
   <trkpt lat="-37.87545" lon="145.3683">
    <ele>373.58000000000004</ele>
   </trkpt>
   <trkpt lat="-37.875510000000006" lon="145.36811">
    <ele>373.78000000000003</ele>
   </trkpt>
   <trkpt lat="-37.87561" lon="145.36791000000002">
    <ele>374.05000000000007</ele>
   </trkpt>
   <trkpt lat="-37.875690000000006" lon="145.36763000000002">
    <ele>376.11000000000007</ele>
   </trkpt>
   <trkpt lat="-37.8757" lon="145.3675">
    <ele>377.13</ele>
   </trkpt>
   <trkpt lat="-37.87559" lon="145.36734">
    <ele>379.16</ele>
   </trkpt>
   <trkpt lat="-37.87523" lon="145.36692000000002">
    <ele>381.46000000000004</ele>
   </trkpt>
   <trkpt lat="-37.87514" lon="145.36678">
    <ele>381.83000000000004</ele>
   </trkpt>
   <trkpt lat="-37.875040000000006" lon="145.36669">
    <ele>382.74</ele>
   </trkpt>
   <trkpt lat="-37.87489" lon="145.36658">
    <ele>384.71000000000004</ele>
   </trkpt>
   <trkpt lat="-37.87482" lon="145.36644">
    <ele>385.92</ele>
   </trkpt>
   <trkpt lat="-37.8748" lon="145.366">
    <ele>383.75</ele>
   </trkpt>
   <trkpt lat="-37.874660000000006" lon="145.36564">
    <ele>384.87000000000006</ele>
   </trkpt>
   <trkpt lat="-37.87435" lon="145.36469000000002">
    <ele>387.18</ele>
   </trkpt>
   <trkpt lat="-37.87435" lon="145.36442000000002">
    <ele>386.56</ele>
   </trkpt>
   <trkpt lat="-37.87438" lon="145.3642">
    <ele>385.27000000000004</ele>
   </trkpt>
   <trkpt lat="-37.87438" lon="145.36402">
    <ele>384.92</ele>
   </trkpt>
   <trkpt lat="-37.87426" lon="145.36375">
    <ele>385.45</ele>
   </trkpt>
   <trkpt lat="-37.87404" lon="145.36343000000002">
    <ele>385.28000000000003</ele>
   </trkpt>
   <trkpt lat="-37.87402" lon="145.36301">
    <ele>382.12</ele>
   </trkpt>
   <trkpt lat="-37.87382" lon="145.36244000000002">
    <ele>379.5</ele>
   </trkpt>
   <trkpt lat="-37.87373" lon="145.36223">
    <ele>377.78</ele>
   </trkpt>
   <trkpt lat="-37.873740000000005" lon="145.36213">
    <ele>377.59000000000003</ele>
   </trkpt>
   <trkpt lat="-37.87377" lon="145.36206">
    <ele>392.42</ele>
   </trkpt>
   <trkpt lat="-37.87377" lon="145.36196">
    <ele>393.01</ele>
   </trkpt>
   <trkpt lat="-37.87368" lon="145.36174000000003">
    <ele>397.27</ele>
   </trkpt>
   <trkpt lat="-37.87355" lon="145.36154000000002">
    <ele>400.05</ele>
   </trkpt>
   <trkpt lat="-37.87357" lon="145.36146000000002">
    <ele>400.38</ele>
   </trkpt>
   <trkpt lat="-37.873560000000005" lon="145.36141">
    <ele>400.52000000000004</ele>
   </trkpt>
   <trkpt lat="-37.873540000000006" lon="145.3614">
    <ele>400.52000000000004</ele>
   </trkpt>
   <trkpt lat="-37.873490000000004" lon="145.36143">
    <ele>400.70000000000005</ele>
   </trkpt>
   <trkpt lat="-37.873400000000004" lon="145.36126000000002">
    <ele>402.04</ele>
   </trkpt>
   <trkpt lat="-37.873360000000005" lon="145.36122">
    <ele>402.04</ele>
   </trkpt>
   <trkpt lat="-37.87322" lon="145.36120000000003">
    <ele>403.61</ele>
   </trkpt>
   <trkpt lat="-37.87292" lon="145.36119000000002">
    <ele>406.26</ele>
   </trkpt>
   <trkpt lat="-37.87243" lon="145.36129000000003">
    <ele>408.21000000000004</ele>
   </trkpt>
   <trkpt lat="-37.87234" lon="145.36127000000002">
    <ele>408.76</ele>
   </trkpt>
   <trkpt lat="-37.87221" lon="145.36118000000002">
    <ele>409.92</ele>
   </trkpt>
   <trkpt lat="-37.87205" lon="145.36114">
    <ele>410.18000000000006</ele>
   </trkpt>
   <trkpt lat="-37.87182" lon="145.36126000000002">
    <ele>410.11</ele>
   </trkpt>
   <trkpt lat="-37.87113" lon="145.36123">
    <ele>410.16</ele>
   </trkpt>
   <trkpt lat="-37.87071" lon="145.36105">
    <ele>411.02000000000004</ele>
   </trkpt>
   <trkpt lat="-37.86999" lon="145.36083000000002">
    <ele>412.83000000000004</ele>
   </trkpt>
   <trkpt lat="-37.86972" lon="145.36065000000002">
    <ele>413.01000000000005</ele>
   </trkpt>
   <trkpt lat="-37.86963" lon="145.36053">
    <ele>413.59000000000003</ele>
   </trkpt>
   <trkpt lat="-37.8695" lon="145.36015">
    <ele>415.89000000000004</ele>
   </trkpt>
   <trkpt lat="-37.869220000000006" lon="145.35977000000003">
    <ele>416.11</ele>
   </trkpt>
   <trkpt lat="-37.86887" lon="145.35943">
    <ele>417.92</ele>
   </trkpt>
   <trkpt lat="-37.86871" lon="145.35917">
    <ele>419.71000000000004</ele>
   </trkpt>
   <trkpt lat="-37.8682" lon="145.35908">
    <ele>419.31</ele>
   </trkpt>
   <trkpt lat="-37.86806" lon="145.35901">
    <ele>419.6</ele>
   </trkpt>
   <trkpt lat="-37.86793" lon="145.35878000000002">
    <ele>420.07000000000005</ele>
   </trkpt>
   <trkpt lat="-37.86773" lon="145.35860000000002">
    <ele>418.96000000000004</ele>
   </trkpt>
   <trkpt lat="-37.86768" lon="145.35852">
    <ele>418.94</ele>
   </trkpt>
   <trkpt lat="-37.86771" lon="145.35824000000002">
    <ele>419.44000000000005</ele>
   </trkpt>
   <trkpt lat="-37.86766" lon="145.35817">
    <ele>419.44000000000005</ele>
   </trkpt>
   <trkpt lat="-37.86755" lon="145.35812">
    <ele>419.55</ele>
   </trkpt>
   <trkpt lat="-37.86748" lon="145.35804000000002">
    <ele>419.64</ele>
   </trkpt>
   <trkpt lat="-37.86737" lon="145.35797000000002">
    <ele>419.6</ele>
   </trkpt>
   <trkpt lat="-37.86728" lon="145.35787000000002">
    <ele>420.09000000000003</ele>
   </trkpt>
   <trkpt lat="-37.86715" lon="145.35776">
    <ele>421.04</ele>
   </trkpt>
   <trkpt lat="-37.86688" lon="145.35736">
    <ele>420.47</ele>
   </trkpt>
   <trkpt lat="-37.86675" lon="145.35739">
    <ele>420.7</ele>
   </trkpt>
   <trkpt lat="-37.86672" lon="145.35738">
    <ele>420.7</ele>
   </trkpt>
   <trkpt lat="-37.86654" lon="145.35708000000002">
    <ele>423.04</ele>
   </trkpt>
   <trkpt lat="-37.86632" lon="145.35688000000002">
    <ele>425.86</ele>
   </trkpt>
   <trkpt lat="-37.86623" lon="145.35682">
    <ele>426.62000000000006</ele>
   </trkpt>
   <trkpt lat="-37.866" lon="145.35656">
    <ele>429.27000000000004</ele>
   </trkpt>
   <trkpt lat="-37.86585" lon="145.35607000000002">
    <ele>431.87</ele>
   </trkpt>
   <trkpt lat="-37.86589" lon="145.35592000000003">
    <ele>434.3</ele>
   </trkpt>
   <trkpt lat="-37.865860000000005" lon="145.35572000000002">
    <ele>435.33000000000004</ele>
   </trkpt>
   <trkpt lat="-37.86596" lon="145.35572000000002">
    <ele>435.53000000000003</ele>
   </trkpt>
   <trkpt lat="-37.866" lon="145.35554000000002">
    <ele>435.62000000000006</ele>
   </trkpt>
   <trkpt lat="-37.865990000000004" lon="145.35551">
    <ele>435.62000000000006</ele>
   </trkpt>
   <trkpt lat="-37.86598" lon="145.35542">
    <ele>435.78000000000003</ele>
   </trkpt>
   <trkpt lat="-37.86591000000001" lon="145.35539">
    <ele>436.51</ele>
   </trkpt>
   <trkpt lat="-37.86547" lon="145.35535000000002">
    <ele>441.79</ele>
   </trkpt>
   <trkpt lat="-37.8652" lon="145.35519000000002">
    <ele>444.83000000000004</ele>
   </trkpt>
   <trkpt lat="-37.86502" lon="145.35512">
    <ele>448.61000000000007</ele>
   </trkpt>
   <trkpt lat="-37.864850000000004" lon="145.35513">
    <ele>448.66</ele>
   </trkpt>
   <trkpt lat="-37.8645" lon="145.35506">
    <ele>458.07000000000005</ele>
   </trkpt>
   <trkpt lat="-37.86435" lon="145.35499000000002">
    <ele>461.46000000000004</ele>
   </trkpt>
   <trkpt lat="-37.86415" lon="145.35496">
    <ele>465.86000000000007</ele>
   </trkpt>
   <trkpt lat="-37.863600000000005" lon="145.35494">
    <ele>473.62</ele>
   </trkpt>
   <trkpt lat="-37.86345" lon="145.35489">
    <ele>476.69000000000005</ele>
   </trkpt>
   <trkpt lat="-37.86334" lon="145.35477">
    <ele>476.69000000000005</ele>
   </trkpt>
   <trkpt lat="-37.86316" lon="145.35444">
    <ele>485.7</ele>
   </trkpt>
   <trkpt lat="-37.86287" lon="145.3538">
    <ele>481.04</ele>
   </trkpt>
   <trkpt lat="-37.862840000000006" lon="145.35371">
    <ele>480.95000000000005</ele>
   </trkpt>
   <trkpt lat="-37.862860000000005" lon="145.35369">
    <ele>480.86000000000007</ele>
   </trkpt>
   <trkpt lat="-37.862820000000006" lon="145.3536">
    <ele>480.94</ele>
   </trkpt>
   <trkpt lat="-37.86274" lon="145.35366000000002">
    <ele>480.93</ele>
   </trkpt>
   <trkpt lat="-37.862480000000005" lon="145.35312000000002">
    <ele>479.64000000000004</ele>
   </trkpt>
   <trkpt lat="-37.86238" lon="145.35285000000002">
    <ele>478.99</ele>
   </trkpt>
   <trkpt lat="-37.86242" lon="145.35278000000002">
    <ele>478.99</ele>
   </trkpt>
   <trkpt lat="-37.86222" lon="145.35236">
    <ele>474.02000000000004</ele>
   </trkpt>
   <trkpt lat="-37.86215" lon="145.35208">
    <ele>470.59000000000003</ele>
   </trkpt>
   <trkpt lat="-37.86216" lon="145.35208">
    <ele>470.59000000000003</ele>
   </trkpt>
   <trkpt lat="-37.86215" lon="145.35175">
    <ele>468.84000000000003</ele>
   </trkpt>
   <trkpt lat="-37.86222" lon="145.3514">
    <ele>466.44</ele>
   </trkpt>
   <trkpt lat="-37.86274" lon="145.35069000000001">
    <ele>458.53000000000003</ele>
   </trkpt>
   <trkpt lat="-37.86285" lon="145.35058">
    <ele>455.26000000000005</ele>
   </trkpt>
   <trkpt lat="-37.863130000000005" lon="145.34997">
    <ele>448.26000000000005</ele>
   </trkpt>
   <trkpt lat="-37.86321" lon="145.3496">
    <ele>444.75</ele>
   </trkpt>
   <trkpt lat="-37.86323" lon="145.3494">
    <ele>443.52000000000004</ele>
   </trkpt>
   <trkpt lat="-37.86318" lon="145.34895">
    <ele>436.95000000000005</ele>
   </trkpt>
   <trkpt lat="-37.86316" lon="145.34836">
    <ele>430.76000000000005</ele>
   </trkpt>
   <trkpt lat="-37.86312" lon="145.34826">
    <ele>429.69</ele>
   </trkpt>
   <trkpt lat="-37.86296" lon="145.34810000000002">
    <ele>427.68000000000006</ele>
   </trkpt>
   <trkpt lat="-37.86256" lon="145.34787">
    <ele>423.94000000000005</ele>
   </trkpt>
   <trkpt lat="-37.86244000000001" lon="145.34776000000002">
    <ele>422.66</ele>
   </trkpt>
   <trkpt lat="-37.8622" lon="145.34749000000002">
    <ele>418.64</ele>
   </trkpt>
   <trkpt lat="-37.86206" lon="145.34726">
    <ele>415.59000000000003</ele>
   </trkpt>
   <trkpt lat="-37.86202" lon="145.34712000000002">
    <ele>415.59000000000003</ele>
   </trkpt>
   <trkpt lat="-37.86193" lon="145.34642000000002">
    <ele>406.44</ele>
   </trkpt>
   <trkpt lat="-37.86209" lon="145.34566">
    <ele>400.03000000000003</ele>
   </trkpt>
   <trkpt lat="-37.86213" lon="145.34550000000002">
    <ele>400.03000000000003</ele>
   </trkpt>
   <trkpt lat="-37.86238" lon="145.34501">
    <ele>394.69000000000005</ele>
   </trkpt>
   <trkpt lat="-37.86253" lon="145.34477">
    <ele>393.74</ele>
   </trkpt>
   <trkpt lat="-37.862840000000006" lon="145.3444">
    <ele>386.36</ele>
   </trkpt>
   <trkpt lat="-37.86305" lon="145.34406">
    <ele>384.37000000000006</ele>
   </trkpt>
   <trkpt lat="-37.86307" lon="145.34395">
    <ele>384.0</ele>
   </trkpt>
   <trkpt lat="-37.86303" lon="145.34388">
    <ele>384.0</ele>
   </trkpt>
   <trkpt lat="-37.86296" lon="145.34383000000003">
    <ele>383.66</ele>
   </trkpt>
   <trkpt lat="-37.86231" lon="145.34352">
    <ele>379.41</ele>
   </trkpt>
   <trkpt lat="-37.86204" lon="145.34342">
    <ele>377.46000000000004</ele>
   </trkpt>
   <trkpt lat="-37.86168" lon="145.34332">
    <ele>374.12</ele>
   </trkpt>
   <trkpt lat="-37.861520000000006" lon="145.34317000000001">
    <ele>372.73</ele>
   </trkpt>
   <trkpt lat="-37.86139" lon="145.34300000000002">
    <ele>371.77000000000004</ele>
   </trkpt>
   <trkpt lat="-37.86128" lon="145.34276">
    <ele>370.89000000000004</ele>
   </trkpt>
   <trkpt lat="-37.86121" lon="145.34249">
    <ele>368.94000000000005</ele>
   </trkpt>
   <trkpt lat="-37.86108" lon="145.3417">
    <ele>365.19</ele>
   </trkpt>
   <trkpt lat="-37.86097" lon="145.34123000000002">
    <ele>361.55</ele>
   </trkpt>
   <trkpt lat="-37.86092" lon="145.34113000000002">
    <ele>359.00000000000006</ele>
   </trkpt>
   <trkpt lat="-37.860780000000005" lon="145.341">
    <ele>359.79</ele>
   </trkpt>
   <trkpt lat="-37.86086" lon="145.34071">
    <ele>363.37</ele>
   </trkpt>
   <trkpt lat="-37.86112" lon="145.34012">
    <ele>380.89</ele>
   </trkpt>
   <trkpt lat="-37.86117" lon="145.3399">
    <ele>388.81000000000006</ele>
   </trkpt>
   <trkpt lat="-37.86117" lon="145.33978000000002">
    <ele>392.28000000000003</ele>
   </trkpt>
   <trkpt lat="-37.86115" lon="145.33973">
    <ele>393.52000000000004</ele>
   </trkpt>
   <trkpt lat="-37.86081" lon="145.33949">
    <ele>394.64000000000004</ele>
   </trkpt>
   <trkpt lat="-37.86056" lon="145.33914000000001">
    <ele>393.88</ele>
   </trkpt>
   <trkpt lat="-37.8605" lon="145.33886">
    <ele>394.11</ele>
   </trkpt>
   <trkpt lat="-37.860510000000005" lon="145.33876">
    <ele>394.28000000000003</ele>
   </trkpt>
   <trkpt lat="-37.860220000000005" lon="145.33867">
    <ele>390.75000000000006</ele>
   </trkpt>
   <trkpt lat="-37.85989" lon="145.33858">
    <ele>380.14000000000004</ele>
   </trkpt>
   <trkpt lat="-37.8598" lon="145.33852000000002">
    <ele>377.85</ele>
   </trkpt>
   <trkpt lat="-37.8596" lon="145.3383">
    <ele>370.77000000000004</ele>
   </trkpt>
   <trkpt lat="-37.859370000000006" lon="145.33810000000003">
    <ele>361.99</ele>
   </trkpt>
   <trkpt lat="-37.85929" lon="145.33801000000003">
    <ele>360.65000000000003</ele>
   </trkpt>
   <trkpt lat="-37.85922" lon="145.33785">
    <ele>351.98</ele>
   </trkpt>
   <trkpt lat="-37.85915" lon="145.33746000000002">
    <ele>339.48</ele>
   </trkpt>
   <trkpt lat="-37.85909" lon="145.33724">
    <ele>339.48</ele>
   </trkpt>
   <trkpt lat="-37.85889" lon="145.33676">
    <ele>327.46000000000004</ele>
   </trkpt>
   <trkpt lat="-37.85866" lon="145.33603000000002">
    <ele>307.07</ele>
   </trkpt>
   <trkpt lat="-37.85862" lon="145.33563">
    <ele>296.2</ele>
   </trkpt>
   <trkpt lat="-37.85848" lon="145.33535">
    <ele>293.88000000000005</ele>
   </trkpt>
   <trkpt lat="-37.85828" lon="145.33501">
    <ele>286.1</ele>
   </trkpt>
   <trkpt lat="-37.85826" lon="145.3349">
    <ele>284.21000000000004</ele>
   </trkpt>
   <trkpt lat="-37.85826" lon="145.33476000000002">
    <ele>281.0</ele>
   </trkpt>
   <trkpt lat="-37.85824" lon="145.33467000000002">
    <ele>281.0</ele>
   </trkpt>
   <trkpt lat="-37.8581" lon="145.33454">
    <ele>278.11</ele>
   </trkpt>
   <trkpt lat="-37.857980000000005" lon="145.33416000000003">
    <ele>272.8</ele>
   </trkpt>
   <trkpt lat="-37.857960000000006" lon="145.33415000000002">
    <ele>272.54</ele>
   </trkpt>
   <trkpt lat="-37.858230000000006" lon="145.33414000000002">
    <ele>274.77</ele>
   </trkpt>
   <trkpt lat="-37.85833" lon="145.33419">
    <ele>275.92</ele>
   </trkpt>
   <trkpt lat="-37.85844" lon="145.33431000000002">
    <ele>276.94</ele>
   </trkpt>
   <trkpt lat="-37.85887500137247" lon="145.3348699967549">
    <ele>281.18</ele>
   </trkpt>
   <trkpt lat="-37.85931" lon="145.33543">
    <ele>286.46000000000004</ele>
   </trkpt>
   <trkpt lat="-37.85965" lon="145.33569">
    <ele>290.75</ele>
   </trkpt>
   <trkpt lat="-37.85996" lon="145.33583000000002">
    <ele>293.86</ele>
   </trkpt>
   <trkpt lat="-37.86065" lon="145.33601000000002">
    <ele>302.31</ele>
   </trkpt>
   <trkpt lat="-37.8609" lon="145.33604000000003">
    <ele>302.85</ele>
   </trkpt>
   <trkpt lat="-37.86164" lon="145.33602000000002">
    <ele>301.61</ele>
   </trkpt>
   <trkpt lat="-37.862080000000006" lon="145.33605">
    <ele>304.21000000000004</ele>
   </trkpt>
   <trkpt lat="-37.86231" lon="145.33606">
    <ele>306.14000000000004</ele>
   </trkpt>
   <trkpt lat="-37.86292" lon="145.33596">
    <ele>308.1</ele>
   </trkpt>
   <trkpt lat="-37.86303" lon="145.33592000000002">
    <ele>307.76000000000005</ele>
   </trkpt>
   <trkpt lat="-37.86309" lon="145.33587">
    <ele>307.76000000000005</ele>
   </trkpt>
   <trkpt lat="-37.86314" lon="145.3357">
    <ele>306.83000000000004</ele>
   </trkpt>
   <trkpt lat="-37.8628" lon="145.33489">
    <ele>305.89000000000004</ele>
   </trkpt>
   <trkpt lat="-37.86242" lon="145.33416000000003">
    <ele>305.53000000000003</ele>
   </trkpt>
   <trkpt lat="-37.86229" lon="145.33376">
    <ele>304.92</ele>
   </trkpt>
   <trkpt lat="-37.86227" lon="145.33360000000002">
    <ele>304.66</ele>
   </trkpt>
   <trkpt lat="-37.86224" lon="145.33313">
    <ele>304.26000000000005</ele>
   </trkpt>
   <trkpt lat="-37.86224" lon="145.33312">
    <ele>304.26000000000005</ele>
   </trkpt>
   <trkpt lat="-37.86224" lon="145.33262000000002">
    <ele>304.24</ele>
   </trkpt>
   <trkpt lat="-37.86227" lon="145.33246000000003">
    <ele>304.51</ele>
   </trkpt>
   <trkpt lat="-37.862370000000006" lon="145.33226000000002">
    <ele>304.57</ele>
   </trkpt>
   <trkpt lat="-37.86252" lon="145.33206">
    <ele>304.72</ele>
   </trkpt>
   <trkpt lat="-37.8628" lon="145.33177">
    <ele>305.46</ele>
   </trkpt>
   <trkpt lat="-37.86294" lon="145.33152">
    <ele>305.69</ele>
   </trkpt>
   <trkpt lat="-37.86303" lon="145.33113">
    <ele>305.87</ele>
   </trkpt>
   <trkpt lat="-37.86316" lon="145.33042">
    <ele>306.45</ele>
   </trkpt>
   <trkpt lat="-37.86323" lon="145.33026">
    <ele>306.45</ele>
   </trkpt>
   <trkpt lat="-37.863240000000005" lon="145.33026">
    <ele>306.47</ele>
   </trkpt>
   <trkpt lat="-37.86332" lon="145.33006">
    <ele>306.47</ele>
   </trkpt>
   <trkpt lat="-37.86341" lon="145.32991">
    <ele>306.83000000000004</ele>
   </trkpt>
   <trkpt lat="-37.86352" lon="145.3298">
    <ele>306.97</ele>
   </trkpt>
   <trkpt lat="-37.86361" lon="145.32976000000002">
    <ele>307.17</ele>
   </trkpt>
   <trkpt lat="-37.86374" lon="145.32975000000002">
    <ele>307.61000000000007</ele>
   </trkpt>
   <trkpt lat="-37.86403" lon="145.32975000000002">
    <ele>308.87</ele>
   </trkpt>
   <trkpt lat="-37.86424" lon="145.32978">
    <ele>310.64000000000004</ele>
   </trkpt>
   <trkpt lat="-37.86446" lon="145.32988">
    <ele>311.6</ele>
   </trkpt>
   <trkpt lat="-37.86459" lon="145.32996">
    <ele>312.52000000000004</ele>
   </trkpt>
   <trkpt lat="-37.86475" lon="145.33010000000002">
    <ele>313.53000000000003</ele>
   </trkpt>
   <trkpt lat="-37.8652" lon="145.33063">
    <ele>315.08000000000004</ele>
   </trkpt>
   <trkpt lat="-37.865550000000006" lon="145.33098">
    <ele>319.20000000000005</ele>
   </trkpt>
   <trkpt lat="-37.866170000000004" lon="145.33145000000002">
    <ele>336.9200000000001</ele>
   </trkpt>
   <trkpt lat="-37.86663" lon="145.33153000000001">
    <ele>339.87</ele>
   </trkpt>
   <trkpt lat="-37.86708" lon="145.33149">
    <ele>339.4200000000001</ele>
   </trkpt>
   <trkpt lat="-37.867490000000004" lon="145.33142">
    <ele>339.37</ele>
   </trkpt>
   <trkpt lat="-37.86815" lon="145.33156000000002">
    <ele>338.98</ele>
   </trkpt>
   <trkpt lat="-37.868610000000004" lon="145.33202">
    <ele>347.73</ele>
   </trkpt>
   <trkpt lat="-37.869" lon="145.33263000000002">
    <ele>353.66</ele>
   </trkpt>
   <trkpt lat="-37.869020000000006" lon="145.33311">
    <ele>352.23</ele>
   </trkpt>
   <trkpt lat="-37.86903" lon="145.33368000000002">
    <ele>356.96000000000004</ele>
   </trkpt>
   <trkpt lat="-37.86916" lon="145.33402">
    <ele>357.57000000000005</ele>
   </trkpt>
   <trkpt lat="-37.869510000000005" lon="145.33415000000002">
    <ele>353.46000000000004</ele>
   </trkpt>
   <trkpt lat="-37.869730000000004" lon="145.33429">
    <ele>350.74000000000007</ele>
   </trkpt>
   <trkpt lat="-37.86994" lon="145.33435">
    <ele>350.99</ele>
   </trkpt>
   <trkpt lat="-37.870470000000005" lon="145.33468000000002">
    <ele>369.88000000000005</ele>
   </trkpt>
   <trkpt lat="-37.870450000000005" lon="145.33465">
    <ele>354.85</ele>
   </trkpt>
   <trkpt lat="-37.87055" lon="145.33518">
    <ele>364.03000000000003</ele>
   </trkpt>
   <trkpt lat="-37.87035" lon="145.3356">
    <ele>377.06</ele>
   </trkpt>
   <trkpt lat="-37.8701" lon="145.33595000000003">
    <ele>383.45</ele>
   </trkpt>
   <trkpt lat="-37.87019" lon="145.33630000000002">
    <ele>390.86</ele>
   </trkpt>
   <trkpt lat="-37.87019" lon="145.33645">
    <ele>395.27</ele>
   </trkpt>
   <trkpt lat="-37.87019" lon="145.3368">
    <ele>404.99</ele>
   </trkpt>
   <trkpt lat="-37.87024" lon="145.33688">
    <ele>406.22</ele>
   </trkpt>
   <trkpt lat="-37.87048" lon="145.33697">
    <ele>411.03</ele>
   </trkpt>
   <trkpt lat="-37.87077" lon="145.33726000000001">
    <ele>418.7</ele>
   </trkpt>
   <trkpt lat="-37.87091" lon="145.33758">
    <ele>422.23</ele>
   </trkpt>
   <trkpt lat="-37.871100000000006" lon="145.33779">
    <ele>424.96000000000004</ele>
   </trkpt>
   <trkpt lat="-37.87118" lon="145.33802">
    <ele>428.35</ele>
   </trkpt>
   <trkpt lat="-37.87118" lon="145.33812">
    <ele>433.81</ele>
   </trkpt>
   <trkpt lat="-37.87113" lon="145.33831">
    <ele>437.69</ele>
   </trkpt>
   <trkpt lat="-37.871" lon="145.33853000000002">
    <ele>444.96000000000004</ele>
   </trkpt>
   <trkpt lat="-37.87091" lon="145.33863000000002">
    <ele>447.48</ele>
   </trkpt>
   <trkpt lat="-37.87075" lon="145.33874">
    <ele>452.44000000000005</ele>
   </trkpt>
   <trkpt lat="-37.87059" lon="145.33873">
    <ele>455.39</ele>
   </trkpt>
   <trkpt lat="-37.87035" lon="145.33879000000002">
    <ele>459.82000000000005</ele>
   </trkpt>
   <trkpt lat="-37.87026" lon="145.33888000000002">
    <ele>462.59000000000003</ele>
   </trkpt>
   <trkpt lat="-37.87037" lon="145.33894">
    <ele>463.84000000000003</ele>
   </trkpt>
   <trkpt lat="-37.87059" lon="145.33917000000002">
    <ele>464.91</ele>
   </trkpt>
   <trkpt lat="-37.87082" lon="145.33948">
    <ele>467.58000000000004</ele>
   </trkpt>
   <trkpt lat="-37.87109" lon="145.33964">
    <ele>469.38</ele>
   </trkpt>
   <trkpt lat="-37.87131" lon="145.33968000000002">
    <ele>471.9200000000001</ele>
   </trkpt>
   <trkpt lat="-37.87153" lon="145.33975">
    <ele>473.1</ele>
   </trkpt>
   <trkpt lat="-37.87185" lon="145.33992">
    <ele>476.91</ele>
   </trkpt>
   <trkpt lat="-37.87214" lon="145.34019">
    <ele>478.88</ele>
   </trkpt>
   <trkpt lat="-37.87241" lon="145.34055">
    <ele>481.64</ele>
   </trkpt>
   <trkpt lat="-37.87263" lon="145.34077000000002">
    <ele>484.22</ele>
   </trkpt>
   <trkpt lat="-37.87306" lon="145.34097">
    <ele>486.48</ele>
   </trkpt>
   <trkpt lat="-37.87375" lon="145.34154">
    <ele>492.13000000000005</ele>
   </trkpt>
   <trkpt lat="-37.87406" lon="145.34185000000002">
    <ele>495.40000000000003</ele>
   </trkpt>
   <trkpt lat="-37.8744" lon="145.34218">
    <ele>496.41</ele>
   </trkpt>
   <trkpt lat="-37.87505" lon="145.34289">
    <ele>502.56</ele>
   </trkpt>
   <trkpt lat="-37.8751" lon="145.34298">
    <ele>502.28000000000003</ele>
   </trkpt>
   <trkpt lat="-37.875350000000005" lon="145.3428">
    <ele>502.65999999999997</ele>
   </trkpt>
   <trkpt lat="-37.875370000000004" lon="145.34295">
    <ele>503.06000000000006</ele>
   </trkpt>
   <trkpt lat="-37.875510000000006" lon="145.34301000000002">
    <ele>504.70000000000005</ele>
   </trkpt>
   <trkpt lat="-37.8757" lon="145.34294">
    <ele>512.0600000000001</ele>
   </trkpt>
   <trkpt lat="-37.875980000000006" lon="145.34273000000002">
    <ele>511.85</ele>
   </trkpt>
   <trkpt lat="-37.8761" lon="145.34269">
    <ele>511.87000000000006</ele>
   </trkpt>
   <trkpt lat="-37.876290000000004" lon="145.34269">
    <ele>512.08</ele>
   </trkpt>
   <trkpt lat="-37.87642" lon="145.34273000000002">
    <ele>511.2300000000001</ele>
   </trkpt>
   <trkpt lat="-37.8767" lon="145.34279">
    <ele>509.19</ele>
   </trkpt>
   <trkpt lat="-37.87688" lon="145.3428">
    <ele>508.95</ele>
   </trkpt>
   <trkpt lat="-37.87722" lon="145.34272">
    <ele>509.02000000000004</ele>
   </trkpt>
   <trkpt lat="-37.87778" lon="145.34271">
    <ele>506.62000000000006</ele>
   </trkpt>
   <trkpt lat="-37.87791" lon="145.34269">
    <ele>505.95</ele>
   </trkpt>
   <trkpt lat="-37.87807" lon="145.34255000000002">
    <ele>506.21000000000004</ele>
   </trkpt>
   <trkpt lat="-37.87832" lon="145.34217">
    <ele>507.21999999999997</ele>
   </trkpt>
   <trkpt lat="-37.87847" lon="145.34209">
    <ele>504.58000000000004</ele>
   </trkpt>
   <trkpt lat="-37.87856" lon="145.34212000000002">
    <ele>502.63</ele>
   </trkpt>
   <trkpt lat="-37.8787" lon="145.34225">
    <ele>497.41</ele>
   </trkpt>
   <trkpt lat="-37.87874" lon="145.34236">
    <ele>497.41</ele>
   </trkpt>
   <trkpt lat="-37.878690000000006" lon="145.34248000000002">
    <ele>494.48</ele>
   </trkpt>
   <trkpt lat="-37.87865" lon="145.34264000000002">
    <ele>492.2900000000001</ele>
   </trkpt>
   <trkpt lat="-37.87865" lon="145.34273000000002">
    <ele>491.98</ele>
   </trkpt>
   <trkpt lat="-37.87877" lon="145.34292000000002">
    <ele>493.32000000000005</ele>
   </trkpt>
   <trkpt lat="-37.87892" lon="145.34343">
    <ele>497.43</ele>
   </trkpt>
   <trkpt lat="-37.879070000000006" lon="145.34405">
    <ele>499.72</ele>
   </trkpt>
   <trkpt lat="-37.87919" lon="145.34452000000002">
    <ele>500.24</ele>
   </trkpt>
   <trkpt lat="-37.87944" lon="145.34486">
    <ele>502.32</ele>
   </trkpt>
   <trkpt lat="-37.87973" lon="145.34534000000002">
    <ele>500.30000000000007</ele>
   </trkpt>
   <trkpt lat="-37.88007500116351" lon="145.34583999781185">
    <ele>498.15000000000003</ele>
   </trkpt>
   <trkpt lat="-37.88042" lon="145.34634">
    <ele>494.8</ele>
   </trkpt>
   <trkpt lat="-37.88067" lon="145.34663">
    <ele>493.41</ele>
   </trkpt>
   <trkpt lat="-37.880860000000006" lon="145.34682">
    <ele>492.8500000000001</ele>
   </trkpt>
   <trkpt lat="-37.88105" lon="145.34695000000002">
    <ele>492.43</ele>
   </trkpt>
   <trkpt lat="-37.88154" lon="145.34723000000002">
    <ele>489.31</ele>
   </trkpt>
   <trkpt lat="-37.88167" lon="145.34744">
    <ele>486.66</ele>
   </trkpt>
   <trkpt lat="-37.88201" lon="145.34819000000002">
    <ele>482.21000000000004</ele>
   </trkpt>
   <trkpt lat="-37.88226" lon="145.34839000000002">
    <ele>481.16</ele>
   </trkpt>
   <trkpt lat="-37.88255" lon="145.34856000000002">
    <ele>480.55</ele>
   </trkpt>
   <trkpt lat="-37.88302" lon="145.3487">
    <ele>480.5</ele>
   </trkpt>
   <trkpt lat="-37.88311" lon="145.34876">
    <ele>480.43</ele>
   </trkpt>
   <trkpt lat="-37.8836" lon="145.34926000000002">
    <ele>479.35</ele>
   </trkpt>
   <trkpt lat="-37.88405" lon="145.34945000000002">
    <ele>478.41</ele>
   </trkpt>
   <trkpt lat="-37.88436" lon="145.34969">
    <ele>477.63000000000005</ele>
   </trkpt>
   <trkpt lat="-37.88456" lon="145.35004">
    <ele>475.33000000000004</ele>
   </trkpt>
   <trkpt lat="-37.88461" lon="145.35017000000002">
    <ele>473.25000000000006</ele>
   </trkpt>
   <trkpt lat="-37.884640000000005" lon="145.35035000000002">
    <ele>473.25000000000006</ele>
   </trkpt>
   <trkpt lat="-37.88461" lon="145.35046">
    <ele>472.19000000000005</ele>
   </trkpt>
   <trkpt lat="-37.88461" lon="145.35066">
    <ele>469.19000000000005</ele>
   </trkpt>
   <trkpt lat="-37.884710000000005" lon="145.35090000000002">
    <ele>468.13000000000005</ele>
   </trkpt>
   <trkpt lat="-37.88477" lon="145.35099000000002">
    <ele>469.88</ele>
   </trkpt>
   <trkpt lat="-37.8853" lon="145.3514">
    <ele>470.68</ele>
   </trkpt>
   <trkpt lat="-37.88552" lon="145.35153000000003">
    <ele>469.59000000000003</ele>
   </trkpt>
   <trkpt lat="-37.88562" lon="145.35154">
    <ele>469.11</ele>
   </trkpt>
   <trkpt lat="-37.88584" lon="145.35157">
    <ele>467.65000000000003</ele>
   </trkpt>
   <trkpt lat="-37.886030000000005" lon="145.35156">
    <ele>466.0400000000001</ele>
   </trkpt>
   <trkpt lat="-37.88615" lon="145.35176">
    <ele>468.91</ele>
   </trkpt>
   <trkpt lat="-37.88626" lon="145.35184">
    <ele>468.72</ele>
   </trkpt>
   <trkpt lat="-37.88662" lon="145.352">
    <ele>466.5</ele>
   </trkpt>
   <trkpt lat="-37.88678" lon="145.35202">
    <ele>465.72</ele>
   </trkpt>
   <trkpt lat="-37.88696" lon="145.35202">
    <ele>463.15000000000003</ele>
   </trkpt>
   <trkpt lat="-37.887240000000006" lon="145.35214000000002">
    <ele>457.70000000000005</ele>
   </trkpt>
   <trkpt lat="-37.88745" lon="145.35251000000002">
    <ele>451.25000000000006</ele>
   </trkpt>
   <trkpt lat="-37.88765" lon="145.35301">
    <ele>442.20000000000005</ele>
   </trkpt>
   <trkpt lat="-37.88772" lon="145.35336">
    <ele>439.24</ele>
   </trkpt>
   <trkpt lat="-37.88781" lon="145.35358000000002">
    <ele>436.01</ele>
   </trkpt>
   <trkpt lat="-37.88792" lon="145.35378">
    <ele>431.44000000000005</ele>
   </trkpt>
   <trkpt lat="-37.8881" lon="145.35416">
    <ele>427.06000000000006</ele>
   </trkpt>
   <trkpt lat="-37.88828" lon="145.35435">
    <ele>422.66</ele>
   </trkpt>
   <trkpt lat="-37.88848" lon="145.35468">
    <ele>415.77000000000004</ele>
   </trkpt>
   <trkpt lat="-37.88857" lon="145.35492000000002">
    <ele>411.88</ele>
   </trkpt>
   <trkpt lat="-37.88855" lon="145.35496">
    <ele>411.88</ele>
   </trkpt>
   <trkpt lat="-37.888600000000004" lon="145.35502000000002">
    <ele>411.25000000000006</ele>
   </trkpt>
   <trkpt lat="-37.888630000000006" lon="145.35499000000002">
    <ele>410.58000000000004</ele>
   </trkpt>
   <trkpt lat="-37.88893" lon="145.35489">
    <ele>403.91</ele>
   </trkpt>
   <trkpt lat="-37.88915" lon="145.35486">
    <ele>401.76</ele>
   </trkpt>
   <trkpt lat="-37.88922" lon="145.35487">
    <ele>401.76</ele>
   </trkpt>
   <trkpt lat="-37.88958" lon="145.35502000000002">
    <ele>397.95000000000005</ele>
   </trkpt>
   <trkpt lat="-37.88964" lon="145.35511000000002">
    <ele>396.70000000000005</ele>
   </trkpt>
   <trkpt lat="-37.88985" lon="145.35506">
    <ele>390.48</ele>
   </trkpt>
   <trkpt lat="-37.889880000000005" lon="145.35507">
    <ele>390.48</ele>
   </trkpt>
   <trkpt lat="-37.89014" lon="145.35523">
    <ele>387.40000000000003</ele>
   </trkpt>
   <trkpt lat="-37.89034" lon="145.35532">
    <ele>384.35</ele>
   </trkpt>
   <trkpt lat="-37.89049" lon="145.35545000000002">
    <ele>382.66</ele>
   </trkpt>
   <trkpt lat="-37.891200000000005" lon="145.35612">
    <ele>373.98</ele>
   </trkpt>
   <trkpt lat="-37.891740000000006" lon="145.35659">
    <ele>364.81</ele>
   </trkpt>
   <trkpt lat="-37.89186" lon="145.35682">
    <ele>361.93</ele>
   </trkpt>
   <trkpt lat="-37.89195" lon="145.35690000000002">
    <ele>358.29</ele>
   </trkpt>
   <trkpt lat="-37.89246" lon="145.35709">
    <ele>349.49</ele>
   </trkpt>
   <trkpt lat="-37.89258" lon="145.35709">
    <ele>349.49</ele>
   </trkpt>
   <trkpt lat="-37.89273" lon="145.35704">
    <ele>345.47</ele>
   </trkpt>
   <trkpt lat="-37.89287" lon="145.35705000000002">
    <ele>345.47</ele>
   </trkpt>
   <trkpt lat="-37.89298" lon="145.35709">
    <ele>344.01000000000005</ele>
   </trkpt>
   <trkpt lat="-37.89316" lon="145.35723000000002">
    <ele>342.19000000000005</ele>
   </trkpt>
   <trkpt lat="-37.89329" lon="145.35727">
    <ele>341.87</ele>
   </trkpt>
   <trkpt lat="-37.89372" lon="145.35718">
    <ele>337.35</ele>
   </trkpt>
   <trkpt lat="-37.89408" lon="145.35721">
    <ele>331.81000000000006</ele>
   </trkpt>
   <trkpt lat="-37.89434" lon="145.35721">
    <ele>325.96000000000004</ele>
   </trkpt>
   <trkpt lat="-37.89457" lon="145.35724000000002">
    <ele>321.70000000000005</ele>
   </trkpt>
   <trkpt lat="-37.89488" lon="145.35737">
    <ele>317.69</ele>
   </trkpt>
   <trkpt lat="-37.89504" lon="145.35737">
    <ele>315.93000000000006</ele>
   </trkpt>
   <trkpt lat="-37.89522" lon="145.35726000000003">
    <ele>314.0</ele>
   </trkpt>
   <trkpt lat="-37.89531" lon="145.35732000000002">
    <ele>313.57</ele>
   </trkpt>
   <trkpt lat="-37.89558" lon="145.35738">
    <ele>309.82000000000005</ele>
   </trkpt>
   <trkpt lat="-37.89598" lon="145.35736">
    <ele>306.93</ele>
   </trkpt>
   <trkpt lat="-37.89616" lon="145.35745">
    <ele>305.43</ele>
   </trkpt>
   <trkpt lat="-37.89629" lon="145.35743000000002">
    <ele>305.1700000000001</ele>
   </trkpt>
   <trkpt lat="-37.89654" lon="145.35726000000003">
    <ele>303.02</ele>
   </trkpt>
   <trkpt lat="-37.8967" lon="145.357">
    <ele>301.55</ele>
   </trkpt>
   <trkpt lat="-37.89676" lon="145.35695">
    <ele>301.55</ele>
   </trkpt>
   <trkpt lat="-37.89728" lon="145.35668">
    <ele>295.68</ele>
   </trkpt>
   <trkpt lat="-37.89748" lon="145.35624">
    <ele>292.44000000000005</ele>
   </trkpt>
   <trkpt lat="-37.89795" lon="145.35578">
    <ele>286.58</ele>
   </trkpt>
   <trkpt lat="-37.89804" lon="145.35571000000002">
    <ele>285.74000000000007</ele>
   </trkpt>
   <trkpt lat="-37.89819" lon="145.35568">
    <ele>284.61</ele>
   </trkpt>
   <trkpt lat="-37.8984" lon="145.35568">
    <ele>281.64</ele>
   </trkpt>
   <trkpt lat="-37.89873" lon="145.35563000000002">
    <ele>279.26</ele>
   </trkpt>
   <trkpt lat="-37.89898" lon="145.3557">
    <ele>276.98</ele>
   </trkpt>
   <trkpt lat="-37.899170000000005" lon="145.35578">
    <ele>275.40000000000003</ele>
   </trkpt>
   <trkpt lat="-37.89927" lon="145.35586">
    <ele>274.99</ele>
   </trkpt>
   <trkpt lat="-37.89923" lon="145.35597">
    <ele>274.49</ele>
   </trkpt>
   <trkpt lat="-37.89932" lon="145.35603">
    <ele>274.13000000000005</ele>
   </trkpt>
   <trkpt lat="-37.89958" lon="145.35626000000002">
    <ele>271.22</ele>
   </trkpt>
   <trkpt lat="-37.89967" lon="145.35628">
    <ele>269.94</ele>
   </trkpt>
   <trkpt lat="-37.899730000000005" lon="145.35632">
    <ele>269.94</ele>
   </trkpt>
   <trkpt lat="-37.89974" lon="145.35645000000002">
    <ele>269.43</ele>
   </trkpt>
   <trkpt lat="-37.89985" lon="145.35665">
    <ele>268.89</ele>
   </trkpt>
   <trkpt lat="-37.89996" lon="145.35677">
    <ele>268.22</ele>
   </trkpt>
   <trkpt lat="-37.900110000000005" lon="145.35685">
    <ele>267.05</ele>
   </trkpt>
   <trkpt lat="-37.9001" lon="145.35691">
    <ele>267.05</ele>
   </trkpt>
   <trkpt lat="-37.90001" lon="145.35687000000001">
    <ele>267.05</ele>
   </trkpt>
   <trkpt lat="-37.89994" lon="145.35687000000001">
    <ele>256.92</ele>
   </trkpt>
   <trkpt lat="-37.89985" lon="145.35690000000002">
    <ele>256.92</ele>
   </trkpt>
   <trkpt lat="-37.89996" lon="145.35696000000002">
    <ele>256.91</ele>
   </trkpt>
   <trkpt lat="-37.900000000000006" lon="145.35713">
    <ele>266.14000000000004</ele>
   </trkpt>
   <trkpt lat="-37.900000000000006" lon="145.35732000000002">
    <ele>273.15</ele>
   </trkpt>
   <trkpt lat="-37.89992" lon="145.35755">
    <ele>276.39000000000004</ele>
   </trkpt>
   <trkpt lat="-37.89992" lon="145.35763">
    <ele>283.5</ele>
   </trkpt>
   <trkpt lat="-37.900000000000006" lon="145.35778000000002">
    <ele>286.81</ele>
   </trkpt>
   <trkpt lat="-37.9001" lon="145.35835">
    <ele>299.82000000000005</ele>
   </trkpt>
   <trkpt lat="-37.9001" lon="145.35860000000002">
    <ele>302.56000000000006</ele>
   </trkpt>
   <trkpt lat="-37.9003" lon="145.35946">
    <ele>318.63</ele>
   </trkpt>
   <trkpt lat="-37.90039" lon="145.35974000000002">
    <ele>328.41</ele>
   </trkpt>
   <trkpt lat="-37.90054000000001" lon="145.36029000000002">
    <ele>337.67</ele>
   </trkpt>
   <trkpt lat="-37.90057" lon="145.36046000000002">
    <ele>338.58000000000004</ele>
   </trkpt>
   <trkpt lat="-37.90059" lon="145.36069">
    <ele>338.83000000000004</ele>
   </trkpt>
   <trkpt lat="-37.90077" lon="145.36145000000002">
    <ele>334.22</ele>
   </trkpt>
   <trkpt lat="-37.900830000000006" lon="145.36186">
    <ele>333.70000000000005</ele>
   </trkpt>
   <trkpt lat="-37.90086" lon="145.36205">
    <ele>334.83</ele>
   </trkpt>
   <trkpt lat="-37.9010500020421" lon="145.36273999832102">
    <ele>341.66</ele>
   </trkpt>
   <trkpt lat="-37.90124" lon="145.36343000000002">
    <ele>346.43</ele>
   </trkpt>
   <trkpt lat="-37.901450000000004" lon="145.36383">
    <ele>347.16</ele>
   </trkpt>
   <trkpt lat="-37.90189" lon="145.36350000000002">
    <ele>342.39000000000004</ele>
   </trkpt>
   <trkpt lat="-37.90216" lon="145.36339">
    <ele>338.77</ele>
   </trkpt>
   <trkpt lat="-37.90263" lon="145.36328">
    <ele>332.84000000000003</ele>
   </trkpt>
   <trkpt lat="-37.90283" lon="145.36315000000002">
    <ele>330.16</ele>
   </trkpt>
   <trkpt lat="-37.90307" lon="145.36296000000002">
    <ele>326.64000000000004</ele>
   </trkpt>
   <trkpt lat="-37.90366" lon="145.36271000000002">
    <ele>322.45</ele>
   </trkpt>
   <trkpt lat="-37.90417" lon="145.36270000000002">
    <ele>318.23</ele>
   </trkpt>
   <trkpt lat="-37.90442" lon="145.36266">
    <ele>316.38000000000005</ele>
   </trkpt>
   <trkpt lat="-37.9046" lon="145.36269000000001">
    <ele>314.81</ele>
   </trkpt>
   <trkpt lat="-37.90522" lon="145.36309">
    <ele>304.20000000000005</ele>
   </trkpt>
   <trkpt lat="-37.905350000000006" lon="145.36324000000002">
    <ele>302.81</ele>
   </trkpt>
   <trkpt lat="-37.90545" lon="145.36334000000002">
    <ele>299.26000000000005</ele>
   </trkpt>
   <trkpt lat="-37.90565" lon="145.3634">
    <ele>297.17</ele>
   </trkpt>
   <trkpt lat="-37.905770000000004" lon="145.36347">
    <ele>294.99</ele>
   </trkpt>
   <trkpt lat="-37.906060000000004" lon="145.36378000000002">
    <ele>290.54</ele>
   </trkpt>
   <trkpt lat="-37.90614" lon="145.36395000000002">
    <ele>287.27000000000004</ele>
   </trkpt>
   <trkpt lat="-37.90623" lon="145.36459000000002">
    <ele>278.16</ele>
   </trkpt>
   <trkpt lat="-37.90646" lon="145.36564">
    <ele>258.34000000000003</ele>
   </trkpt>
   <trkpt lat="-37.90663" lon="145.36637000000002">
    <ele>238.03</ele>
   </trkpt>
   <trkpt lat="-37.90657" lon="145.36668">
    <ele>230.19</ele>
   </trkpt>
   <trkpt lat="-37.90661" lon="145.36685">
    <ele>227.5</ele>
   </trkpt>
   <trkpt lat="-37.90663" lon="145.36713">
    <ele>225.82000000000002</ele>
   </trkpt>
   <trkpt lat="-37.90675" lon="145.36773000000002">
    <ele>227.78</ele>
   </trkpt>
   <trkpt lat="-37.90668" lon="145.36825000000002">
    <ele>230.22</ele>
   </trkpt>
   <trkpt lat="-37.90672" lon="145.36849">
    <ele>230.10000000000002</ele>
   </trkpt>
   <trkpt lat="-37.90672" lon="145.3685">
    <ele>230.10000000000002</ele>
   </trkpt>
   <trkpt lat="-37.90677" lon="145.36884">
    <ele>229.76000000000002</ele>
   </trkpt>
   <trkpt lat="-37.90677" lon="145.36897000000002">
    <ele>229.76000000000002</ele>
   </trkpt>
   <trkpt lat="-37.9067" lon="145.36924000000002">
    <ele>229.71</ele>
   </trkpt>
   <trkpt lat="-37.9065" lon="145.36961000000002">
    <ele>229.27000000000004</ele>
   </trkpt>
   <trkpt lat="-37.90634" lon="145.36982">
    <ele>229.54000000000002</ele>
   </trkpt>
   <trkpt lat="-37.9063" lon="145.37003">
    <ele>229.54000000000002</ele>
   </trkpt>
   <trkpt lat="-37.90628" lon="145.37043">
    <ele>228.32000000000002</ele>
   </trkpt>
   <trkpt lat="-37.90639" lon="145.37087000000002">
    <ele>225.59</ele>
   </trkpt>
   <trkpt lat="-37.90672" lon="145.37188">
    <ele>223.86</ele>
   </trkpt>
   <trkpt lat="-37.90701" lon="145.37227000000001">
    <ele>229.47</ele>
   </trkpt>
   <trkpt lat="-37.90713" lon="145.37253">
    <ele>232.43</ele>
   </trkpt>
   <trkpt lat="-37.90713" lon="145.37263000000002">
    <ele>233.12</ele>
   </trkpt>
   <trkpt lat="-37.90699" lon="145.37323">
    <ele>243.17000000000002</ele>
   </trkpt>
   <trkpt lat="-37.9069" lon="145.37378">
    <ele>248.05</ele>
   </trkpt>
   <trkpt lat="-37.90643" lon="145.37461000000002">
    <ele>259.52000000000004</ele>
   </trkpt>
   <trkpt lat="-37.905910000000006" lon="145.37546">
    <ele>268.53000000000003</ele>
   </trkpt>
   <trkpt lat="-37.90549" lon="145.37617">
    <ele>272.40000000000003</ele>
   </trkpt>
   <trkpt lat="-37.905230001641456" lon="145.3768050024006">
    <ele>274.99</ele>
   </trkpt>
   <trkpt lat="-37.904970000000006" lon="145.37744">
    <ele>284.22</ele>
   </trkpt>
   <trkpt lat="-37.90475" lon="145.37804">
    <ele>297.78000000000003</ele>
   </trkpt>
   <trkpt lat="-37.9046" lon="145.3784">
    <ele>306.26000000000005</ele>
   </trkpt>
   <trkpt lat="-37.904320001130316" lon="145.3788850016111">
    <ele>315.87000000000006</ele>
   </trkpt>
   <trkpt lat="-37.90404" lon="145.37937000000002">
    <ele>329.45</ele>
   </trkpt>
   <trkpt lat="-37.90368" lon="145.37987">
    <ele>338.26</ele>
   </trkpt>
   <trkpt lat="-37.90339" lon="145.38022">
    <ele>346.6</ele>
   </trkpt>
   <trkpt lat="-37.90325" lon="145.38043000000002">
    <ele>350.41</ele>
   </trkpt>
   <trkpt lat="-37.90307" lon="145.38094">
    <ele>360.88000000000005</ele>
   </trkpt>
   <trkpt lat="-37.90285" lon="145.38128">
    <ele>367.11</ele>
   </trkpt>
   <trkpt lat="-37.90278" lon="145.38134000000002">
    <ele>368.43</ele>
   </trkpt>
   <trkpt lat="-37.9026" lon="145.38141000000002">
    <ele>370.48</ele>
   </trkpt>
   <trkpt lat="-37.90243" lon="145.38138">
    <ele>371.11000000000007</ele>
   </trkpt>
   <trkpt lat="-37.9022" lon="145.38132000000002">
    <ele>371.37</ele>
   </trkpt>
   <trkpt lat="-37.90166" lon="145.38102">
    <ele>372.04</ele>
   </trkpt>
   <trkpt lat="-37.90095" lon="145.38066">
    <ele>376.4</ele>
   </trkpt>
   <trkpt lat="-37.90025" lon="145.38027000000002">
    <ele>380.37000000000006</ele>
   </trkpt>
   <trkpt lat="-37.89983" lon="145.38012">
    <ele>383.13</ele>
   </trkpt>
   <trkpt lat="-37.89959" lon="145.37999000000002">
    <ele>385.53000000000003</ele>
   </trkpt>
   <trkpt lat="-37.89899500052991" lon="145.37969499769545">
    <ele>392.94</ele>
   </trkpt>
   <trkpt lat="-37.8984" lon="145.3794">
    <ele>398.28000000000003</ele>
   </trkpt>
   <trkpt lat="-37.89822" lon="145.37928000000002">
    <ele>398.8</ele>
   </trkpt>
   <trkpt lat="-37.897980000000004" lon="145.37919000000002">
    <ele>398.52000000000004</ele>
   </trkpt>
   <trkpt lat="-37.89788" lon="145.37979">
    <ele>397.32</ele>
   </trkpt>
   <trkpt lat="-37.89784" lon="145.38036000000002">
    <ele>394.14000000000004</ele>
   </trkpt>
   <trkpt lat="-37.89779" lon="145.38079000000002">
    <ele>392.35</ele>
   </trkpt>
   <trkpt lat="-37.897690000000004" lon="145.38145">
    <ele>390.92</ele>
   </trkpt>
   <trkpt lat="-37.89762000163202" lon="145.3820750007756">
    <ele>391.20000000000005</ele>
   </trkpt>
   <trkpt lat="-37.89755" lon="145.3827">
    <ele>391.96000000000004</ele>
   </trkpt>
   <trkpt lat="-37.89742500201526" lon="145.38339500133532">
    <ele>393.94</ele>
   </trkpt>
   <trkpt lat="-37.8973" lon="145.38409000000001">
    <ele>397.0</ele>
   </trkpt>
   <trkpt lat="-37.89719" lon="145.38446000000002">
    <ele>399.46000000000004</ele>
   </trkpt>
   <trkpt lat="-37.89703" lon="145.38479">
    <ele>402.61</ele>
   </trkpt>
   <trkpt lat="-37.8969" lon="145.38498">
    <ele>403.9200000000001</ele>
   </trkpt>
   <trkpt lat="-37.89663" lon="145.38522">
    <ele>407.97</ele>
   </trkpt>
   <trkpt lat="-37.89609" lon="145.38563000000002">
    <ele>414.92</ele>
   </trkpt>
   <trkpt lat="-37.89593" lon="145.38579000000001">
    <ele>416.19000000000005</ele>
   </trkpt>
   <trkpt lat="-37.89551" lon="145.38614">
    <ele>418.66</ele>
   </trkpt>
   <trkpt lat="-37.89535" lon="145.38631">
    <ele>419.97</ele>
   </trkpt>
   <trkpt lat="-37.89513" lon="145.38641">
    <ele>421.31</ele>
   </trkpt>
   <trkpt lat="-37.89495" lon="145.38648">
    <ele>422.07000000000005</ele>
   </trkpt>
   <trkpt lat="-37.89432" lon="145.38645000000002">
    <ele>423.93</ele>
   </trkpt>
   <trkpt lat="-37.89372" lon="145.38635000000002">
    <ele>425.51000000000005</ele>
   </trkpt>
   <trkpt lat="-37.89356" lon="145.38617000000002">
    <ele>424.41</ele>
   </trkpt>
   <trkpt lat="-37.89323" lon="145.38596">
    <ele>422.84000000000003</ele>
   </trkpt>
   <trkpt lat="-37.89298" lon="145.38575">
    <ele>423.21000000000004</ele>
   </trkpt>
   <trkpt lat="-37.892790001258334" lon="145.38519499843756">
    <ele>424.40000000000003</ele>
   </trkpt>
   <trkpt lat="-37.8926" lon="145.38464000000002">
    <ele>424.81</ele>
   </trkpt>
   <trkpt lat="-37.89251" lon="145.38418000000001">
    <ele>425.17</ele>
   </trkpt>
   <trkpt lat="-37.89249" lon="145.38371">
    <ele>424.97</ele>
   </trkpt>
   <trkpt lat="-37.89251" lon="145.38318">
    <ele>424.47</ele>
   </trkpt>
   <trkpt lat="-37.89251" lon="145.38317">
    <ele>424.47</ele>
   </trkpt>
   <trkpt lat="-37.89255" lon="145.38238">
    <ele>426.04</ele>
   </trkpt>
   <trkpt lat="-37.89242" lon="145.38186000000002">
    <ele>427.93</ele>
   </trkpt>
   <trkpt lat="-37.89233" lon="145.38163">
    <ele>428.24</ele>
   </trkpt>
   <trkpt lat="-37.89222" lon="145.38146">
    <ele>428.19</ele>
   </trkpt>
   <trkpt lat="-37.89206" lon="145.38125000000002">
    <ele>427.96000000000004</ele>
   </trkpt>
   <trkpt lat="-37.89186" lon="145.38104">
    <ele>428.63</ele>
   </trkpt>
   <trkpt lat="-37.89135500092286" lon="145.38059499702274">
    <ele>429.36</ele>
   </trkpt>
   <trkpt lat="-37.89085" lon="145.38015000000001">
    <ele>430.6</ele>
   </trkpt>
   <trkpt lat="-37.89045" lon="145.37973000000002">
    <ele>427.37</ele>
   </trkpt>
   <trkpt lat="-37.890150000000006" lon="145.3795">
    <ele>425.27000000000004</ele>
   </trkpt>
   <trkpt lat="-37.88973" lon="145.37923">
    <ele>423.23</ele>
   </trkpt>
   <trkpt lat="-37.889170000302975" lon="145.37892999767666">
    <ele>419.64</ele>
   </trkpt>
   <trkpt lat="-37.88861" lon="145.37863000000002">
    <ele>413.03</ele>
   </trkpt>
   <trkpt lat="-37.88832" lon="145.3785">
    <ele>411.58000000000004</ele>
   </trkpt>
   <trkpt lat="-37.88812" lon="145.37844">
    <ele>410.61</ele>
   </trkpt>
   <trkpt lat="-37.887890000000006" lon="145.37830000000002">
    <ele>409.95000000000005</ele>
   </trkpt>
   <trkpt lat="-37.8877" lon="145.37814">
    <ele>408.14000000000004</ele>
   </trkpt>
   <trkpt lat="-37.888505000150154" lon="145.37797500179676">
    <ele>400.59000000000003</ele>
   </trkpt>
   <trkpt lat="-37.88931" lon="145.37781">
    <ele>394.18</ele>
   </trkpt>
   <trkpt lat="-37.89016" lon="145.37795">
    <ele>391.05</ele>
   </trkpt>
   <trkpt lat="-37.89085" lon="145.37794000000002">
    <ele>388.11</ele>
   </trkpt>
   <trkpt lat="-37.89112" lon="145.3779">
    <ele>386.07</ele>
   </trkpt>
   <trkpt lat="-37.89123" lon="145.37791">
    <ele>385.61</ele>
   </trkpt>
   <trkpt lat="-37.89139" lon="145.37794000000002">
    <ele>385.02000000000004</ele>
   </trkpt>
   <trkpt lat="-37.89177" lon="145.37807">
    <ele>382.52000000000004</ele>
   </trkpt>
   <trkpt lat="-37.89222" lon="145.37835">
    <ele>380.94000000000005</ele>
   </trkpt>
   <trkpt lat="-37.89229" lon="145.37834">
    <ele>380.52000000000004</ele>
   </trkpt>
   <trkpt lat="-37.89235" lon="145.37830000000002">
    <ele>379.25</ele>
   </trkpt>
   <trkpt lat="-37.89249" lon="145.37814">
    <ele>377.58000000000004</ele>
   </trkpt>
   <trkpt lat="-37.89262" lon="145.37792000000002">
    <ele>372.19</ele>
   </trkpt>
   <trkpt lat="-37.89267" lon="145.37773">
    <ele>369.14000000000004</ele>
   </trkpt>
   <trkpt lat="-37.89264" lon="145.37733">
    <ele>364.73</ele>
   </trkpt>
   <trkpt lat="-37.89258" lon="145.37708">
    <ele>362.50000000000006</ele>
   </trkpt>
   <trkpt lat="-37.892350001316714" lon="145.37650499799926">
    <ele>357.43</ele>
   </trkpt>
   <trkpt lat="-37.892120000000006" lon="145.37593">
    <ele>351.52000000000004</ele>
   </trkpt>
   <trkpt lat="-37.89166" lon="145.37524000000002">
    <ele>345.36000000000007</ele>
   </trkpt>
   <trkpt lat="-37.89146" lon="145.37505000000002">
    <ele>343.69000000000005</ele>
   </trkpt>
   <trkpt lat="-37.89137" lon="145.37499000000003">
    <ele>343.41</ele>
   </trkpt>
   <trkpt lat="-37.89114" lon="145.37492">
    <ele>344.05</ele>
   </trkpt>
   <trkpt lat="-37.89079" lon="145.37492">
    <ele>344.44</ele>
   </trkpt>
   <trkpt lat="-37.89052" lon="145.37509">
    <ele>344.86000000000007</ele>
   </trkpt>
   <trkpt lat="-37.89025" lon="145.37519">
    <ele>345.45000000000005</ele>
   </trkpt>
   <trkpt lat="-37.89007" lon="145.37515000000002">
    <ele>344.85</ele>
   </trkpt>
   <trkpt lat="-37.88996" lon="145.37504">
    <ele>343.56</ele>
   </trkpt>
   <trkpt lat="-37.88993" lon="145.37490000000003">
    <ele>343.30000000000007</ele>
   </trkpt>
   <trkpt lat="-37.89" lon="145.37468">
    <ele>343.74000000000007</ele>
   </trkpt>
   <trkpt lat="-37.89009" lon="145.37448">
    <ele>345.23</ele>
   </trkpt>
   <trkpt lat="-37.89011" lon="145.37428">
    <ele>345.72</ele>
   </trkpt>
   <trkpt lat="-37.89007" lon="145.37402">
    <ele>346.82</ele>
   </trkpt>
   <trkpt lat="-37.88998" lon="145.37389000000002">
    <ele>347.36</ele>
   </trkpt>
   <trkpt lat="-37.889500000758154" lon="145.3734749973202">
    <ele>351.45000000000005</ele>
   </trkpt>
   <trkpt lat="-37.88902" lon="145.37306">
    <ele>356.07000000000005</ele>
   </trkpt>
   <trkpt lat="-37.88893" lon="145.37276">
    <ele>353.17</ele>
   </trkpt>
   <trkpt lat="-37.88873" lon="145.37243">
    <ele>350.31</ele>
   </trkpt>
   <trkpt lat="-37.88835000082369" lon="145.37202499804832">
    <ele>350.96000000000004</ele>
   </trkpt>
   <trkpt lat="-37.88797" lon="145.37162">
    <ele>353.7</ele>
   </trkpt>
   <trkpt lat="-37.887980000000006" lon="145.37162">
    <ele>353.7</ele>
   </trkpt>
   <trkpt lat="-37.88781" lon="145.37142">
    <ele>356.8</ele>
   </trkpt>
   <trkpt lat="-37.88763" lon="145.37134">
    <ele>361.18000000000006</ele>
   </trkpt>
   <trkpt lat="-37.88743" lon="145.37131000000002">
    <ele>365.13</ele>
   </trkpt>
   <trkpt lat="-37.8872" lon="145.37132000000003">
    <ele>368.47</ele>
   </trkpt>
   <trkpt lat="-37.88694" lon="145.37120000000002">
    <ele>370.6700000000001</ele>
   </trkpt>
   <trkpt lat="-37.88689" lon="145.37066000000002">
    <ele>370.3</ele>
   </trkpt>
   <trkpt lat="-37.886860000000006" lon="145.37055">
    <ele>368.81</ele>
   </trkpt>
   <trkpt lat="-37.887260000000005" lon="145.37026">
    <ele>366.35</ele>
   </trkpt>
  </trkseg>
 </trk>
</gpx>
