<?xml version="1.0" encoding="UTF-8"?>
<gpx creator="StravaGPX" version="1.1" xmlns="http://www.topografix.com/GPX/1/1" xmlns:xsi="http://www.w3.org/2001/XMLSchema-instance" xsi:schemaLocation="http://www.topografix.com/GPX/1/1 http://www.topografix.com/GPX/1/1/gpx.xsd">
 <metadata>
  <name>DTR 7th June 21k</name>
  <author>
   <name>DTR  Runleaders</name>
   <link href="https://www.strava.com/athletes/194056408"/>
  </author>
  <copyright author="OpenStreetMap contributors">
   <year>2020</year>
   <license>https://www.openstreetmap.org/copyright</license>
  </copyright>
  <link href="https://www.strava.com/routes/3497911968418092416"/>
 </metadata>
 <trk>
  <name>DTR 7th June 21k</name>
  <link href="https://www.strava.com/routes/3497911968418092416"/>
  <type>running</type>
  <trkseg>
   <trkpt lat="-37.886860000000006" lon="145.37055">
    <ele>368.81</ele>
   </trkpt>
   <trkpt lat="-37.88689" lon="145.37066000000002">
    <ele>370.3</ele>
   </trkpt>
   <trkpt lat="-37.88694" lon="145.37120000000002">
    <ele>370.6700000000001</ele>
   </trkpt>
   <trkpt lat="-37.8872" lon="145.37132000000003">
    <ele>368.47</ele>
   </trkpt>
   <trkpt lat="-37.88743" lon="145.37131000000002">
    <ele>365.13</ele>
   </trkpt>
   <trkpt lat="-37.88763" lon="145.37134">
    <ele>361.18000000000006</ele>
   </trkpt>
   <trkpt lat="-37.88781" lon="145.37142">
    <ele>356.8</ele>
   </trkpt>
   <trkpt lat="-37.88806" lon="145.37171">
    <ele>352.52000000000004</ele>
   </trkpt>
   <trkpt lat="-37.88873" lon="145.37243">
    <ele>350.61</ele>
   </trkpt>
   <trkpt lat="-37.88893" lon="145.37276">
    <ele>353.59000000000003</ele>
   </trkpt>
   <trkpt lat="-37.88902" lon="145.37306">
    <ele>356.07000000000005</ele>
   </trkpt>
   <trkpt lat="-37.88950000069874" lon="145.37347499726883">
    <ele>351.45000000000005</ele>
   </trkpt>
   <trkpt lat="-37.88998" lon="145.37389000000002">
    <ele>347.36</ele>
   </trkpt>
   <trkpt lat="-37.89007" lon="145.37402">
    <ele>346.82</ele>
   </trkpt>
   <trkpt lat="-37.89011" lon="145.37428">
    <ele>345.72</ele>
   </trkpt>
   <trkpt lat="-37.89009" lon="145.37448">
    <ele>344.19000000000005</ele>
   </trkpt>
   <trkpt lat="-37.89" lon="145.37468">
    <ele>343.55</ele>
   </trkpt>
   <trkpt lat="-37.88993" lon="145.37490000000003">
    <ele>343.38</ele>
   </trkpt>
   <trkpt lat="-37.88996" lon="145.37504">
    <ele>343.83000000000004</ele>
   </trkpt>
   <trkpt lat="-37.89007" lon="145.37515000000002">
    <ele>344.85</ele>
   </trkpt>
   <trkpt lat="-37.89025" lon="145.37519">
    <ele>345.45000000000005</ele>
   </trkpt>
   <trkpt lat="-37.89052" lon="145.37509">
    <ele>344.86000000000007</ele>
   </trkpt>
   <trkpt lat="-37.89079" lon="145.37492">
    <ele>344.44</ele>
   </trkpt>
   <trkpt lat="-37.89112" lon="145.37477">
    <ele>340.15</ele>
   </trkpt>
   <trkpt lat="-37.891180000000006" lon="145.37476">
    <ele>340.15</ele>
   </trkpt>
   <trkpt lat="-37.89137" lon="145.37478000000002">
    <ele>338.07000000000005</ele>
   </trkpt>
   <trkpt lat="-37.89148" lon="145.37473">
    <ele>336.62</ele>
   </trkpt>
   <trkpt lat="-37.89157" lon="145.37466">
    <ele>335.88</ele>
   </trkpt>
   <trkpt lat="-37.89159" lon="145.37459">
    <ele>335.94</ele>
   </trkpt>
   <trkpt lat="-37.89159" lon="145.37401">
    <ele>340.43</ele>
   </trkpt>
   <trkpt lat="-37.89161" lon="145.37392">
    <ele>341.32</ele>
   </trkpt>
   <trkpt lat="-37.89166" lon="145.37383">
    <ele>341.32</ele>
   </trkpt>
   <trkpt lat="-37.89175" lon="145.37377">
    <ele>343.32</ele>
   </trkpt>
   <trkpt lat="-37.89193" lon="145.37368">
    <ele>346.31</ele>
   </trkpt>
   <trkpt lat="-37.89213" lon="145.37365">
    <ele>349.59000000000003</ele>
   </trkpt>
   <trkpt lat="-37.8924" lon="145.37368">
    <ele>352.04</ele>
   </trkpt>
   <trkpt lat="-37.89284" lon="145.37382000000002">
    <ele>357.05</ele>
   </trkpt>
   <trkpt lat="-37.89336" lon="145.37412">
    <ele>361.77000000000004</ele>
   </trkpt>
   <trkpt lat="-37.89349" lon="145.37424000000001">
    <ele>363.09000000000003</ele>
   </trkpt>
   <trkpt lat="-37.89383" lon="145.37475">
    <ele>370.93</ele>
   </trkpt>
   <trkpt lat="-37.89392" lon="145.37482">
    <ele>372.24</ele>
   </trkpt>
   <trkpt lat="-37.89423" lon="145.37495">
    <ele>377.63</ele>
   </trkpt>
   <trkpt lat="-37.89437" lon="145.37505000000002">
    <ele>379.15000000000003</ele>
   </trkpt>
   <trkpt lat="-37.894560000000006" lon="145.37512">
    <ele>384.19</ele>
   </trkpt>
   <trkpt lat="-37.89479" lon="145.37516000000002">
    <ele>387.97</ele>
   </trkpt>
   <trkpt lat="-37.89513" lon="145.37514000000002">
    <ele>392.02000000000004</ele>
   </trkpt>
   <trkpt lat="-37.89549" lon="145.37521">
    <ele>396.37000000000006</ele>
   </trkpt>
   <trkpt lat="-37.8958" lon="145.37517000000003">
    <ele>398.03000000000003</ele>
   </trkpt>
   <trkpt lat="-37.896080000000005" lon="145.37524000000002">
    <ele>398.28000000000003</ele>
   </trkpt>
   <trkpt lat="-37.89636" lon="145.37518">
    <ele>398.71</ele>
   </trkpt>
   <trkpt lat="-37.89658" lon="145.37518">
    <ele>398.68</ele>
   </trkpt>
   <trkpt lat="-37.89676" lon="145.37524000000002">
    <ele>398.82</ele>
   </trkpt>
   <trkpt lat="-37.89701" lon="145.37541000000002">
    <ele>399.29</ele>
   </trkpt>
   <trkpt lat="-37.89723" lon="145.37565">
    <ele>399.64000000000004</ele>
   </trkpt>
   <trkpt lat="-37.89734" lon="145.37586000000002">
    <ele>400.31000000000006</ele>
   </trkpt>
   <trkpt lat="-37.89739" lon="145.37604000000002">
    <ele>400.5</ele>
   </trkpt>
   <trkpt lat="-37.89755500190184" lon="145.37670999851042">
    <ele>399.66</ele>
   </trkpt>
   <trkpt lat="-37.89772" lon="145.37738000000002">
    <ele>397.11</ele>
   </trkpt>
   <trkpt lat="-37.89781" lon="145.3779">
    <ele>396.49</ele>
   </trkpt>
   <trkpt lat="-37.8979" lon="145.37899000000002">
    <ele>399.75000000000006</ele>
   </trkpt>
   <trkpt lat="-37.897920000000006" lon="145.37907">
    <ele>399.63000000000005</ele>
   </trkpt>
   <trkpt lat="-37.897980000000004" lon="145.37919000000002">
    <ele>398.52000000000004</ele>
   </trkpt>
   <trkpt lat="-37.89788" lon="145.37979">
    <ele>397.32</ele>
   </trkpt>
   <trkpt lat="-37.89784" lon="145.38036000000002">
    <ele>394.14000000000004</ele>
   </trkpt>
   <trkpt lat="-37.897800000000004" lon="145.38073">
    <ele>392.6</ele>
   </trkpt>
   <trkpt lat="-37.897800000000004" lon="145.38072000000003">
    <ele>392.59000000000003</ele>
   </trkpt>
   <trkpt lat="-37.897690000000004" lon="145.38145">
    <ele>390.92</ele>
   </trkpt>
   <trkpt lat="-37.89762000163202" lon="145.3820750007756">
    <ele>391.20000000000005</ele>
   </trkpt>
   <trkpt lat="-37.89755" lon="145.3827">
    <ele>391.96000000000004</ele>
   </trkpt>
   <trkpt lat="-37.89742500201526" lon="145.38339500133532">
    <ele>393.94</ele>
   </trkpt>
   <trkpt lat="-37.8973" lon="145.38409000000001">
    <ele>397.0</ele>
   </trkpt>
   <trkpt lat="-37.89719" lon="145.38446000000002">
    <ele>399.46000000000004</ele>
   </trkpt>
   <trkpt lat="-37.89703" lon="145.38479">
    <ele>402.61</ele>
   </trkpt>
   <trkpt lat="-37.89708" lon="145.38508000000002">
    <ele>403.95000000000005</ele>
   </trkpt>
   <trkpt lat="-37.89705" lon="145.38526000000002">
    <ele>405.33000000000004</ele>
   </trkpt>
   <trkpt lat="-37.89696" lon="145.38565">
    <ele>408.75000000000006</ele>
   </trkpt>
   <trkpt lat="-37.89676" lon="145.38609000000002">
    <ele>414.09000000000003</ele>
   </trkpt>
   <trkpt lat="-37.89663" lon="145.38676">
    <ele>420.45000000000005</ele>
   </trkpt>
   <trkpt lat="-37.89663" lon="145.38708000000003">
    <ele>424.92</ele>
   </trkpt>
   <trkpt lat="-37.89656" lon="145.38734000000002">
    <ele>427.45000000000005</ele>
   </trkpt>
   <trkpt lat="-37.89643" lon="145.38760000000002">
    <ele>429.97</ele>
   </trkpt>
   <trkpt lat="-37.89618" lon="145.38779000000002">
    <ele>431.75</ele>
   </trkpt>
   <trkpt lat="-37.896190000000004" lon="145.38778000000002">
    <ele>431.76000000000005</ele>
   </trkpt>
   <trkpt lat="-37.89587" lon="145.38802">
    <ele>433.47</ele>
   </trkpt>
   <trkpt lat="-37.89574" lon="145.38798">
    <ele>433.62000000000006</ele>
   </trkpt>
   <trkpt lat="-37.89587" lon="145.38819">
    <ele>433.72</ele>
   </trkpt>
   <trkpt lat="-37.89607" lon="145.38836">
    <ele>433.25</ele>
   </trkpt>
   <trkpt lat="-37.89625" lon="145.38855">
    <ele>432.51000000000005</ele>
   </trkpt>
   <trkpt lat="-37.89674" lon="145.38902000000002">
    <ele>428.58</ele>
   </trkpt>
   <trkpt lat="-37.8969" lon="145.38929000000002">
    <ele>427.61</ele>
   </trkpt>
   <trkpt lat="-37.89701" lon="145.38949000000002">
    <ele>426.32000000000005</ele>
   </trkpt>
   <trkpt lat="-37.89703" lon="145.38963">
    <ele>425.16</ele>
   </trkpt>
   <trkpt lat="-37.89712" lon="145.38982000000001">
    <ele>423.23</ele>
   </trkpt>
   <trkpt lat="-37.89714" lon="145.38993000000002">
    <ele>422.29</ele>
   </trkpt>
   <trkpt lat="-37.89705" lon="145.38983000000002">
    <ele>422.51000000000005</ele>
   </trkpt>
   <trkpt lat="-37.89701" lon="145.39086">
    <ele>406.02000000000004</ele>
   </trkpt>
   <trkpt lat="-37.89699" lon="145.39095">
    <ele>404.48</ele>
   </trkpt>
   <trkpt lat="-37.897000000000006" lon="145.39093000000003">
    <ele>408.68</ele>
   </trkpt>
   <trkpt lat="-37.8969900067003" lon="145.3918200003034">
    <ele>382.94000000000005</ele>
   </trkpt>
   <trkpt lat="-37.89698000669961" lon="145.39271000036499">
    <ele>369.42</ele>
   </trkpt>
   <trkpt lat="-37.89697" lon="145.39360000000002">
    <ele>373.97</ele>
   </trkpt>
   <trkpt lat="-37.89623" lon="145.39369000000002">
    <ele>356.65000000000003</ele>
   </trkpt>
   <trkpt lat="-37.895690000004045" lon="145.39374500040438">
    <ele>339.34000000000003</ele>
   </trkpt>
   <trkpt lat="-37.89515" lon="145.3938">
    <ele>324.93000000000006</ele>
   </trkpt>
   <trkpt lat="-37.89461500001541" lon="145.39387500054625">
    <ele>324.28000000000003</ele>
   </trkpt>
   <trkpt lat="-37.89408" lon="145.39395000000002">
    <ele>310.4</ele>
   </trkpt>
   <trkpt lat="-37.893240000000006" lon="145.39368000000002">
    <ele>297.67</ele>
   </trkpt>
   <trkpt lat="-37.89325" lon="145.39363">
    <ele>290.58</ele>
   </trkpt>
   <trkpt lat="-37.89296" lon="145.39341000000002">
    <ele>290.34000000000003</ele>
   </trkpt>
   <trkpt lat="-37.89278" lon="145.39318">
    <ele>291.04</ele>
   </trkpt>
   <trkpt lat="-37.892610000000005" lon="145.39268">
    <ele>292.92</ele>
   </trkpt>
   <trkpt lat="-37.89240500220432" lon="145.39194999779028">
    <ele>294.7</ele>
   </trkpt>
   <trkpt lat="-37.8922" lon="145.39122">
    <ele>300.36</ele>
   </trkpt>
   <trkpt lat="-37.89208" lon="145.39096">
    <ele>301.78000000000003</ele>
   </trkpt>
   <trkpt lat="-37.8915799999225" lon="145.39091499968666">
    <ele>296.45000000000005</ele>
   </trkpt>
   <trkpt lat="-37.89108" lon="145.39087">
    <ele>291.31</ele>
   </trkpt>
   <trkpt lat="-37.89085" lon="145.39087">
    <ele>289.75</ele>
   </trkpt>
   <trkpt lat="-37.8905" lon="145.39094">
    <ele>287.14</ele>
   </trkpt>
   <trkpt lat="-37.89034" lon="145.39100000000002">
    <ele>287.14</ele>
   </trkpt>
   <trkpt lat="-37.889990000000004" lon="145.3912">
    <ele>284.65000000000003</ele>
   </trkpt>
   <trkpt lat="-37.88998" lon="145.39122">
    <ele>284.65000000000003</ele>
   </trkpt>
   <trkpt lat="-37.88918500071403" lon="145.39164000455187">
    <ele>280.13000000000005</ele>
   </trkpt>
   <trkpt lat="-37.88839" lon="145.39206000000001">
    <ele>273.62</ele>
   </trkpt>
   <trkpt lat="-37.88839" lon="145.39205">
    <ele>273.64000000000004</ele>
   </trkpt>
   <trkpt lat="-37.8881" lon="145.39221">
    <ele>273.18</ele>
   </trkpt>
   <trkpt lat="-37.88774" lon="145.39245000000003">
    <ele>272.86</ele>
   </trkpt>
   <trkpt lat="-37.887420000000006" lon="145.39256">
    <ele>272.28000000000003</ele>
   </trkpt>
   <trkpt lat="-37.88714" lon="145.39258">
    <ele>272.01000000000005</ele>
   </trkpt>
   <trkpt lat="-37.88682" lon="145.39252000000002">
    <ele>272.0</ele>
   </trkpt>
   <trkpt lat="-37.88667" lon="145.39246">
    <ele>272.0</ele>
   </trkpt>
   <trkpt lat="-37.88608" lon="145.39215000000002">
    <ele>271.97</ele>
   </trkpt>
   <trkpt lat="-37.88595" lon="145.39212">
    <ele>272.07000000000005</ele>
   </trkpt>
   <trkpt lat="-37.8858" lon="145.39212">
    <ele>272.42</ele>
   </trkpt>
   <trkpt lat="-37.88577" lon="145.39199000000002">
    <ele>273.39000000000004</ele>
   </trkpt>
   <trkpt lat="-37.885670000000005" lon="145.39202">
    <ele>274.09</ele>
   </trkpt>
   <trkpt lat="-37.88566" lon="145.39198000000002">
    <ele>281.0</ele>
   </trkpt>
   <trkpt lat="-37.88492000088048" lon="145.39151499530587">
    <ele>289.52</ele>
   </trkpt>
   <trkpt lat="-37.88418" lon="145.39105">
    <ele>289.00000000000006</ele>
   </trkpt>
   <trkpt lat="-37.88396" lon="145.39089">
    <ele>287.73</ele>
   </trkpt>
   <trkpt lat="-37.883430000000004" lon="145.39067">
    <ele>281.48</ele>
   </trkpt>
   <trkpt lat="-37.88317" lon="145.39061">
    <ele>277.80000000000007</ele>
   </trkpt>
   <trkpt lat="-37.88306" lon="145.39053">
    <ele>275.99</ele>
   </trkpt>
   <trkpt lat="-37.882690000000004" lon="145.39007">
    <ele>258.29</ele>
   </trkpt>
   <trkpt lat="-37.88264" lon="145.38963">
    <ele>258.96000000000004</ele>
   </trkpt>
   <trkpt lat="-37.88264" lon="145.38944">
    <ele>260.61</ele>
   </trkpt>
   <trkpt lat="-37.8827" lon="145.38922000000002">
    <ele>260.61</ele>
   </trkpt>
   <trkpt lat="-37.882830000000006" lon="145.38894000000002">
    <ele>262.28000000000003</ele>
   </trkpt>
   <trkpt lat="-37.88257" lon="145.38882">
    <ele>272.81</ele>
   </trkpt>
   <trkpt lat="-37.882490000000004" lon="145.38882">
    <ele>276.22</ele>
   </trkpt>
   <trkpt lat="-37.88255" lon="145.38872">
    <ele>276.41</ele>
   </trkpt>
   <trkpt lat="-37.882670000000005" lon="145.38839000000002">
    <ele>276.85</ele>
   </trkpt>
   <trkpt lat="-37.882830000000006" lon="145.38811">
    <ele>279.7</ele>
   </trkpt>
   <trkpt lat="-37.88295" lon="145.38770000000002">
    <ele>280.56</ele>
   </trkpt>
   <trkpt lat="-37.88302" lon="145.38739">
    <ele>281.53</ele>
   </trkpt>
   <trkpt lat="-37.88302" lon="145.38738">
    <ele>281.58</ele>
   </trkpt>
   <trkpt lat="-37.88311" lon="145.38696000000002">
    <ele>283.16</ele>
   </trkpt>
   <trkpt lat="-37.88313" lon="145.38674">
    <ele>284.03</ele>
   </trkpt>
   <trkpt lat="-37.88286" lon="145.38613">
    <ele>285.90000000000003</ele>
   </trkpt>
   <trkpt lat="-37.88277" lon="145.38558">
    <ele>287.86</ele>
   </trkpt>
   <trkpt lat="-37.88277" lon="145.38517000000002">
    <ele>290.59000000000003</ele>
   </trkpt>
   <trkpt lat="-37.88239" lon="145.38424">
    <ele>292.96</ele>
   </trkpt>
   <trkpt lat="-37.88241" lon="145.38393000000002">
    <ele>294.24</ele>
   </trkpt>
   <trkpt lat="-37.8823" lon="145.38363">
    <ele>295.90000000000003</ele>
   </trkpt>
   <trkpt lat="-37.881980000000006" lon="145.38336">
    <ele>297.32000000000005</ele>
   </trkpt>
   <trkpt lat="-37.88181" lon="145.38306">
    <ele>299.39000000000004</ele>
   </trkpt>
   <trkpt lat="-37.88183" lon="145.3829">
    <ele>299.98</ele>
   </trkpt>
   <trkpt lat="-37.88174" lon="145.38281">
    <ele>300.15000000000003</ele>
   </trkpt>
   <trkpt lat="-37.88163" lon="145.38285000000002">
    <ele>300.07</ele>
   </trkpt>
   <trkpt lat="-37.88156" lon="145.38291">
    <ele>300.29</ele>
   </trkpt>
   <trkpt lat="-37.88145" lon="145.38292">
    <ele>301.1</ele>
   </trkpt>
   <trkpt lat="-37.88123" lon="145.38276000000002">
    <ele>301.75</ele>
   </trkpt>
   <trkpt lat="-37.881" lon="145.38254">
    <ele>303.6700000000001</ele>
   </trkpt>
   <trkpt lat="-37.88094" lon="145.38244">
    <ele>303.92</ele>
   </trkpt>
   <trkpt lat="-37.88098" lon="145.38230000000001">
    <ele>304.14000000000004</ele>
   </trkpt>
   <trkpt lat="-37.88114" lon="145.38207">
    <ele>306.1</ele>
   </trkpt>
   <trkpt lat="-37.88123" lon="145.38188000000002">
    <ele>306.92</ele>
   </trkpt>
   <trkpt lat="-37.88078" lon="145.38125000000002">
    <ele>315.28</ele>
   </trkpt>
   <trkpt lat="-37.8804" lon="145.38083">
    <ele>317.90000000000003</ele>
   </trkpt>
   <trkpt lat="-37.880300000000005" lon="145.38060000000002">
    <ele>316.34000000000003</ele>
   </trkpt>
   <trkpt lat="-37.88029" lon="145.38036000000002">
    <ele>316.06</ele>
   </trkpt>
   <trkpt lat="-37.88033" lon="145.3801">
    <ele>318.03000000000003</ele>
   </trkpt>
   <trkpt lat="-37.88026" lon="145.37994">
    <ele>320.1</ele>
   </trkpt>
   <trkpt lat="-37.88013" lon="145.37941">
    <ele>324.99</ele>
   </trkpt>
   <trkpt lat="-37.87997" lon="145.37905">
    <ele>323.77</ele>
   </trkpt>
   <trkpt lat="-37.87982" lon="145.37881000000002">
    <ele>322.76000000000005</ele>
   </trkpt>
   <trkpt lat="-37.87975" lon="145.37853">
    <ele>323.13</ele>
   </trkpt>
   <trkpt lat="-37.87966" lon="145.37843">
    <ele>325.09999999999997</ele>
   </trkpt>
   <trkpt lat="-37.87948" lon="145.37797">
    <ele>331.64000000000004</ele>
   </trkpt>
   <trkpt lat="-37.87912" lon="145.37754">
    <ele>339.62</ele>
   </trkpt>
   <trkpt lat="-37.87894" lon="145.37752">
    <ele>340.95000000000005</ele>
   </trkpt>
   <trkpt lat="-37.87852" lon="145.37720000000002">
    <ele>340.61</ele>
   </trkpt>
   <trkpt lat="-37.87845" lon="145.37699">
    <ele>337.64000000000004</ele>
   </trkpt>
   <trkpt lat="-37.8785" lon="145.37712000000002">
    <ele>334.32</ele>
   </trkpt>
   <trkpt lat="-37.87834" lon="145.37701">
    <ele>323.18</ele>
   </trkpt>
   <trkpt lat="-37.878260000000004" lon="145.37687000000003">
    <ele>319.51</ele>
   </trkpt>
   <trkpt lat="-37.87825" lon="145.37699">
    <ele>320.54</ele>
   </trkpt>
   <trkpt lat="-37.87841" lon="145.37736">
    <ele>323.59000000000003</ele>
   </trkpt>
   <trkpt lat="-37.87879" lon="145.37789">
    <ele>328.97</ele>
   </trkpt>
   <trkpt lat="-37.8791" lon="145.37847000000002">
    <ele>332.83</ele>
   </trkpt>
   <trkpt lat="-37.87919" lon="145.37955000000002">
    <ele>341.02000000000004</ele>
   </trkpt>
   <trkpt lat="-37.87919" lon="145.38004">
    <ele>344.23</ele>
   </trkpt>
   <trkpt lat="-37.87903" lon="145.38084">
    <ele>350.54</ele>
   </trkpt>
   <trkpt lat="-37.87901" lon="145.38117000000003">
    <ele>352.90999999999997</ele>
   </trkpt>
   <trkpt lat="-37.879070000000006" lon="145.38126000000003">
    <ele>352.90999999999997</ele>
   </trkpt>
   <trkpt lat="-37.87944" lon="145.38166">
    <ele>357.65000000000003</ele>
   </trkpt>
   <trkpt lat="-37.87953" lon="145.38186000000002">
    <ele>358.84000000000003</ele>
   </trkpt>
   <trkpt lat="-37.87955" lon="145.38230000000001">
    <ele>360.77000000000004</ele>
   </trkpt>
   <trkpt lat="-37.8795" lon="145.38282">
    <ele>364.14</ele>
   </trkpt>
   <trkpt lat="-37.87946" lon="145.38304000000002">
    <ele>364.14</ele>
   </trkpt>
   <trkpt lat="-37.87926" lon="145.38376000000002">
    <ele>367.8</ele>
   </trkpt>
   <trkpt lat="-37.87926" lon="145.38395">
    <ele>369.1</ele>
   </trkpt>
   <trkpt lat="-37.879270000000005" lon="145.38402000000002">
    <ele>369.1</ele>
   </trkpt>
   <trkpt lat="-37.8793" lon="145.38417">
    <ele>370.09000000000003</ele>
   </trkpt>
   <trkpt lat="-37.87946" lon="145.38447000000002">
    <ele>372.22</ele>
   </trkpt>
   <trkpt lat="-37.87973" lon="145.38511000000003">
    <ele>376.77000000000004</ele>
   </trkpt>
   <trkpt lat="-37.87986" lon="145.38554000000002">
    <ele>378.8</ele>
   </trkpt>
   <trkpt lat="-37.879870000000004" lon="145.38604">
    <ele>380.96000000000004</ele>
   </trkpt>
   <trkpt lat="-37.87982" lon="145.38678000000002">
    <ele>385.12</ele>
   </trkpt>
   <trkpt lat="-37.87964" lon="145.38775">
    <ele>388.68</ele>
   </trkpt>
   <trkpt lat="-37.87947000130527" lon="145.38828500093663">
    <ele>391.25000000000006</ele>
   </trkpt>
   <trkpt lat="-37.8793" lon="145.38882">
    <ele>394.55</ele>
   </trkpt>
   <trkpt lat="-37.87921" lon="145.38897">
    <ele>394.55</ele>
   </trkpt>
   <trkpt lat="-37.87899" lon="145.38921000000002">
    <ele>395.61</ele>
   </trkpt>
   <trkpt lat="-37.8787" lon="145.38940000000002">
    <ele>397.26000000000005</ele>
   </trkpt>
   <trkpt lat="-37.87852" lon="145.38946">
    <ele>399.46000000000004</ele>
   </trkpt>
   <trkpt lat="-37.87773" lon="145.38947000000002">
    <ele>402.77</ele>
   </trkpt>
   <trkpt lat="-37.87751" lon="145.38942">
    <ele>404.93</ele>
   </trkpt>
   <trkpt lat="-37.87729" lon="145.38931000000002">
    <ele>405.78000000000003</ele>
   </trkpt>
   <trkpt lat="-37.877100000000006" lon="145.38919">
    <ele>406.06</ele>
   </trkpt>
   <trkpt lat="-37.877" lon="145.38921000000002">
    <ele>406.24</ele>
   </trkpt>
   <trkpt lat="-37.87691" lon="145.38928">
    <ele>406.24</ele>
   </trkpt>
   <trkpt lat="-37.87688" lon="145.38938000000002">
    <ele>406.35</ele>
   </trkpt>
   <trkpt lat="-37.87688" lon="145.38993000000002">
    <ele>407.04</ele>
   </trkpt>
   <trkpt lat="-37.87686" lon="145.39026">
    <ele>407.78000000000003</ele>
   </trkpt>
   <trkpt lat="-37.87686" lon="145.39025">
    <ele>407.78000000000003</ele>
   </trkpt>
   <trkpt lat="-37.87682" lon="145.39055000000002">
    <ele>408.78000000000003</ele>
   </trkpt>
   <trkpt lat="-37.87664" lon="145.39116">
    <ele>412.88</ele>
   </trkpt>
   <trkpt lat="-37.87639" lon="145.39154000000002">
    <ele>415.17</ele>
   </trkpt>
   <trkpt lat="-37.87617" lon="145.39179000000001">
    <ele>417.18000000000006</ele>
   </trkpt>
   <trkpt lat="-37.87594" lon="145.39196">
    <ele>417.97</ele>
   </trkpt>
   <trkpt lat="-37.87547" lon="145.39213">
    <ele>421.07000000000005</ele>
   </trkpt>
   <trkpt lat="-37.875350000000005" lon="145.39215000000002">
    <ele>422.18000000000006</ele>
   </trkpt>
   <trkpt lat="-37.874995003819336" lon="145.39119499529644">
    <ele>437.22</ele>
   </trkpt>
   <trkpt lat="-37.87464000000001" lon="145.39024">
    <ele>453.81000000000006</ele>
   </trkpt>
   <trkpt lat="-37.8742750033747" lon="145.38935499576647">
    <ele>466.55</ele>
   </trkpt>
   <trkpt lat="-37.87391" lon="145.38847">
    <ele>476.48</ele>
   </trkpt>
   <trkpt lat="-37.87375" lon="145.38798">
    <ele>482.73</ele>
   </trkpt>
   <trkpt lat="-37.873760000000004" lon="145.38772">
    <ele>486.00000000000006</ele>
   </trkpt>
   <trkpt lat="-37.87382" lon="145.3874">
    <ele>489.39000000000004</ele>
   </trkpt>
   <trkpt lat="-37.873920000000005" lon="145.38667">
    <ele>499.95000000000005</ele>
   </trkpt>
   <trkpt lat="-37.87398" lon="145.38603">
    <ele>507.65000000000003</ele>
   </trkpt>
   <trkpt lat="-37.87411" lon="145.38505">
    <ele>511.06000000000006</ele>
   </trkpt>
   <trkpt lat="-37.874190000000006" lon="145.38435">
    <ele>508.71</ele>
   </trkpt>
   <trkpt lat="-37.87413" lon="145.38433">
    <ele>508.71</ele>
   </trkpt>
   <trkpt lat="-37.87422" lon="145.38351">
    <ele>508.71</ele>
   </trkpt>
   <trkpt lat="-37.87429" lon="145.38327">
    <ele>495.75</ele>
   </trkpt>
   <trkpt lat="-37.874100000000006" lon="145.3829">
    <ele>495.75</ele>
   </trkpt>
   <trkpt lat="-37.87368" lon="145.38242000000002">
    <ele>495.75</ele>
   </trkpt>
   <trkpt lat="-37.87344" lon="145.38215000000002">
    <ele>492.46000000000004</ele>
   </trkpt>
   <trkpt lat="-37.87339" lon="145.38197000000002">
    <ele>492.46000000000004</ele>
   </trkpt>
   <trkpt lat="-37.873090000000005" lon="145.38162">
    <ele>488.67</ele>
   </trkpt>
   <trkpt lat="-37.873070000000006" lon="145.38148">
    <ele>489.09000000000003</ele>
   </trkpt>
   <trkpt lat="-37.87283" lon="145.38095">
    <ele>490.67</ele>
   </trkpt>
   <trkpt lat="-37.872690000000006" lon="145.38075">
    <ele>491.44000000000005</ele>
   </trkpt>
   <trkpt lat="-37.87279" lon="145.38043000000002">
    <ele>492.95000000000005</ele>
   </trkpt>
   <trkpt lat="-37.8729" lon="145.37994">
    <ele>493.39000000000004</ele>
   </trkpt>
   <trkpt lat="-37.873050000000006" lon="145.37942">
    <ele>488.23</ele>
   </trkpt>
   <trkpt lat="-37.87314000000001" lon="145.37894">
    <ele>482.94</ele>
   </trkpt>
   <trkpt lat="-37.87314000000001" lon="145.37893000000003">
    <ele>482.74000000000007</ele>
   </trkpt>
   <trkpt lat="-37.87333667524152" lon="145.37792333868921">
    <ele>471.64000000000004</ele>
   </trkpt>
   <trkpt lat="-37.87353334191191" lon="145.37691667200355">
    <ele>460.59000000000003</ele>
   </trkpt>
   <trkpt lat="-37.87373" lon="145.37591">
    <ele>440.50000000000006</ele>
   </trkpt>
   <trkpt lat="-37.87386" lon="145.37503">
    <ele>429.71000000000004</ele>
   </trkpt>
   <trkpt lat="-37.874040001886186" lon="145.37437500133908">
    <ele>421.87</ele>
   </trkpt>
   <trkpt lat="-37.87422" lon="145.37372000000002">
    <ele>409.44</ele>
   </trkpt>
   <trkpt lat="-37.87422" lon="145.37371000000002">
    <ele>409.27000000000004</ele>
   </trkpt>
   <trkpt lat="-37.87433" lon="145.37300000000002">
    <ele>396.76000000000005</ele>
   </trkpt>
   <trkpt lat="-37.87449500152985" lon="145.372400001317">
    <ele>374.45</ele>
   </trkpt>
   <trkpt lat="-37.874660000000006" lon="145.3718">
    <ele>357.16</ele>
   </trkpt>
   <trkpt lat="-37.874700000000004" lon="145.37130000000002">
    <ele>347.42</ele>
   </trkpt>
   <trkpt lat="-37.875040000000006" lon="145.37126">
    <ele>344.78000000000003</ele>
   </trkpt>
   <trkpt lat="-37.875220000000006" lon="145.37127">
    <ele>344.22</ele>
   </trkpt>
   <trkpt lat="-37.87579" lon="145.37137">
    <ele>339.91</ele>
   </trkpt>
   <trkpt lat="-37.87597" lon="145.37137">
    <ele>338.95000000000005</ele>
   </trkpt>
   <trkpt lat="-37.87628" lon="145.37130000000002">
    <ele>336.61</ele>
   </trkpt>
   <trkpt lat="-37.87637" lon="145.37132000000003">
    <ele>336.08000000000004</ele>
   </trkpt>
   <trkpt lat="-37.8765" lon="145.37138000000002">
    <ele>335.41</ele>
   </trkpt>
   <trkpt lat="-37.87635" lon="145.37115">
    <ele>358.89000000000004</ele>
   </trkpt>
   <trkpt lat="-37.87614000000001" lon="145.37109">
    <ele>358.89000000000004</ele>
   </trkpt>
   <trkpt lat="-37.87608" lon="145.37106">
    <ele>358.92</ele>
   </trkpt>
   <trkpt lat="-37.875600000000006" lon="145.37072">
    <ele>363.90000000000003</ele>
   </trkpt>
   <trkpt lat="-37.8755" lon="145.37059000000002">
    <ele>365.76000000000005</ele>
   </trkpt>
   <trkpt lat="-37.87541" lon="145.37033000000002">
    <ele>369.57</ele>
   </trkpt>
   <trkpt lat="-37.87541" lon="145.37022000000002">
    <ele>370.72</ele>
   </trkpt>
   <trkpt lat="-37.87536" lon="145.36978000000002">
    <ele>374.89000000000004</ele>
   </trkpt>
   <trkpt lat="-37.87541" lon="145.36953000000003">
    <ele>373.54</ele>
   </trkpt>
   <trkpt lat="-37.87545" lon="145.36945">
    <ele>372.48</ele>
   </trkpt>
   <trkpt lat="-37.87554" lon="145.36915000000002">
    <ele>370.29</ele>
   </trkpt>
   <trkpt lat="-37.87554" lon="145.36892">
    <ele>369.71000000000004</ele>
   </trkpt>
   <trkpt lat="-37.87545" lon="145.3683">
    <ele>373.51</ele>
   </trkpt>
   <trkpt lat="-37.875510000000006" lon="145.36811">
    <ele>373.71000000000004</ele>
   </trkpt>
   <trkpt lat="-37.87561" lon="145.36791000000002">
    <ele>374.05000000000007</ele>
   </trkpt>
   <trkpt lat="-37.875690000000006" lon="145.36763000000002">
    <ele>375.66</ele>
   </trkpt>
   <trkpt lat="-37.8757" lon="145.3675">
    <ele>377.13</ele>
   </trkpt>
   <trkpt lat="-37.87559" lon="145.36734">
    <ele>378.76000000000005</ele>
   </trkpt>
   <trkpt lat="-37.87523" lon="145.36692000000002">
    <ele>381.46000000000004</ele>
   </trkpt>
   <trkpt lat="-37.87514" lon="145.36678">
    <ele>381.83000000000004</ele>
   </trkpt>
   <trkpt lat="-37.87489" lon="145.36658">
    <ele>384.71000000000004</ele>
   </trkpt>
   <trkpt lat="-37.87482" lon="145.36644">
    <ele>385.92</ele>
   </trkpt>
   <trkpt lat="-37.8748" lon="145.366">
    <ele>383.75</ele>
   </trkpt>
   <trkpt lat="-37.874660000000006" lon="145.36564">
    <ele>384.87000000000006</ele>
   </trkpt>
   <trkpt lat="-37.87435" lon="145.36469000000002">
    <ele>387.18</ele>
   </trkpt>
   <trkpt lat="-37.87435" lon="145.36442000000002">
    <ele>386.56</ele>
   </trkpt>
   <trkpt lat="-37.87438" lon="145.3642">
    <ele>385.27000000000004</ele>
   </trkpt>
   <trkpt lat="-37.87438" lon="145.36402">
    <ele>384.92</ele>
   </trkpt>
   <trkpt lat="-37.87426" lon="145.36375">
    <ele>385.45</ele>
   </trkpt>
   <trkpt lat="-37.87404" lon="145.36343000000002">
    <ele>385.28000000000003</ele>
   </trkpt>
   <trkpt lat="-37.874030000000005" lon="145.36315000000002">
    <ele>383.33</ele>
   </trkpt>
   <trkpt lat="-37.87402" lon="145.36301">
    <ele>382.12</ele>
   </trkpt>
   <trkpt lat="-37.87382" lon="145.36244000000002">
    <ele>379.5</ele>
   </trkpt>
   <trkpt lat="-37.87373" lon="145.36223">
    <ele>378.02000000000004</ele>
   </trkpt>
   <trkpt lat="-37.873740000000005" lon="145.36213">
    <ele>377.59000000000003</ele>
   </trkpt>
   <trkpt lat="-37.87377" lon="145.36206">
    <ele>392.42</ele>
   </trkpt>
   <trkpt lat="-37.87377" lon="145.36196">
    <ele>393.01</ele>
   </trkpt>
   <trkpt lat="-37.87368" lon="145.36174000000003">
    <ele>397.27</ele>
   </trkpt>
   <trkpt lat="-37.87355" lon="145.36154000000002">
    <ele>400.05</ele>
   </trkpt>
   <trkpt lat="-37.87357" lon="145.36146000000002">
    <ele>400.22</ele>
   </trkpt>
   <trkpt lat="-37.873560000000005" lon="145.36141">
    <ele>400.52000000000004</ele>
   </trkpt>
   <trkpt lat="-37.873540000000006" lon="145.3614">
    <ele>400.52000000000004</ele>
   </trkpt>
   <trkpt lat="-37.873490000000004" lon="145.36143">
    <ele>400.70000000000005</ele>
   </trkpt>
   <trkpt lat="-37.873400000000004" lon="145.36126000000002">
    <ele>401.41</ele>
   </trkpt>
   <trkpt lat="-37.873360000000005" lon="145.36122">
    <ele>402.04</ele>
   </trkpt>
   <trkpt lat="-37.87292" lon="145.36119000000002">
    <ele>406.26</ele>
   </trkpt>
   <trkpt lat="-37.87243" lon="145.36129000000003">
    <ele>408.21000000000004</ele>
   </trkpt>
   <trkpt lat="-37.87234" lon="145.36127000000002">
    <ele>408.76</ele>
   </trkpt>
   <trkpt lat="-37.87221" lon="145.36118000000002">
    <ele>409.25000000000006</ele>
   </trkpt>
   <trkpt lat="-37.87205" lon="145.36114">
    <ele>410.18000000000006</ele>
   </trkpt>
   <trkpt lat="-37.87182" lon="145.36126000000002">
    <ele>410.11</ele>
   </trkpt>
   <trkpt lat="-37.87113" lon="145.36123">
    <ele>410.16</ele>
   </trkpt>
   <trkpt lat="-37.87071" lon="145.36105">
    <ele>411.02000000000004</ele>
   </trkpt>
   <trkpt lat="-37.86999" lon="145.36083000000002">
    <ele>412.83000000000004</ele>
   </trkpt>
   <trkpt lat="-37.86972" lon="145.36065000000002">
    <ele>412.77000000000004</ele>
   </trkpt>
   <trkpt lat="-37.86963" lon="145.36053">
    <ele>413.59000000000003</ele>
   </trkpt>
   <trkpt lat="-37.8695" lon="145.36015">
    <ele>415.89000000000004</ele>
   </trkpt>
   <trkpt lat="-37.869220000000006" lon="145.35977000000003">
    <ele>416.11</ele>
   </trkpt>
   <trkpt lat="-37.86887" lon="145.35943">
    <ele>417.92</ele>
   </trkpt>
   <trkpt lat="-37.86871" lon="145.35917">
    <ele>419.71000000000004</ele>
   </trkpt>
   <trkpt lat="-37.8682" lon="145.35908">
    <ele>419.31</ele>
   </trkpt>
   <trkpt lat="-37.86806" lon="145.35901">
    <ele>419.6</ele>
   </trkpt>
   <trkpt lat="-37.86793" lon="145.35878000000002">
    <ele>420.07000000000005</ele>
   </trkpt>
   <trkpt lat="-37.86773" lon="145.35860000000002">
    <ele>418.96000000000004</ele>
   </trkpt>
   <trkpt lat="-37.86768" lon="145.35852">
    <ele>418.94</ele>
   </trkpt>
   <trkpt lat="-37.86771" lon="145.35824000000002">
    <ele>419.48</ele>
   </trkpt>
   <trkpt lat="-37.86766" lon="145.35817">
    <ele>419.44000000000005</ele>
   </trkpt>
   <trkpt lat="-37.86755" lon="145.35812">
    <ele>419.46000000000004</ele>
   </trkpt>
   <trkpt lat="-37.86748" lon="145.35804000000002">
    <ele>419.64</ele>
   </trkpt>
   <trkpt lat="-37.86737" lon="145.35797000000002">
    <ele>419.6</ele>
   </trkpt>
   <trkpt lat="-37.86728" lon="145.35787000000002">
    <ele>420.09000000000003</ele>
   </trkpt>
   <trkpt lat="-37.867140000000006" lon="145.35775">
    <ele>420.96000000000004</ele>
   </trkpt>
   <trkpt lat="-37.86688" lon="145.35736">
    <ele>420.47</ele>
   </trkpt>
   <trkpt lat="-37.86675" lon="145.35739">
    <ele>420.7</ele>
   </trkpt>
   <trkpt lat="-37.86672" lon="145.35738">
    <ele>420.7</ele>
   </trkpt>
   <trkpt lat="-37.86654" lon="145.35708000000002">
    <ele>422.56000000000006</ele>
   </trkpt>
   <trkpt lat="-37.86632" lon="145.35688000000002">
    <ele>425.54</ele>
   </trkpt>
   <trkpt lat="-37.86623" lon="145.35682">
    <ele>426.13</ele>
   </trkpt>
   <trkpt lat="-37.866" lon="145.35656">
    <ele>428.50000000000006</ele>
   </trkpt>
   <trkpt lat="-37.86585" lon="145.35607000000002">
    <ele>431.87</ele>
   </trkpt>
   <trkpt lat="-37.86589" lon="145.35592000000003">
    <ele>434.3</ele>
   </trkpt>
   <trkpt lat="-37.865860000000005" lon="145.35572000000002">
    <ele>435.14000000000004</ele>
   </trkpt>
   <trkpt lat="-37.86596" lon="145.35572000000002">
    <ele>435.46</ele>
   </trkpt>
   <trkpt lat="-37.866" lon="145.35554000000002">
    <ele>435.62000000000006</ele>
   </trkpt>
   <trkpt lat="-37.865990000000004" lon="145.35551">
    <ele>435.62000000000006</ele>
   </trkpt>
   <trkpt lat="-37.86598" lon="145.35542">
    <ele>435.78000000000003</ele>
   </trkpt>
   <trkpt lat="-37.86591000000001" lon="145.35539">
    <ele>435.78000000000003</ele>
   </trkpt>
   <trkpt lat="-37.86547" lon="145.35535000000002">
    <ele>440.15000000000003</ele>
   </trkpt>
   <trkpt lat="-37.8652" lon="145.35519000000002">
    <ele>444.83000000000004</ele>
   </trkpt>
   <trkpt lat="-37.86502" lon="145.35512">
    <ele>446.65000000000003</ele>
   </trkpt>
   <trkpt lat="-37.864850000000004" lon="145.35513">
    <ele>448.66</ele>
   </trkpt>
   <trkpt lat="-37.8645" lon="145.35506">
    <ele>456.03000000000003</ele>
   </trkpt>
   <trkpt lat="-37.86435" lon="145.35499000000002">
    <ele>461.46000000000004</ele>
   </trkpt>
   <trkpt lat="-37.86415" lon="145.35496">
    <ele>465.15000000000003</ele>
   </trkpt>
   <trkpt lat="-37.863600000000005" lon="145.35494">
    <ele>473.62</ele>
   </trkpt>
   <trkpt lat="-37.86345" lon="145.35489">
    <ele>475.75000000000006</ele>
   </trkpt>
   <trkpt lat="-37.86334" lon="145.35477">
    <ele>476.69000000000005</ele>
   </trkpt>
   <trkpt lat="-37.86316" lon="145.35444">
    <ele>485.7</ele>
   </trkpt>
   <trkpt lat="-37.86287" lon="145.3538">
    <ele>481.13000000000005</ele>
   </trkpt>
   <trkpt lat="-37.862840000000006" lon="145.35371">
    <ele>480.95000000000005</ele>
   </trkpt>
   <trkpt lat="-37.862860000000005" lon="145.35369">
    <ele>480.95000000000005</ele>
   </trkpt>
   <trkpt lat="-37.86256" lon="145.353">
    <ele>477.63000000000005</ele>
   </trkpt>
   <trkpt lat="-37.86253" lon="145.35292">
    <ele>477.63000000000005</ele>
   </trkpt>
   <trkpt lat="-37.86253" lon="145.35285000000002">
    <ele>477.64000000000004</ele>
   </trkpt>
   <trkpt lat="-37.86242" lon="145.35278000000002">
    <ele>478.93</ele>
   </trkpt>
   <trkpt lat="-37.86222" lon="145.35236">
    <ele>472.81000000000006</ele>
   </trkpt>
   <trkpt lat="-37.86216" lon="145.35208">
    <ele>470.59000000000003</ele>
   </trkpt>
   <trkpt lat="-37.86215" lon="145.35175">
    <ele>468.84000000000003</ele>
   </trkpt>
   <trkpt lat="-37.86222" lon="145.3514">
    <ele>466.0400000000001</ele>
   </trkpt>
   <trkpt lat="-37.86274" lon="145.35069000000001">
    <ele>458.53000000000003</ele>
   </trkpt>
   <trkpt lat="-37.86285" lon="145.35058">
    <ele>455.26000000000005</ele>
   </trkpt>
   <trkpt lat="-37.86307" lon="145.35010000000003">
    <ele>450.01</ele>
   </trkpt>
   <trkpt lat="-37.863080000000004" lon="145.35010000000003">
    <ele>449.95</ele>
   </trkpt>
   <trkpt lat="-37.863130000000005" lon="145.34997">
    <ele>448.26000000000005</ele>
   </trkpt>
   <trkpt lat="-37.86321" lon="145.3496">
    <ele>444.75</ele>
   </trkpt>
   <trkpt lat="-37.86323" lon="145.3494">
    <ele>443.52000000000004</ele>
   </trkpt>
   <trkpt lat="-37.86318" lon="145.34895">
    <ele>436.95000000000005</ele>
   </trkpt>
   <trkpt lat="-37.86316" lon="145.34836">
    <ele>430.76000000000005</ele>
   </trkpt>
   <trkpt lat="-37.86312" lon="145.34826">
    <ele>429.69</ele>
   </trkpt>
   <trkpt lat="-37.86296" lon="145.34810000000002">
    <ele>427.68000000000006</ele>
   </trkpt>
   <trkpt lat="-37.86256" lon="145.34787">
    <ele>423.94000000000005</ele>
   </trkpt>
   <trkpt lat="-37.86245" lon="145.34777000000003">
    <ele>423.94000000000005</ele>
   </trkpt>
   <trkpt lat="-37.8622" lon="145.34749000000002">
    <ele>418.64</ele>
   </trkpt>
   <trkpt lat="-37.86206" lon="145.34726">
    <ele>415.59000000000003</ele>
   </trkpt>
   <trkpt lat="-37.86202" lon="145.34712000000002">
    <ele>415.59000000000003</ele>
   </trkpt>
   <trkpt lat="-37.86193" lon="145.34642000000002">
    <ele>406.44</ele>
   </trkpt>
   <trkpt lat="-37.86209" lon="145.34566">
    <ele>400.03000000000003</ele>
   </trkpt>
   <trkpt lat="-37.86213" lon="145.34550000000002">
    <ele>400.03000000000003</ele>
   </trkpt>
   <trkpt lat="-37.86238" lon="145.34501">
    <ele>394.69000000000005</ele>
   </trkpt>
   <trkpt lat="-37.86253" lon="145.34477">
    <ele>393.74</ele>
   </trkpt>
   <trkpt lat="-37.862840000000006" lon="145.3444">
    <ele>386.36</ele>
   </trkpt>
   <trkpt lat="-37.86305" lon="145.34406">
    <ele>384.37000000000006</ele>
   </trkpt>
   <trkpt lat="-37.86307" lon="145.34395">
    <ele>384.0</ele>
   </trkpt>
   <trkpt lat="-37.86303" lon="145.34388">
    <ele>384.0</ele>
   </trkpt>
   <trkpt lat="-37.86296" lon="145.34383000000003">
    <ele>383.66</ele>
   </trkpt>
   <trkpt lat="-37.86231" lon="145.34352">
    <ele>379.41</ele>
   </trkpt>
   <trkpt lat="-37.86204" lon="145.34342">
    <ele>377.46000000000004</ele>
   </trkpt>
   <trkpt lat="-37.86168" lon="145.34332">
    <ele>375.44000000000005</ele>
   </trkpt>
   <trkpt lat="-37.861520000000006" lon="145.34317000000001">
    <ele>372.73</ele>
   </trkpt>
   <trkpt lat="-37.86139" lon="145.34300000000002">
    <ele>371.77000000000004</ele>
   </trkpt>
   <trkpt lat="-37.86128" lon="145.34276">
    <ele>370.89000000000004</ele>
   </trkpt>
   <trkpt lat="-37.86121" lon="145.34249">
    <ele>368.94000000000005</ele>
   </trkpt>
   <trkpt lat="-37.86108" lon="145.3417">
    <ele>365.19</ele>
   </trkpt>
   <trkpt lat="-37.86097" lon="145.34123000000002">
    <ele>361.55</ele>
   </trkpt>
   <trkpt lat="-37.86092" lon="145.34113000000002">
    <ele>359.00000000000006</ele>
   </trkpt>
   <trkpt lat="-37.860780000000005" lon="145.341">
    <ele>358.97</ele>
   </trkpt>
   <trkpt lat="-37.86086" lon="145.34071">
    <ele>363.37</ele>
   </trkpt>
   <trkpt lat="-37.86103000000001" lon="145.34033000000002">
    <ele>372.9</ele>
   </trkpt>
   <trkpt lat="-37.86103000000001" lon="145.34031000000002">
    <ele>373.11000000000007</ele>
   </trkpt>
   <trkpt lat="-37.86112" lon="145.34012">
    <ele>380.89</ele>
   </trkpt>
   <trkpt lat="-37.86117" lon="145.3399">
    <ele>388.81000000000006</ele>
   </trkpt>
   <trkpt lat="-37.86117" lon="145.33978000000002">
    <ele>392.28000000000003</ele>
   </trkpt>
   <trkpt lat="-37.86115" lon="145.33973">
    <ele>393.52000000000004</ele>
   </trkpt>
   <trkpt lat="-37.86081" lon="145.33949">
    <ele>394.64000000000004</ele>
   </trkpt>
   <trkpt lat="-37.86056" lon="145.33914000000001">
    <ele>393.88</ele>
   </trkpt>
   <trkpt lat="-37.8605" lon="145.33886">
    <ele>393.97</ele>
   </trkpt>
   <trkpt lat="-37.860510000000005" lon="145.33876">
    <ele>394.28000000000003</ele>
   </trkpt>
   <trkpt lat="-37.86112" lon="145.33909">
    <ele>403.68</ele>
   </trkpt>
   <trkpt lat="-37.86113" lon="145.33907000000002">
    <ele>399.89000000000004</ele>
   </trkpt>
   <trkpt lat="-37.86168" lon="145.33925000000002">
    <ele>411.84000000000003</ele>
   </trkpt>
   <trkpt lat="-37.8622" lon="145.33963">
    <ele>420.6</ele>
   </trkpt>
   <trkpt lat="-37.862860000000005" lon="145.34025000000003">
    <ele>439.6</ele>
   </trkpt>
   <trkpt lat="-37.863310000000006" lon="145.34074">
    <ele>456.32000000000005</ele>
   </trkpt>
   <trkpt lat="-37.8639" lon="145.34133">
    <ele>473.63000000000005</ele>
   </trkpt>
   <trkpt lat="-37.86433" lon="145.34163">
    <ele>480.74000000000007</ele>
   </trkpt>
   <trkpt lat="-37.86489" lon="145.34179">
    <ele>482.94</ele>
   </trkpt>
   <trkpt lat="-37.86516" lon="145.34179">
    <ele>481.92</ele>
   </trkpt>
   <trkpt lat="-37.86518" lon="145.34179">
    <ele>481.86000000000007</ele>
   </trkpt>
   <trkpt lat="-37.865610000000004" lon="145.34172">
    <ele>482.02000000000004</ele>
   </trkpt>
   <trkpt lat="-37.86565" lon="145.34188">
    <ele>481.48</ele>
   </trkpt>
   <trkpt lat="-37.86587" lon="145.34215">
    <ele>479.98</ele>
   </trkpt>
   <trkpt lat="-37.86634" lon="145.34241">
    <ele>478.44</ele>
   </trkpt>
   <trkpt lat="-37.86663" lon="145.34261">
    <ele>477.21000000000004</ele>
   </trkpt>
   <trkpt lat="-37.86717" lon="145.34283000000002">
    <ele>478.2</ele>
   </trkpt>
   <trkpt lat="-37.86741" lon="145.34287">
    <ele>481.06000000000006</ele>
   </trkpt>
   <trkpt lat="-37.86766" lon="145.34284000000002">
    <ele>484.94000000000005</ele>
   </trkpt>
   <trkpt lat="-37.86838" lon="145.34305">
    <ele>489.52000000000004</ele>
   </trkpt>
   <trkpt lat="-37.86891" lon="145.34316">
    <ele>492.73</ele>
   </trkpt>
   <trkpt lat="-37.86914" lon="145.34323">
    <ele>494.17</ele>
   </trkpt>
   <trkpt lat="-37.86979" lon="145.34337000000002">
    <ele>497.07000000000005</ele>
   </trkpt>
   <trkpt lat="-37.86985" lon="145.34342">
    <ele>497.53000000000003</ele>
   </trkpt>
   <trkpt lat="-37.87001" lon="145.34359">
    <ele>496.04</ele>
   </trkpt>
   <trkpt lat="-37.87026" lon="145.34375">
    <ele>493.2</ele>
   </trkpt>
   <trkpt lat="-37.87037" lon="145.34387">
    <ele>493.57000000000005</ele>
   </trkpt>
   <trkpt lat="-37.87066" lon="145.34400000000002">
    <ele>499.66</ele>
   </trkpt>
   <trkpt lat="-37.87088" lon="145.34414">
    <ele>504.81000000000006</ele>
   </trkpt>
   <trkpt lat="-37.87109" lon="145.34422">
    <ele>508.56</ele>
   </trkpt>
   <trkpt lat="-37.87147" lon="145.34362000000002">
    <ele>510.97</ele>
   </trkpt>
   <trkpt lat="-37.87169" lon="145.34336000000002">
    <ele>512.95</ele>
   </trkpt>
   <trkpt lat="-37.87209000061471" lon="145.34371999810543">
    <ele>514.7900000000001</ele>
   </trkpt>
   <trkpt lat="-37.872490000000006" lon="145.34408000000002">
    <ele>516.6800000000001</ele>
   </trkpt>
   <trkpt lat="-37.87279" lon="145.34387">
    <ele>515.58</ele>
   </trkpt>
   <trkpt lat="-37.873160000000006" lon="145.34367">
    <ele>512.46</ele>
   </trkpt>
   <trkpt lat="-37.873850000000004" lon="145.34346000000002">
    <ele>509.05</ele>
   </trkpt>
   <trkpt lat="-37.87386" lon="145.34346000000002">
    <ele>509.02000000000004</ele>
   </trkpt>
   <trkpt lat="-37.87411" lon="145.34339">
    <ele>507.95</ele>
   </trkpt>
   <trkpt lat="-37.87449" lon="145.34325">
    <ele>505.0</ele>
   </trkpt>
   <trkpt lat="-37.87471" lon="145.34313">
    <ele>503.65000000000003</ele>
   </trkpt>
   <trkpt lat="-37.87505" lon="145.34289">
    <ele>502.56</ele>
   </trkpt>
   <trkpt lat="-37.8751" lon="145.34298">
    <ele>502.28000000000003</ele>
   </trkpt>
   <trkpt lat="-37.875350000000005" lon="145.3428">
    <ele>502.65999999999997</ele>
   </trkpt>
   <trkpt lat="-37.875370000000004" lon="145.34295">
    <ele>503.06000000000006</ele>
   </trkpt>
   <trkpt lat="-37.875510000000006" lon="145.34301000000002">
    <ele>504.70000000000005</ele>
   </trkpt>
   <trkpt lat="-37.8755" lon="145.34335000000002">
    <ele>508.99000000000007</ele>
   </trkpt>
   <trkpt lat="-37.87545" lon="145.3436">
    <ele>511.3500000000001</ele>
   </trkpt>
   <trkpt lat="-37.875510000000006" lon="145.34384">
    <ele>512.51</ele>
   </trkpt>
   <trkpt lat="-37.87556" lon="145.34399000000002">
    <ele>513.1999999999999</ele>
   </trkpt>
   <trkpt lat="-37.875690000000006" lon="145.34416000000002">
    <ele>513.9</ele>
   </trkpt>
   <trkpt lat="-37.8759" lon="145.34467">
    <ele>515.8600000000001</ele>
   </trkpt>
   <trkpt lat="-37.875960000000006" lon="145.34483">
    <ele>516.87</ele>
   </trkpt>
   <trkpt lat="-37.87599" lon="145.34493">
    <ele>516.7900000000001</ele>
   </trkpt>
   <trkpt lat="-37.87599" lon="145.3454">
    <ele>518.8900000000001</ele>
   </trkpt>
   <trkpt lat="-37.87603" lon="145.34573">
    <ele>519.3100000000001</ele>
   </trkpt>
   <trkpt lat="-37.87603" lon="145.34592">
    <ele>519.2800000000001</ele>
   </trkpt>
   <trkpt lat="-37.87615" lon="145.34678000000002">
    <ele>517.23</ele>
   </trkpt>
   <trkpt lat="-37.87621" lon="145.34698">
    <ele>515.26</ele>
   </trkpt>
   <trkpt lat="-37.8763" lon="145.34708">
    <ele>514.49</ele>
   </trkpt>
   <trkpt lat="-37.87648" lon="145.34716">
    <ele>514.03</ele>
   </trkpt>
   <trkpt lat="-37.8767" lon="145.34722000000002">
    <ele>514.38</ele>
   </trkpt>
   <trkpt lat="-37.87726" lon="145.34721000000002">
    <ele>514.38</ele>
   </trkpt>
   <trkpt lat="-37.87758" lon="145.34729000000002">
    <ele>514.0</ele>
   </trkpt>
   <trkpt lat="-37.87776" lon="145.34745">
    <ele>513.08</ele>
   </trkpt>
   <trkpt lat="-37.87783" lon="145.34756000000002">
    <ele>512.39</ele>
   </trkpt>
   <trkpt lat="-37.87794" lon="145.34774000000002">
    <ele>511.46000000000004</ele>
   </trkpt>
   <trkpt lat="-37.878040000000006" lon="145.34804000000003">
    <ele>509.57000000000005</ele>
   </trkpt>
   <trkpt lat="-37.87825" lon="145.34847000000002">
    <ele>506.27</ele>
   </trkpt>
   <trkpt lat="-37.87847" lon="145.34895">
    <ele>503.17</ele>
   </trkpt>
   <trkpt lat="-37.87872" lon="145.34991000000002">
    <ele>500.99</ele>
   </trkpt>
   <trkpt lat="-37.87876" lon="145.35029">
    <ele>500.0300000000001</ele>
   </trkpt>
   <trkpt lat="-37.87859" lon="145.35132000000002">
    <ele>495.95000000000005</ele>
   </trkpt>
   <trkpt lat="-37.87841" lon="145.3519">
    <ele>494.2300000000001</ele>
   </trkpt>
   <trkpt lat="-37.87832" lon="145.35207000000003">
    <ele>493.75</ele>
   </trkpt>
   <trkpt lat="-37.87827" lon="145.35227">
    <ele>492.94000000000005</ele>
   </trkpt>
   <trkpt lat="-37.87816" lon="145.35258000000002">
    <ele>491.46000000000004</ele>
   </trkpt>
   <trkpt lat="-37.87782" lon="145.35314000000002">
    <ele>489.49</ele>
   </trkpt>
   <trkpt lat="-37.87773" lon="145.35335">
    <ele>487.84000000000003</ele>
   </trkpt>
   <trkpt lat="-37.877230000000004" lon="145.35415">
    <ele>484.33000000000004</ele>
   </trkpt>
   <trkpt lat="-37.877370000000006" lon="145.35409">
    <ele>491.14</ele>
   </trkpt>
   <trkpt lat="-37.87747" lon="145.354">
    <ele>491.27000000000004</ele>
   </trkpt>
   <trkpt lat="-37.877480000000006" lon="145.35399">
    <ele>491.2900000000001</ele>
   </trkpt>
   <trkpt lat="-37.87771" lon="145.35379">
    <ele>491.73</ele>
   </trkpt>
   <trkpt lat="-37.878130000000006" lon="145.35348000000002">
    <ele>492.94000000000005</ele>
   </trkpt>
   <trkpt lat="-37.87847" lon="145.35309">
    <ele>494.13</ele>
   </trkpt>
   <trkpt lat="-37.87859" lon="145.35291">
    <ele>494.13</ele>
   </trkpt>
   <trkpt lat="-37.87894" lon="145.35199">
    <ele>496.56000000000006</ele>
   </trkpt>
   <trkpt lat="-37.87908" lon="145.35178000000002">
    <ele>496.85</ele>
   </trkpt>
   <trkpt lat="-37.87946" lon="145.35142000000002">
    <ele>498.01000000000005</ele>
   </trkpt>
   <trkpt lat="-37.87961" lon="145.3514">
    <ele>498.11000000000007</ele>
   </trkpt>
   <trkpt lat="-37.87993" lon="145.35151000000002">
    <ele>497.84000000000003</ele>
   </trkpt>
   <trkpt lat="-37.88011" lon="145.35161000000002">
    <ele>497.94000000000005</ele>
   </trkpt>
   <trkpt lat="-37.88042" lon="145.35184">
    <ele>498.44000000000005</ele>
   </trkpt>
   <trkpt lat="-37.88056" lon="145.35199">
    <ele>498.66</ele>
   </trkpt>
   <trkpt lat="-37.88103" lon="145.35239">
    <ele>498.37</ele>
   </trkpt>
   <trkpt lat="-37.88125" lon="145.35248">
    <ele>497.36</ele>
   </trkpt>
   <trkpt lat="-37.88152" lon="145.35244">
    <ele>497.1700000000001</ele>
   </trkpt>
   <trkpt lat="-37.882090000547386" lon="145.3520850027386">
    <ele>494.82000000000005</ele>
   </trkpt>
   <trkpt lat="-37.88266" lon="145.35173">
    <ele>489.89000000000004</ele>
   </trkpt>
   <trkpt lat="-37.882920000000006" lon="145.35153000000003">
    <ele>487.56000000000006</ele>
   </trkpt>
   <trkpt lat="-37.88324" lon="145.3513">
    <ele>482.21000000000004</ele>
   </trkpt>
   <trkpt lat="-37.8834" lon="145.35126000000002">
    <ele>480.73</ele>
   </trkpt>
   <trkpt lat="-37.88347" lon="145.35125000000002">
    <ele>480.31</ele>
   </trkpt>
   <trkpt lat="-37.883790000000005" lon="145.35131">
    <ele>476.77000000000004</ele>
   </trkpt>
   <trkpt lat="-37.88373" lon="145.3514">
    <ele>477.19000000000005</ele>
   </trkpt>
   <trkpt lat="-37.88353" lon="145.35180000000003">
    <ele>479.02000000000004</ele>
   </trkpt>
   <trkpt lat="-37.88342" lon="145.35195000000002">
    <ele>479.17</ele>
   </trkpt>
   <trkpt lat="-37.88311" lon="145.35219">
    <ele>478.95000000000005</ele>
   </trkpt>
   <trkpt lat="-37.883" lon="145.35234">
    <ele>479.27000000000004</ele>
   </trkpt>
   <trkpt lat="-37.88266" lon="145.3531">
    <ele>481.15000000000003</ele>
   </trkpt>
   <trkpt lat="-37.88266" lon="145.35319">
    <ele>481.47</ele>
   </trkpt>
   <trkpt lat="-37.88282" lon="145.35356000000002">
    <ele>483.72</ele>
   </trkpt>
   <trkpt lat="-37.88291" lon="145.35394000000002">
    <ele>485.21000000000004</ele>
   </trkpt>
   <trkpt lat="-37.88293" lon="145.35439000000002">
    <ele>486.67</ele>
   </trkpt>
   <trkpt lat="-37.88315" lon="145.35522">
    <ele>488.61</ele>
   </trkpt>
   <trkpt lat="-37.88318" lon="145.3554">
    <ele>489.49</ele>
   </trkpt>
   <trkpt lat="-37.88351" lon="145.3553">
    <ele>487.35</ele>
   </trkpt>
   <trkpt lat="-37.8838" lon="145.35575">
    <ele>488.50000000000006</ele>
   </trkpt>
   <trkpt lat="-37.88387" lon="145.35593">
    <ele>489.43</ele>
   </trkpt>
   <trkpt lat="-37.88391" lon="145.35613">
    <ele>490.86</ele>
   </trkpt>
   <trkpt lat="-37.88391" lon="145.35645000000002">
    <ele>493.38000000000005</ele>
   </trkpt>
   <trkpt lat="-37.88389" lon="145.35675">
    <ele>494.76000000000005</ele>
   </trkpt>
   <trkpt lat="-37.883790000000005" lon="145.35713">
    <ele>496.07000000000005</ele>
   </trkpt>
   <trkpt lat="-37.88385" lon="145.35776">
    <ele>498.55</ele>
   </trkpt>
   <trkpt lat="-37.88389" lon="145.35785">
    <ele>499.57</ele>
   </trkpt>
   <trkpt lat="-37.884" lon="145.35808">
    <ele>501.21000000000004</ele>
   </trkpt>
   <trkpt lat="-37.88402" lon="145.35827">
    <ele>502.01000000000005</ele>
   </trkpt>
   <trkpt lat="-37.88407" lon="145.35852">
    <ele>502.39</ele>
   </trkpt>
   <trkpt lat="-37.88441" lon="145.35840000000002">
    <ele>504.13000000000005</ele>
   </trkpt>
   <trkpt lat="-37.88456" lon="145.35838">
    <ele>504.45000000000005</ele>
   </trkpt>
   <trkpt lat="-37.88476" lon="145.35842000000002">
    <ele>504.45000000000005</ele>
   </trkpt>
   <trkpt lat="-37.88532" lon="145.35860000000002">
    <ele>507.94000000000005</ele>
   </trkpt>
   <trkpt lat="-37.885450000000006" lon="145.35868000000002">
    <ele>509.21000000000004</ele>
   </trkpt>
   <trkpt lat="-37.8858" lon="145.35913000000002">
    <ele>512.3000000000001</ele>
   </trkpt>
   <trkpt lat="-37.88591" lon="145.35922000000002">
    <ele>512.51</ele>
   </trkpt>
   <trkpt lat="-37.88595" lon="145.35933">
    <ele>512.6</ele>
   </trkpt>
   <trkpt lat="-37.88598" lon="145.35957000000002">
    <ele>512.57</ele>
   </trkpt>
   <trkpt lat="-37.88573" lon="145.36033">
    <ele>510.61</ele>
   </trkpt>
   <trkpt lat="-37.88568" lon="145.36059">
    <ele>509.2000000000001</ele>
   </trkpt>
   <trkpt lat="-37.88562" lon="145.36079">
    <ele>507.61</ele>
   </trkpt>
   <trkpt lat="-37.88555" lon="145.36100000000002">
    <ele>506.29</ele>
   </trkpt>
   <trkpt lat="-37.88537" lon="145.36136000000002">
    <ele>503.84000000000003</ele>
   </trkpt>
   <trkpt lat="-37.88514" lon="145.36202">
    <ele>499.33000000000004</ele>
   </trkpt>
   <trkpt lat="-37.88503" lon="145.36224">
    <ele>497.81</ele>
   </trkpt>
   <trkpt lat="-37.88496000000001" lon="145.36231">
    <ele>497.12000000000006</ele>
   </trkpt>
   <trkpt lat="-37.8851" lon="145.36238">
    <ele>496.52</ele>
   </trkpt>
   <trkpt lat="-37.88514" lon="145.36243000000002">
    <ele>496.01000000000005</ele>
   </trkpt>
   <trkpt lat="-37.88514" lon="145.36251000000001">
    <ele>496.01000000000005</ele>
   </trkpt>
   <trkpt lat="-37.8849" lon="145.36279000000002">
    <ele>490.83000000000004</ele>
   </trkpt>
   <trkpt lat="-37.88479" lon="145.36302">
    <ele>484.40000000000003</ele>
   </trkpt>
   <trkpt lat="-37.88474" lon="145.36315000000002">
    <ele>484.40000000000003</ele>
   </trkpt>
   <trkpt lat="-37.88474" lon="145.36324000000002">
    <ele>483.11</ele>
   </trkpt>
   <trkpt lat="-37.88474" lon="145.36323000000002">
    <ele>483.43</ele>
   </trkpt>
   <trkpt lat="-37.8847" lon="145.36339">
    <ele>481.13000000000005</ele>
   </trkpt>
   <trkpt lat="-37.88456" lon="145.3634">
    <ele>478.85</ele>
   </trkpt>
   <trkpt lat="-37.88449" lon="145.36339">
    <ele>478.24000000000007</ele>
   </trkpt>
   <trkpt lat="-37.88443" lon="145.36341000000002">
    <ele>477.51000000000005</ele>
   </trkpt>
   <trkpt lat="-37.884420000000006" lon="145.36347">
    <ele>476.64000000000004</ele>
   </trkpt>
   <trkpt lat="-37.88445" lon="145.36369000000002">
    <ele>472.43</ele>
   </trkpt>
   <trkpt lat="-37.88463" lon="145.36419">
    <ele>462.83</ele>
   </trkpt>
   <trkpt lat="-37.88476" lon="145.36443">
    <ele>459.26000000000005</ele>
   </trkpt>
   <trkpt lat="-37.88479" lon="145.36451000000002">
    <ele>457.43000000000006</ele>
   </trkpt>
   <trkpt lat="-37.88476" lon="145.36459000000002">
    <ele>457.43000000000006</ele>
   </trkpt>
   <trkpt lat="-37.88483" lon="145.36484000000002">
    <ele>451.47</ele>
   </trkpt>
   <trkpt lat="-37.88494" lon="145.36503000000002">
    <ele>449.83000000000004</ele>
   </trkpt>
   <trkpt lat="-37.88499" lon="145.36505000000002">
    <ele>449.74</ele>
   </trkpt>
   <trkpt lat="-37.88517" lon="145.36524">
    <ele>448.47</ele>
   </trkpt>
   <trkpt lat="-37.88519" lon="145.36531000000002">
    <ele>446.91</ele>
   </trkpt>
   <trkpt lat="-37.885360000000006" lon="145.36547000000002">
    <ele>442.91</ele>
   </trkpt>
   <trkpt lat="-37.88539" lon="145.36557000000002">
    <ele>440.94000000000005</ele>
   </trkpt>
   <trkpt lat="-37.88546" lon="145.36561">
    <ele>440.01</ele>
   </trkpt>
   <trkpt lat="-37.88548" lon="145.36577">
    <ele>436.47</ele>
   </trkpt>
   <trkpt lat="-37.88546" lon="145.36592000000002">
    <ele>433.18</ele>
   </trkpt>
   <trkpt lat="-37.885270000000006" lon="145.36607">
    <ele>427.53000000000003</ele>
   </trkpt>
   <trkpt lat="-37.884980000000006" lon="145.36612000000002">
    <ele>423.69</ele>
   </trkpt>
   <trkpt lat="-37.88474" lon="145.36611000000002">
    <ele>419.78000000000003</ele>
   </trkpt>
   <trkpt lat="-37.88463" lon="145.36617">
    <ele>417.88</ele>
   </trkpt>
   <trkpt lat="-37.88458" lon="145.36623">
    <ele>416.81</ele>
   </trkpt>
   <trkpt lat="-37.88461" lon="145.36635">
    <ele>412.27000000000004</ele>
   </trkpt>
   <trkpt lat="-37.88465" lon="145.36642">
    <ele>412.27000000000004</ele>
   </trkpt>
   <trkpt lat="-37.88465" lon="145.36651">
    <ele>412.27000000000004</ele>
   </trkpt>
   <trkpt lat="-37.8847" lon="145.36657000000002">
    <ele>406.75000000000006</ele>
   </trkpt>
   <trkpt lat="-37.8847" lon="145.36672000000002">
    <ele>404.46000000000004</ele>
   </trkpt>
   <trkpt lat="-37.88481" lon="145.36711000000003">
    <ele>396.18</ele>
   </trkpt>
   <trkpt lat="-37.88499" lon="145.36737000000002">
    <ele>390.0</ele>
   </trkpt>
   <trkpt lat="-37.88517" lon="145.36757">
    <ele>384.87000000000006</ele>
   </trkpt>
   <trkpt lat="-37.88535" lon="145.36771000000002">
    <ele>382.37000000000006</ele>
   </trkpt>
   <trkpt lat="-37.8855" lon="145.36785">
    <ele>379.67</ele>
   </trkpt>
   <trkpt lat="-37.88564" lon="145.36801">
    <ele>374.01</ele>
   </trkpt>
   <trkpt lat="-37.88602" lon="145.36834000000002">
    <ele>363.7</ele>
   </trkpt>
   <trkpt lat="-37.886100000000006" lon="145.36837">
    <ele>360.42</ele>
   </trkpt>
   <trkpt lat="-37.88611" lon="145.36851000000001">
    <ele>360.3</ele>
   </trkpt>
   <trkpt lat="-37.88642" lon="145.36872000000002">
    <ele>363.16</ele>
   </trkpt>
   <trkpt lat="-37.88667" lon="145.36906000000002">
    <ele>366.97</ele>
   </trkpt>
   <trkpt lat="-37.88736" lon="145.36978000000002">
    <ele>352.48</ele>
   </trkpt>
   <trkpt lat="-37.88743" lon="145.36973">
    <ele>352.08</ele>
   </trkpt>
   <trkpt lat="-37.88749" lon="145.36999">
    <ele>361.96</ele>
   </trkpt>
  </trkseg>
 </trk>
</gpx>
