<?xml version="1.0" encoding="UTF-8"?>
<gpx creator="StravaGPX" version="1.1" xmlns="http://www.topografix.com/GPX/1/1" xmlns:xsi="http://www.w3.org/2001/XMLSchema-instance" xsi:schemaLocation="http://www.topografix.com/GPX/1/1 http://www.topografix.com/GPX/1/1/gpx.xsd">
 <metadata>
  <name>DTR 7th June 14k</name>
  <author>
   <name>DTR  Runleaders</name>
   <link href="https://www.strava.com/athletes/194056408"/>
  </author>
  <copyright author="OpenStreetMap contributors">
   <year>2020</year>
   <license>https://www.openstreetmap.org/copyright</license>
  </copyright>
  <link href="https://www.strava.com/routes/3497913012071282836"/>
 </metadata>
 <trk>
  <name>DTR 7th June 14k</name>
  <link href="https://www.strava.com/routes/3497913012071282836"/>
  <type>running</type>
  <trkseg>
   <trkpt lat="-37.887620000000005" lon="145.36993">
    <ele>361.56000000000006</ele>
   </trkpt>
   <trkpt lat="-37.88749" lon="145.36999">
    <ele>361.96</ele>
   </trkpt>
   <trkpt lat="-37.88738" lon="145.37008">
    <ele>363.72</ele>
   </trkpt>
   <trkpt lat="-37.88729" lon="145.37024000000002">
    <ele>366.21000000000004</ele>
   </trkpt>
   <trkpt lat="-37.886860000000006" lon="145.37055">
    <ele>368.81</ele>
   </trkpt>
   <trkpt lat="-37.88689" lon="145.37066000000002">
    <ele>370.42</ele>
   </trkpt>
   <trkpt lat="-37.88694" lon="145.37120000000002">
    <ele>370.6700000000001</ele>
   </trkpt>
   <trkpt lat="-37.8872" lon="145.37132000000003">
    <ele>368.47</ele>
   </trkpt>
   <trkpt lat="-37.88743" lon="145.37131000000002">
    <ele>365.13</ele>
   </trkpt>
   <trkpt lat="-37.88763" lon="145.37134">
    <ele>361.18000000000006</ele>
   </trkpt>
   <trkpt lat="-37.88781" lon="145.37142">
    <ele>356.8</ele>
   </trkpt>
   <trkpt lat="-37.88799" lon="145.37164">
    <ele>353.17</ele>
   </trkpt>
   <trkpt lat="-37.88819" lon="145.37185000000002">
    <ele>351.54</ele>
   </trkpt>
   <trkpt lat="-37.88873" lon="145.37243">
    <ele>350.61</ele>
   </trkpt>
   <trkpt lat="-37.88893" lon="145.37276">
    <ele>353.59000000000003</ele>
   </trkpt>
   <trkpt lat="-37.88902" lon="145.37306">
    <ele>356.07000000000005</ele>
   </trkpt>
   <trkpt lat="-37.88950000069874" lon="145.37347499726883">
    <ele>351.45000000000005</ele>
   </trkpt>
   <trkpt lat="-37.88998" lon="145.37389000000002">
    <ele>347.36</ele>
   </trkpt>
   <trkpt lat="-37.89007" lon="145.37402">
    <ele>346.82</ele>
   </trkpt>
   <trkpt lat="-37.89011" lon="145.37428">
    <ele>345.72</ele>
   </trkpt>
   <trkpt lat="-37.89009" lon="145.37448">
    <ele>344.19000000000005</ele>
   </trkpt>
   <trkpt lat="-37.89" lon="145.37468">
    <ele>343.55</ele>
   </trkpt>
   <trkpt lat="-37.88993" lon="145.37490000000003">
    <ele>343.38</ele>
   </trkpt>
   <trkpt lat="-37.88996" lon="145.37504">
    <ele>343.83000000000004</ele>
   </trkpt>
   <trkpt lat="-37.89007" lon="145.37515000000002">
    <ele>344.85</ele>
   </trkpt>
   <trkpt lat="-37.89025" lon="145.37519">
    <ele>345.45000000000005</ele>
   </trkpt>
   <trkpt lat="-37.89052" lon="145.37509">
    <ele>344.86000000000007</ele>
   </trkpt>
   <trkpt lat="-37.89079" lon="145.37492">
    <ele>344.44</ele>
   </trkpt>
   <trkpt lat="-37.891070000000006" lon="145.37479000000002">
    <ele>341.33000000000004</ele>
   </trkpt>
   <trkpt lat="-37.89108" lon="145.37479000000002">
    <ele>341.11</ele>
   </trkpt>
   <trkpt lat="-37.891180000000006" lon="145.37476">
    <ele>340.15</ele>
   </trkpt>
   <trkpt lat="-37.89137" lon="145.37478000000002">
    <ele>338.07000000000005</ele>
   </trkpt>
   <trkpt lat="-37.89148" lon="145.37473">
    <ele>336.62</ele>
   </trkpt>
   <trkpt lat="-37.89157" lon="145.37466">
    <ele>335.98</ele>
   </trkpt>
   <trkpt lat="-37.89159" lon="145.37459">
    <ele>335.94</ele>
   </trkpt>
   <trkpt lat="-37.89159" lon="145.37401">
    <ele>340.43</ele>
   </trkpt>
   <trkpt lat="-37.89161" lon="145.37392">
    <ele>340.43</ele>
   </trkpt>
   <trkpt lat="-37.89166" lon="145.37383">
    <ele>341.32</ele>
   </trkpt>
   <trkpt lat="-37.89175" lon="145.37377">
    <ele>342.28000000000003</ele>
   </trkpt>
   <trkpt lat="-37.89193" lon="145.37368">
    <ele>344.47</ele>
   </trkpt>
   <trkpt lat="-37.89213" lon="145.37365">
    <ele>349.59000000000003</ele>
   </trkpt>
   <trkpt lat="-37.8924" lon="145.37368">
    <ele>352.04</ele>
   </trkpt>
   <trkpt lat="-37.89284" lon="145.37382000000002">
    <ele>356.25</ele>
   </trkpt>
   <trkpt lat="-37.89321" lon="145.37402">
    <ele>359.99</ele>
   </trkpt>
   <trkpt lat="-37.89321" lon="145.37403">
    <ele>360.16</ele>
   </trkpt>
   <trkpt lat="-37.89331" lon="145.37409000000002">
    <ele>361.6</ele>
   </trkpt>
   <trkpt lat="-37.89349" lon="145.37424000000001">
    <ele>363.09000000000003</ele>
   </trkpt>
   <trkpt lat="-37.89383" lon="145.37475">
    <ele>370.93</ele>
   </trkpt>
   <trkpt lat="-37.89392" lon="145.37482">
    <ele>372.24</ele>
   </trkpt>
   <trkpt lat="-37.89423" lon="145.37495">
    <ele>377.63</ele>
   </trkpt>
   <trkpt lat="-37.89437" lon="145.37505000000002">
    <ele>379.15000000000003</ele>
   </trkpt>
   <trkpt lat="-37.894560000000006" lon="145.37512">
    <ele>384.19</ele>
   </trkpt>
   <trkpt lat="-37.89479" lon="145.37516000000002">
    <ele>387.97</ele>
   </trkpt>
   <trkpt lat="-37.89513" lon="145.37514000000002">
    <ele>392.02000000000004</ele>
   </trkpt>
   <trkpt lat="-37.89549" lon="145.37521">
    <ele>396.37000000000006</ele>
   </trkpt>
   <trkpt lat="-37.8958" lon="145.37517000000003">
    <ele>398.03000000000003</ele>
   </trkpt>
   <trkpt lat="-37.896080000000005" lon="145.37524000000002">
    <ele>398.28000000000003</ele>
   </trkpt>
   <trkpt lat="-37.89636" lon="145.37518">
    <ele>398.71</ele>
   </trkpt>
   <trkpt lat="-37.89658" lon="145.37518">
    <ele>398.68</ele>
   </trkpt>
   <trkpt lat="-37.89676" lon="145.37524000000002">
    <ele>398.82</ele>
   </trkpt>
   <trkpt lat="-37.89701" lon="145.37541000000002">
    <ele>399.29</ele>
   </trkpt>
   <trkpt lat="-37.89723" lon="145.37565">
    <ele>399.64000000000004</ele>
   </trkpt>
   <trkpt lat="-37.89734" lon="145.37586000000002">
    <ele>400.31000000000006</ele>
   </trkpt>
   <trkpt lat="-37.897540000000006" lon="145.37663">
    <ele>399.66</ele>
   </trkpt>
   <trkpt lat="-37.89772" lon="145.37738000000002">
    <ele>397.11</ele>
   </trkpt>
   <trkpt lat="-37.89781" lon="145.3779">
    <ele>396.49</ele>
   </trkpt>
   <trkpt lat="-37.8979" lon="145.37899000000002">
    <ele>399.75000000000006</ele>
   </trkpt>
   <trkpt lat="-37.897920000000006" lon="145.37907">
    <ele>399.75000000000006</ele>
   </trkpt>
   <trkpt lat="-37.897980000000004" lon="145.37919000000002">
    <ele>398.52000000000004</ele>
   </trkpt>
   <trkpt lat="-37.89788" lon="145.37979">
    <ele>397.32</ele>
   </trkpt>
   <trkpt lat="-37.897850000000005" lon="145.38032">
    <ele>394.61</ele>
   </trkpt>
   <trkpt lat="-37.897850000000005" lon="145.38031">
    <ele>394.61</ele>
   </trkpt>
   <trkpt lat="-37.89775000537417" lon="145.38110666879243">
    <ele>391.56</ele>
   </trkpt>
   <trkpt lat="-37.89765000537903" lon="145.38190333542025">
    <ele>390.96000000000004</ele>
   </trkpt>
   <trkpt lat="-37.89755" lon="145.3827">
    <ele>391.96000000000004</ele>
   </trkpt>
   <trkpt lat="-37.89742500201526" lon="145.38339500133532">
    <ele>393.94</ele>
   </trkpt>
   <trkpt lat="-37.8973" lon="145.38409000000001">
    <ele>397.0</ele>
   </trkpt>
   <trkpt lat="-37.89719" lon="145.38446000000002">
    <ele>399.46000000000004</ele>
   </trkpt>
   <trkpt lat="-37.89703" lon="145.38479">
    <ele>402.61</ele>
   </trkpt>
   <trkpt lat="-37.89708" lon="145.38508000000002">
    <ele>403.95000000000005</ele>
   </trkpt>
   <trkpt lat="-37.89705" lon="145.38526000000002">
    <ele>405.33000000000004</ele>
   </trkpt>
   <trkpt lat="-37.89696" lon="145.38565">
    <ele>408.75000000000006</ele>
   </trkpt>
   <trkpt lat="-37.89688" lon="145.38583">
    <ele>410.68000000000006</ele>
   </trkpt>
   <trkpt lat="-37.89688" lon="145.38582000000002">
    <ele>410.84000000000003</ele>
   </trkpt>
   <trkpt lat="-37.89676" lon="145.38609000000002">
    <ele>414.09000000000003</ele>
   </trkpt>
   <trkpt lat="-37.89663" lon="145.38676">
    <ele>420.45000000000005</ele>
   </trkpt>
   <trkpt lat="-37.89663" lon="145.38708000000003">
    <ele>424.92</ele>
   </trkpt>
   <trkpt lat="-37.89656" lon="145.38734000000002">
    <ele>427.45000000000005</ele>
   </trkpt>
   <trkpt lat="-37.89643" lon="145.38760000000002">
    <ele>429.97</ele>
   </trkpt>
   <trkpt lat="-37.89587" lon="145.38802">
    <ele>433.47</ele>
   </trkpt>
   <trkpt lat="-37.89574" lon="145.38798">
    <ele>433.62000000000006</ele>
   </trkpt>
   <trkpt lat="-37.89587" lon="145.38819">
    <ele>433.72</ele>
   </trkpt>
   <trkpt lat="-37.89607" lon="145.38836">
    <ele>433.25</ele>
   </trkpt>
   <trkpt lat="-37.89625" lon="145.38855">
    <ele>432.51000000000005</ele>
   </trkpt>
   <trkpt lat="-37.896640000000005" lon="145.38892">
    <ele>430.16</ele>
   </trkpt>
   <trkpt lat="-37.89674" lon="145.38902000000002">
    <ele>428.58</ele>
   </trkpt>
   <trkpt lat="-37.89701" lon="145.38949000000002">
    <ele>426.32000000000005</ele>
   </trkpt>
   <trkpt lat="-37.89703" lon="145.38963">
    <ele>425.16</ele>
   </trkpt>
   <trkpt lat="-37.89712" lon="145.38982000000001">
    <ele>423.23</ele>
   </trkpt>
   <trkpt lat="-37.89714" lon="145.38993000000002">
    <ele>422.29</ele>
   </trkpt>
   <trkpt lat="-37.89705" lon="145.38983000000002">
    <ele>422.51000000000005</ele>
   </trkpt>
   <trkpt lat="-37.89701" lon="145.39086">
    <ele>406.02000000000004</ele>
   </trkpt>
   <trkpt lat="-37.897000000000006" lon="145.39091000000002">
    <ele>405.25000000000006</ele>
   </trkpt>
   <trkpt lat="-37.897000000000006" lon="145.39089">
    <ele>410.25000000000006</ele>
   </trkpt>
   <trkpt lat="-37.897036672447626" lon="145.39171666583707">
    <ele>384.92</ele>
   </trkpt>
   <trkpt lat="-37.89707333911403" lon="145.39254333249778">
    <ele>375.94000000000005</ele>
   </trkpt>
   <trkpt lat="-37.897110000000005" lon="145.39337">
    <ele>379.14000000000004</ele>
   </trkpt>
   <trkpt lat="-37.896485000040116" lon="145.3935700017395">
    <ele>360.21000000000004</ele>
   </trkpt>
   <trkpt lat="-37.895860000000006" lon="145.39377000000002">
    <ele>344.55</ele>
   </trkpt>
   <trkpt lat="-37.89531999975043" lon="145.3938100003124">
    <ele>327.33</ele>
   </trkpt>
   <trkpt lat="-37.894780000000004" lon="145.39385000000001">
    <ele>324.21000000000004</ele>
   </trkpt>
   <trkpt lat="-37.89421" lon="145.39397000000002">
    <ele>315.11</ele>
   </trkpt>
   <trkpt lat="-37.893750000000004" lon="145.39403000000001">
    <ele>301.55</ele>
   </trkpt>
   <trkpt lat="-37.893820000000005" lon="145.39407">
    <ele>292.94000000000005</ele>
   </trkpt>
   <trkpt lat="-37.89381" lon="145.394">
    <ele>292.94000000000005</ele>
   </trkpt>
   <trkpt lat="-37.89374" lon="145.39387000000002">
    <ele>292.09000000000003</ele>
   </trkpt>
   <trkpt lat="-37.89363" lon="145.3938">
    <ele>291.7</ele>
   </trkpt>
   <trkpt lat="-37.89334" lon="145.39369000000002">
    <ele>290.68000000000006</ele>
   </trkpt>
   <trkpt lat="-37.893170000000005" lon="145.39358000000001">
    <ele>290.56000000000006</ele>
   </trkpt>
   <trkpt lat="-37.89296" lon="145.39341000000002">
    <ele>290.34000000000003</ele>
   </trkpt>
   <trkpt lat="-37.89278" lon="145.39318">
    <ele>291.04</ele>
   </trkpt>
   <trkpt lat="-37.892610000000005" lon="145.39268">
    <ele>292.92</ele>
   </trkpt>
   <trkpt lat="-37.89242000188959" lon="145.39200499812443">
    <ele>294.7</ele>
   </trkpt>
   <trkpt lat="-37.892230000000005" lon="145.39133">
    <ele>299.74</ele>
   </trkpt>
   <trkpt lat="-37.8922" lon="145.39122">
    <ele>300.36</ele>
   </trkpt>
   <trkpt lat="-37.89208" lon="145.39096">
    <ele>301.78000000000003</ele>
   </trkpt>
   <trkpt lat="-37.8915799999225" lon="145.39091499968666">
    <ele>297.8</ele>
   </trkpt>
   <trkpt lat="-37.89108" lon="145.39087">
    <ele>292.2</ele>
   </trkpt>
   <trkpt lat="-37.89085" lon="145.39087">
    <ele>289.75</ele>
   </trkpt>
   <trkpt lat="-37.8905" lon="145.39094">
    <ele>287.14</ele>
   </trkpt>
   <trkpt lat="-37.89034" lon="145.39100000000002">
    <ele>287.14</ele>
   </trkpt>
   <trkpt lat="-37.889990000000004" lon="145.3912">
    <ele>284.65000000000003</ele>
   </trkpt>
   <trkpt lat="-37.88998" lon="145.39122">
    <ele>284.65000000000003</ele>
   </trkpt>
   <trkpt lat="-37.88935333416101" lon="145.39155000566666">
    <ele>280.73</ele>
   </trkpt>
   <trkpt lat="-37.888726667400775" lon="145.39188000571585">
    <ele>276.37</ele>
   </trkpt>
   <trkpt lat="-37.8881" lon="145.39221">
    <ele>273.18</ele>
   </trkpt>
   <trkpt lat="-37.88774" lon="145.39245000000003">
    <ele>272.86</ele>
   </trkpt>
   <trkpt lat="-37.887420000000006" lon="145.39256">
    <ele>272.28000000000003</ele>
   </trkpt>
   <trkpt lat="-37.88714" lon="145.39258">
    <ele>272.01000000000005</ele>
   </trkpt>
   <trkpt lat="-37.88682" lon="145.39252000000002">
    <ele>272.0</ele>
   </trkpt>
   <trkpt lat="-37.88667" lon="145.39246">
    <ele>272.0</ele>
   </trkpt>
   <trkpt lat="-37.88611" lon="145.39216000000002">
    <ele>271.97</ele>
   </trkpt>
   <trkpt lat="-37.88595" lon="145.39212">
    <ele>272.07000000000005</ele>
   </trkpt>
   <trkpt lat="-37.8858" lon="145.39212">
    <ele>272.42</ele>
   </trkpt>
   <trkpt lat="-37.88577" lon="145.39199000000002">
    <ele>273.39000000000004</ele>
   </trkpt>
   <trkpt lat="-37.885670000000005" lon="145.39202">
    <ele>274.09</ele>
   </trkpt>
   <trkpt lat="-37.88566" lon="145.39198000000002">
    <ele>281.0</ele>
   </trkpt>
   <trkpt lat="-37.88492000088048" lon="145.39151499530587">
    <ele>289.52</ele>
   </trkpt>
   <trkpt lat="-37.88418" lon="145.39105">
    <ele>289.00000000000006</ele>
   </trkpt>
   <trkpt lat="-37.88396" lon="145.39089">
    <ele>287.73</ele>
   </trkpt>
   <trkpt lat="-37.88342" lon="145.39067">
    <ele>281.74000000000007</ele>
   </trkpt>
   <trkpt lat="-37.88326" lon="145.39062">
    <ele>278.96999999999997</ele>
   </trkpt>
   <trkpt lat="-37.88326" lon="145.39063000000002">
    <ele>279.12</ele>
   </trkpt>
   <trkpt lat="-37.88317" lon="145.39061">
    <ele>277.80000000000007</ele>
   </trkpt>
   <trkpt lat="-37.88306" lon="145.39053">
    <ele>275.99</ele>
   </trkpt>
   <trkpt lat="-37.882690000000004" lon="145.39007">
    <ele>258.29</ele>
   </trkpt>
   <trkpt lat="-37.88264" lon="145.38963">
    <ele>258.96000000000004</ele>
   </trkpt>
   <trkpt lat="-37.88264" lon="145.38944">
    <ele>260.61</ele>
   </trkpt>
   <trkpt lat="-37.8827" lon="145.38922000000002">
    <ele>260.61</ele>
   </trkpt>
   <trkpt lat="-37.882830000000006" lon="145.38894000000002">
    <ele>262.28000000000003</ele>
   </trkpt>
   <trkpt lat="-37.88257" lon="145.38882">
    <ele>272.81</ele>
   </trkpt>
   <trkpt lat="-37.882490000000004" lon="145.38882">
    <ele>276.22</ele>
   </trkpt>
   <trkpt lat="-37.88255" lon="145.38872">
    <ele>276.41</ele>
   </trkpt>
   <trkpt lat="-37.882670000000005" lon="145.38839000000002">
    <ele>276.85</ele>
   </trkpt>
   <trkpt lat="-37.882830000000006" lon="145.38811">
    <ele>279.64</ele>
   </trkpt>
   <trkpt lat="-37.882870000000004" lon="145.38796000000002">
    <ele>279.64</ele>
   </trkpt>
   <trkpt lat="-37.882870000000004" lon="145.38795000000002">
    <ele>279.71000000000004</ele>
   </trkpt>
   <trkpt lat="-37.88295" lon="145.38770000000002">
    <ele>280.56</ele>
   </trkpt>
   <trkpt lat="-37.88311" lon="145.38696000000002">
    <ele>283.16</ele>
   </trkpt>
   <trkpt lat="-37.88313" lon="145.38674">
    <ele>284.03</ele>
   </trkpt>
   <trkpt lat="-37.88286" lon="145.38613">
    <ele>285.90000000000003</ele>
   </trkpt>
   <trkpt lat="-37.88277" lon="145.38558">
    <ele>287.86</ele>
   </trkpt>
   <trkpt lat="-37.88277" lon="145.38517000000002">
    <ele>290.59000000000003</ele>
   </trkpt>
   <trkpt lat="-37.88239" lon="145.38424">
    <ele>292.96</ele>
   </trkpt>
   <trkpt lat="-37.88241" lon="145.38393000000002">
    <ele>294.24</ele>
   </trkpt>
   <trkpt lat="-37.8823" lon="145.38363">
    <ele>295.90000000000003</ele>
   </trkpt>
   <trkpt lat="-37.881980000000006" lon="145.38336">
    <ele>297.32000000000005</ele>
   </trkpt>
   <trkpt lat="-37.88181" lon="145.38306">
    <ele>299.39000000000004</ele>
   </trkpt>
   <trkpt lat="-37.88183" lon="145.3829">
    <ele>299.98</ele>
   </trkpt>
   <trkpt lat="-37.88174" lon="145.38281">
    <ele>300.15000000000003</ele>
   </trkpt>
   <trkpt lat="-37.88163" lon="145.38285000000002">
    <ele>300.07</ele>
   </trkpt>
   <trkpt lat="-37.88156" lon="145.38291">
    <ele>300.29</ele>
   </trkpt>
   <trkpt lat="-37.88145" lon="145.38292">
    <ele>301.1</ele>
   </trkpt>
   <trkpt lat="-37.88123" lon="145.38276000000002">
    <ele>301.75</ele>
   </trkpt>
   <trkpt lat="-37.881" lon="145.38254">
    <ele>303.6700000000001</ele>
   </trkpt>
   <trkpt lat="-37.88094" lon="145.38243">
    <ele>303.93</ele>
   </trkpt>
   <trkpt lat="-37.88094" lon="145.38242000000002">
    <ele>303.92</ele>
   </trkpt>
   <trkpt lat="-37.88098" lon="145.38230000000001">
    <ele>304.14000000000004</ele>
   </trkpt>
   <trkpt lat="-37.88114" lon="145.38207">
    <ele>306.1</ele>
   </trkpt>
   <trkpt lat="-37.88123" lon="145.38188000000002">
    <ele>306.92</ele>
   </trkpt>
   <trkpt lat="-37.88078" lon="145.38125000000002">
    <ele>315.28</ele>
   </trkpt>
   <trkpt lat="-37.8804" lon="145.38083">
    <ele>317.90000000000003</ele>
   </trkpt>
   <trkpt lat="-37.88029" lon="145.38060000000002">
    <ele>316.14000000000004</ele>
   </trkpt>
   <trkpt lat="-37.88029" lon="145.38036000000002">
    <ele>316.06</ele>
   </trkpt>
   <trkpt lat="-37.88033" lon="145.3801">
    <ele>318.03000000000003</ele>
   </trkpt>
   <trkpt lat="-37.88026" lon="145.37994">
    <ele>320.1</ele>
   </trkpt>
   <trkpt lat="-37.88013" lon="145.37941">
    <ele>325.02000000000004</ele>
   </trkpt>
   <trkpt lat="-37.87997" lon="145.37905">
    <ele>323.77</ele>
   </trkpt>
   <trkpt lat="-37.87982" lon="145.37881000000002">
    <ele>322.76000000000005</ele>
   </trkpt>
   <trkpt lat="-37.87975" lon="145.37853">
    <ele>323.13</ele>
   </trkpt>
   <trkpt lat="-37.87966" lon="145.37843">
    <ele>325.09999999999997</ele>
   </trkpt>
   <trkpt lat="-37.87948" lon="145.37797">
    <ele>331.64000000000004</ele>
   </trkpt>
   <trkpt lat="-37.87912" lon="145.37754">
    <ele>339.62</ele>
   </trkpt>
   <trkpt lat="-37.87894" lon="145.37752">
    <ele>340.95000000000005</ele>
   </trkpt>
   <trkpt lat="-37.87852" lon="145.37720000000002">
    <ele>340.61</ele>
   </trkpt>
   <trkpt lat="-37.87845" lon="145.37699">
    <ele>337.64000000000004</ele>
   </trkpt>
   <trkpt lat="-37.8785" lon="145.37712000000002">
    <ele>330.77</ele>
   </trkpt>
   <trkpt lat="-37.87834" lon="145.37701">
    <ele>323.18</ele>
   </trkpt>
   <trkpt lat="-37.878260000000004" lon="145.37687000000003">
    <ele>319.51</ele>
   </trkpt>
   <trkpt lat="-37.87825" lon="145.37699">
    <ele>320.54</ele>
   </trkpt>
   <trkpt lat="-37.87841" lon="145.37736">
    <ele>323.59000000000003</ele>
   </trkpt>
   <trkpt lat="-37.87879" lon="145.37789">
    <ele>328.97</ele>
   </trkpt>
   <trkpt lat="-37.8791" lon="145.37847000000002">
    <ele>332.83</ele>
   </trkpt>
   <trkpt lat="-37.87919" lon="145.37955000000002">
    <ele>341.02000000000004</ele>
   </trkpt>
   <trkpt lat="-37.87919" lon="145.38004">
    <ele>344.23</ele>
   </trkpt>
   <trkpt lat="-37.87903" lon="145.38084">
    <ele>350.54</ele>
   </trkpt>
   <trkpt lat="-37.87901" lon="145.38117000000003">
    <ele>352.90999999999997</ele>
   </trkpt>
   <trkpt lat="-37.879070000000006" lon="145.38126000000003">
    <ele>352.90999999999997</ele>
   </trkpt>
   <trkpt lat="-37.87944" lon="145.38166">
    <ele>357.65000000000003</ele>
   </trkpt>
   <trkpt lat="-37.87953" lon="145.38186000000002">
    <ele>359.46</ele>
   </trkpt>
   <trkpt lat="-37.87955" lon="145.38230000000001">
    <ele>360.77000000000004</ele>
   </trkpt>
   <trkpt lat="-37.8795" lon="145.38282">
    <ele>364.14</ele>
   </trkpt>
   <trkpt lat="-37.87946" lon="145.38304000000002">
    <ele>364.14</ele>
   </trkpt>
   <trkpt lat="-37.87926" lon="145.38376000000002">
    <ele>367.8</ele>
   </trkpt>
   <trkpt lat="-37.87926" lon="145.38395">
    <ele>369.06000000000006</ele>
   </trkpt>
   <trkpt lat="-37.8793" lon="145.38417">
    <ele>370.09000000000003</ele>
   </trkpt>
   <trkpt lat="-37.87946" lon="145.38447000000002">
    <ele>372.22</ele>
   </trkpt>
   <trkpt lat="-37.87973" lon="145.38511000000003">
    <ele>376.77000000000004</ele>
   </trkpt>
   <trkpt lat="-37.87986" lon="145.38554000000002">
    <ele>378.8</ele>
   </trkpt>
   <trkpt lat="-37.879870000000004" lon="145.38604">
    <ele>380.96000000000004</ele>
   </trkpt>
   <trkpt lat="-37.87984" lon="145.38641">
    <ele>382.61</ele>
   </trkpt>
   <trkpt lat="-37.87984" lon="145.3864">
    <ele>382.57</ele>
   </trkpt>
   <trkpt lat="-37.87982" lon="145.38678000000002">
    <ele>385.12</ele>
   </trkpt>
   <trkpt lat="-37.87964" lon="145.38775">
    <ele>388.68</ele>
   </trkpt>
   <trkpt lat="-37.87937" lon="145.38863">
    <ele>391.25000000000006</ele>
   </trkpt>
   <trkpt lat="-37.8793" lon="145.38882">
    <ele>394.55</ele>
   </trkpt>
   <trkpt lat="-37.87921" lon="145.38897">
    <ele>394.55</ele>
   </trkpt>
   <trkpt lat="-37.87899" lon="145.38921000000002">
    <ele>395.61</ele>
   </trkpt>
   <trkpt lat="-37.8787" lon="145.38940000000002">
    <ele>397.26000000000005</ele>
   </trkpt>
   <trkpt lat="-37.87852" lon="145.38946">
    <ele>399.46000000000004</ele>
   </trkpt>
   <trkpt lat="-37.87773" lon="145.38947000000002">
    <ele>402.77</ele>
   </trkpt>
   <trkpt lat="-37.87751" lon="145.38942">
    <ele>404.93</ele>
   </trkpt>
   <trkpt lat="-37.87729" lon="145.38931000000002">
    <ele>405.78000000000003</ele>
   </trkpt>
   <trkpt lat="-37.877100000000006" lon="145.38919">
    <ele>406.06</ele>
   </trkpt>
   <trkpt lat="-37.877" lon="145.38921000000002">
    <ele>406.24</ele>
   </trkpt>
   <trkpt lat="-37.87691" lon="145.38928">
    <ele>406.24</ele>
   </trkpt>
   <trkpt lat="-37.87688" lon="145.38938000000002">
    <ele>406.35</ele>
   </trkpt>
   <trkpt lat="-37.87688" lon="145.38993000000002">
    <ele>407.04</ele>
   </trkpt>
   <trkpt lat="-37.87686" lon="145.39025">
    <ele>407.80000000000007</ele>
   </trkpt>
   <trkpt lat="-37.87682" lon="145.39055000000002">
    <ele>408.78000000000003</ele>
   </trkpt>
   <trkpt lat="-37.87664" lon="145.39116">
    <ele>412.88</ele>
   </trkpt>
   <trkpt lat="-37.87639" lon="145.39154000000002">
    <ele>415.17</ele>
   </trkpt>
   <trkpt lat="-37.87617" lon="145.39179000000001">
    <ele>417.18000000000006</ele>
   </trkpt>
   <trkpt lat="-37.87594" lon="145.39196">
    <ele>417.97</ele>
   </trkpt>
   <trkpt lat="-37.87547" lon="145.39213">
    <ele>421.07000000000005</ele>
   </trkpt>
   <trkpt lat="-37.875350000000005" lon="145.39215000000002">
    <ele>422.18000000000006</ele>
   </trkpt>
   <trkpt lat="-37.874995003819336" lon="145.39119499529644">
    <ele>437.22</ele>
   </trkpt>
   <trkpt lat="-37.87464000000001" lon="145.39024">
    <ele>453.81000000000006</ele>
   </trkpt>
   <trkpt lat="-37.8744" lon="145.38965000000002">
    <ele>462.16</ele>
   </trkpt>
   <trkpt lat="-37.87416500134031" lon="145.38909499831854">
    <ele>466.55</ele>
   </trkpt>
   <trkpt lat="-37.87393" lon="145.38854">
    <ele>475.03000000000003</ele>
   </trkpt>
   <trkpt lat="-37.87375" lon="145.38798">
    <ele>482.73</ele>
   </trkpt>
   <trkpt lat="-37.873760000000004" lon="145.38772">
    <ele>486.00000000000006</ele>
   </trkpt>
   <trkpt lat="-37.87382" lon="145.3874">
    <ele>489.39000000000004</ele>
   </trkpt>
   <trkpt lat="-37.873920000000005" lon="145.38667">
    <ele>499.95000000000005</ele>
   </trkpt>
   <trkpt lat="-37.87398" lon="145.38603">
    <ele>507.65000000000003</ele>
   </trkpt>
   <trkpt lat="-37.87411" lon="145.38505">
    <ele>511.06000000000006</ele>
   </trkpt>
   <trkpt lat="-37.87424" lon="145.38395">
    <ele>507.61</ele>
   </trkpt>
   <trkpt lat="-37.87424" lon="145.38394000000002">
    <ele>507.58000000000004</ele>
   </trkpt>
   <trkpt lat="-37.87433" lon="145.38328">
    <ele>505.65000000000003</ele>
   </trkpt>
   <trkpt lat="-37.87426" lon="145.38305000000003">
    <ele>503.6400000000001</ele>
   </trkpt>
   <trkpt lat="-37.87367500213091" lon="145.3823349942843">
    <ele>495.08</ele>
   </trkpt>
   <trkpt lat="-37.873090000000005" lon="145.38162">
    <ele>488.67</ele>
   </trkpt>
   <trkpt lat="-37.873070000000006" lon="145.38148">
    <ele>489.09000000000003</ele>
   </trkpt>
   <trkpt lat="-37.87283" lon="145.38095">
    <ele>490.67</ele>
   </trkpt>
   <trkpt lat="-37.872690000000006" lon="145.38075">
    <ele>491.44000000000005</ele>
   </trkpt>
   <trkpt lat="-37.87279" lon="145.38043000000002">
    <ele>492.95000000000005</ele>
   </trkpt>
   <trkpt lat="-37.8729" lon="145.37994">
    <ele>493.39000000000004</ele>
   </trkpt>
   <trkpt lat="-37.873050000000006" lon="145.37942">
    <ele>488.23</ele>
   </trkpt>
   <trkpt lat="-37.87323000000001" lon="145.37841">
    <ele>477.15000000000003</ele>
   </trkpt>
   <trkpt lat="-37.873396672536515" lon="145.3775766704561">
    <ele>468.95000000000005</ele>
   </trkpt>
   <trkpt lat="-37.87356333919943" lon="145.37674333714162">
    <ele>457.90000000000003</ele>
   </trkpt>
   <trkpt lat="-37.87373" lon="145.37591">
    <ele>440.50000000000006</ele>
   </trkpt>
   <trkpt lat="-37.87386" lon="145.37503">
    <ele>429.71000000000004</ele>
   </trkpt>
   <trkpt lat="-37.87405000202032" lon="145.37434000175463">
    <ele>421.87</ele>
   </trkpt>
   <trkpt lat="-37.87424" lon="145.37365">
    <ele>407.19000000000005</ele>
   </trkpt>
   <trkpt lat="-37.87433" lon="145.37300000000002">
    <ele>396.76000000000005</ele>
   </trkpt>
   <trkpt lat="-37.87449500152985" lon="145.372400001317">
    <ele>374.45</ele>
   </trkpt>
   <trkpt lat="-37.874660000000006" lon="145.3718">
    <ele>357.16</ele>
   </trkpt>
   <trkpt lat="-37.874700000000004" lon="145.37130000000002">
    <ele>347.42</ele>
   </trkpt>
   <trkpt lat="-37.875040000000006" lon="145.37126">
    <ele>344.78000000000003</ele>
   </trkpt>
   <trkpt lat="-37.875220000000006" lon="145.37127">
    <ele>344.22</ele>
   </trkpt>
   <trkpt lat="-37.87577" lon="145.37136">
    <ele>340.13000000000005</ele>
   </trkpt>
   <trkpt lat="-37.87597" lon="145.37137">
    <ele>338.95000000000005</ele>
   </trkpt>
   <trkpt lat="-37.87628" lon="145.37130000000002">
    <ele>336.61</ele>
   </trkpt>
   <trkpt lat="-37.87637" lon="145.37132000000003">
    <ele>336.08000000000004</ele>
   </trkpt>
   <trkpt lat="-37.8765" lon="145.37138000000002">
    <ele>335.41</ele>
   </trkpt>
   <trkpt lat="-37.87635" lon="145.37115">
    <ele>358.89000000000004</ele>
   </trkpt>
   <trkpt lat="-37.87614000000001" lon="145.37109">
    <ele>358.89000000000004</ele>
   </trkpt>
   <trkpt lat="-37.87608" lon="145.37106">
    <ele>358.92</ele>
   </trkpt>
   <trkpt lat="-37.875600000000006" lon="145.37072">
    <ele>363.90000000000003</ele>
   </trkpt>
   <trkpt lat="-37.8755" lon="145.37059000000002">
    <ele>365.76000000000005</ele>
   </trkpt>
   <trkpt lat="-37.87541" lon="145.37033000000002">
    <ele>369.57</ele>
   </trkpt>
   <trkpt lat="-37.87536" lon="145.36978000000002">
    <ele>374.89000000000004</ele>
   </trkpt>
   <trkpt lat="-37.87541" lon="145.36953000000003">
    <ele>373.54</ele>
   </trkpt>
   <trkpt lat="-37.87545" lon="145.36945">
    <ele>372.48</ele>
   </trkpt>
   <trkpt lat="-37.87554" lon="145.36915000000002">
    <ele>370.29</ele>
   </trkpt>
   <trkpt lat="-37.87554" lon="145.36892">
    <ele>369.71000000000004</ele>
   </trkpt>
   <trkpt lat="-37.87545" lon="145.3683">
    <ele>373.58000000000004</ele>
   </trkpt>
   <trkpt lat="-37.8755" lon="145.36813">
    <ele>373.70000000000005</ele>
   </trkpt>
   <trkpt lat="-37.8755" lon="145.36812">
    <ele>373.70000000000005</ele>
   </trkpt>
   <trkpt lat="-37.87561" lon="145.36791000000002">
    <ele>374.05000000000007</ele>
   </trkpt>
   <trkpt lat="-37.875690000000006" lon="145.36763000000002">
    <ele>375.66</ele>
   </trkpt>
   <trkpt lat="-37.8757" lon="145.3675">
    <ele>377.13</ele>
   </trkpt>
   <trkpt lat="-37.87559" lon="145.36734">
    <ele>378.76000000000005</ele>
   </trkpt>
   <trkpt lat="-37.87523" lon="145.36692000000002">
    <ele>381.46000000000004</ele>
   </trkpt>
   <trkpt lat="-37.87514" lon="145.36678">
    <ele>381.83000000000004</ele>
   </trkpt>
   <trkpt lat="-37.87489" lon="145.36658">
    <ele>384.71000000000004</ele>
   </trkpt>
   <trkpt lat="-37.87482" lon="145.36644">
    <ele>385.92</ele>
   </trkpt>
   <trkpt lat="-37.8748" lon="145.366">
    <ele>383.75</ele>
   </trkpt>
   <trkpt lat="-37.874660000000006" lon="145.36564">
    <ele>384.87000000000006</ele>
   </trkpt>
   <trkpt lat="-37.87435" lon="145.36469000000002">
    <ele>387.18</ele>
   </trkpt>
   <trkpt lat="-37.87435" lon="145.36442000000002">
    <ele>386.56</ele>
   </trkpt>
   <trkpt lat="-37.87438" lon="145.3642">
    <ele>385.27000000000004</ele>
   </trkpt>
   <trkpt lat="-37.87438" lon="145.36402">
    <ele>384.92</ele>
   </trkpt>
   <trkpt lat="-37.87426" lon="145.36375">
    <ele>385.45</ele>
   </trkpt>
   <trkpt lat="-37.87404" lon="145.36343000000002">
    <ele>385.28000000000003</ele>
   </trkpt>
   <trkpt lat="-37.87402" lon="145.36301">
    <ele>382.12</ele>
   </trkpt>
   <trkpt lat="-37.87382" lon="145.36244000000002">
    <ele>379.5</ele>
   </trkpt>
   <trkpt lat="-37.87373" lon="145.36223">
    <ele>377.78</ele>
   </trkpt>
   <trkpt lat="-37.873740000000005" lon="145.36213">
    <ele>377.59000000000003</ele>
   </trkpt>
   <trkpt lat="-37.87377" lon="145.36206">
    <ele>392.42</ele>
   </trkpt>
   <trkpt lat="-37.873720000000006" lon="145.36151">
    <ele>395.58000000000004</ele>
   </trkpt>
   <trkpt lat="-37.87391" lon="145.36107">
    <ele>400.23</ele>
   </trkpt>
   <trkpt lat="-37.87406" lon="145.36083000000002">
    <ele>402.94</ele>
   </trkpt>
   <trkpt lat="-37.87416" lon="145.36074000000002">
    <ele>402.94</ele>
   </trkpt>
   <trkpt lat="-37.87456" lon="145.36044">
    <ele>407.1</ele>
   </trkpt>
   <trkpt lat="-37.87494" lon="145.36006">
    <ele>414.67</ele>
   </trkpt>
   <trkpt lat="-37.87516" lon="145.35986000000003">
    <ele>418.55</ele>
   </trkpt>
   <trkpt lat="-37.87521" lon="145.35967000000002">
    <ele>419.97</ele>
   </trkpt>
   <trkpt lat="-37.875130000000006" lon="145.35951">
    <ele>421.87</ele>
   </trkpt>
   <trkpt lat="-37.87496" lon="145.35946">
    <ele>423.6</ele>
   </trkpt>
   <trkpt lat="-37.87492" lon="145.35942">
    <ele>423.6</ele>
   </trkpt>
   <trkpt lat="-37.874900000000004" lon="145.35919">
    <ele>431.35</ele>
   </trkpt>
   <trkpt lat="-37.87494" lon="145.35916">
    <ele>431.35</ele>
   </trkpt>
   <trkpt lat="-37.87498" lon="145.35916">
    <ele>432.57</ele>
   </trkpt>
   <trkpt lat="-37.87505" lon="145.35920000000002">
    <ele>432.57</ele>
   </trkpt>
   <trkpt lat="-37.87516" lon="145.35925">
    <ele>434.00000000000006</ele>
   </trkpt>
   <trkpt lat="-37.87534" lon="145.35920000000002">
    <ele>436.77000000000004</ele>
   </trkpt>
   <trkpt lat="-37.87541" lon="145.35920000000002">
    <ele>436.77000000000004</ele>
   </trkpt>
   <trkpt lat="-37.875510000000006" lon="145.35925">
    <ele>439.22</ele>
   </trkpt>
   <trkpt lat="-37.875600000000006" lon="145.35911000000002">
    <ele>443.48</ele>
   </trkpt>
   <trkpt lat="-37.87565" lon="145.35885000000002">
    <ele>448.66</ele>
   </trkpt>
   <trkpt lat="-37.875620000000005" lon="145.35864">
    <ele>452.21000000000004</ele>
   </trkpt>
   <trkpt lat="-37.87557" lon="145.35859000000002">
    <ele>452.42</ele>
   </trkpt>
   <trkpt lat="-37.87534" lon="145.35824000000002">
    <ele>460.68</ele>
   </trkpt>
   <trkpt lat="-37.87507" lon="145.35798">
    <ele>465.31000000000006</ele>
   </trkpt>
   <trkpt lat="-37.87520000000001" lon="145.35791">
    <ele>467.62</ele>
   </trkpt>
   <trkpt lat="-37.875170000000004" lon="145.35780000000003">
    <ele>467.95000000000005</ele>
   </trkpt>
   <trkpt lat="-37.87541" lon="145.35777000000002">
    <ele>469.33000000000004</ele>
   </trkpt>
   <trkpt lat="-37.87559" lon="145.35771000000003">
    <ele>470.30000000000007</ele>
   </trkpt>
   <trkpt lat="-37.87572" lon="145.35758">
    <ele>471.44</ele>
   </trkpt>
   <trkpt lat="-37.875840000000004" lon="145.3574">
    <ele>474.56</ele>
   </trkpt>
   <trkpt lat="-37.875930000000004" lon="145.35714000000002">
    <ele>475.77000000000004</ele>
   </trkpt>
   <trkpt lat="-37.876160000000006" lon="145.35686">
    <ele>476.30000000000007</ele>
   </trkpt>
   <trkpt lat="-37.8763" lon="145.35674">
    <ele>476.25000000000006</ele>
   </trkpt>
   <trkpt lat="-37.87646" lon="145.35667">
    <ele>475.98</ele>
   </trkpt>
   <trkpt lat="-37.87675" lon="145.35661000000002">
    <ele>475.58000000000004</ele>
   </trkpt>
   <trkpt lat="-37.876900000000006" lon="145.35659">
    <ele>460.34000000000003</ele>
   </trkpt>
   <trkpt lat="-37.87708000000001" lon="145.35653000000002">
    <ele>475.96000000000004</ele>
   </trkpt>
   <trkpt lat="-37.8772900013161" lon="145.35708999837638">
    <ele>477.12000000000006</ele>
   </trkpt>
   <trkpt lat="-37.877500000000005" lon="145.35765">
    <ele>480.22</ele>
   </trkpt>
   <trkpt lat="-37.8778" lon="145.35791">
    <ele>481.63000000000005</ele>
   </trkpt>
   <trkpt lat="-37.87798" lon="145.35797000000002">
    <ele>482.28000000000003</ele>
   </trkpt>
   <trkpt lat="-37.87818" lon="145.35801">
    <ele>482.90000000000003</ele>
   </trkpt>
   <trkpt lat="-37.878600000000006" lon="145.35829">
    <ele>484.59000000000003</ele>
   </trkpt>
   <trkpt lat="-37.87876" lon="145.35838">
    <ele>484.51000000000005</ele>
   </trkpt>
   <trkpt lat="-37.87913" lon="145.35844">
    <ele>482.91</ele>
   </trkpt>
   <trkpt lat="-37.87919" lon="145.35846">
    <ele>482.67</ele>
   </trkpt>
   <trkpt lat="-37.87975" lon="145.35876000000002">
    <ele>480.19000000000005</ele>
   </trkpt>
   <trkpt lat="-37.87991" lon="145.35891">
    <ele>481.02000000000004</ele>
   </trkpt>
   <trkpt lat="-37.88006" lon="145.35903000000002">
    <ele>481.11</ele>
   </trkpt>
   <trkpt lat="-37.8802" lon="145.35908">
    <ele>481.21000000000004</ele>
   </trkpt>
   <trkpt lat="-37.88033" lon="145.3591">
    <ele>481.16</ele>
   </trkpt>
   <trkpt lat="-37.88062" lon="145.35906">
    <ele>480.67</ele>
   </trkpt>
   <trkpt lat="-37.880680000000005" lon="145.35916">
    <ele>478.57000000000005</ele>
   </trkpt>
   <trkpt lat="-37.88055000000001" lon="145.35955">
    <ele>474.18000000000006</ele>
   </trkpt>
   <trkpt lat="-37.88049" lon="145.35951">
    <ele>466.4800000000001</ele>
   </trkpt>
   <trkpt lat="-37.88058" lon="145.35969">
    <ele>467.12</ele>
   </trkpt>
   <trkpt lat="-37.88073" lon="145.36056000000002">
    <ele>470.9200000000001</ele>
   </trkpt>
   <trkpt lat="-37.88085" lon="145.36097">
    <ele>473.01000000000005</ele>
   </trkpt>
   <trkpt lat="-37.881040000000006" lon="145.3614">
    <ele>474.19000000000005</ele>
   </trkpt>
   <trkpt lat="-37.88114" lon="145.36177">
    <ele>474.66</ele>
   </trkpt>
   <trkpt lat="-37.88112000377609" lon="145.3627150002938">
    <ele>474.39000000000004</ele>
   </trkpt>
   <trkpt lat="-37.8811" lon="145.36366">
    <ele>469.95000000000005</ele>
   </trkpt>
   <trkpt lat="-37.88112" lon="145.36395000000002">
    <ele>467.27</ele>
   </trkpt>
   <trkpt lat="-37.8811" lon="145.36366">
    <ele>469.95000000000005</ele>
   </trkpt>
   <trkpt lat="-37.88102000000001" lon="145.36369000000002">
    <ele>471.26</ele>
   </trkpt>
   <trkpt lat="-37.88103" lon="145.36409">
    <ele>469.08000000000004</ele>
   </trkpt>
   <trkpt lat="-37.881150000000005" lon="145.36465">
    <ele>464.96000000000004</ele>
   </trkpt>
   <trkpt lat="-37.88143" lon="145.36534">
    <ele>460.68</ele>
   </trkpt>
   <trkpt lat="-37.88165" lon="145.36581">
    <ele>454.43000000000006</ele>
   </trkpt>
   <trkpt lat="-37.881710000000005" lon="145.36578">
    <ele>454.21000000000004</ele>
   </trkpt>
   <trkpt lat="-37.88199" lon="145.36610000000002">
    <ele>447.00000000000006</ele>
   </trkpt>
   <trkpt lat="-37.88228" lon="145.36633">
    <ele>439.69</ele>
   </trkpt>
   <trkpt lat="-37.88228" lon="145.36654000000001">
    <ele>437.25</ele>
   </trkpt>
   <trkpt lat="-37.882130000000004" lon="145.36676">
    <ele>432.77000000000004</ele>
   </trkpt>
   <trkpt lat="-37.8823" lon="145.36705">
    <ele>425.64</ele>
   </trkpt>
   <trkpt lat="-37.88255" lon="145.36732">
    <ele>417.26</ele>
   </trkpt>
   <trkpt lat="-37.88273" lon="145.36733">
    <ele>414.46000000000004</ele>
   </trkpt>
   <trkpt lat="-37.88330000071974" lon="145.36774499678165">
    <ele>398.16</ele>
   </trkpt>
   <trkpt lat="-37.88387" lon="145.36816000000002">
    <ele>385.37000000000006</ele>
   </trkpt>
   <trkpt lat="-37.88403" lon="145.36834000000002">
    <ele>380.55000000000007</ele>
   </trkpt>
   <trkpt lat="-37.884100000000004" lon="145.36831">
    <ele>377.08000000000004</ele>
   </trkpt>
   <trkpt lat="-37.884330000000006" lon="145.36846">
    <ele>374.41</ele>
   </trkpt>
   <trkpt lat="-37.88452" lon="145.36872000000002">
    <ele>371.4</ele>
   </trkpt>
   <trkpt lat="-37.88463" lon="145.36882">
    <ele>370.83000000000004</ele>
   </trkpt>
   <trkpt lat="-37.8847" lon="145.36890000000002">
    <ele>370.15000000000003</ele>
   </trkpt>
   <trkpt lat="-37.8847" lon="145.36899000000003">
    <ele>369.98</ele>
   </trkpt>
   <trkpt lat="-37.884640000000005" lon="145.36915000000002">
    <ele>369.62</ele>
   </trkpt>
   <trkpt lat="-37.88472" lon="145.36936">
    <ele>369.71000000000004</ele>
   </trkpt>
   <trkpt lat="-37.88481" lon="145.36937">
    <ele>369.71000000000004</ele>
   </trkpt>
   <trkpt lat="-37.884840000000004" lon="145.36943000000002">
    <ele>369.61</ele>
   </trkpt>
   <trkpt lat="-37.88499" lon="145.36944000000003">
    <ele>371.07</ele>
   </trkpt>
   <trkpt lat="-37.88501" lon="145.36937">
    <ele>370.73</ele>
   </trkpt>
   <trkpt lat="-37.88505" lon="145.36935000000003">
    <ele>370.73</ele>
   </trkpt>
   <trkpt lat="-37.88517" lon="145.36938">
    <ele>370.19</ele>
   </trkpt>
   <trkpt lat="-37.88528" lon="145.36944000000003">
    <ele>369.68</ele>
   </trkpt>
   <trkpt lat="-37.885920000000006" lon="145.36992">
    <ele>366.45000000000005</ele>
   </trkpt>
   <trkpt lat="-37.88608" lon="145.37001">
    <ele>366.08</ele>
   </trkpt>
   <trkpt lat="-37.88627" lon="145.37005000000002">
    <ele>366.00000000000006</ele>
   </trkpt>
   <trkpt lat="-37.88631" lon="145.37014000000002">
    <ele>365.52</ele>
   </trkpt>
   <trkpt lat="-37.88627" lon="145.37005000000002">
    <ele>366.00000000000006</ele>
   </trkpt>
   <trkpt lat="-37.88644" lon="145.37038">
    <ele>364.58</ele>
   </trkpt>
   <trkpt lat="-37.886520000000004" lon="145.37046">
    <ele>364.27000000000004</ele>
   </trkpt>
   <trkpt lat="-37.88683" lon="145.37049000000002">
    <ele>366.47</ele>
   </trkpt>
   <trkpt lat="-37.88731000000001" lon="145.37011">
    <ele>366.13</ele>
   </trkpt>
   <trkpt lat="-37.887350000000005" lon="145.37013000000002">
    <ele>366.05</ele>
   </trkpt>
   <trkpt lat="-37.88738" lon="145.37008">
    <ele>363.72</ele>
   </trkpt>
   <trkpt lat="-37.887550000000005" lon="145.36996000000002">
    <ele>361.61</ele>
   </trkpt>
   <trkpt lat="-37.88754" lon="145.3699">
    <ele>361.04</ele>
   </trkpt>
   <trkpt lat="-37.88765" lon="145.36973">
    <ele>360.8</ele>
   </trkpt>
   <trkpt lat="-37.8877" lon="145.36969000000002">
    <ele>360.69</ele>
   </trkpt>
  </trkseg>
 </trk>
</gpx>
