<?xml version="1.0" encoding="UTF-8"?>
<gpx creator="StravaGPX" version="1.1" xmlns="http://www.topografix.com/GPX/1/1" xmlns:xsi="http://www.w3.org/2001/XMLSchema-instance" xsi:schemaLocation="http://www.topografix.com/GPX/1/1 http://www.topografix.com/GPX/1/1/gpx.xsd">
 <metadata>
  <name>Olinda 20k 14 June 26</name>
  <author>
   <name>john csorgo</name>
   <link href="https://www.strava.com/athletes/61185584"/>
  </author>
  <copyright author="OpenStreetMap contributors">
   <year>2020</year>
   <license>https://www.openstreetmap.org/copyright</license>
  </copyright>
  <link href="https://www.strava.com/routes/3500415083614284832"/>
 </metadata>
 <trk>
  <name>Olinda 20k 14 June 26</name>
  <link href="https://www.strava.com/routes/3500415083614284832"/>
  <type>trail_running</type>
  <trkseg>
   <trkpt lat="-37.85338" lon="145.36844000000002">
    <ele>578.9200000000001</ele>
   </trkpt>
   <trkpt lat="-37.85295" lon="145.36823">
    <ele>577.37</ele>
   </trkpt>
   <trkpt lat="-37.85264" lon="145.36819">
    <ele>574.3900000000001</ele>
   </trkpt>
   <trkpt lat="-37.85228" lon="145.36824000000001">
    <ele>570.76</ele>
   </trkpt>
   <trkpt lat="-37.852070000000005" lon="145.36833000000001">
    <ele>569.49</ele>
   </trkpt>
   <trkpt lat="-37.851760000000006" lon="145.36859">
    <ele>565.8700000000001</ele>
   </trkpt>
   <trkpt lat="-37.85141500078801" lon="145.36905500234604">
    <ele>562.74</ele>
   </trkpt>
   <trkpt lat="-37.85107" lon="145.36952000000002">
    <ele>556.3800000000001</ele>
   </trkpt>
   <trkpt lat="-37.85083" lon="145.3698">
    <ele>553.35</ele>
   </trkpt>
   <trkpt lat="-37.850640000000006" lon="145.36993">
    <ele>551.95</ele>
   </trkpt>
   <trkpt lat="-37.85038" lon="145.37003">
    <ele>549.44</ele>
   </trkpt>
   <trkpt lat="-37.85004" lon="145.37006000000002">
    <ele>545.97</ele>
   </trkpt>
   <trkpt lat="-37.84984" lon="145.37028">
    <ele>544.1100000000001</ele>
   </trkpt>
   <trkpt lat="-37.84971" lon="145.37062">
    <ele>542.54</ele>
   </trkpt>
   <trkpt lat="-37.84943000134118" lon="145.37117500203067">
    <ele>541.5000000000001</ele>
   </trkpt>
   <trkpt lat="-37.84915" lon="145.37173">
    <ele>540.97</ele>
   </trkpt>
   <trkpt lat="-37.84904" lon="145.37184000000002">
    <ele>540.18</ele>
   </trkpt>
   <trkpt lat="-37.84892" lon="145.3719">
    <ele>539.35</ele>
   </trkpt>
   <trkpt lat="-37.84824000014734" lon="145.3717833311871">
    <ele>531.1400000000001</ele>
   </trkpt>
   <trkpt lat="-37.847560000179584" lon="145.37166666452597">
    <ele>526.4000000000001</ele>
   </trkpt>
   <trkpt lat="-37.846880000000006" lon="145.37155">
    <ele>524.15</ele>
   </trkpt>
   <trkpt lat="-37.84638999972779" lon="145.37145499930858">
    <ele>523.25</ele>
   </trkpt>
   <trkpt lat="-37.8459" lon="145.37136">
    <ele>522.8000000000001</ele>
   </trkpt>
   <trkpt lat="-37.84518500021802" lon="145.371154998024">
    <ele>521.71</ele>
   </trkpt>
   <trkpt lat="-37.84447" lon="145.37095000000002">
    <ele>521.15</ele>
   </trkpt>
   <trkpt lat="-37.84436" lon="145.37089">
    <ele>521.02</ele>
   </trkpt>
   <trkpt lat="-37.84429" lon="145.37084000000002">
    <ele>520.83</ele>
   </trkpt>
   <trkpt lat="-37.8438" lon="145.37016">
    <ele>516.51</ele>
   </trkpt>
   <trkpt lat="-37.84362" lon="145.36972">
    <ele>512.72</ele>
   </trkpt>
   <trkpt lat="-37.84299500154104" lon="145.36909999466238">
    <ele>501.4700000000001</ele>
   </trkpt>
   <trkpt lat="-37.84237" lon="145.36848">
    <ele>492.04</ele>
   </trkpt>
   <trkpt lat="-37.84223" lon="145.36838">
    <ele>492.04</ele>
   </trkpt>
   <trkpt lat="-37.84181" lon="145.36819">
    <ele>486.45000000000005</ele>
   </trkpt>
   <trkpt lat="-37.84169" lon="145.36817000000002">
    <ele>485.29</ele>
   </trkpt>
   <trkpt lat="-37.841219999800096" lon="145.36813499976168">
    <ele>478.87</ele>
   </trkpt>
   <trkpt lat="-37.84075" lon="145.3681">
    <ele>474.44</ele>
   </trkpt>
   <trkpt lat="-37.84057" lon="145.36824000000001">
    <ele>473.31000000000006</ele>
   </trkpt>
   <trkpt lat="-37.839970000431066" lon="145.36856000260406">
    <ele>465.40000000000003</ele>
   </trkpt>
   <trkpt lat="-37.83937" lon="145.36888000000002">
    <ele>459.89</ele>
   </trkpt>
   <trkpt lat="-37.83905" lon="145.36902">
    <ele>457.5</ele>
   </trkpt>
   <trkpt lat="-37.83831" lon="145.3691">
    <ele>451.75000000000006</ele>
   </trkpt>
   <trkpt lat="-37.83813" lon="145.36914000000002">
    <ele>451.07</ele>
   </trkpt>
   <trkpt lat="-37.83733" lon="145.36955">
    <ele>445.46000000000004</ele>
   </trkpt>
   <trkpt lat="-37.83708" lon="145.36949">
    <ele>443.88000000000005</ele>
   </trkpt>
   <trkpt lat="-37.83709" lon="145.36950000000002">
    <ele>443.88000000000005</ele>
   </trkpt>
   <trkpt lat="-37.8369" lon="145.36938">
    <ele>442.47</ele>
   </trkpt>
   <trkpt lat="-37.8367" lon="145.36918">
    <ele>440.33000000000004</ele>
   </trkpt>
   <trkpt lat="-37.83628" lon="145.36864">
    <ele>434.50000000000006</ele>
   </trkpt>
   <trkpt lat="-37.83583" lon="145.36804">
    <ele>428.62000000000006</ele>
   </trkpt>
   <trkpt lat="-37.83554" lon="145.36737000000002">
    <ele>425.98</ele>
   </trkpt>
   <trkpt lat="-37.83545" lon="145.36728000000002">
    <ele>425.49</ele>
   </trkpt>
   <trkpt lat="-37.83536" lon="145.36729000000003">
    <ele>425.3500000000001</ele>
   </trkpt>
   <trkpt lat="-37.83527" lon="145.36734">
    <ele>425.51000000000005</ele>
   </trkpt>
   <trkpt lat="-37.835190000000004" lon="145.36743">
    <ele>425.92</ele>
   </trkpt>
   <trkpt lat="-37.83509" lon="145.3673">
    <ele>427.75</ele>
   </trkpt>
   <trkpt lat="-37.83482" lon="145.36722">
    <ele>432.39000000000004</ele>
   </trkpt>
   <trkpt lat="-37.83469" lon="145.36711000000003">
    <ele>434.21000000000004</ele>
   </trkpt>
   <trkpt lat="-37.8344" lon="145.36679">
    <ele>440.13</ele>
   </trkpt>
   <trkpt lat="-37.83428" lon="145.3666">
    <ele>442.35</ele>
   </trkpt>
   <trkpt lat="-37.83372" lon="145.36615">
    <ele>452.72</ele>
   </trkpt>
   <trkpt lat="-37.83346" lon="145.36599">
    <ele>456.26000000000005</ele>
   </trkpt>
   <trkpt lat="-37.833020000000005" lon="145.36566000000002">
    <ele>463.09000000000003</ele>
   </trkpt>
   <trkpt lat="-37.833000000000006" lon="145.36563">
    <ele>463.09000000000003</ele>
   </trkpt>
   <trkpt lat="-37.83272" lon="145.36565000000002">
    <ele>469.27000000000004</ele>
   </trkpt>
   <trkpt lat="-37.83269000000001" lon="145.36567000000002">
    <ele>469.27000000000004</ele>
   </trkpt>
   <trkpt lat="-37.83268" lon="145.36575000000002">
    <ele>470.63000000000005</ele>
   </trkpt>
   <trkpt lat="-37.83263" lon="145.36575000000002">
    <ele>470.69000000000005</ele>
   </trkpt>
   <trkpt lat="-37.83252" lon="145.36566000000002">
    <ele>471.67</ele>
   </trkpt>
   <trkpt lat="-37.83234" lon="145.36567000000002">
    <ele>475.80000000000007</ele>
   </trkpt>
   <trkpt lat="-37.83229" lon="145.3656">
    <ele>475.80000000000007</ele>
   </trkpt>
   <trkpt lat="-37.8322" lon="145.36557000000002">
    <ele>477.24000000000007</ele>
   </trkpt>
   <trkpt lat="-37.832240000000006" lon="145.36546">
    <ele>477.32</ele>
   </trkpt>
   <trkpt lat="-37.8322" lon="145.36537">
    <ele>478.74000000000007</ele>
   </trkpt>
   <trkpt lat="-37.83209" lon="145.36526">
    <ele>480.7</ele>
   </trkpt>
   <trkpt lat="-37.83207" lon="145.36518">
    <ele>482.51000000000005</ele>
   </trkpt>
   <trkpt lat="-37.83196" lon="145.36511000000002">
    <ele>484.84000000000003</ele>
   </trkpt>
   <trkpt lat="-37.83164" lon="145.365">
    <ele>488.58</ele>
   </trkpt>
   <trkpt lat="-37.831480000000006" lon="145.365">
    <ele>489.17</ele>
   </trkpt>
   <trkpt lat="-37.83124" lon="145.36485000000002">
    <ele>492.66</ele>
   </trkpt>
   <trkpt lat="-37.83113" lon="145.36483">
    <ele>493.62000000000006</ele>
   </trkpt>
   <trkpt lat="-37.83062" lon="145.36463">
    <ele>493.64</ele>
   </trkpt>
   <trkpt lat="-37.8305" lon="145.36457000000001">
    <ele>493.70000000000005</ele>
   </trkpt>
   <trkpt lat="-37.83032" lon="145.36453">
    <ele>493.59000000000003</ele>
   </trkpt>
   <trkpt lat="-37.83028" lon="145.36444">
    <ele>493.53000000000003</ele>
   </trkpt>
   <trkpt lat="-37.83028" lon="145.36438">
    <ele>493.81</ele>
   </trkpt>
   <trkpt lat="-37.82967" lon="145.3639">
    <ele>496.68000000000006</ele>
   </trkpt>
   <trkpt lat="-37.82938" lon="145.36354">
    <ele>498.65000000000003</ele>
   </trkpt>
   <trkpt lat="-37.82943" lon="145.36349">
    <ele>498.31</ele>
   </trkpt>
   <trkpt lat="-37.82938" lon="145.36346">
    <ele>498.31</ele>
   </trkpt>
   <trkpt lat="-37.82932" lon="145.36349">
    <ele>498.11000000000007</ele>
   </trkpt>
   <trkpt lat="-37.82925" lon="145.36343000000002">
    <ele>498.06000000000006</ele>
   </trkpt>
   <trkpt lat="-37.82916" lon="145.36327">
    <ele>497.86</ele>
   </trkpt>
   <trkpt lat="-37.82894" lon="145.36309">
    <ele>498.59000000000003</ele>
   </trkpt>
   <trkpt lat="-37.8286" lon="145.36275">
    <ele>494.7900000000001</ele>
   </trkpt>
   <trkpt lat="-37.82842" lon="145.36245000000002">
    <ele>497.24</ele>
   </trkpt>
   <trkpt lat="-37.82835" lon="145.36207000000002">
    <ele>498.7300000000001</ele>
   </trkpt>
   <trkpt lat="-37.82837" lon="145.36183000000003">
    <ele>498.83000000000004</ele>
   </trkpt>
   <trkpt lat="-37.82826" lon="145.36181000000002">
    <ele>498.87</ele>
   </trkpt>
   <trkpt lat="-37.828210000000006" lon="145.3615">
    <ele>499.27000000000004</ele>
   </trkpt>
   <trkpt lat="-37.82826" lon="145.36134">
    <ele>500.50000000000006</ele>
   </trkpt>
   <trkpt lat="-37.82824" lon="145.36102000000002">
    <ele>504.51</ele>
   </trkpt>
   <trkpt lat="-37.82831" lon="145.36064000000002">
    <ele>508.5200000000001</ele>
   </trkpt>
   <trkpt lat="-37.82831" lon="145.36051">
    <ele>510.11000000000007</ele>
   </trkpt>
   <trkpt lat="-37.828300000000006" lon="145.36042">
    <ele>510.11000000000007</ele>
   </trkpt>
   <trkpt lat="-37.828210000000006" lon="145.36031">
    <ele>514.48</ele>
   </trkpt>
   <trkpt lat="-37.82804" lon="145.36018">
    <ele>514.98</ele>
   </trkpt>
   <trkpt lat="-37.82788" lon="145.35998">
    <ele>510.30000000000007</ele>
   </trkpt>
   <trkpt lat="-37.828030000000005" lon="145.35981">
    <ele>511.70000000000005</ele>
   </trkpt>
   <trkpt lat="-37.82802" lon="145.35974000000002">
    <ele>513.3199999999999</ele>
   </trkpt>
   <trkpt lat="-37.82797" lon="145.35967000000002">
    <ele>517.1300000000001</ele>
   </trkpt>
   <trkpt lat="-37.82786" lon="145.3596">
    <ele>523.45</ele>
   </trkpt>
   <trkpt lat="-37.82772000000001" lon="145.35955">
    <ele>528.98</ele>
   </trkpt>
   <trkpt lat="-37.82728" lon="145.35929000000002">
    <ele>534.19</ele>
   </trkpt>
   <trkpt lat="-37.827180000000006" lon="145.35917">
    <ele>535.9900000000001</ele>
   </trkpt>
   <trkpt lat="-37.82705" lon="145.35911000000002">
    <ele>537.09</ele>
   </trkpt>
   <trkpt lat="-37.82694" lon="145.35909">
    <ele>538.5000000000001</ele>
   </trkpt>
   <trkpt lat="-37.82687" lon="145.35904000000002">
    <ele>539.15</ele>
   </trkpt>
   <trkpt lat="-37.82681" lon="145.35894000000002">
    <ele>540.6800000000001</ele>
   </trkpt>
   <trkpt lat="-37.82678000000001" lon="145.35874">
    <ele>543.22</ele>
   </trkpt>
   <trkpt lat="-37.82667" lon="145.35872">
    <ele>544.64</ele>
   </trkpt>
   <trkpt lat="-37.82645" lon="145.35860000000002">
    <ele>546.25</ele>
   </trkpt>
   <trkpt lat="-37.82614" lon="145.35836">
    <ele>550.1600000000001</ele>
   </trkpt>
   <trkpt lat="-37.82587" lon="145.35828">
    <ele>552.1600000000001</ele>
   </trkpt>
   <trkpt lat="-37.82567" lon="145.35817">
    <ele>554.19</ele>
   </trkpt>
   <trkpt lat="-37.82555" lon="145.35802">
    <ele>556.34</ele>
   </trkpt>
   <trkpt lat="-37.82549" lon="145.35781">
    <ele>557.52</ele>
   </trkpt>
   <trkpt lat="-37.82531" lon="145.35758">
    <ele>555.79</ele>
   </trkpt>
   <trkpt lat="-37.825250000000004" lon="145.35765">
    <ele>561.32</ele>
   </trkpt>
   <trkpt lat="-37.82524" lon="145.35717000000002">
    <ele>564.16</ele>
   </trkpt>
   <trkpt lat="-37.82526" lon="145.35688000000002">
    <ele>566.2</ele>
   </trkpt>
   <trkpt lat="-37.825320000000005" lon="145.35658">
    <ele>567.11</ele>
   </trkpt>
   <trkpt lat="-37.82504" lon="145.35681000000002">
    <ele>561.58</ele>
   </trkpt>
   <trkpt lat="-37.82493" lon="145.35696000000002">
    <ele>560.19</ele>
   </trkpt>
   <trkpt lat="-37.82419" lon="145.35738">
    <ele>547.69</ele>
   </trkpt>
   <trkpt lat="-37.8241" lon="145.35746">
    <ele>547.36</ele>
   </trkpt>
   <trkpt lat="-37.82383" lon="145.35781">
    <ele>548.88</ele>
   </trkpt>
   <trkpt lat="-37.82352" lon="145.35851000000002">
    <ele>551.9200000000001</ele>
   </trkpt>
   <trkpt lat="-37.82316" lon="145.35912000000002">
    <ele>544.0500000000001</ele>
   </trkpt>
   <trkpt lat="-37.82309" lon="145.35945">
    <ele>543.1700000000001</ele>
   </trkpt>
   <trkpt lat="-37.82279000151375" lon="145.36005500252674">
    <ele>540.74</ele>
   </trkpt>
   <trkpt lat="-37.82249" lon="145.36066000000002">
    <ele>539.64</ele>
   </trkpt>
   <trkpt lat="-37.82249" lon="145.36072000000001">
    <ele>540.21</ele>
   </trkpt>
   <trkpt lat="-37.82287" lon="145.36139">
    <ele>551.33</ele>
   </trkpt>
   <trkpt lat="-37.822900000000004" lon="145.36151">
    <ele>551.7800000000001</ele>
   </trkpt>
   <trkpt lat="-37.82312" lon="145.36148">
    <ele>550.4300000000001</ele>
   </trkpt>
   <trkpt lat="-37.82316" lon="145.36143">
    <ele>550.4300000000001</ele>
   </trkpt>
   <trkpt lat="-37.8232" lon="145.36145000000002">
    <ele>551.5500000000001</ele>
   </trkpt>
   <trkpt lat="-37.8232" lon="145.36149">
    <ele>551.5500000000001</ele>
   </trkpt>
   <trkpt lat="-37.823240000000006" lon="145.36154000000002">
    <ele>545.0500000000001</ele>
   </trkpt>
   <trkpt lat="-37.822970000000005" lon="145.3621">
    <ele>541.2600000000001</ele>
   </trkpt>
   <trkpt lat="-37.82273" lon="145.36252000000002">
    <ele>538.66</ele>
   </trkpt>
   <trkpt lat="-37.82235" lon="145.36281000000002">
    <ele>533.34</ele>
   </trkpt>
   <trkpt lat="-37.82175" lon="145.36301">
    <ele>526.86</ele>
   </trkpt>
   <trkpt lat="-37.8210800000115" lon="145.36320000176474">
    <ele>518.29</ele>
   </trkpt>
   <trkpt lat="-37.82041" lon="145.36339">
    <ele>511.59</ele>
   </trkpt>
   <trkpt lat="-37.82023" lon="145.36350000000002">
    <ele>509.9600000000001</ele>
   </trkpt>
   <trkpt lat="-37.81991" lon="145.36415000000002">
    <ele>501.39</ele>
   </trkpt>
   <trkpt lat="-37.81976" lon="145.36451000000002">
    <ele>497.69</ele>
   </trkpt>
   <trkpt lat="-37.8196" lon="145.36478000000002">
    <ele>492.62000000000006</ele>
   </trkpt>
   <trkpt lat="-37.81944" lon="145.36501">
    <ele>490.15000000000003</ele>
   </trkpt>
   <trkpt lat="-37.81913" lon="145.36528">
    <ele>484.04</ele>
   </trkpt>
   <trkpt lat="-37.818430000000006" lon="145.36582">
    <ele>476.58000000000004</ele>
   </trkpt>
   <trkpt lat="-37.81803" lon="145.36616">
    <ele>471.46000000000004</ele>
   </trkpt>
   <trkpt lat="-37.81794" lon="145.36629000000002">
    <ele>470.21</ele>
   </trkpt>
   <trkpt lat="-37.81776" lon="145.36664000000002">
    <ele>468.94</ele>
   </trkpt>
   <trkpt lat="-37.817750000000004" lon="145.36672000000002">
    <ele>469.14000000000004</ele>
   </trkpt>
   <trkpt lat="-37.81695000003013" lon="145.366704999838">
    <ele>466.21</ele>
   </trkpt>
   <trkpt lat="-37.81615" lon="145.36669">
    <ele>457.52000000000004</ele>
   </trkpt>
   <trkpt lat="-37.81573" lon="145.36681000000002">
    <ele>454.04</ele>
   </trkpt>
   <trkpt lat="-37.81537" lon="145.36716">
    <ele>450.59000000000003</ele>
   </trkpt>
   <trkpt lat="-37.81508" lon="145.36724">
    <ele>450.94000000000005</ele>
   </trkpt>
   <trkpt lat="-37.81488" lon="145.36741">
    <ele>452.87000000000006</ele>
   </trkpt>
   <trkpt lat="-37.81481" lon="145.36755000000002">
    <ele>453.38000000000005</ele>
   </trkpt>
   <trkpt lat="-37.81461" lon="145.36827000000002">
    <ele>461.67</ele>
   </trkpt>
   <trkpt lat="-37.81461" lon="145.36878000000002">
    <ele>464.88</ele>
   </trkpt>
   <trkpt lat="-37.814620000000005" lon="145.36915000000002">
    <ele>468.85</ele>
   </trkpt>
   <trkpt lat="-37.81467" lon="145.36967">
    <ele>473.72</ele>
   </trkpt>
   <trkpt lat="-37.81476" lon="145.37027">
    <ele>479.22</ele>
   </trkpt>
   <trkpt lat="-37.81481" lon="145.37086000000002">
    <ele>481.19000000000005</ele>
   </trkpt>
   <trkpt lat="-37.81474" lon="145.37179">
    <ele>476.12000000000006</ele>
   </trkpt>
   <trkpt lat="-37.81461" lon="145.37204">
    <ele>473.13000000000005</ele>
   </trkpt>
   <trkpt lat="-37.81445" lon="145.37228000000002">
    <ele>471.53000000000003</ele>
   </trkpt>
   <trkpt lat="-37.81427" lon="145.37235">
    <ele>470.84000000000003</ele>
   </trkpt>
   <trkpt lat="-37.81396" lon="145.37239000000002">
    <ele>469.25000000000006</ele>
   </trkpt>
   <trkpt lat="-37.8136" lon="145.37265000000002">
    <ele>466.62</ele>
   </trkpt>
   <trkpt lat="-37.813480000000006" lon="145.3728">
    <ele>465.9200000000001</ele>
   </trkpt>
   <trkpt lat="-37.81338" lon="145.37299000000002">
    <ele>465.78000000000003</ele>
   </trkpt>
   <trkpt lat="-37.81329" lon="145.37335000000002">
    <ele>463.65000000000003</ele>
   </trkpt>
   <trkpt lat="-37.81324" lon="145.37391000000002">
    <ele>455.35</ele>
   </trkpt>
   <trkpt lat="-37.81318" lon="145.37397">
    <ele>453.07</ele>
   </trkpt>
   <trkpt lat="-37.813190000000006" lon="145.37397">
    <ele>453.07</ele>
   </trkpt>
   <trkpt lat="-37.81311" lon="145.37392">
    <ele>450.49000000000007</ele>
   </trkpt>
   <trkpt lat="-37.81284" lon="145.37353000000002">
    <ele>442.91</ele>
   </trkpt>
   <trkpt lat="-37.812780000000004" lon="145.37318000000002">
    <ele>437.44000000000005</ele>
   </trkpt>
   <trkpt lat="-37.81266" lon="145.37316">
    <ele>433.18</ele>
   </trkpt>
   <trkpt lat="-37.81253" lon="145.37309000000002">
    <ele>429.59000000000003</ele>
   </trkpt>
   <trkpt lat="-37.81232" lon="145.37303">
    <ele>415.11</ele>
   </trkpt>
   <trkpt lat="-37.81208" lon="145.37284000000002">
    <ele>407.33000000000004</ele>
   </trkpt>
   <trkpt lat="-37.81194" lon="145.37281000000002">
    <ele>395.03000000000003</ele>
   </trkpt>
   <trkpt lat="-37.81152" lon="145.3726">
    <ele>382.0</ele>
   </trkpt>
   <trkpt lat="-37.81114" lon="145.37238000000002">
    <ele>370.05</ele>
   </trkpt>
   <trkpt lat="-37.81049" lon="145.37237000000002">
    <ele>349.07000000000005</ele>
   </trkpt>
   <trkpt lat="-37.81031" lon="145.37220000000002">
    <ele>343.59</ele>
   </trkpt>
   <trkpt lat="-37.81011" lon="145.37183000000002">
    <ele>333.56</ele>
   </trkpt>
   <trkpt lat="-37.810030000000005" lon="145.3718">
    <ele>333.56</ele>
   </trkpt>
   <trkpt lat="-37.80991" lon="145.3719">
    <ele>329.52000000000004</ele>
   </trkpt>
   <trkpt lat="-37.80982" lon="145.37209000000001">
    <ele>325.97</ele>
   </trkpt>
   <trkpt lat="-37.809830000000005" lon="145.37236000000001">
    <ele>323.07</ele>
   </trkpt>
   <trkpt lat="-37.8098" lon="145.37228000000002">
    <ele>323.69000000000005</ele>
   </trkpt>
   <trkpt lat="-37.80977" lon="145.37235">
    <ele>320.65999999999997</ele>
   </trkpt>
   <trkpt lat="-37.80966" lon="145.37247000000002">
    <ele>317.33</ele>
   </trkpt>
   <trkpt lat="-37.80957" lon="145.37253">
    <ele>312.59000000000003</ele>
   </trkpt>
   <trkpt lat="-37.80937" lon="145.37258">
    <ele>303.8</ele>
   </trkpt>
   <trkpt lat="-37.809250000000006" lon="145.37266000000002">
    <ele>303.8</ele>
   </trkpt>
   <trkpt lat="-37.80894" lon="145.37269">
    <ele>286.68000000000006</ele>
   </trkpt>
   <trkpt lat="-37.808780000000006" lon="145.37272000000002">
    <ele>282.35</ele>
   </trkpt>
   <trkpt lat="-37.80883" lon="145.37291000000002">
    <ele>281.54</ele>
   </trkpt>
   <trkpt lat="-37.80894" lon="145.37384">
    <ele>271.40000000000003</ele>
   </trkpt>
   <trkpt lat="-37.80897" lon="145.37433000000001">
    <ele>265.86</ele>
   </trkpt>
   <trkpt lat="-37.80897" lon="145.37442000000001">
    <ele>259.86</ele>
   </trkpt>
   <trkpt lat="-37.80892" lon="145.37447">
    <ele>259.86</ele>
   </trkpt>
   <trkpt lat="-37.80883" lon="145.37444000000002">
    <ele>258.93</ele>
   </trkpt>
   <trkpt lat="-37.80868" lon="145.37449">
    <ele>256.70000000000005</ele>
   </trkpt>
   <trkpt lat="-37.8087" lon="145.37458">
    <ele>257.18</ele>
   </trkpt>
   <trkpt lat="-37.80868" lon="145.37464">
    <ele>257.40000000000003</ele>
   </trkpt>
   <trkpt lat="-37.80845" lon="145.37493">
    <ele>258.96000000000004</ele>
   </trkpt>
   <trkpt lat="-37.80827000111302" lon="145.37546500159164">
    <ele>261.99</ele>
   </trkpt>
   <trkpt lat="-37.80809" lon="145.376">
    <ele>265.94</ele>
   </trkpt>
   <trkpt lat="-37.80798" lon="145.37635">
    <ele>269.2</ele>
   </trkpt>
   <trkpt lat="-37.807900000000004" lon="145.37681">
    <ele>273.94</ele>
   </trkpt>
   <trkpt lat="-37.80772" lon="145.37712000000002">
    <ele>277.16</ele>
   </trkpt>
   <trkpt lat="-37.80738" lon="145.3778">
    <ele>270.75000000000006</ele>
   </trkpt>
   <trkpt lat="-37.80718" lon="145.37802000000002">
    <ele>270.82</ele>
   </trkpt>
   <trkpt lat="-37.807" lon="145.37806">
    <ele>270.07000000000005</ele>
   </trkpt>
   <trkpt lat="-37.80684" lon="145.37806">
    <ele>269.91</ele>
   </trkpt>
   <trkpt lat="-37.80621" lon="145.37791">
    <ele>267.81000000000006</ele>
   </trkpt>
   <trkpt lat="-37.80608" lon="145.37796">
    <ele>267.55</ele>
   </trkpt>
   <trkpt lat="-37.80594" lon="145.37808">
    <ele>267.18</ele>
   </trkpt>
   <trkpt lat="-37.80588" lon="145.37819000000002">
    <ele>267.01000000000005</ele>
   </trkpt>
   <trkpt lat="-37.80583" lon="145.37830000000002">
    <ele>266.97</ele>
   </trkpt>
   <trkpt lat="-37.80588" lon="145.37927000000002">
    <ele>263.59000000000003</ele>
   </trkpt>
   <trkpt lat="-37.805870000000006" lon="145.37941">
    <ele>263.34000000000003</ele>
   </trkpt>
   <trkpt lat="-37.80579" lon="145.37951">
    <ele>263.23</ele>
   </trkpt>
   <trkpt lat="-37.80554" lon="145.37967">
    <ele>260.74</ele>
   </trkpt>
   <trkpt lat="-37.80545" lon="145.37979">
    <ele>260.16</ele>
   </trkpt>
   <trkpt lat="-37.80527" lon="145.38013">
    <ele>258.26000000000005</ele>
   </trkpt>
   <trkpt lat="-37.80516" lon="145.38018000000002">
    <ele>257.67</ele>
   </trkpt>
   <trkpt lat="-37.80451" lon="145.37987">
    <ele>252.29000000000002</ele>
   </trkpt>
   <trkpt lat="-37.80429" lon="145.37978">
    <ele>250.67</ele>
   </trkpt>
   <trkpt lat="-37.803720000000006" lon="145.37977">
    <ele>243.45000000000002</ele>
   </trkpt>
   <trkpt lat="-37.80328" lon="145.37992">
    <ele>241.55</ele>
   </trkpt>
   <trkpt lat="-37.80265" lon="145.38053000000002">
    <ele>238.84000000000003</ele>
   </trkpt>
   <trkpt lat="-37.80223" lon="145.38061000000002">
    <ele>240.02</ele>
   </trkpt>
   <trkpt lat="-37.801750000000006" lon="145.38096000000002">
    <ele>243.63</ele>
   </trkpt>
   <trkpt lat="-37.80153" lon="145.38107000000002">
    <ele>246.25000000000003</ele>
   </trkpt>
   <trkpt lat="-37.80113" lon="145.38123000000002">
    <ele>248.42000000000002</ele>
   </trkpt>
   <trkpt lat="-37.800920000000005" lon="145.38134000000002">
    <ele>251.95</ele>
   </trkpt>
   <trkpt lat="-37.80088000000001" lon="145.38169000000002">
    <ele>255.98999999999998</ele>
   </trkpt>
   <trkpt lat="-37.801100000000005" lon="145.38212000000001">
    <ele>268.46000000000004</ele>
   </trkpt>
   <trkpt lat="-37.80111" lon="145.38224000000002">
    <ele>269.34000000000003</ele>
   </trkpt>
   <trkpt lat="-37.80106" lon="145.38253">
    <ele>272.51000000000005</ele>
   </trkpt>
   <trkpt lat="-37.80107" lon="145.38273">
    <ele>271.8</ele>
   </trkpt>
   <trkpt lat="-37.800740000000005" lon="145.38276000000002">
    <ele>268.35</ele>
   </trkpt>
   <trkpt lat="-37.80068" lon="145.38275000000002">
    <ele>268.35</ele>
   </trkpt>
   <trkpt lat="-37.80042" lon="145.38274">
    <ele>263.65</ele>
   </trkpt>
   <trkpt lat="-37.80003" lon="145.38287000000003">
    <ele>253.8</ele>
   </trkpt>
   <trkpt lat="-37.799490000000006" lon="145.38330000000002">
    <ele>242.89000000000001</ele>
   </trkpt>
   <trkpt lat="-37.79934" lon="145.38338000000002">
    <ele>240.07000000000002</ele>
   </trkpt>
   <trkpt lat="-37.799290000000006" lon="145.38337">
    <ele>239.49</ele>
   </trkpt>
   <trkpt lat="-37.79921" lon="145.38344">
    <ele>237.5</ele>
   </trkpt>
   <trkpt lat="-37.79914" lon="145.38343">
    <ele>236.88</ele>
   </trkpt>
   <trkpt lat="-37.79912" lon="145.38345">
    <ele>236.39000000000001</ele>
   </trkpt>
   <trkpt lat="-37.79905" lon="145.38354">
    <ele>234.08</ele>
   </trkpt>
   <trkpt lat="-37.79865" lon="145.38317">
    <ele>222.96</ele>
   </trkpt>
   <trkpt lat="-37.798640000000006" lon="145.38344">
    <ele>223.98000000000002</ele>
   </trkpt>
   <trkpt lat="-37.798640000000006" lon="145.38345">
    <ele>223.98000000000002</ele>
   </trkpt>
   <trkpt lat="-37.79876" lon="145.38364">
    <ele>225.79000000000002</ele>
   </trkpt>
   <trkpt lat="-37.79887" lon="145.38376000000002">
    <ele>226.67000000000002</ele>
   </trkpt>
   <trkpt lat="-37.79942000064289" lon="145.38417499684587">
    <ele>221.65</ele>
   </trkpt>
   <trkpt lat="-37.79997" lon="145.38459">
    <ele>218.35000000000002</ele>
   </trkpt>
   <trkpt lat="-37.800250000000005" lon="145.3847">
    <ele>214.54</ele>
   </trkpt>
   <trkpt lat="-37.80064" lon="145.38502000000003">
    <ele>206.57</ele>
   </trkpt>
   <trkpt lat="-37.801120000000004" lon="145.38557">
    <ele>197.87</ele>
   </trkpt>
   <trkpt lat="-37.80151" lon="145.38613">
    <ele>187.38000000000002</ele>
   </trkpt>
   <trkpt lat="-37.801840000000006" lon="145.38673">
    <ele>196.56</ele>
   </trkpt>
   <trkpt lat="-37.80176" lon="145.387">
    <ele>199.29000000000002</ele>
   </trkpt>
   <trkpt lat="-37.80183" lon="145.38770000000002">
    <ele>205.22</ele>
   </trkpt>
   <trkpt lat="-37.80196" lon="145.38812000000001">
    <ele>208.33</ele>
   </trkpt>
   <trkpt lat="-37.802200000000006" lon="145.38854">
    <ele>212.20000000000002</ele>
   </trkpt>
   <trkpt lat="-37.80243" lon="145.38933">
    <ele>225.16000000000003</ele>
   </trkpt>
   <trkpt lat="-37.802580000000006" lon="145.38963">
    <ele>229.31</ele>
   </trkpt>
   <trkpt lat="-37.80263" lon="145.38952">
    <ele>230.28</ele>
   </trkpt>
   <trkpt lat="-37.80268" lon="145.38948000000002">
    <ele>231.62</ele>
   </trkpt>
   <trkpt lat="-37.80272" lon="145.38946">
    <ele>232.43</ele>
   </trkpt>
   <trkpt lat="-37.8031" lon="145.38961">
    <ele>240.14000000000001</ele>
   </trkpt>
   <trkpt lat="-37.803430000000006" lon="145.38959">
    <ele>243.96</ele>
   </trkpt>
   <trkpt lat="-37.80362" lon="145.38951">
    <ele>245.25000000000003</ele>
   </trkpt>
   <trkpt lat="-37.80384" lon="145.38932">
    <ele>248.08</ele>
   </trkpt>
   <trkpt lat="-37.80411" lon="145.38901">
    <ele>254.59000000000003</ele>
   </trkpt>
   <trkpt lat="-37.80442" lon="145.38840000000002">
    <ele>268.5</ele>
   </trkpt>
   <trkpt lat="-37.80465" lon="145.38811">
    <ele>275.79</ele>
   </trkpt>
   <trkpt lat="-37.8048" lon="145.38797000000002">
    <ele>279.03</ele>
   </trkpt>
   <trkpt lat="-37.80491" lon="145.38793">
    <ele>280.24000000000007</ele>
   </trkpt>
   <trkpt lat="-37.80509" lon="145.38794000000001">
    <ele>281.76</ele>
   </trkpt>
   <trkpt lat="-37.80525" lon="145.388">
    <ele>282.24000000000007</ele>
   </trkpt>
   <trkpt lat="-37.80561" lon="145.38825">
    <ele>280.54</ele>
   </trkpt>
   <trkpt lat="-37.80579" lon="145.38858000000002">
    <ele>276.26</ele>
   </trkpt>
   <trkpt lat="-37.80583" lon="145.38891">
    <ele>275.43</ele>
   </trkpt>
   <trkpt lat="-37.8059" lon="145.38919">
    <ele>274.56</ele>
   </trkpt>
   <trkpt lat="-37.80599" lon="145.38936">
    <ele>274.27</ele>
   </trkpt>
   <trkpt lat="-37.80628" lon="145.38969">
    <ele>279.28000000000003</ele>
   </trkpt>
   <trkpt lat="-37.80675" lon="145.39037000000002">
    <ele>292.8</ele>
   </trkpt>
   <trkpt lat="-37.80691" lon="145.39068">
    <ele>293.86</ele>
   </trkpt>
   <trkpt lat="-37.80695" lon="145.39072000000002">
    <ele>293.74</ele>
   </trkpt>
   <trkpt lat="-37.8072" lon="145.3908">
    <ele>292.45000000000005</ele>
   </trkpt>
   <trkpt lat="-37.80747" lon="145.39085">
    <ele>289.62000000000006</ele>
   </trkpt>
   <trkpt lat="-37.807840000000006" lon="145.39083000000002">
    <ele>288.36</ele>
   </trkpt>
   <trkpt lat="-37.80828000004263" lon="145.39066500101035">
    <ele>290.07000000000005</ele>
   </trkpt>
   <trkpt lat="-37.80872" lon="145.3905">
    <ele>294.73</ele>
   </trkpt>
   <trkpt lat="-37.80897" lon="145.39046000000002">
    <ele>297.24</ele>
   </trkpt>
   <trkpt lat="-37.80953" lon="145.39024">
    <ele>304.85</ele>
   </trkpt>
   <trkpt lat="-37.809985000140664" lon="145.390095000877">
    <ele>314.3</ele>
   </trkpt>
   <trkpt lat="-37.81044" lon="145.38995">
    <ele>328.09000000000003</ele>
   </trkpt>
   <trkpt lat="-37.81098" lon="145.38993000000002">
    <ele>329.67</ele>
   </trkpt>
   <trkpt lat="-37.8115" lon="145.38977">
    <ele>332.77</ele>
   </trkpt>
   <trkpt lat="-37.811890000000005" lon="145.38958000000002">
    <ele>337.53000000000003</ele>
   </trkpt>
   <trkpt lat="-37.81181" lon="145.3891">
    <ele>334.15</ele>
   </trkpt>
   <trkpt lat="-37.811780000000006" lon="145.38864">
    <ele>324.31000000000006</ele>
   </trkpt>
   <trkpt lat="-37.81183" lon="145.38856">
    <ele>324.35</ele>
   </trkpt>
   <trkpt lat="-37.8121" lon="145.38851000000003">
    <ele>325.55</ele>
   </trkpt>
   <trkpt lat="-37.81264" lon="145.38830000000002">
    <ele>333.11</ele>
   </trkpt>
   <trkpt lat="-37.813010000000006" lon="145.38821000000002">
    <ele>337.84000000000003</ele>
   </trkpt>
   <trkpt lat="-37.8136433336725" lon="145.38800667015857">
    <ele>345.27000000000004</ele>
   </trkpt>
   <trkpt lat="-37.81427666699549" lon="145.3878033368286">
    <ele>353.76</ele>
   </trkpt>
   <trkpt lat="-37.814910000000005" lon="145.38760000000002">
    <ele>364.73</ele>
   </trkpt>
   <trkpt lat="-37.81499" lon="145.38769000000002">
    <ele>365.97</ele>
   </trkpt>
   <trkpt lat="-37.81501" lon="145.38777000000002">
    <ele>366.63</ele>
   </trkpt>
   <trkpt lat="-37.81501" lon="145.38789">
    <ele>368.76000000000005</ele>
   </trkpt>
   <trkpt lat="-37.81499" lon="145.38819">
    <ele>372.6</ele>
   </trkpt>
   <trkpt lat="-37.8149" lon="145.38855">
    <ele>378.28</ele>
   </trkpt>
   <trkpt lat="-37.814780000000006" lon="145.38887000000003">
    <ele>380.36</ele>
   </trkpt>
   <trkpt lat="-37.81472" lon="145.38914000000003">
    <ele>382.34000000000003</ele>
   </trkpt>
   <trkpt lat="-37.81472" lon="145.38927">
    <ele>384.28000000000003</ele>
   </trkpt>
   <trkpt lat="-37.81476" lon="145.38943">
    <ele>386.65000000000003</ele>
   </trkpt>
   <trkpt lat="-37.81499" lon="145.38979">
    <ele>391.52000000000004</ele>
   </trkpt>
   <trkpt lat="-37.81517" lon="145.38997">
    <ele>392.85</ele>
   </trkpt>
   <trkpt lat="-37.81519" lon="145.39002000000002">
    <ele>392.91</ele>
   </trkpt>
   <trkpt lat="-37.81532" lon="145.39013">
    <ele>391.43000000000006</ele>
   </trkpt>
   <trkpt lat="-37.81555" lon="145.39025">
    <ele>389.57</ele>
   </trkpt>
   <trkpt lat="-37.81588" lon="145.39053">
    <ele>387.41</ele>
   </trkpt>
   <trkpt lat="-37.81602" lon="145.3906">
    <ele>387.04</ele>
   </trkpt>
   <trkpt lat="-37.81638" lon="145.39099000000002">
    <ele>387.49000000000007</ele>
   </trkpt>
   <trkpt lat="-37.81662" lon="145.39136000000002">
    <ele>388.21000000000004</ele>
   </trkpt>
   <trkpt lat="-37.81709" lon="145.39181000000002">
    <ele>385.65000000000003</ele>
   </trkpt>
   <trkpt lat="-37.81745" lon="145.39248">
    <ele>382.25</ele>
   </trkpt>
   <trkpt lat="-37.81752" lon="145.39257">
    <ele>382.25</ele>
   </trkpt>
   <trkpt lat="-37.81788" lon="145.39286">
    <ele>380.91</ele>
   </trkpt>
   <trkpt lat="-37.8181" lon="145.39323000000002">
    <ele>376.61000000000007</ele>
   </trkpt>
   <trkpt lat="-37.81828" lon="145.39347">
    <ele>374.83000000000004</ele>
   </trkpt>
   <trkpt lat="-37.81853" lon="145.39384">
    <ele>370.91</ele>
   </trkpt>
   <trkpt lat="-37.81857" lon="145.39418">
    <ele>368.92</ele>
   </trkpt>
   <trkpt lat="-37.81859" lon="145.39452">
    <ele>367.64</ele>
   </trkpt>
   <trkpt lat="-37.81855" lon="145.39498">
    <ele>365.21000000000004</ele>
   </trkpt>
   <trkpt lat="-37.81846" lon="145.39541">
    <ele>363.2900000000001</ele>
   </trkpt>
   <trkpt lat="-37.818490000000004" lon="145.39585000000002">
    <ele>358.97</ele>
   </trkpt>
   <trkpt lat="-37.81853" lon="145.39600000000002">
    <ele>357.50000000000006</ele>
   </trkpt>
   <trkpt lat="-37.81857" lon="145.39611000000002">
    <ele>356.12000000000006</ele>
   </trkpt>
   <trkpt lat="-37.81908" lon="145.39602000000002">
    <ele>352.13000000000005</ele>
   </trkpt>
   <trkpt lat="-37.81913" lon="145.39595">
    <ele>351.31</ele>
   </trkpt>
   <trkpt lat="-37.81929" lon="145.39589">
    <ele>349.86</ele>
   </trkpt>
   <trkpt lat="-37.81947" lon="145.39585000000002">
    <ele>346.79</ele>
   </trkpt>
   <trkpt lat="-37.81976" lon="145.39572">
    <ele>342.38</ele>
   </trkpt>
   <trkpt lat="-37.81998" lon="145.39567000000002">
    <ele>334.23</ele>
   </trkpt>
   <trkpt lat="-37.8207" lon="145.39543">
    <ele>321.58000000000004</ele>
   </trkpt>
   <trkpt lat="-37.82099" lon="145.39538000000002">
    <ele>314.49000000000007</ele>
   </trkpt>
   <trkpt lat="-37.82121" lon="145.39530000000002">
    <ele>310.12</ele>
   </trkpt>
   <trkpt lat="-37.821450000000006" lon="145.39530000000002">
    <ele>307.34</ele>
   </trkpt>
   <trkpt lat="-37.82193" lon="145.39532">
    <ele>302.09000000000003</ele>
   </trkpt>
   <trkpt lat="-37.82222" lon="145.39527">
    <ele>298.65000000000003</ele>
   </trkpt>
   <trkpt lat="-37.82235" lon="145.39530000000002">
    <ele>296.66</ele>
   </trkpt>
   <trkpt lat="-37.822590000000005" lon="145.39541">
    <ele>294.6</ele>
   </trkpt>
   <trkpt lat="-37.82267" lon="145.39542">
    <ele>293.7</ele>
   </trkpt>
   <trkpt lat="-37.823240000000006" lon="145.39521000000002">
    <ele>289.64</ele>
   </trkpt>
   <trkpt lat="-37.82354" lon="145.39499">
    <ele>286.11</ele>
   </trkpt>
   <trkpt lat="-37.82374" lon="145.39478000000003">
    <ele>281.86</ele>
   </trkpt>
   <trkpt lat="-37.823890000000006" lon="145.39452">
    <ele>278.57000000000005</ele>
   </trkpt>
   <trkpt lat="-37.82417" lon="145.39417">
    <ele>273.43</ele>
   </trkpt>
   <trkpt lat="-37.824740000000006" lon="145.39372">
    <ele>259.22</ele>
   </trkpt>
   <trkpt lat="-37.82486" lon="145.39357">
    <ele>256.74</ele>
   </trkpt>
   <trkpt lat="-37.82515" lon="145.39312">
    <ele>250.62</ele>
   </trkpt>
   <trkpt lat="-37.82528000000001" lon="145.39302">
    <ele>247.53000000000003</ele>
   </trkpt>
   <trkpt lat="-37.82549" lon="145.39275">
    <ele>242.62000000000003</ele>
   </trkpt>
   <trkpt lat="-37.82558" lon="145.39251000000002">
    <ele>241.27</ele>
   </trkpt>
   <trkpt lat="-37.82571" lon="145.39232">
    <ele>240.27</ele>
   </trkpt>
   <trkpt lat="-37.82584000000001" lon="145.39218000000002">
    <ele>239.95000000000002</ele>
   </trkpt>
   <trkpt lat="-37.82614" lon="145.39172000000002">
    <ele>240.39000000000001</ele>
   </trkpt>
   <trkpt lat="-37.82636" lon="145.3912">
    <ele>241.67000000000002</ele>
   </trkpt>
   <trkpt lat="-37.82647" lon="145.39103">
    <ele>242.35</ele>
   </trkpt>
   <trkpt lat="-37.82661" lon="145.39093000000003">
    <ele>243.50000000000003</ele>
   </trkpt>
   <trkpt lat="-37.82674" lon="145.39086">
    <ele>244.87000000000003</ele>
   </trkpt>
   <trkpt lat="-37.82701" lon="145.39096">
    <ele>247.36</ele>
   </trkpt>
   <trkpt lat="-37.82728" lon="145.39110000000002">
    <ele>250.09000000000003</ele>
   </trkpt>
   <trkpt lat="-37.82782" lon="145.39147">
    <ele>253.20000000000002</ele>
   </trkpt>
   <trkpt lat="-37.828160000000004" lon="145.39166">
    <ele>255.98000000000005</ele>
   </trkpt>
   <trkpt lat="-37.82846" lon="145.39174">
    <ele>257.15000000000003</ele>
   </trkpt>
   <trkpt lat="-37.8286" lon="145.39170000000001">
    <ele>257.40000000000003</ele>
   </trkpt>
   <trkpt lat="-37.82869" lon="145.39164000000002">
    <ele>257.44</ele>
   </trkpt>
   <trkpt lat="-37.82902" lon="145.39116">
    <ele>257.19</ele>
   </trkpt>
   <trkpt lat="-37.82909" lon="145.39100000000002">
    <ele>257.19</ele>
   </trkpt>
   <trkpt lat="-37.8292" lon="145.39066000000003">
    <ele>257.47</ele>
   </trkpt>
   <trkpt lat="-37.82927" lon="145.39053">
    <ele>257.72</ele>
   </trkpt>
   <trkpt lat="-37.829350000000005" lon="145.39053">
    <ele>258.03000000000003</ele>
   </trkpt>
   <trkpt lat="-37.82936" lon="145.39064000000002">
    <ele>258.21</ele>
   </trkpt>
   <trkpt lat="-37.82956" lon="145.39079">
    <ele>258.79</ele>
   </trkpt>
   <trkpt lat="-37.82972" lon="145.39087">
    <ele>259.22</ele>
   </trkpt>
   <trkpt lat="-37.82994" lon="145.39091000000002">
    <ele>260.31000000000006</ele>
   </trkpt>
   <trkpt lat="-37.83043" lon="145.39088">
    <ele>261.64000000000004</ele>
   </trkpt>
   <trkpt lat="-37.83104" lon="145.3908">
    <ele>264.79</ele>
   </trkpt>
   <trkpt lat="-37.83122" lon="145.39006">
    <ele>270.14000000000004</ele>
   </trkpt>
   <trkpt lat="-37.83124" lon="145.38937">
    <ele>273.5</ele>
   </trkpt>
   <trkpt lat="-37.83131" lon="145.38892">
    <ele>276.87</ele>
   </trkpt>
   <trkpt lat="-37.83135" lon="145.38858000000002">
    <ele>278.58000000000004</ele>
   </trkpt>
   <trkpt lat="-37.83149" lon="145.38801">
    <ele>283.04</ele>
   </trkpt>
   <trkpt lat="-37.83162" lon="145.38725000000002">
    <ele>288.52</ele>
   </trkpt>
   <trkpt lat="-37.83162" lon="145.38670000000002">
    <ele>292.24</ele>
   </trkpt>
   <trkpt lat="-37.83153" lon="145.38604">
    <ele>294.91</ele>
   </trkpt>
   <trkpt lat="-37.83155" lon="145.38576">
    <ele>295.88000000000005</ele>
   </trkpt>
   <trkpt lat="-37.83173" lon="145.38513">
    <ele>298.23</ele>
   </trkpt>
   <trkpt lat="-37.8318" lon="145.38498">
    <ele>298.9</ele>
   </trkpt>
   <trkpt lat="-37.83196" lon="145.38479">
    <ele>301.02</ele>
   </trkpt>
   <trkpt lat="-37.83198" lon="145.38464000000002">
    <ele>301.02</ele>
   </trkpt>
   <trkpt lat="-37.832060000000006" lon="145.38467">
    <ele>302.82000000000005</ele>
   </trkpt>
   <trkpt lat="-37.832150000000006" lon="145.38465000000002">
    <ele>302.82000000000005</ele>
   </trkpt>
   <trkpt lat="-37.83254" lon="145.38443">
    <ele>306.39000000000004</ele>
   </trkpt>
   <trkpt lat="-37.83281" lon="145.38435">
    <ele>311.21000000000004</ele>
   </trkpt>
   <trkpt lat="-37.83334" lon="145.38427000000001">
    <ele>315.58000000000004</ele>
   </trkpt>
   <trkpt lat="-37.83415" lon="145.38427000000001">
    <ele>321.93000000000006</ele>
   </trkpt>
   <trkpt lat="-37.83491" lon="145.38435">
    <ele>328.07</ele>
   </trkpt>
   <trkpt lat="-37.83516" lon="145.38428000000002">
    <ele>331.3</ele>
   </trkpt>
   <trkpt lat="-37.83525" lon="145.38423">
    <ele>332.15</ele>
   </trkpt>
   <trkpt lat="-37.83576" lon="145.38375000000002">
    <ele>336.87</ele>
   </trkpt>
   <trkpt lat="-37.83628" lon="145.38342">
    <ele>340.30000000000007</ele>
   </trkpt>
   <trkpt lat="-37.83670500053723" lon="145.38321000103656">
    <ele>345.07000000000005</ele>
   </trkpt>
   <trkpt lat="-37.83713" lon="145.383">
    <ele>349.65000000000003</ele>
   </trkpt>
   <trkpt lat="-37.8374" lon="145.38279">
    <ele>351.92</ele>
   </trkpt>
   <trkpt lat="-37.837740000000004" lon="145.38235">
    <ele>355.24000000000007</ele>
   </trkpt>
   <trkpt lat="-37.83773" lon="145.38236">
    <ele>355.24000000000007</ele>
   </trkpt>
   <trkpt lat="-37.83793" lon="145.38191">
    <ele>359.39000000000004</ele>
   </trkpt>
   <trkpt lat="-37.83793" lon="145.38157">
    <ele>361.85</ele>
   </trkpt>
   <trkpt lat="-37.83798" lon="145.38135000000003">
    <ele>362.7</ele>
   </trkpt>
   <trkpt lat="-37.83816" lon="145.38113">
    <ele>366.25</ele>
   </trkpt>
   <trkpt lat="-37.83834" lon="145.38082">
    <ele>368.57</ele>
   </trkpt>
   <trkpt lat="-37.838420000000006" lon="145.38066">
    <ele>369.64000000000004</ele>
   </trkpt>
   <trkpt lat="-37.8386" lon="145.38041">
    <ele>372.51</ele>
   </trkpt>
   <trkpt lat="-37.83867" lon="145.38033000000001">
    <ele>372.51</ele>
   </trkpt>
   <trkpt lat="-37.83912" lon="145.37999000000002">
    <ele>378.56</ele>
   </trkpt>
   <trkpt lat="-37.83921" lon="145.37984">
    <ele>378.56</ele>
   </trkpt>
   <trkpt lat="-37.83923" lon="145.37973000000002">
    <ele>380.41</ele>
   </trkpt>
   <trkpt lat="-37.83921" lon="145.37961">
    <ele>380.41</ele>
   </trkpt>
   <trkpt lat="-37.8391" lon="145.37933">
    <ele>382.19</ele>
   </trkpt>
   <trkpt lat="-37.83867" lon="145.3788">
    <ele>387.14000000000004</ele>
   </trkpt>
   <trkpt lat="-37.83858" lon="145.37865000000002">
    <ele>387.65000000000003</ele>
   </trkpt>
   <trkpt lat="-37.83849" lon="145.37836000000001">
    <ele>388.98</ele>
   </trkpt>
   <trkpt lat="-37.83829" lon="145.37793000000002">
    <ele>391.54</ele>
   </trkpt>
   <trkpt lat="-37.83825" lon="145.37769">
    <ele>393.59000000000003</ele>
   </trkpt>
   <trkpt lat="-37.83825" lon="145.37757000000002">
    <ele>393.59000000000003</ele>
   </trkpt>
   <trkpt lat="-37.83838" lon="145.37723000000003">
    <ele>396.72</ele>
   </trkpt>
   <trkpt lat="-37.83838" lon="145.37712000000002">
    <ele>397.15000000000003</ele>
   </trkpt>
   <trkpt lat="-37.83834" lon="145.37685000000002">
    <ele>399.93</ele>
   </trkpt>
   <trkpt lat="-37.83816" lon="145.37661">
    <ele>403.76</ele>
   </trkpt>
   <trkpt lat="-37.83773" lon="145.37587000000002">
    <ele>407.63000000000005</ele>
   </trkpt>
   <trkpt lat="-37.8376" lon="145.37522">
    <ele>406.23</ele>
   </trkpt>
   <trkpt lat="-37.83738" lon="145.37475">
    <ele>406.78000000000003</ele>
   </trkpt>
   <trkpt lat="-37.83735" lon="145.37466">
    <ele>406.87</ele>
   </trkpt>
   <trkpt lat="-37.83746" lon="145.37449">
    <ele>406.17</ele>
   </trkpt>
   <trkpt lat="-37.83764" lon="145.37427000000002">
    <ele>401.71</ele>
   </trkpt>
   <trkpt lat="-37.83784" lon="145.37368">
    <ele>393.79</ele>
   </trkpt>
   <trkpt lat="-37.83791" lon="145.37358">
    <ele>393.45</ele>
   </trkpt>
   <trkpt lat="-37.83805" lon="145.37351">
    <ele>390.24</ele>
   </trkpt>
   <trkpt lat="-37.83822" lon="145.37348">
    <ele>384.21999999999997</ele>
   </trkpt>
   <trkpt lat="-37.83847" lon="145.37354000000002">
    <ele>381.15000000000003</ele>
   </trkpt>
   <trkpt lat="-37.83858" lon="145.37359">
    <ele>380.31</ele>
   </trkpt>
   <trkpt lat="-37.83883" lon="145.37376">
    <ele>380.14000000000004</ele>
   </trkpt>
   <trkpt lat="-37.8391" lon="145.37399000000002">
    <ele>379.26000000000005</ele>
   </trkpt>
   <trkpt lat="-37.83921" lon="145.37414">
    <ele>378.61000000000007</ele>
   </trkpt>
   <trkpt lat="-37.83948000278583" lon="145.374949997071">
    <ele>370.59000000000003</ele>
   </trkpt>
   <trkpt lat="-37.83975" lon="145.37576">
    <ele>361.3</ele>
   </trkpt>
   <trkpt lat="-37.839995001151586" lon="145.37628499822682">
    <ele>355.06000000000006</ele>
   </trkpt>
   <trkpt lat="-37.84024" lon="145.37681">
    <ele>350.09000000000003</ele>
   </trkpt>
   <trkpt lat="-37.84046" lon="145.37711000000002">
    <ele>343.08000000000004</ele>
   </trkpt>
   <trkpt lat="-37.84089" lon="145.37754">
    <ele>334.76</ele>
   </trkpt>
   <trkpt lat="-37.840970000000006" lon="145.37764">
    <ele>333.90000000000003</ele>
   </trkpt>
   <trkpt lat="-37.840990000000005" lon="145.37779">
    <ele>332.90000000000003</ele>
   </trkpt>
   <trkpt lat="-37.84103" lon="145.37786">
    <ele>332.87000000000006</ele>
   </trkpt>
   <trkpt lat="-37.84122" lon="145.37847000000002">
    <ele>329.99</ele>
   </trkpt>
   <trkpt lat="-37.84154" lon="145.37922">
    <ele>328.13000000000005</ele>
   </trkpt>
   <trkpt lat="-37.84185" lon="145.37971000000002">
    <ele>326.17</ele>
   </trkpt>
   <trkpt lat="-37.84201" lon="145.38002">
    <ele>324.66</ele>
   </trkpt>
   <trkpt lat="-37.84205" lon="145.38012">
    <ele>324.61</ele>
   </trkpt>
   <trkpt lat="-37.84223" lon="145.38017000000002">
    <ele>327.52000000000004</ele>
   </trkpt>
   <trkpt lat="-37.842380000000006" lon="145.38016000000002">
    <ele>330.04</ele>
   </trkpt>
   <trkpt lat="-37.8425" lon="145.38008000000002">
    <ele>333.79</ele>
   </trkpt>
   <trkpt lat="-37.84257" lon="145.37998000000002">
    <ele>333.79</ele>
   </trkpt>
   <trkpt lat="-37.84277" lon="145.37985">
    <ele>339.05</ele>
   </trkpt>
   <trkpt lat="-37.84297" lon="145.37982000000002">
    <ele>342.21</ele>
   </trkpt>
   <trkpt lat="-37.84315" lon="145.37983">
    <ele>345.67</ele>
   </trkpt>
   <trkpt lat="-37.84396" lon="145.38022">
    <ele>357.05</ele>
   </trkpt>
   <trkpt lat="-37.84431" lon="145.38042000000002">
    <ele>362.57</ele>
   </trkpt>
   <trkpt lat="-37.844440000000006" lon="145.3804">
    <ele>365.50000000000006</ele>
   </trkpt>
   <trkpt lat="-37.84449" lon="145.38033000000001">
    <ele>367.85</ele>
   </trkpt>
   <trkpt lat="-37.84451" lon="145.3802">
    <ele>369.35</ele>
   </trkpt>
   <trkpt lat="-37.84451" lon="145.38000000000002">
    <ele>370.71000000000004</ele>
   </trkpt>
   <trkpt lat="-37.8444" lon="145.37967">
    <ele>376.20000000000005</ele>
   </trkpt>
   <trkpt lat="-37.84427" lon="145.37936000000002">
    <ele>378.82000000000005</ele>
   </trkpt>
   <trkpt lat="-37.84411" lon="145.37913">
    <ele>383.66</ele>
   </trkpt>
   <trkpt lat="-37.84375" lon="145.37878">
    <ele>388.04</ele>
   </trkpt>
   <trkpt lat="-37.84333" lon="145.37800000000001">
    <ele>398.17</ele>
   </trkpt>
   <trkpt lat="-37.84326" lon="145.3778">
    <ele>399.93</ele>
   </trkpt>
   <trkpt lat="-37.84324" lon="145.37767000000002">
    <ele>400.88</ele>
   </trkpt>
   <trkpt lat="-37.84326" lon="145.37756000000002">
    <ele>402.63000000000005</ele>
   </trkpt>
   <trkpt lat="-37.84333" lon="145.37742">
    <ele>404.87</ele>
   </trkpt>
   <trkpt lat="-37.84346" lon="145.37734">
    <ele>407.65</ele>
   </trkpt>
   <trkpt lat="-37.8436" lon="145.37728">
    <ele>407.65</ele>
   </trkpt>
   <trkpt lat="-37.84384" lon="145.37723000000003">
    <ele>416.24000000000007</ele>
   </trkpt>
   <trkpt lat="-37.84431" lon="145.37730000000002">
    <ele>426.47</ele>
   </trkpt>
   <trkpt lat="-37.84492" lon="145.37729000000002">
    <ele>437.11000000000007</ele>
   </trkpt>
   <trkpt lat="-37.84523" lon="145.37737">
    <ele>441.90000000000003</ele>
   </trkpt>
   <trkpt lat="-37.84582" lon="145.37730000000002">
    <ele>455.76000000000005</ele>
   </trkpt>
   <trkpt lat="-37.8459" lon="145.37727">
    <ele>458.56</ele>
   </trkpt>
   <trkpt lat="-37.8461" lon="145.37725">
    <ele>458.56</ele>
   </trkpt>
   <trkpt lat="-37.84633" lon="145.37718">
    <ele>465.78000000000003</ele>
   </trkpt>
   <trkpt lat="-37.84646" lon="145.37716">
    <ele>468.33000000000004</ele>
   </trkpt>
   <trkpt lat="-37.84666" lon="145.37718">
    <ele>473.67</ele>
   </trkpt>
   <trkpt lat="-37.8468" lon="145.37722000000002">
    <ele>473.67</ele>
   </trkpt>
   <trkpt lat="-37.84729" lon="145.37757000000002">
    <ele>483.71000000000004</ele>
   </trkpt>
   <trkpt lat="-37.84742" lon="145.3778">
    <ele>485.25</ele>
   </trkpt>
   <trkpt lat="-37.84747" lon="145.37811000000002">
    <ele>485.13000000000005</ele>
   </trkpt>
   <trkpt lat="-37.8476" lon="145.37832">
    <ele>484.59000000000003</ele>
   </trkpt>
   <trkpt lat="-37.84774" lon="145.37846000000002">
    <ele>484.58000000000004</ele>
   </trkpt>
   <trkpt lat="-37.84794" lon="145.37849">
    <ele>485.30000000000007</ele>
   </trkpt>
   <trkpt lat="-37.84825" lon="145.37846000000002">
    <ele>486.90000000000003</ele>
   </trkpt>
   <trkpt lat="-37.84848" lon="145.3784">
    <ele>487.86</ele>
   </trkpt>
   <trkpt lat="-37.8491" lon="145.37814">
    <ele>493.31</ele>
   </trkpt>
   <trkpt lat="-37.84951" lon="145.37792000000002">
    <ele>500.29</ele>
   </trkpt>
   <trkpt lat="-37.84964" lon="145.37782">
    <ele>500.29</ele>
   </trkpt>
   <trkpt lat="-37.85029" lon="145.3775">
    <ele>507.87000000000006</ele>
   </trkpt>
   <trkpt lat="-37.85047" lon="145.37738000000002">
    <ele>509.48</ele>
   </trkpt>
   <trkpt lat="-37.85085" lon="145.37730000000002">
    <ele>512.09</ele>
   </trkpt>
   <trkpt lat="-37.85121" lon="145.37741000000003">
    <ele>512.66</ele>
   </trkpt>
   <trkpt lat="-37.85157" lon="145.3776">
    <ele>509.9600000000001</ele>
   </trkpt>
   <trkpt lat="-37.85172" lon="145.37773">
    <ele>509.38000000000005</ele>
   </trkpt>
   <trkpt lat="-37.85188" lon="145.37808">
    <ele>506.36</ele>
   </trkpt>
   <trkpt lat="-37.85201" lon="145.37857000000002">
    <ele>504.34</ele>
   </trkpt>
   <trkpt lat="-37.85228" lon="145.37909000000002">
    <ele>506.51</ele>
   </trkpt>
   <trkpt lat="-37.85251" lon="145.37935000000002">
    <ele>507.97</ele>
   </trkpt>
   <trkpt lat="-37.85282" lon="145.3796">
    <ele>510.13000000000005</ele>
   </trkpt>
   <trkpt lat="-37.85293" lon="145.37962000000002">
    <ele>511.07</ele>
   </trkpt>
   <trkpt lat="-37.85307" lon="145.37959">
    <ele>511.61</ele>
   </trkpt>
   <trkpt lat="-37.853350000000006" lon="145.37931">
    <ele>511.9100000000001</ele>
   </trkpt>
   <trkpt lat="-37.85351" lon="145.37909000000002">
    <ele>513.87</ele>
   </trkpt>
   <trkpt lat="-37.85387" lon="145.37866000000002">
    <ele>520.37</ele>
   </trkpt>
   <trkpt lat="-37.85427" lon="145.37793000000002">
    <ele>533.24</ele>
   </trkpt>
   <trkpt lat="-37.85468" lon="145.37728">
    <ele>545.9000000000001</ele>
   </trkpt>
   <trkpt lat="-37.85501" lon="145.37684000000002">
    <ele>552.83</ele>
   </trkpt>
   <trkpt lat="-37.85533" lon="145.37614000000002">
    <ele>563.69</ele>
   </trkpt>
   <trkpt lat="-37.85571" lon="145.37552000000002">
    <ele>569.6300000000001</ele>
   </trkpt>
   <trkpt lat="-37.85604" lon="145.37508000000003">
    <ele>572.89</ele>
   </trkpt>
   <trkpt lat="-37.85622" lon="145.37490000000003">
    <ele>574.3100000000001</ele>
   </trkpt>
   <trkpt lat="-37.856260000000006" lon="145.37480000000002">
    <ele>574.26</ele>
   </trkpt>
   <trkpt lat="-37.856" lon="145.37456">
    <ele>577.01</ele>
   </trkpt>
   <trkpt lat="-37.8556750005453" lon="145.37416499811948">
    <ele>578.8000000000001</ele>
   </trkpt>
   <trkpt lat="-37.85535" lon="145.37377">
    <ele>578.22</ele>
   </trkpt>
   <trkpt lat="-37.85526" lon="145.37347000000003">
    <ele>574.6800000000001</ele>
   </trkpt>
   <trkpt lat="-37.854910000000004" lon="145.37326000000002">
    <ele>575.2900000000001</ele>
   </trkpt>
   <trkpt lat="-37.854620000000004" lon="145.37294">
    <ele>575.99</ele>
   </trkpt>
   <trkpt lat="-37.85421" lon="145.3724">
    <ele>577.55</ele>
   </trkpt>
   <trkpt lat="-37.85412" lon="145.37213">
    <ele>577.76</ele>
   </trkpt>
   <trkpt lat="-37.85409000000001" lon="145.37185000000002">
    <ele>577.84</ele>
   </trkpt>
   <trkpt lat="-37.854110000000006" lon="145.37135">
    <ele>577.3100000000001</ele>
   </trkpt>
   <trkpt lat="-37.854180002593445" lon="145.37056500088147">
    <ele>574.83</ele>
   </trkpt>
   <trkpt lat="-37.85425" lon="145.36978000000002">
    <ele>570.8000000000001</ele>
   </trkpt>
   <trkpt lat="-37.854290000000006" lon="145.36955">
    <ele>570.11</ele>
   </trkpt>
   <trkpt lat="-37.85436" lon="145.36935000000003">
    <ele>570.0500000000001</ele>
   </trkpt>
   <trkpt lat="-37.854470000000006" lon="145.36917000000003">
    <ele>570.16</ele>
   </trkpt>
   <trkpt lat="-37.85409000000001" lon="145.36882">
    <ele>576.23</ele>
   </trkpt>
   <trkpt lat="-37.853660000000005" lon="145.36857">
    <ele>578.99</ele>
   </trkpt>
  </trkseg>
 </trk>
</gpx>
