<?xml version="1.0" encoding="UTF-8"?>
<gpx creator="StravaGPX" version="1.1" xmlns="http://www.topografix.com/GPX/1/1" xmlns:xsi="http://www.w3.org/2001/XMLSchema-instance" xsi:schemaLocation="http://www.topografix.com/GPX/1/1 http://www.topografix.com/GPX/1/1/gpx.xsd">
 <metadata>
  <name>DTR 12/7 14k</name>
  <author>
   <name>Richard Jones</name>
   <link href="https://www.strava.com/athletes/38085969"/>
  </author>
  <copyright author="OpenStreetMap contributors">
   <year>2020</year>
   <license>https://www.openstreetmap.org/copyright</license>
  </copyright>
  <link href="https://www.strava.com/routes/3510506575097489460"/>
 </metadata>
 <trk>
  <name>DTR 12/7 14k</name>
  <link href="https://www.strava.com/routes/3510506575097489460"/>
  <type>trail_running</type>
  <trkseg>
   <trkpt lat="-37.8171" lon="145.37977">
    <ele>434.93</ele>
   </trkpt>
   <trkpt lat="-37.81701" lon="145.37994">
    <ele>435.86</ele>
   </trkpt>
   <trkpt lat="-37.81642" lon="145.38000000000002">
    <ele>436.07</ele>
   </trkpt>
   <trkpt lat="-37.81629" lon="145.37992">
    <ele>435.55</ele>
   </trkpt>
   <trkpt lat="-37.81622" lon="145.37971000000002">
    <ele>434.87</ele>
   </trkpt>
   <trkpt lat="-37.8162" lon="145.37919000000002">
    <ele>434.2300000000001</ele>
   </trkpt>
   <trkpt lat="-37.81613" lon="145.37898">
    <ele>434.27000000000004</ele>
   </trkpt>
   <trkpt lat="-37.816" lon="145.37896">
    <ele>433.24</ele>
   </trkpt>
   <trkpt lat="-37.81579" lon="145.3788">
    <ele>432.00000000000006</ele>
   </trkpt>
   <trkpt lat="-37.81546" lon="145.37838000000002">
    <ele>430.98</ele>
   </trkpt>
   <trkpt lat="-37.815000000000005" lon="145.37811000000002">
    <ele>430.20000000000005</ele>
   </trkpt>
   <trkpt lat="-37.81450000127363" lon="145.3775549962098">
    <ele>435.58000000000004</ele>
   </trkpt>
   <trkpt lat="-37.814" lon="145.377">
    <ele>440.63</ele>
   </trkpt>
   <trkpt lat="-37.81394" lon="145.37682">
    <ele>444.05000000000007</ele>
   </trkpt>
   <trkpt lat="-37.8138" lon="145.37578000000002">
    <ele>450.28000000000003</ele>
   </trkpt>
   <trkpt lat="-37.813705001405076" lon="145.37520499930613">
    <ele>458.62</ele>
   </trkpt>
   <trkpt lat="-37.813610000000004" lon="145.37463000000002">
    <ele>461.46000000000004</ele>
   </trkpt>
   <trkpt lat="-37.8134" lon="145.37372000000002">
    <ele>465.9800000000001</ele>
   </trkpt>
   <trkpt lat="-37.813340000000004" lon="145.37318000000002">
    <ele>466.11</ele>
   </trkpt>
   <trkpt lat="-37.81329" lon="145.37335000000002">
    <ele>463.65000000000003</ele>
   </trkpt>
   <trkpt lat="-37.81324" lon="145.37391000000002">
    <ele>455.35</ele>
   </trkpt>
   <trkpt lat="-37.813190000000006" lon="145.37398000000002">
    <ele>451.66</ele>
   </trkpt>
   <trkpt lat="-37.81311" lon="145.37392">
    <ele>450.49000000000007</ele>
   </trkpt>
   <trkpt lat="-37.81284" lon="145.37353000000002">
    <ele>442.91</ele>
   </trkpt>
   <trkpt lat="-37.812780000000004" lon="145.37318000000002">
    <ele>437.44000000000005</ele>
   </trkpt>
   <trkpt lat="-37.81266" lon="145.37316">
    <ele>433.18</ele>
   </trkpt>
   <trkpt lat="-37.81253" lon="145.37309000000002">
    <ele>429.59000000000003</ele>
   </trkpt>
   <trkpt lat="-37.81232" lon="145.37303">
    <ele>415.11</ele>
   </trkpt>
   <trkpt lat="-37.81208" lon="145.37284000000002">
    <ele>407.33000000000004</ele>
   </trkpt>
   <trkpt lat="-37.81194" lon="145.37281000000002">
    <ele>395.03000000000003</ele>
   </trkpt>
   <trkpt lat="-37.81152" lon="145.3726">
    <ele>382.0</ele>
   </trkpt>
   <trkpt lat="-37.81114" lon="145.37238000000002">
    <ele>370.05</ele>
   </trkpt>
   <trkpt lat="-37.81049" lon="145.37237000000002">
    <ele>349.07000000000005</ele>
   </trkpt>
   <trkpt lat="-37.81031" lon="145.37220000000002">
    <ele>343.59</ele>
   </trkpt>
   <trkpt lat="-37.81011" lon="145.37183000000002">
    <ele>333.68</ele>
   </trkpt>
   <trkpt lat="-37.81002" lon="145.3718">
    <ele>332.6</ele>
   </trkpt>
   <trkpt lat="-37.80991" lon="145.3719">
    <ele>329.52000000000004</ele>
   </trkpt>
   <trkpt lat="-37.80982" lon="145.37209000000001">
    <ele>325.97</ele>
   </trkpt>
   <trkpt lat="-37.809830000000005" lon="145.37236000000001">
    <ele>323.69000000000005</ele>
   </trkpt>
   <trkpt lat="-37.8098" lon="145.37228000000002">
    <ele>322.24</ele>
   </trkpt>
   <trkpt lat="-37.80977" lon="145.37235">
    <ele>320.65999999999997</ele>
   </trkpt>
   <trkpt lat="-37.80966" lon="145.37247000000002">
    <ele>312.59000000000003</ele>
   </trkpt>
   <trkpt lat="-37.80957" lon="145.37253">
    <ele>310.93</ele>
   </trkpt>
   <trkpt lat="-37.80937" lon="145.37258">
    <ele>303.8</ele>
   </trkpt>
   <trkpt lat="-37.809290000000004" lon="145.37263000000002">
    <ele>301.35</ele>
   </trkpt>
   <trkpt lat="-37.809250000000006" lon="145.37266000000002">
    <ele>301.00000000000006</ele>
   </trkpt>
   <trkpt lat="-37.80894" lon="145.37269">
    <ele>286.68000000000006</ele>
   </trkpt>
   <trkpt lat="-37.808780000000006" lon="145.37272000000002">
    <ele>282.35</ele>
   </trkpt>
   <trkpt lat="-37.80883" lon="145.37291000000002">
    <ele>281.54</ele>
   </trkpt>
   <trkpt lat="-37.80894" lon="145.37384">
    <ele>271.40000000000003</ele>
   </trkpt>
   <trkpt lat="-37.80897" lon="145.37433000000001">
    <ele>265.86</ele>
   </trkpt>
   <trkpt lat="-37.80897" lon="145.37442000000001">
    <ele>259.86</ele>
   </trkpt>
   <trkpt lat="-37.80892" lon="145.37447">
    <ele>259.86</ele>
   </trkpt>
   <trkpt lat="-37.80883" lon="145.37444000000002">
    <ele>258.93</ele>
   </trkpt>
   <trkpt lat="-37.80868" lon="145.37449">
    <ele>256.70000000000005</ele>
   </trkpt>
   <trkpt lat="-37.8087" lon="145.37458">
    <ele>257.18</ele>
   </trkpt>
   <trkpt lat="-37.80868" lon="145.37464">
    <ele>257.40000000000003</ele>
   </trkpt>
   <trkpt lat="-37.80845" lon="145.37493">
    <ele>258.96000000000004</ele>
   </trkpt>
   <trkpt lat="-37.80827000111302" lon="145.37546500159164">
    <ele>261.99</ele>
   </trkpt>
   <trkpt lat="-37.80809" lon="145.376">
    <ele>265.94</ele>
   </trkpt>
   <trkpt lat="-37.80798" lon="145.37635">
    <ele>269.2</ele>
   </trkpt>
   <trkpt lat="-37.807900000000004" lon="145.37681">
    <ele>273.94</ele>
   </trkpt>
   <trkpt lat="-37.80772" lon="145.37712000000002">
    <ele>277.16</ele>
   </trkpt>
   <trkpt lat="-37.80738" lon="145.3778">
    <ele>270.75000000000006</ele>
   </trkpt>
   <trkpt lat="-37.80718" lon="145.37802000000002">
    <ele>270.82</ele>
   </trkpt>
   <trkpt lat="-37.807" lon="145.37806">
    <ele>270.07000000000005</ele>
   </trkpt>
   <trkpt lat="-37.80684" lon="145.37806">
    <ele>269.91</ele>
   </trkpt>
   <trkpt lat="-37.80621" lon="145.37791">
    <ele>267.81000000000006</ele>
   </trkpt>
   <trkpt lat="-37.80608" lon="145.37796">
    <ele>267.55</ele>
   </trkpt>
   <trkpt lat="-37.80594" lon="145.37808">
    <ele>267.18</ele>
   </trkpt>
   <trkpt lat="-37.80588" lon="145.37819000000002">
    <ele>267.01000000000005</ele>
   </trkpt>
   <trkpt lat="-37.80583" lon="145.37830000000002">
    <ele>266.97</ele>
   </trkpt>
   <trkpt lat="-37.80588" lon="145.37927000000002">
    <ele>263.59000000000003</ele>
   </trkpt>
   <trkpt lat="-37.805870000000006" lon="145.37941">
    <ele>263.34000000000003</ele>
   </trkpt>
   <trkpt lat="-37.80579" lon="145.37951">
    <ele>263.23</ele>
   </trkpt>
   <trkpt lat="-37.80554" lon="145.37967">
    <ele>260.74</ele>
   </trkpt>
   <trkpt lat="-37.805420000000005" lon="145.37985">
    <ele>259.96000000000004</ele>
   </trkpt>
   <trkpt lat="-37.805420000000005" lon="145.37984">
    <ele>260.04</ele>
   </trkpt>
   <trkpt lat="-37.80527" lon="145.38013">
    <ele>258.77</ele>
   </trkpt>
   <trkpt lat="-37.80516" lon="145.38018000000002">
    <ele>257.98</ele>
   </trkpt>
   <trkpt lat="-37.80451" lon="145.37987">
    <ele>252.57000000000002</ele>
   </trkpt>
   <trkpt lat="-37.80429" lon="145.37978">
    <ele>250.67</ele>
   </trkpt>
   <trkpt lat="-37.803720000000006" lon="145.37977">
    <ele>243.90000000000003</ele>
   </trkpt>
   <trkpt lat="-37.80328" lon="145.37992">
    <ele>241.75000000000003</ele>
   </trkpt>
   <trkpt lat="-37.80265" lon="145.38053000000002">
    <ele>239.04000000000002</ele>
   </trkpt>
   <trkpt lat="-37.802530000000004" lon="145.38055">
    <ele>238.74</ele>
   </trkpt>
   <trkpt lat="-37.80254" lon="145.38055">
    <ele>238.77</ele>
   </trkpt>
   <trkpt lat="-37.80223" lon="145.38061000000002">
    <ele>239.21</ele>
   </trkpt>
   <trkpt lat="-37.801750000000006" lon="145.38096000000002">
    <ele>243.63</ele>
   </trkpt>
   <trkpt lat="-37.80153" lon="145.38107000000002">
    <ele>245.8</ele>
   </trkpt>
   <trkpt lat="-37.80113" lon="145.38123000000002">
    <ele>248.09000000000003</ele>
   </trkpt>
   <trkpt lat="-37.800920000000005" lon="145.38134000000002">
    <ele>250.41000000000003</ele>
   </trkpt>
   <trkpt lat="-37.80088000000001" lon="145.38169000000002">
    <ele>255.98999999999998</ele>
   </trkpt>
   <trkpt lat="-37.801100000000005" lon="145.38212000000001">
    <ele>266.5</ele>
   </trkpt>
   <trkpt lat="-37.80111" lon="145.38224000000002">
    <ele>268.46000000000004</ele>
   </trkpt>
   <trkpt lat="-37.80106" lon="145.38253">
    <ele>272.17</ele>
   </trkpt>
   <trkpt lat="-37.80107" lon="145.38273">
    <ele>273.1</ele>
   </trkpt>
   <trkpt lat="-37.800740000000005" lon="145.38276000000002">
    <ele>268.45</ele>
   </trkpt>
   <trkpt lat="-37.80068" lon="145.38275000000002">
    <ele>268.35</ele>
   </trkpt>
   <trkpt lat="-37.80042" lon="145.38274">
    <ele>264.88</ele>
   </trkpt>
   <trkpt lat="-37.80003" lon="145.38287000000003">
    <ele>259.62</ele>
   </trkpt>
   <trkpt lat="-37.79992" lon="145.38295000000002">
    <ele>254.98999999999998</ele>
   </trkpt>
   <trkpt lat="-37.79993" lon="145.38295000000002">
    <ele>255.06</ele>
   </trkpt>
   <trkpt lat="-37.799490000000006" lon="145.38330000000002">
    <ele>243.70000000000002</ele>
   </trkpt>
   <trkpt lat="-37.79934" lon="145.38338000000002">
    <ele>240.07000000000002</ele>
   </trkpt>
   <trkpt lat="-37.799290000000006" lon="145.38337">
    <ele>240.07000000000002</ele>
   </trkpt>
   <trkpt lat="-37.79894" lon="145.38313000000002">
    <ele>230.12</ele>
   </trkpt>
   <trkpt lat="-37.79867" lon="145.38313000000002">
    <ele>223.01000000000002</ele>
   </trkpt>
   <trkpt lat="-37.79865" lon="145.38325">
    <ele>223.47000000000003</ele>
   </trkpt>
   <trkpt lat="-37.798640000000006" lon="145.38345">
    <ele>224.03</ele>
   </trkpt>
   <trkpt lat="-37.79852" lon="145.38368">
    <ele>219.26000000000002</ele>
   </trkpt>
   <trkpt lat="-37.79836" lon="145.38352">
    <ele>214.64000000000001</ele>
   </trkpt>
   <trkpt lat="-37.79785500141029" lon="145.38296499632514">
    <ele>196.86</ele>
   </trkpt>
   <trkpt lat="-37.79735" lon="145.38241000000002">
    <ele>181.75000000000003</ele>
   </trkpt>
   <trkpt lat="-37.7969" lon="145.38160000000002">
    <ele>173.26000000000002</ele>
   </trkpt>
   <trkpt lat="-37.79686" lon="145.38158">
    <ele>173.26000000000002</ele>
   </trkpt>
   <trkpt lat="-37.79665" lon="145.38128">
    <ele>168.57000000000002</ele>
   </trkpt>
   <trkpt lat="-37.79643" lon="145.38116000000002">
    <ele>165.9</ele>
   </trkpt>
   <trkpt lat="-37.79625" lon="145.3811">
    <ele>163.55</ele>
   </trkpt>
   <trkpt lat="-37.79614" lon="145.38078000000002">
    <ele>159.19000000000003</ele>
   </trkpt>
   <trkpt lat="-37.79612" lon="145.38154">
    <ele>162.58</ele>
   </trkpt>
   <trkpt lat="-37.79618" lon="145.38198">
    <ele>163.64000000000001</ele>
   </trkpt>
   <trkpt lat="-37.79621" lon="145.38236">
    <ele>163.81</ele>
   </trkpt>
   <trkpt lat="-37.79612" lon="145.38267000000002">
    <ele>163.10000000000002</ele>
   </trkpt>
   <trkpt lat="-37.79598" lon="145.38289">
    <ele>162.72</ele>
   </trkpt>
   <trkpt lat="-37.795840000000005" lon="145.38302000000002">
    <ele>162.31</ele>
   </trkpt>
   <trkpt lat="-37.795840000000005" lon="145.38301">
    <ele>155.98000000000002</ele>
   </trkpt>
   <trkpt lat="-37.79585" lon="145.38342">
    <ele>155.17</ele>
   </trkpt>
   <trkpt lat="-37.79625" lon="145.38417">
    <ele>169.86</ele>
   </trkpt>
   <trkpt lat="-37.79651000111359" lon="145.38470499791947">
    <ele>173.12000000000003</ele>
   </trkpt>
   <trkpt lat="-37.79677" lon="145.38524">
    <ele>179.25000000000003</ele>
   </trkpt>
   <trkpt lat="-37.79692" lon="145.38563000000002">
    <ele>179.56000000000003</ele>
   </trkpt>
   <trkpt lat="-37.796890000000005" lon="145.38602">
    <ele>182.15</ele>
   </trkpt>
   <trkpt lat="-37.797450000000005" lon="145.38639">
    <ele>178.85</ele>
   </trkpt>
   <trkpt lat="-37.79825500000187" lon="145.38651999857208">
    <ele>179.02</ele>
   </trkpt>
   <trkpt lat="-37.799060000000004" lon="145.38665">
    <ele>192.19000000000003</ele>
   </trkpt>
   <trkpt lat="-37.799240000000005" lon="145.38706000000002">
    <ele>199.42000000000002</ele>
   </trkpt>
   <trkpt lat="-37.79965" lon="145.38746">
    <ele>201.01000000000002</ele>
   </trkpt>
   <trkpt lat="-37.799670000000006" lon="145.38744">
    <ele>198.3</ele>
   </trkpt>
   <trkpt lat="-37.79979" lon="145.38766">
    <ele>199.12</ele>
   </trkpt>
   <trkpt lat="-37.79972" lon="145.38792">
    <ele>199.84</ele>
   </trkpt>
   <trkpt lat="-37.79956" lon="145.38827">
    <ele>201.10000000000002</ele>
   </trkpt>
   <trkpt lat="-37.79932" lon="145.3887">
    <ele>202.25</ele>
   </trkpt>
   <trkpt lat="-37.79928" lon="145.38883">
    <ele>201.99</ele>
   </trkpt>
   <trkpt lat="-37.79914" lon="145.38978">
    <ele>202.08</ele>
   </trkpt>
   <trkpt lat="-37.79903" lon="145.39016">
    <ele>203.20000000000002</ele>
   </trkpt>
   <trkpt lat="-37.798740001390115" lon="145.39073000220432">
    <ele>206.69</ele>
   </trkpt>
   <trkpt lat="-37.79845" lon="145.3913">
    <ele>212.54</ele>
   </trkpt>
   <trkpt lat="-37.798460000000006" lon="145.39129">
    <ele>212.50000000000003</ele>
   </trkpt>
   <trkpt lat="-37.79822" lon="145.39187">
    <ele>216.92000000000002</ele>
   </trkpt>
   <trkpt lat="-37.79796" lon="145.39234000000002">
    <ele>218.41000000000003</ele>
   </trkpt>
   <trkpt lat="-37.7978" lon="145.39254000000003">
    <ele>218.25000000000003</ele>
   </trkpt>
   <trkpt lat="-37.79795" lon="145.39276">
    <ele>218.15</ele>
   </trkpt>
   <trkpt lat="-37.798190000000005" lon="145.39280000000002">
    <ele>218.28000000000003</ele>
   </trkpt>
   <trkpt lat="-37.79852" lon="145.39343000000002">
    <ele>222.20000000000002</ele>
   </trkpt>
   <trkpt lat="-37.798750000000005" lon="145.39379000000002">
    <ele>223.15</ele>
   </trkpt>
   <trkpt lat="-37.79921" lon="145.39434">
    <ele>219.26000000000002</ele>
   </trkpt>
   <trkpt lat="-37.79972" lon="145.39508">
    <ele>214.6</ele>
   </trkpt>
   <trkpt lat="-37.79972" lon="145.39509">
    <ele>214.63000000000002</ele>
   </trkpt>
   <trkpt lat="-37.800000000000004" lon="145.3955">
    <ele>218.61</ele>
   </trkpt>
   <trkpt lat="-37.80019" lon="145.39575000000002">
    <ele>221.78</ele>
   </trkpt>
   <trkpt lat="-37.80044" lon="145.39620000000002">
    <ele>223.75</ele>
   </trkpt>
   <trkpt lat="-37.80049" lon="145.39642">
    <ele>222.45000000000002</ele>
   </trkpt>
   <trkpt lat="-37.80059" lon="145.39664000000002">
    <ele>222.07000000000002</ele>
   </trkpt>
   <trkpt lat="-37.80095" lon="145.39711">
    <ele>222.12</ele>
   </trkpt>
   <trkpt lat="-37.80129" lon="145.39732">
    <ele>223.47000000000003</ele>
   </trkpt>
   <trkpt lat="-37.801880000000004" lon="145.39724">
    <ele>223.00000000000003</ele>
   </trkpt>
   <trkpt lat="-37.80243" lon="145.39715">
    <ele>234.31</ele>
   </trkpt>
   <trkpt lat="-37.80326" lon="145.39696">
    <ele>229.17000000000002</ele>
   </trkpt>
   <trkpt lat="-37.80348" lon="145.39694">
    <ele>223.72000000000003</ele>
   </trkpt>
   <trkpt lat="-37.80368" lon="145.39724">
    <ele>224.09</ele>
   </trkpt>
   <trkpt lat="-37.8038" lon="145.39734">
    <ele>224.10000000000002</ele>
   </trkpt>
   <trkpt lat="-37.80386" lon="145.39736000000002">
    <ele>224.05</ele>
   </trkpt>
   <trkpt lat="-37.80391" lon="145.39732">
    <ele>224.05</ele>
   </trkpt>
   <trkpt lat="-37.80397" lon="145.39723">
    <ele>224.05</ele>
   </trkpt>
   <trkpt lat="-37.804" lon="145.39698">
    <ele>223.65</ele>
   </trkpt>
   <trkpt lat="-37.80418" lon="145.3964">
    <ele>223.44000000000003</ele>
   </trkpt>
   <trkpt lat="-37.804280000000006" lon="145.39619000000002">
    <ele>223.48000000000002</ele>
   </trkpt>
   <trkpt lat="-37.80438" lon="145.39603000000002">
    <ele>223.68</ele>
   </trkpt>
   <trkpt lat="-37.80467" lon="145.39583000000002">
    <ele>223.74</ele>
   </trkpt>
   <trkpt lat="-37.80482000000001" lon="145.39556000000002">
    <ele>223.71</ele>
   </trkpt>
   <trkpt lat="-37.80494" lon="145.39551">
    <ele>223.71</ele>
   </trkpt>
   <trkpt lat="-37.80521" lon="145.39546">
    <ele>223.64000000000001</ele>
   </trkpt>
   <trkpt lat="-37.80543" lon="145.39538000000002">
    <ele>223.78</ele>
   </trkpt>
   <trkpt lat="-37.80554" lon="145.39537">
    <ele>223.78</ele>
   </trkpt>
   <trkpt lat="-37.80572" lon="145.39547000000002">
    <ele>223.77</ele>
   </trkpt>
   <trkpt lat="-37.80586" lon="145.39559">
    <ele>223.77</ele>
   </trkpt>
   <trkpt lat="-37.80599" lon="145.39593000000002">
    <ele>224.10000000000002</ele>
   </trkpt>
   <trkpt lat="-37.80608" lon="145.39629000000002">
    <ele>224.55</ele>
   </trkpt>
   <trkpt lat="-37.806160000000006" lon="145.39635">
    <ele>224.63000000000002</ele>
   </trkpt>
   <trkpt lat="-37.80626" lon="145.39635">
    <ele>224.60000000000002</ele>
   </trkpt>
   <trkpt lat="-37.80657" lon="145.39629000000002">
    <ele>224.42000000000002</ele>
   </trkpt>
   <trkpt lat="-37.806810000000006" lon="145.39628000000002">
    <ele>224.27</ele>
   </trkpt>
   <trkpt lat="-37.80691" lon="145.39630000000002">
    <ele>224.27</ele>
   </trkpt>
   <trkpt lat="-37.80747" lon="145.3967">
    <ele>224.41000000000003</ele>
   </trkpt>
   <trkpt lat="-37.8076" lon="145.39682000000002">
    <ele>224.41000000000003</ele>
   </trkpt>
   <trkpt lat="-37.80791" lon="145.39728000000002">
    <ele>224.79000000000002</ele>
   </trkpt>
   <trkpt lat="-37.80807" lon="145.39755000000002">
    <ele>225.03</ele>
   </trkpt>
   <trkpt lat="-37.80816" lon="145.39766">
    <ele>224.99</ele>
   </trkpt>
   <trkpt lat="-37.808310000000006" lon="145.39775">
    <ele>224.99</ele>
   </trkpt>
   <trkpt lat="-37.80892" lon="145.39780000000002">
    <ele>224.63000000000002</ele>
   </trkpt>
   <trkpt lat="-37.809160000000006" lon="145.39795">
    <ele>224.69000000000003</ele>
   </trkpt>
   <trkpt lat="-37.80926" lon="145.39806000000002">
    <ele>224.91000000000003</ele>
   </trkpt>
   <trkpt lat="-37.809340000000006" lon="145.39816000000002">
    <ele>224.91000000000003</ele>
   </trkpt>
   <trkpt lat="-37.80946" lon="145.39842000000002">
    <ele>225.41000000000003</ele>
   </trkpt>
   <trkpt lat="-37.80948" lon="145.39863000000003">
    <ele>225.61</ele>
   </trkpt>
   <trkpt lat="-37.809540000000005" lon="145.39883">
    <ele>225.65</ele>
   </trkpt>
   <trkpt lat="-37.80988" lon="145.39941000000002">
    <ele>225.8</ele>
   </trkpt>
   <trkpt lat="-37.81002" lon="145.39973">
    <ele>225.61</ele>
   </trkpt>
   <trkpt lat="-37.81" lon="145.40001">
    <ele>225.55</ele>
   </trkpt>
   <trkpt lat="-37.80993" lon="145.4001">
    <ele>225.55</ele>
   </trkpt>
   <trkpt lat="-37.80964" lon="145.40038">
    <ele>225.37</ele>
   </trkpt>
   <trkpt lat="-37.80944" lon="145.40074">
    <ele>225.24</ele>
   </trkpt>
   <trkpt lat="-37.80921" lon="145.40108">
    <ele>225.28</ele>
   </trkpt>
   <trkpt lat="-37.80897" lon="145.40122000000002">
    <ele>225.66000000000003</ele>
   </trkpt>
   <trkpt lat="-37.8087" lon="145.40119">
    <ele>225.65</ele>
   </trkpt>
   <trkpt lat="-37.80861" lon="145.40123">
    <ele>225.65</ele>
   </trkpt>
   <trkpt lat="-37.80843" lon="145.40148000000002">
    <ele>225.31</ele>
   </trkpt>
   <trkpt lat="-37.80827" lon="145.4016">
    <ele>225.37</ele>
   </trkpt>
   <trkpt lat="-37.80823" lon="145.40165000000002">
    <ele>225.37</ele>
   </trkpt>
   <trkpt lat="-37.808220000000006" lon="145.40174000000002">
    <ele>225.37</ele>
   </trkpt>
   <trkpt lat="-37.80821" lon="145.40199">
    <ele>225.61</ele>
   </trkpt>
   <trkpt lat="-37.80825" lon="145.40235">
    <ele>225.55</ele>
   </trkpt>
   <trkpt lat="-37.80832" lon="145.40262">
    <ele>225.73000000000002</ele>
   </trkpt>
   <trkpt lat="-37.80845" lon="145.40292000000002">
    <ele>225.77</ele>
   </trkpt>
   <trkpt lat="-37.80863" lon="145.40308000000002">
    <ele>225.89000000000001</ele>
   </trkpt>
   <trkpt lat="-37.808690000000006" lon="145.40317000000002">
    <ele>225.89000000000001</ele>
   </trkpt>
   <trkpt lat="-37.80874" lon="145.40342">
    <ele>226.16000000000003</ele>
   </trkpt>
   <trkpt lat="-37.808870000000006" lon="145.40362000000002">
    <ele>226.05</ele>
   </trkpt>
   <trkpt lat="-37.80921" lon="145.40325">
    <ele>221.18</ele>
   </trkpt>
   <trkpt lat="-37.809660001237084" lon="145.4027100032854">
    <ele>212.72000000000003</ele>
   </trkpt>
   <trkpt lat="-37.81011" lon="145.40217">
    <ele>204.06</ele>
   </trkpt>
   <trkpt lat="-37.810190000000006" lon="145.40191000000002">
    <ele>203.42000000000002</ele>
   </trkpt>
   <trkpt lat="-37.81025" lon="145.4018">
    <ele>203.34</ele>
   </trkpt>
   <trkpt lat="-37.81031" lon="145.40174000000002">
    <ele>203.41</ele>
   </trkpt>
   <trkpt lat="-37.8104" lon="145.40173000000001">
    <ele>203.61</ele>
   </trkpt>
   <trkpt lat="-37.810480000000005" lon="145.40176000000002">
    <ele>203.92000000000002</ele>
   </trkpt>
   <trkpt lat="-37.81058" lon="145.40181">
    <ele>204.38</ele>
   </trkpt>
   <trkpt lat="-37.810660000000006" lon="145.40182000000001">
    <ele>204.91</ele>
   </trkpt>
   <trkpt lat="-37.81082" lon="145.4017">
    <ele>206.88</ele>
   </trkpt>
   <trkpt lat="-37.81089" lon="145.40167000000002">
    <ele>207.54000000000002</ele>
   </trkpt>
   <trkpt lat="-37.81103" lon="145.40168">
    <ele>210.41</ele>
   </trkpt>
   <trkpt lat="-37.81123" lon="145.40162">
    <ele>213.72000000000003</ele>
   </trkpt>
   <trkpt lat="-37.81129" lon="145.40155000000001">
    <ele>213.72000000000003</ele>
   </trkpt>
   <trkpt lat="-37.81132" lon="145.40135">
    <ele>219.13000000000002</ele>
   </trkpt>
   <trkpt lat="-37.81136" lon="145.40127">
    <ele>221.13000000000002</ele>
   </trkpt>
   <trkpt lat="-37.81141" lon="145.40126">
    <ele>221.13000000000002</ele>
   </trkpt>
   <trkpt lat="-37.81147" lon="145.40133">
    <ele>224.37</ele>
   </trkpt>
   <trkpt lat="-37.81154" lon="145.40133">
    <ele>226.24</ele>
   </trkpt>
   <trkpt lat="-37.81179" lon="145.40126">
    <ele>228.47</ele>
   </trkpt>
   <trkpt lat="-37.811840000000004" lon="145.40129000000002">
    <ele>228.19000000000003</ele>
   </trkpt>
   <trkpt lat="-37.81179" lon="145.40126">
    <ele>228.47</ele>
   </trkpt>
   <trkpt lat="-37.81188" lon="145.40133">
    <ele>228.11</ele>
   </trkpt>
   <trkpt lat="-37.81244999995267" lon="145.40148999872113">
    <ele>226.42000000000002</ele>
   </trkpt>
   <trkpt lat="-37.81302" lon="145.40165000000002">
    <ele>225.34</ele>
   </trkpt>
   <trkpt lat="-37.81373500001573" lon="145.40175999892926">
    <ele>225.56</ele>
   </trkpt>
   <trkpt lat="-37.81445" lon="145.40187">
    <ele>224.25</ele>
   </trkpt>
   <trkpt lat="-37.8147" lon="145.40189">
    <ele>222.84</ele>
   </trkpt>
   <trkpt lat="-37.815145000005494" lon="145.4019699995139">
    <ele>222.78</ele>
   </trkpt>
   <trkpt lat="-37.81559" lon="145.40205">
    <ele>223.50000000000003</ele>
   </trkpt>
   <trkpt lat="-37.815900000000006" lon="145.40206">
    <ele>222.01000000000002</ele>
   </trkpt>
   <trkpt lat="-37.81664" lon="145.40208">
    <ele>223.34</ele>
   </trkpt>
   <trkpt lat="-37.81743" lon="145.40201000000002">
    <ele>222.12</ele>
   </trkpt>
   <trkpt lat="-37.81814" lon="145.40187">
    <ele>226.11</ele>
   </trkpt>
   <trkpt lat="-37.8183" lon="145.40182000000001">
    <ele>228.01000000000002</ele>
   </trkpt>
   <trkpt lat="-37.81846" lon="145.40173000000001">
    <ele>229.10000000000002</ele>
   </trkpt>
   <trkpt lat="-37.81866" lon="145.40157000000002">
    <ele>230.46</ele>
   </trkpt>
   <trkpt lat="-37.81882" lon="145.40133">
    <ele>232.94</ele>
   </trkpt>
   <trkpt lat="-37.81893" lon="145.40123">
    <ele>233.75</ele>
   </trkpt>
   <trkpt lat="-37.8194" lon="145.40109">
    <ele>239.05</ele>
   </trkpt>
   <trkpt lat="-37.81958" lon="145.40109">
    <ele>240.22</ele>
   </trkpt>
   <trkpt lat="-37.81978" lon="145.40107">
    <ele>240.56000000000003</ele>
   </trkpt>
   <trkpt lat="-37.82065" lon="145.40118">
    <ele>240.04000000000002</ele>
   </trkpt>
   <trkpt lat="-37.82123" lon="145.40140000000002">
    <ele>237.70000000000002</ele>
   </trkpt>
   <trkpt lat="-37.82172500018398" lon="145.40138500009508">
    <ele>237.24</ele>
   </trkpt>
   <trkpt lat="-37.82222" lon="145.40137000000001">
    <ele>236.8</ele>
   </trkpt>
   <trkpt lat="-37.82267" lon="145.40126">
    <ele>235.10000000000002</ele>
   </trkpt>
   <trkpt lat="-37.82329" lon="145.40123">
    <ele>233.5</ele>
   </trkpt>
   <trkpt lat="-37.82381" lon="145.40116">
    <ele>230.23000000000002</ele>
   </trkpt>
   <trkpt lat="-37.824310000000004" lon="145.40124">
    <ele>226.58</ele>
   </trkpt>
   <trkpt lat="-37.82448" lon="145.40115">
    <ele>226.02</ele>
   </trkpt>
   <trkpt lat="-37.82479" lon="145.4009">
    <ele>226.49</ele>
   </trkpt>
   <trkpt lat="-37.825185000200094" lon="145.4006250015552">
    <ele>228.09</ele>
   </trkpt>
   <trkpt lat="-37.82558" lon="145.40035">
    <ele>229.08</ele>
   </trkpt>
   <trkpt lat="-37.82636" lon="145.39988000000002">
    <ele>231.19</ele>
   </trkpt>
   <trkpt lat="-37.82665" lon="145.39974">
    <ele>231.64000000000001</ele>
   </trkpt>
   <trkpt lat="-37.82721" lon="145.39939">
    <ele>233.46000000000004</ele>
   </trkpt>
   <trkpt lat="-37.82786" lon="145.39904">
    <ele>235.18000000000004</ele>
   </trkpt>
   <trkpt lat="-37.828" lon="145.39888000000002">
    <ele>235.49000000000004</ele>
   </trkpt>
   <trkpt lat="-37.82806" lon="145.39877">
    <ele>235.49000000000004</ele>
   </trkpt>
   <trkpt lat="-37.82808" lon="145.39864">
    <ele>235.62000000000003</ele>
   </trkpt>
   <trkpt lat="-37.82802" lon="145.39844000000002">
    <ele>236.24</ele>
   </trkpt>
   <trkpt lat="-37.82797" lon="145.39835000000002">
    <ele>236.24</ele>
   </trkpt>
   <trkpt lat="-37.82786" lon="145.39827000000002">
    <ele>236.75</ele>
   </trkpt>
   <trkpt lat="-37.8277" lon="145.39822">
    <ele>237.12000000000003</ele>
   </trkpt>
   <trkpt lat="-37.82717" lon="145.39794">
    <ele>237.82000000000002</ele>
   </trkpt>
   <trkpt lat="-37.82687" lon="145.3976">
    <ele>238.83</ele>
   </trkpt>
   <trkpt lat="-37.826710000000006" lon="145.39722">
    <ele>239.56000000000003</ele>
   </trkpt>
   <trkpt lat="-37.82674" lon="145.39683000000002">
    <ele>239.52</ele>
   </trkpt>
   <trkpt lat="-37.82705" lon="145.39592000000002">
    <ele>242.11</ele>
   </trkpt>
   <trkpt lat="-37.82708" lon="145.39584000000002">
    <ele>242.1</ele>
   </trkpt>
   <trkpt lat="-37.8271" lon="145.39566000000002">
    <ele>242.23000000000002</ele>
   </trkpt>
   <trkpt lat="-37.82699" lon="145.39524">
    <ele>242.76000000000002</ele>
   </trkpt>
   <trkpt lat="-37.82683" lon="145.3949">
    <ele>242.92000000000002</ele>
   </trkpt>
   <trkpt lat="-37.82658" lon="145.39459000000002">
    <ele>242.62000000000003</ele>
   </trkpt>
   <trkpt lat="-37.82596" lon="145.39401">
    <ele>243.19000000000003</ele>
   </trkpt>
   <trkpt lat="-37.82535" lon="145.39318">
    <ele>247.01</ele>
   </trkpt>
   <trkpt lat="-37.82528000000001" lon="145.39302">
    <ele>247.53000000000003</ele>
   </trkpt>
   <trkpt lat="-37.82515" lon="145.39312">
    <ele>250.62</ele>
   </trkpt>
   <trkpt lat="-37.82486" lon="145.39357">
    <ele>256.74</ele>
   </trkpt>
   <trkpt lat="-37.824740000000006" lon="145.39372">
    <ele>259.22</ele>
   </trkpt>
   <trkpt lat="-37.82417" lon="145.39417">
    <ele>272.69000000000005</ele>
   </trkpt>
   <trkpt lat="-37.823890000000006" lon="145.39452">
    <ele>278.57000000000005</ele>
   </trkpt>
   <trkpt lat="-37.82374" lon="145.39478000000003">
    <ele>281.86</ele>
   </trkpt>
   <trkpt lat="-37.82354" lon="145.39499">
    <ele>286.11</ele>
   </trkpt>
   <trkpt lat="-37.823240000000006" lon="145.39521000000002">
    <ele>289.64</ele>
   </trkpt>
   <trkpt lat="-37.82267" lon="145.39543">
    <ele>293.61</ele>
   </trkpt>
   <trkpt lat="-37.822590000000005" lon="145.39541">
    <ele>294.6</ele>
   </trkpt>
   <trkpt lat="-37.82235" lon="145.39530000000002">
    <ele>296.66</ele>
   </trkpt>
   <trkpt lat="-37.82222" lon="145.39527">
    <ele>298.65000000000003</ele>
   </trkpt>
   <trkpt lat="-37.82193" lon="145.39532">
    <ele>302.09000000000003</ele>
   </trkpt>
   <trkpt lat="-37.821450000000006" lon="145.39530000000002">
    <ele>307.34</ele>
   </trkpt>
   <trkpt lat="-37.82121" lon="145.39530000000002">
    <ele>310.12</ele>
   </trkpt>
   <trkpt lat="-37.82099" lon="145.39538000000002">
    <ele>314.49000000000007</ele>
   </trkpt>
   <trkpt lat="-37.8207" lon="145.39543">
    <ele>321.58000000000004</ele>
   </trkpt>
   <trkpt lat="-37.81998" lon="145.39567000000002">
    <ele>340.66</ele>
   </trkpt>
   <trkpt lat="-37.81976" lon="145.39572">
    <ele>342.38</ele>
   </trkpt>
   <trkpt lat="-37.81947" lon="145.39585000000002">
    <ele>347.46000000000004</ele>
   </trkpt>
   <trkpt lat="-37.81929" lon="145.39589">
    <ele>349.86</ele>
   </trkpt>
   <trkpt lat="-37.81913" lon="145.39595">
    <ele>351.31</ele>
   </trkpt>
   <trkpt lat="-37.81908" lon="145.39602000000002">
    <ele>352.13000000000005</ele>
   </trkpt>
   <trkpt lat="-37.81857" lon="145.39611000000002">
    <ele>356.12000000000006</ele>
   </trkpt>
   <trkpt lat="-37.81853" lon="145.39600000000002">
    <ele>357.50000000000006</ele>
   </trkpt>
   <trkpt lat="-37.818490000000004" lon="145.39585000000002">
    <ele>358.97</ele>
   </trkpt>
   <trkpt lat="-37.81846" lon="145.39541">
    <ele>363.2900000000001</ele>
   </trkpt>
   <trkpt lat="-37.81855" lon="145.39498">
    <ele>365.21000000000004</ele>
   </trkpt>
   <trkpt lat="-37.81859" lon="145.39452">
    <ele>367.64</ele>
   </trkpt>
   <trkpt lat="-37.81857" lon="145.39418">
    <ele>368.92</ele>
   </trkpt>
   <trkpt lat="-37.81853" lon="145.39384">
    <ele>370.91</ele>
   </trkpt>
   <trkpt lat="-37.81828" lon="145.39347">
    <ele>374.83000000000004</ele>
   </trkpt>
   <trkpt lat="-37.8181" lon="145.39323000000002">
    <ele>376.61000000000007</ele>
   </trkpt>
   <trkpt lat="-37.81788" lon="145.39286">
    <ele>380.91</ele>
   </trkpt>
   <trkpt lat="-37.81752" lon="145.39257">
    <ele>382.25</ele>
   </trkpt>
   <trkpt lat="-37.81745" lon="145.39248">
    <ele>382.25</ele>
   </trkpt>
   <trkpt lat="-37.81709" lon="145.39181000000002">
    <ele>385.65000000000003</ele>
   </trkpt>
   <trkpt lat="-37.81662" lon="145.39136000000002">
    <ele>388.21000000000004</ele>
   </trkpt>
   <trkpt lat="-37.81638" lon="145.39099000000002">
    <ele>387.49000000000007</ele>
   </trkpt>
   <trkpt lat="-37.81602" lon="145.3906">
    <ele>387.11</ele>
   </trkpt>
   <trkpt lat="-37.81588" lon="145.39053">
    <ele>387.41</ele>
   </trkpt>
   <trkpt lat="-37.81555" lon="145.39025">
    <ele>390.36</ele>
   </trkpt>
   <trkpt lat="-37.81532" lon="145.39013">
    <ele>392.35</ele>
   </trkpt>
   <trkpt lat="-37.81519" lon="145.39002000000002">
    <ele>392.91</ele>
   </trkpt>
   <trkpt lat="-37.81517" lon="145.38997">
    <ele>392.85</ele>
   </trkpt>
   <trkpt lat="-37.81499" lon="145.38979">
    <ele>391.06</ele>
   </trkpt>
   <trkpt lat="-37.81476" lon="145.38943">
    <ele>386.65000000000003</ele>
   </trkpt>
   <trkpt lat="-37.81472" lon="145.38927">
    <ele>383.55000000000007</ele>
   </trkpt>
   <trkpt lat="-37.81472" lon="145.38914000000003">
    <ele>382.34000000000003</ele>
   </trkpt>
   <trkpt lat="-37.814780000000006" lon="145.38887000000003">
    <ele>380.36</ele>
   </trkpt>
   <trkpt lat="-37.8149" lon="145.38855">
    <ele>378.28</ele>
   </trkpt>
   <trkpt lat="-37.81499" lon="145.38819">
    <ele>372.6</ele>
   </trkpt>
   <trkpt lat="-37.81501" lon="145.38777000000002">
    <ele>366.63</ele>
   </trkpt>
   <trkpt lat="-37.81499" lon="145.38769000000002">
    <ele>365.97</ele>
   </trkpt>
   <trkpt lat="-37.814910000000005" lon="145.38760000000002">
    <ele>364.75</ele>
   </trkpt>
   <trkpt lat="-37.81467" lon="145.38699000000003">
    <ele>351.81</ele>
   </trkpt>
   <trkpt lat="-37.81454" lon="145.38670000000002">
    <ele>346.62</ele>
   </trkpt>
   <trkpt lat="-37.81429" lon="145.38623">
    <ele>341.22</ele>
   </trkpt>
   <trkpt lat="-37.81416" lon="145.38590000000002">
    <ele>337.6</ele>
   </trkpt>
   <trkpt lat="-37.81412" lon="145.38552">
    <ele>337.97</ele>
   </trkpt>
   <trkpt lat="-37.81407" lon="145.38541">
    <ele>338.27</ele>
   </trkpt>
   <trkpt lat="-37.81394" lon="145.38521">
    <ele>338.26</ele>
   </trkpt>
   <trkpt lat="-37.81371" lon="145.38493000000003">
    <ele>339.23</ele>
   </trkpt>
   <trkpt lat="-37.81362" lon="145.38478">
    <ele>341.12</ele>
   </trkpt>
   <trkpt lat="-37.81382" lon="145.38471">
    <ele>345.26</ele>
   </trkpt>
   <trkpt lat="-37.81389" lon="145.38472000000002">
    <ele>345.26</ele>
   </trkpt>
   <trkpt lat="-37.81409" lon="145.3847">
    <ele>350.58</ele>
   </trkpt>
   <trkpt lat="-37.81416" lon="145.38464000000002">
    <ele>352.25</ele>
   </trkpt>
   <trkpt lat="-37.81396" lon="145.38401000000002">
    <ele>359.63</ele>
   </trkpt>
   <trkpt lat="-37.81338" lon="145.38322000000002">
    <ele>367.19</ele>
   </trkpt>
   <trkpt lat="-37.8132" lon="145.38281">
    <ele>371.47</ele>
   </trkpt>
   <trkpt lat="-37.81324" lon="145.38231000000002">
    <ele>376.81</ele>
   </trkpt>
   <trkpt lat="-37.813410000000005" lon="145.38199">
    <ele>381.25</ele>
   </trkpt>
   <trkpt lat="-37.813410000000005" lon="145.38198">
    <ele>381.18</ele>
   </trkpt>
   <trkpt lat="-37.8136600009833" lon="145.38149000172106">
    <ele>384.76000000000005</ele>
   </trkpt>
   <trkpt lat="-37.81391" lon="145.381">
    <ele>388.25000000000006</ele>
   </trkpt>
   <trkpt lat="-37.8141" lon="145.38028">
    <ele>390.99000000000007</ele>
   </trkpt>
   <trkpt lat="-37.8141" lon="145.38029">
    <ele>390.99000000000007</ele>
   </trkpt>
   <trkpt lat="-37.81434" lon="145.37937000000002">
    <ele>393.45</ele>
   </trkpt>
   <trkpt lat="-37.81443" lon="145.37976">
    <ele>395.65000000000003</ele>
   </trkpt>
   <trkpt lat="-37.81452" lon="145.3805">
    <ele>399.67</ele>
   </trkpt>
   <trkpt lat="-37.81461" lon="145.38094">
    <ele>400.18</ele>
   </trkpt>
   <trkpt lat="-37.814800000000005" lon="145.3813">
    <ele>402.83000000000004</ele>
   </trkpt>
   <trkpt lat="-37.81479" lon="145.38113">
    <ele>404.70000000000005</ele>
   </trkpt>
   <trkpt lat="-37.81483" lon="145.38063000000002">
    <ele>408.39000000000004</ele>
   </trkpt>
   <trkpt lat="-37.81492" lon="145.3801">
    <ele>413.48</ele>
   </trkpt>
   <trkpt lat="-37.81526" lon="145.37915">
    <ele>421.42</ele>
   </trkpt>
   <trkpt lat="-37.8153" lon="145.37888">
    <ele>423.35</ele>
   </trkpt>
   <trkpt lat="-37.81528" lon="145.37866000000002">
    <ele>426.37</ele>
   </trkpt>
   <trkpt lat="-37.81521" lon="145.37843">
    <ele>427.8</ele>
   </trkpt>
   <trkpt lat="-37.815000000000005" lon="145.37811000000002">
    <ele>430.20000000000005</ele>
   </trkpt>
   <trkpt lat="-37.81546" lon="145.37838000000002">
    <ele>431.22</ele>
   </trkpt>
   <trkpt lat="-37.81579" lon="145.3788">
    <ele>432.00000000000006</ele>
   </trkpt>
   <trkpt lat="-37.816" lon="145.37896">
    <ele>433.24</ele>
   </trkpt>
   <trkpt lat="-37.81613" lon="145.37898">
    <ele>434.27000000000004</ele>
   </trkpt>
   <trkpt lat="-37.8162" lon="145.37919000000002">
    <ele>434.2300000000001</ele>
   </trkpt>
   <trkpt lat="-37.81622" lon="145.37971000000002">
    <ele>435.12000000000006</ele>
   </trkpt>
   <trkpt lat="-37.81629" lon="145.37992">
    <ele>435.55</ele>
   </trkpt>
   <trkpt lat="-37.81642" lon="145.38000000000002">
    <ele>436.07</ele>
   </trkpt>
   <trkpt lat="-37.81701" lon="145.37994">
    <ele>435.86</ele>
   </trkpt>
   <trkpt lat="-37.8171" lon="145.37977">
    <ele>434.92</ele>
   </trkpt>
  </trkseg>
 </trk>
</gpx>
