<?xml version="1.0" encoding="UTF-8"?>
<gpx creator="StravaGPX" version="1.1" xmlns="http://www.topografix.com/GPX/1/1" xmlns:xsi="http://www.w3.org/2001/XMLSchema-instance" xsi:schemaLocation="http://www.topografix.com/GPX/1/1 http://www.topografix.com/GPX/1/1/gpx.xsd">
 <metadata>
  <name>DTR 12/7 20k</name>
  <author>
   <name>Richard Jones</name>
   <link href="https://www.strava.com/athletes/38085969"/>
  </author>
  <copyright author="OpenStreetMap contributors">
   <year>2020</year>
   <license>https://www.openstreetmap.org/copyright</license>
  </copyright>
  <link href="https://www.strava.com/routes/3510506575097572404"/>
 </metadata>
 <trk>
  <name>DTR 12/7 20k</name>
  <link href="https://www.strava.com/routes/3510506575097572404"/>
  <type>trail_running</type>
  <trkseg>
   <trkpt lat="-37.81707" lon="145.37983">
    <ele>435.26000000000005</ele>
   </trkpt>
   <trkpt lat="-37.81701" lon="145.37994">
    <ele>435.86</ele>
   </trkpt>
   <trkpt lat="-37.81642" lon="145.38000000000002">
    <ele>436.07</ele>
   </trkpt>
   <trkpt lat="-37.81629" lon="145.37992">
    <ele>435.55</ele>
   </trkpt>
   <trkpt lat="-37.81622" lon="145.37971000000002">
    <ele>434.87</ele>
   </trkpt>
   <trkpt lat="-37.8162" lon="145.37919000000002">
    <ele>434.2300000000001</ele>
   </trkpt>
   <trkpt lat="-37.81613" lon="145.37898">
    <ele>434.27000000000004</ele>
   </trkpt>
   <trkpt lat="-37.816" lon="145.37896">
    <ele>433.24</ele>
   </trkpt>
   <trkpt lat="-37.81579" lon="145.3788">
    <ele>432.00000000000006</ele>
   </trkpt>
   <trkpt lat="-37.81546" lon="145.37838000000002">
    <ele>430.98</ele>
   </trkpt>
   <trkpt lat="-37.815000000000005" lon="145.37811000000002">
    <ele>430.20000000000005</ele>
   </trkpt>
   <trkpt lat="-37.81450000127363" lon="145.3775549962098">
    <ele>435.58000000000004</ele>
   </trkpt>
   <trkpt lat="-37.814" lon="145.377">
    <ele>440.63</ele>
   </trkpt>
   <trkpt lat="-37.81394" lon="145.37682">
    <ele>444.05000000000007</ele>
   </trkpt>
   <trkpt lat="-37.8138" lon="145.37578000000002">
    <ele>450.28000000000003</ele>
   </trkpt>
   <trkpt lat="-37.813705001405076" lon="145.37520499930613">
    <ele>458.62</ele>
   </trkpt>
   <trkpt lat="-37.813610000000004" lon="145.37463000000002">
    <ele>461.46000000000004</ele>
   </trkpt>
   <trkpt lat="-37.8134" lon="145.37372000000002">
    <ele>465.9800000000001</ele>
   </trkpt>
   <trkpt lat="-37.813340000000004" lon="145.37318000000002">
    <ele>466.11</ele>
   </trkpt>
   <trkpt lat="-37.81329" lon="145.37335000000002">
    <ele>463.65000000000003</ele>
   </trkpt>
   <trkpt lat="-37.81324" lon="145.37391000000002">
    <ele>455.35</ele>
   </trkpt>
   <trkpt lat="-37.813190000000006" lon="145.37398000000002">
    <ele>451.66</ele>
   </trkpt>
   <trkpt lat="-37.81311" lon="145.37392">
    <ele>450.49000000000007</ele>
   </trkpt>
   <trkpt lat="-37.81284" lon="145.37353000000002">
    <ele>442.91</ele>
   </trkpt>
   <trkpt lat="-37.812780000000004" lon="145.37318000000002">
    <ele>436.1700000000001</ele>
   </trkpt>
   <trkpt lat="-37.81266" lon="145.37316">
    <ele>433.18</ele>
   </trkpt>
   <trkpt lat="-37.81253" lon="145.37309000000002">
    <ele>429.59000000000003</ele>
   </trkpt>
   <trkpt lat="-37.81232" lon="145.37303">
    <ele>415.11</ele>
   </trkpt>
   <trkpt lat="-37.81208" lon="145.37284000000002">
    <ele>407.33000000000004</ele>
   </trkpt>
   <trkpt lat="-37.81194" lon="145.37281000000002">
    <ele>395.03000000000003</ele>
   </trkpt>
   <trkpt lat="-37.81152" lon="145.3726">
    <ele>382.0</ele>
   </trkpt>
   <trkpt lat="-37.81114" lon="145.37238000000002">
    <ele>370.05</ele>
   </trkpt>
   <trkpt lat="-37.81049" lon="145.37237000000002">
    <ele>349.07000000000005</ele>
   </trkpt>
   <trkpt lat="-37.81031" lon="145.37220000000002">
    <ele>343.59</ele>
   </trkpt>
   <trkpt lat="-37.81011" lon="145.37183000000002">
    <ele>333.68</ele>
   </trkpt>
   <trkpt lat="-37.81002" lon="145.3718">
    <ele>332.6</ele>
   </trkpt>
   <trkpt lat="-37.80991" lon="145.3719">
    <ele>329.52000000000004</ele>
   </trkpt>
   <trkpt lat="-37.80982" lon="145.37209000000001">
    <ele>325.97</ele>
   </trkpt>
   <trkpt lat="-37.809830000000005" lon="145.37236000000001">
    <ele>323.69000000000005</ele>
   </trkpt>
   <trkpt lat="-37.8098" lon="145.37228000000002">
    <ele>322.24</ele>
   </trkpt>
   <trkpt lat="-37.80977" lon="145.37235">
    <ele>320.65999999999997</ele>
   </trkpt>
   <trkpt lat="-37.80966" lon="145.37247000000002">
    <ele>312.59000000000003</ele>
   </trkpt>
   <trkpt lat="-37.80957" lon="145.37253">
    <ele>310.93</ele>
   </trkpt>
   <trkpt lat="-37.80937" lon="145.37258">
    <ele>303.8</ele>
   </trkpt>
   <trkpt lat="-37.809270000000005" lon="145.37264000000002">
    <ele>300.39000000000004</ele>
   </trkpt>
   <trkpt lat="-37.809290000000004" lon="145.37263000000002">
    <ele>301.00000000000006</ele>
   </trkpt>
   <trkpt lat="-37.809250000000006" lon="145.37266000000002">
    <ele>301.00000000000006</ele>
   </trkpt>
   <trkpt lat="-37.80894" lon="145.37269">
    <ele>286.68000000000006</ele>
   </trkpt>
   <trkpt lat="-37.808780000000006" lon="145.37272000000002">
    <ele>282.35</ele>
   </trkpt>
   <trkpt lat="-37.80883" lon="145.37291000000002">
    <ele>281.54</ele>
   </trkpt>
   <trkpt lat="-37.80894" lon="145.37384">
    <ele>271.40000000000003</ele>
   </trkpt>
   <trkpt lat="-37.80897" lon="145.37433000000001">
    <ele>265.86</ele>
   </trkpt>
   <trkpt lat="-37.80897" lon="145.37442000000001">
    <ele>259.86</ele>
   </trkpt>
   <trkpt lat="-37.80892" lon="145.37447">
    <ele>259.86</ele>
   </trkpt>
   <trkpt lat="-37.80883" lon="145.37444000000002">
    <ele>258.93</ele>
   </trkpt>
   <trkpt lat="-37.80868" lon="145.37449">
    <ele>256.70000000000005</ele>
   </trkpt>
   <trkpt lat="-37.8087" lon="145.37458">
    <ele>257.18</ele>
   </trkpt>
   <trkpt lat="-37.80868" lon="145.37464">
    <ele>257.40000000000003</ele>
   </trkpt>
   <trkpt lat="-37.80845" lon="145.37493">
    <ele>258.96000000000004</ele>
   </trkpt>
   <trkpt lat="-37.80827000111302" lon="145.37546500159164">
    <ele>261.99</ele>
   </trkpt>
   <trkpt lat="-37.80809" lon="145.376">
    <ele>265.94</ele>
   </trkpt>
   <trkpt lat="-37.80798" lon="145.37635">
    <ele>269.2</ele>
   </trkpt>
   <trkpt lat="-37.807900000000004" lon="145.37681">
    <ele>273.94</ele>
   </trkpt>
   <trkpt lat="-37.80772" lon="145.37712000000002">
    <ele>277.16</ele>
   </trkpt>
   <trkpt lat="-37.80738" lon="145.3778">
    <ele>270.75000000000006</ele>
   </trkpt>
   <trkpt lat="-37.80718" lon="145.37802000000002">
    <ele>270.82</ele>
   </trkpt>
   <trkpt lat="-37.807" lon="145.37806">
    <ele>270.07000000000005</ele>
   </trkpt>
   <trkpt lat="-37.80684" lon="145.37806">
    <ele>269.91</ele>
   </trkpt>
   <trkpt lat="-37.80621" lon="145.37791">
    <ele>267.81000000000006</ele>
   </trkpt>
   <trkpt lat="-37.80608" lon="145.37796">
    <ele>267.55</ele>
   </trkpt>
   <trkpt lat="-37.80594" lon="145.37808">
    <ele>267.18</ele>
   </trkpt>
   <trkpt lat="-37.80588" lon="145.37819000000002">
    <ele>267.01000000000005</ele>
   </trkpt>
   <trkpt lat="-37.80583" lon="145.37830000000002">
    <ele>266.97</ele>
   </trkpt>
   <trkpt lat="-37.80588" lon="145.37927000000002">
    <ele>263.59000000000003</ele>
   </trkpt>
   <trkpt lat="-37.805870000000006" lon="145.37941">
    <ele>263.34000000000003</ele>
   </trkpt>
   <trkpt lat="-37.80579" lon="145.37951">
    <ele>263.23</ele>
   </trkpt>
   <trkpt lat="-37.80554" lon="145.37967">
    <ele>260.74</ele>
   </trkpt>
   <trkpt lat="-37.805420000000005" lon="145.37985">
    <ele>259.96000000000004</ele>
   </trkpt>
   <trkpt lat="-37.805420000000005" lon="145.37984">
    <ele>260.04</ele>
   </trkpt>
   <trkpt lat="-37.80527" lon="145.38013">
    <ele>258.77</ele>
   </trkpt>
   <trkpt lat="-37.80516" lon="145.38018000000002">
    <ele>257.98</ele>
   </trkpt>
   <trkpt lat="-37.80451" lon="145.37987">
    <ele>252.57000000000002</ele>
   </trkpt>
   <trkpt lat="-37.80429" lon="145.37978">
    <ele>250.67</ele>
   </trkpt>
   <trkpt lat="-37.803720000000006" lon="145.37977">
    <ele>243.90000000000003</ele>
   </trkpt>
   <trkpt lat="-37.80328" lon="145.37992">
    <ele>241.75000000000003</ele>
   </trkpt>
   <trkpt lat="-37.80265" lon="145.38053000000002">
    <ele>239.04000000000002</ele>
   </trkpt>
   <trkpt lat="-37.802530000000004" lon="145.38055">
    <ele>238.74</ele>
   </trkpt>
   <trkpt lat="-37.80254" lon="145.38055">
    <ele>238.77</ele>
   </trkpt>
   <trkpt lat="-37.80223" lon="145.38061000000002">
    <ele>239.21</ele>
   </trkpt>
   <trkpt lat="-37.801750000000006" lon="145.38096000000002">
    <ele>243.63</ele>
   </trkpt>
   <trkpt lat="-37.80153" lon="145.38107000000002">
    <ele>245.8</ele>
   </trkpt>
   <trkpt lat="-37.80113" lon="145.38123000000002">
    <ele>248.09000000000003</ele>
   </trkpt>
   <trkpt lat="-37.800920000000005" lon="145.38134000000002">
    <ele>250.41000000000003</ele>
   </trkpt>
   <trkpt lat="-37.80088000000001" lon="145.38169000000002">
    <ele>255.98999999999998</ele>
   </trkpt>
   <trkpt lat="-37.801100000000005" lon="145.38212000000001">
    <ele>266.5</ele>
   </trkpt>
   <trkpt lat="-37.80111" lon="145.38224000000002">
    <ele>268.46000000000004</ele>
   </trkpt>
   <trkpt lat="-37.80106" lon="145.38253">
    <ele>272.17</ele>
   </trkpt>
   <trkpt lat="-37.80107" lon="145.38273">
    <ele>273.1</ele>
   </trkpt>
   <trkpt lat="-37.800740000000005" lon="145.38276000000002">
    <ele>268.45</ele>
   </trkpt>
   <trkpt lat="-37.80068" lon="145.38275000000002">
    <ele>268.35</ele>
   </trkpt>
   <trkpt lat="-37.80042" lon="145.38274">
    <ele>264.88</ele>
   </trkpt>
   <trkpt lat="-37.80003" lon="145.38287000000003">
    <ele>259.62</ele>
   </trkpt>
   <trkpt lat="-37.79992" lon="145.38295000000002">
    <ele>254.98999999999998</ele>
   </trkpt>
   <trkpt lat="-37.79993" lon="145.38295000000002">
    <ele>255.06</ele>
   </trkpt>
   <trkpt lat="-37.799490000000006" lon="145.38330000000002">
    <ele>243.70000000000002</ele>
   </trkpt>
   <trkpt lat="-37.79934" lon="145.38338000000002">
    <ele>240.07000000000002</ele>
   </trkpt>
   <trkpt lat="-37.799290000000006" lon="145.38337">
    <ele>240.07000000000002</ele>
   </trkpt>
   <trkpt lat="-37.79894" lon="145.38313000000002">
    <ele>230.12</ele>
   </trkpt>
   <trkpt lat="-37.79867" lon="145.38313000000002">
    <ele>223.01000000000002</ele>
   </trkpt>
   <trkpt lat="-37.79865" lon="145.38325">
    <ele>223.47000000000003</ele>
   </trkpt>
   <trkpt lat="-37.798640000000006" lon="145.38345">
    <ele>224.03</ele>
   </trkpt>
   <trkpt lat="-37.79852" lon="145.38368">
    <ele>219.26000000000002</ele>
   </trkpt>
   <trkpt lat="-37.79836" lon="145.38352">
    <ele>214.64000000000001</ele>
   </trkpt>
   <trkpt lat="-37.79785500141029" lon="145.38296499632514">
    <ele>196.86</ele>
   </trkpt>
   <trkpt lat="-37.79735" lon="145.38241000000002">
    <ele>181.75000000000003</ele>
   </trkpt>
   <trkpt lat="-37.7969" lon="145.38160000000002">
    <ele>173.26000000000002</ele>
   </trkpt>
   <trkpt lat="-37.79686" lon="145.38158">
    <ele>173.26000000000002</ele>
   </trkpt>
   <trkpt lat="-37.79665" lon="145.38128">
    <ele>168.57000000000002</ele>
   </trkpt>
   <trkpt lat="-37.79643" lon="145.38116000000002">
    <ele>165.9</ele>
   </trkpt>
   <trkpt lat="-37.79625" lon="145.3811">
    <ele>163.55</ele>
   </trkpt>
   <trkpt lat="-37.79614" lon="145.38078000000002">
    <ele>159.19000000000003</ele>
   </trkpt>
   <trkpt lat="-37.79612" lon="145.38154">
    <ele>162.58</ele>
   </trkpt>
   <trkpt lat="-37.79618" lon="145.38198">
    <ele>163.64000000000001</ele>
   </trkpt>
   <trkpt lat="-37.79621" lon="145.38236">
    <ele>163.81</ele>
   </trkpt>
   <trkpt lat="-37.79612" lon="145.38267000000002">
    <ele>163.10000000000002</ele>
   </trkpt>
   <trkpt lat="-37.79598" lon="145.38289">
    <ele>162.72</ele>
   </trkpt>
   <trkpt lat="-37.795840000000005" lon="145.38302000000002">
    <ele>162.31</ele>
   </trkpt>
   <trkpt lat="-37.795840000000005" lon="145.38301">
    <ele>155.98000000000002</ele>
   </trkpt>
   <trkpt lat="-37.79585" lon="145.38342">
    <ele>155.17</ele>
   </trkpt>
   <trkpt lat="-37.79625" lon="145.38417">
    <ele>169.86</ele>
   </trkpt>
   <trkpt lat="-37.79651000111359" lon="145.38470499791947">
    <ele>173.12000000000003</ele>
   </trkpt>
   <trkpt lat="-37.79677" lon="145.38524">
    <ele>179.25000000000003</ele>
   </trkpt>
   <trkpt lat="-37.79692" lon="145.38563000000002">
    <ele>179.56000000000003</ele>
   </trkpt>
   <trkpt lat="-37.796890000000005" lon="145.38602">
    <ele>182.15</ele>
   </trkpt>
   <trkpt lat="-37.797450000000005" lon="145.38639">
    <ele>178.85</ele>
   </trkpt>
   <trkpt lat="-37.79825500000187" lon="145.38651999857208">
    <ele>179.02</ele>
   </trkpt>
   <trkpt lat="-37.799060000000004" lon="145.38665">
    <ele>192.19000000000003</ele>
   </trkpt>
   <trkpt lat="-37.799240000000005" lon="145.38706000000002">
    <ele>199.42000000000002</ele>
   </trkpt>
   <trkpt lat="-37.79965" lon="145.38746">
    <ele>201.01000000000002</ele>
   </trkpt>
   <trkpt lat="-37.799670000000006" lon="145.38744">
    <ele>198.3</ele>
   </trkpt>
   <trkpt lat="-37.79979" lon="145.38766">
    <ele>199.12</ele>
   </trkpt>
   <trkpt lat="-37.79972" lon="145.38792">
    <ele>199.84</ele>
   </trkpt>
   <trkpt lat="-37.79956" lon="145.38827">
    <ele>201.10000000000002</ele>
   </trkpt>
   <trkpt lat="-37.79932" lon="145.3887">
    <ele>202.25</ele>
   </trkpt>
   <trkpt lat="-37.79928" lon="145.38883">
    <ele>201.99</ele>
   </trkpt>
   <trkpt lat="-37.79914" lon="145.38978">
    <ele>202.08</ele>
   </trkpt>
   <trkpt lat="-37.79903" lon="145.39016">
    <ele>203.20000000000002</ele>
   </trkpt>
   <trkpt lat="-37.798740001390115" lon="145.39073000220432">
    <ele>206.69</ele>
   </trkpt>
   <trkpt lat="-37.79845" lon="145.3913">
    <ele>212.54</ele>
   </trkpt>
   <trkpt lat="-37.798460000000006" lon="145.39129">
    <ele>212.50000000000003</ele>
   </trkpt>
   <trkpt lat="-37.79822" lon="145.39187">
    <ele>216.92000000000002</ele>
   </trkpt>
   <trkpt lat="-37.79796" lon="145.39234000000002">
    <ele>218.41000000000003</ele>
   </trkpt>
   <trkpt lat="-37.7978" lon="145.39254000000003">
    <ele>218.25000000000003</ele>
   </trkpt>
   <trkpt lat="-37.79795" lon="145.39276">
    <ele>218.15</ele>
   </trkpt>
   <trkpt lat="-37.798190000000005" lon="145.39280000000002">
    <ele>218.28000000000003</ele>
   </trkpt>
   <trkpt lat="-37.79852" lon="145.39343000000002">
    <ele>222.20000000000002</ele>
   </trkpt>
   <trkpt lat="-37.798750000000005" lon="145.39379000000002">
    <ele>223.15</ele>
   </trkpt>
   <trkpt lat="-37.79921" lon="145.39434">
    <ele>219.26000000000002</ele>
   </trkpt>
   <trkpt lat="-37.79972" lon="145.39508">
    <ele>214.6</ele>
   </trkpt>
   <trkpt lat="-37.79972" lon="145.39509">
    <ele>214.63000000000002</ele>
   </trkpt>
   <trkpt lat="-37.800000000000004" lon="145.3955">
    <ele>218.61</ele>
   </trkpt>
   <trkpt lat="-37.80019" lon="145.39575000000002">
    <ele>221.78</ele>
   </trkpt>
   <trkpt lat="-37.80044" lon="145.39620000000002">
    <ele>223.75</ele>
   </trkpt>
   <trkpt lat="-37.80049" lon="145.39642">
    <ele>222.45000000000002</ele>
   </trkpt>
   <trkpt lat="-37.80059" lon="145.39664000000002">
    <ele>222.07000000000002</ele>
   </trkpt>
   <trkpt lat="-37.80095" lon="145.39711">
    <ele>222.12</ele>
   </trkpt>
   <trkpt lat="-37.80129" lon="145.39732">
    <ele>223.47000000000003</ele>
   </trkpt>
   <trkpt lat="-37.801880000000004" lon="145.39724">
    <ele>223.00000000000003</ele>
   </trkpt>
   <trkpt lat="-37.80243" lon="145.39715">
    <ele>234.31</ele>
   </trkpt>
   <trkpt lat="-37.80326" lon="145.39696">
    <ele>229.17000000000002</ele>
   </trkpt>
   <trkpt lat="-37.80348" lon="145.39694">
    <ele>223.72000000000003</ele>
   </trkpt>
   <trkpt lat="-37.80368" lon="145.39724">
    <ele>224.09</ele>
   </trkpt>
   <trkpt lat="-37.8038" lon="145.39734">
    <ele>224.10000000000002</ele>
   </trkpt>
   <trkpt lat="-37.80386" lon="145.39736000000002">
    <ele>224.05</ele>
   </trkpt>
   <trkpt lat="-37.80391" lon="145.39732">
    <ele>224.05</ele>
   </trkpt>
   <trkpt lat="-37.80397" lon="145.39723">
    <ele>224.05</ele>
   </trkpt>
   <trkpt lat="-37.804" lon="145.39698">
    <ele>223.65</ele>
   </trkpt>
   <trkpt lat="-37.80418" lon="145.3964">
    <ele>223.44000000000003</ele>
   </trkpt>
   <trkpt lat="-37.804280000000006" lon="145.39619000000002">
    <ele>223.48000000000002</ele>
   </trkpt>
   <trkpt lat="-37.80438" lon="145.39603000000002">
    <ele>223.68</ele>
   </trkpt>
   <trkpt lat="-37.80467" lon="145.39583000000002">
    <ele>223.74</ele>
   </trkpt>
   <trkpt lat="-37.80482000000001" lon="145.39556000000002">
    <ele>223.71</ele>
   </trkpt>
   <trkpt lat="-37.80494" lon="145.39551">
    <ele>223.71</ele>
   </trkpt>
   <trkpt lat="-37.80521" lon="145.39546">
    <ele>223.64000000000001</ele>
   </trkpt>
   <trkpt lat="-37.80543" lon="145.39538000000002">
    <ele>223.78</ele>
   </trkpt>
   <trkpt lat="-37.80554" lon="145.39537">
    <ele>223.78</ele>
   </trkpt>
   <trkpt lat="-37.80572" lon="145.39547000000002">
    <ele>223.77</ele>
   </trkpt>
   <trkpt lat="-37.80586" lon="145.39559">
    <ele>223.77</ele>
   </trkpt>
   <trkpt lat="-37.80599" lon="145.39593000000002">
    <ele>224.10000000000002</ele>
   </trkpt>
   <trkpt lat="-37.80608" lon="145.39629000000002">
    <ele>224.55</ele>
   </trkpt>
   <trkpt lat="-37.806160000000006" lon="145.39635">
    <ele>224.63000000000002</ele>
   </trkpt>
   <trkpt lat="-37.80626" lon="145.39635">
    <ele>224.60000000000002</ele>
   </trkpt>
   <trkpt lat="-37.80657" lon="145.39629000000002">
    <ele>224.42000000000002</ele>
   </trkpt>
   <trkpt lat="-37.806810000000006" lon="145.39628000000002">
    <ele>224.27</ele>
   </trkpt>
   <trkpt lat="-37.80691" lon="145.39630000000002">
    <ele>224.27</ele>
   </trkpt>
   <trkpt lat="-37.80747" lon="145.3967">
    <ele>224.41000000000003</ele>
   </trkpt>
   <trkpt lat="-37.8076" lon="145.39682000000002">
    <ele>224.41000000000003</ele>
   </trkpt>
   <trkpt lat="-37.80791" lon="145.39728000000002">
    <ele>224.79000000000002</ele>
   </trkpt>
   <trkpt lat="-37.80807" lon="145.39755000000002">
    <ele>225.03</ele>
   </trkpt>
   <trkpt lat="-37.80816" lon="145.39766">
    <ele>224.99</ele>
   </trkpt>
   <trkpt lat="-37.808310000000006" lon="145.39775">
    <ele>224.99</ele>
   </trkpt>
   <trkpt lat="-37.80892" lon="145.39780000000002">
    <ele>224.63000000000002</ele>
   </trkpt>
   <trkpt lat="-37.809160000000006" lon="145.39795">
    <ele>224.69000000000003</ele>
   </trkpt>
   <trkpt lat="-37.80926" lon="145.39806000000002">
    <ele>224.91000000000003</ele>
   </trkpt>
   <trkpt lat="-37.809340000000006" lon="145.39816000000002">
    <ele>224.91000000000003</ele>
   </trkpt>
   <trkpt lat="-37.80946" lon="145.39842000000002">
    <ele>225.41000000000003</ele>
   </trkpt>
   <trkpt lat="-37.80948" lon="145.39863000000003">
    <ele>225.61</ele>
   </trkpt>
   <trkpt lat="-37.809540000000005" lon="145.39883">
    <ele>225.65</ele>
   </trkpt>
   <trkpt lat="-37.80988" lon="145.39941000000002">
    <ele>225.8</ele>
   </trkpt>
   <trkpt lat="-37.81002" lon="145.39973">
    <ele>225.61</ele>
   </trkpt>
   <trkpt lat="-37.81" lon="145.40001">
    <ele>225.55</ele>
   </trkpt>
   <trkpt lat="-37.80993" lon="145.4001">
    <ele>225.55</ele>
   </trkpt>
   <trkpt lat="-37.80964" lon="145.40038">
    <ele>225.37</ele>
   </trkpt>
   <trkpt lat="-37.80944" lon="145.40074">
    <ele>225.24</ele>
   </trkpt>
   <trkpt lat="-37.80921" lon="145.40108">
    <ele>225.28</ele>
   </trkpt>
   <trkpt lat="-37.80897" lon="145.40122000000002">
    <ele>225.66000000000003</ele>
   </trkpt>
   <trkpt lat="-37.8087" lon="145.40119">
    <ele>225.65</ele>
   </trkpt>
   <trkpt lat="-37.80861" lon="145.40123">
    <ele>225.65</ele>
   </trkpt>
   <trkpt lat="-37.80843" lon="145.40148000000002">
    <ele>225.31</ele>
   </trkpt>
   <trkpt lat="-37.80827" lon="145.4016">
    <ele>225.37</ele>
   </trkpt>
   <trkpt lat="-37.80823" lon="145.40165000000002">
    <ele>225.37</ele>
   </trkpt>
   <trkpt lat="-37.808220000000006" lon="145.40174000000002">
    <ele>225.37</ele>
   </trkpt>
   <trkpt lat="-37.80821" lon="145.40199">
    <ele>225.61</ele>
   </trkpt>
   <trkpt lat="-37.80825" lon="145.40235">
    <ele>225.55</ele>
   </trkpt>
   <trkpt lat="-37.80832" lon="145.40262">
    <ele>225.73000000000002</ele>
   </trkpt>
   <trkpt lat="-37.80845" lon="145.40292000000002">
    <ele>225.77</ele>
   </trkpt>
   <trkpt lat="-37.80863" lon="145.40308000000002">
    <ele>225.89000000000001</ele>
   </trkpt>
   <trkpt lat="-37.808690000000006" lon="145.40317000000002">
    <ele>225.89000000000001</ele>
   </trkpt>
   <trkpt lat="-37.80874" lon="145.40342">
    <ele>226.16000000000003</ele>
   </trkpt>
   <trkpt lat="-37.808870000000006" lon="145.40362000000002">
    <ele>226.05</ele>
   </trkpt>
   <trkpt lat="-37.80921" lon="145.40325">
    <ele>221.18</ele>
   </trkpt>
   <trkpt lat="-37.809660001237084" lon="145.4027100032854">
    <ele>212.72000000000003</ele>
   </trkpt>
   <trkpt lat="-37.81011" lon="145.40217">
    <ele>204.06</ele>
   </trkpt>
   <trkpt lat="-37.810190000000006" lon="145.40191000000002">
    <ele>203.42000000000002</ele>
   </trkpt>
   <trkpt lat="-37.81025" lon="145.4018">
    <ele>203.34</ele>
   </trkpt>
   <trkpt lat="-37.81031" lon="145.40174000000002">
    <ele>203.41</ele>
   </trkpt>
   <trkpt lat="-37.8104" lon="145.40173000000001">
    <ele>203.61</ele>
   </trkpt>
   <trkpt lat="-37.810480000000005" lon="145.40176000000002">
    <ele>203.92000000000002</ele>
   </trkpt>
   <trkpt lat="-37.81058" lon="145.40181">
    <ele>204.38</ele>
   </trkpt>
   <trkpt lat="-37.810660000000006" lon="145.40182000000001">
    <ele>204.91</ele>
   </trkpt>
   <trkpt lat="-37.81082" lon="145.4017">
    <ele>206.88</ele>
   </trkpt>
   <trkpt lat="-37.81089" lon="145.40167000000002">
    <ele>207.54000000000002</ele>
   </trkpt>
   <trkpt lat="-37.81103" lon="145.40168">
    <ele>210.41</ele>
   </trkpt>
   <trkpt lat="-37.81123" lon="145.40162">
    <ele>213.72000000000003</ele>
   </trkpt>
   <trkpt lat="-37.81129" lon="145.40155000000001">
    <ele>213.72000000000003</ele>
   </trkpt>
   <trkpt lat="-37.81132" lon="145.40135">
    <ele>219.13000000000002</ele>
   </trkpt>
   <trkpt lat="-37.81136" lon="145.40127">
    <ele>221.13000000000002</ele>
   </trkpt>
   <trkpt lat="-37.81141" lon="145.40126">
    <ele>221.13000000000002</ele>
   </trkpt>
   <trkpt lat="-37.81147" lon="145.40133">
    <ele>224.37</ele>
   </trkpt>
   <trkpt lat="-37.81154" lon="145.40133">
    <ele>226.24</ele>
   </trkpt>
   <trkpt lat="-37.81179" lon="145.40126">
    <ele>228.47</ele>
   </trkpt>
   <trkpt lat="-37.811840000000004" lon="145.40129000000002">
    <ele>228.19000000000003</ele>
   </trkpt>
   <trkpt lat="-37.81179" lon="145.40126">
    <ele>228.47</ele>
   </trkpt>
   <trkpt lat="-37.81188" lon="145.40133">
    <ele>228.11</ele>
   </trkpt>
   <trkpt lat="-37.81244999995267" lon="145.40148999872113">
    <ele>226.42000000000002</ele>
   </trkpt>
   <trkpt lat="-37.81302" lon="145.40165000000002">
    <ele>225.34</ele>
   </trkpt>
   <trkpt lat="-37.81373500001573" lon="145.40175999892926">
    <ele>225.56</ele>
   </trkpt>
   <trkpt lat="-37.81445" lon="145.40187">
    <ele>224.25</ele>
   </trkpt>
   <trkpt lat="-37.8147" lon="145.40189">
    <ele>222.84</ele>
   </trkpt>
   <trkpt lat="-37.815145000005494" lon="145.4019699995139">
    <ele>222.78</ele>
   </trkpt>
   <trkpt lat="-37.81559" lon="145.40205">
    <ele>223.50000000000003</ele>
   </trkpt>
   <trkpt lat="-37.815900000000006" lon="145.40206">
    <ele>222.01000000000002</ele>
   </trkpt>
   <trkpt lat="-37.81664" lon="145.40208">
    <ele>223.34</ele>
   </trkpt>
   <trkpt lat="-37.81743" lon="145.40201000000002">
    <ele>222.12</ele>
   </trkpt>
   <trkpt lat="-37.81814" lon="145.40187">
    <ele>226.11</ele>
   </trkpt>
   <trkpt lat="-37.8183" lon="145.40182000000001">
    <ele>228.01000000000002</ele>
   </trkpt>
   <trkpt lat="-37.81846" lon="145.40173000000001">
    <ele>229.10000000000002</ele>
   </trkpt>
   <trkpt lat="-37.81866" lon="145.40157000000002">
    <ele>230.46</ele>
   </trkpt>
   <trkpt lat="-37.81882" lon="145.40133">
    <ele>232.94</ele>
   </trkpt>
   <trkpt lat="-37.81893" lon="145.40123">
    <ele>233.75</ele>
   </trkpt>
   <trkpt lat="-37.8194" lon="145.40109">
    <ele>239.05</ele>
   </trkpt>
   <trkpt lat="-37.81958" lon="145.40109">
    <ele>240.22</ele>
   </trkpt>
   <trkpt lat="-37.81978" lon="145.40107">
    <ele>240.56000000000003</ele>
   </trkpt>
   <trkpt lat="-37.82065" lon="145.40118">
    <ele>240.04000000000002</ele>
   </trkpt>
   <trkpt lat="-37.82123" lon="145.40140000000002">
    <ele>237.70000000000002</ele>
   </trkpt>
   <trkpt lat="-37.82172500018398" lon="145.40138500009508">
    <ele>237.24</ele>
   </trkpt>
   <trkpt lat="-37.82222" lon="145.40137000000001">
    <ele>236.8</ele>
   </trkpt>
   <trkpt lat="-37.82267" lon="145.40126">
    <ele>235.10000000000002</ele>
   </trkpt>
   <trkpt lat="-37.82329" lon="145.40123">
    <ele>233.5</ele>
   </trkpt>
   <trkpt lat="-37.82381" lon="145.40116">
    <ele>230.23000000000002</ele>
   </trkpt>
   <trkpt lat="-37.824310000000004" lon="145.40124">
    <ele>226.58</ele>
   </trkpt>
   <trkpt lat="-37.82448" lon="145.40115">
    <ele>226.02</ele>
   </trkpt>
   <trkpt lat="-37.82479" lon="145.4009">
    <ele>226.49</ele>
   </trkpt>
   <trkpt lat="-37.825185000200094" lon="145.4006250015552">
    <ele>228.09</ele>
   </trkpt>
   <trkpt lat="-37.82558" lon="145.40035">
    <ele>229.08</ele>
   </trkpt>
   <trkpt lat="-37.82636" lon="145.39988000000002">
    <ele>231.19</ele>
   </trkpt>
   <trkpt lat="-37.82665" lon="145.39974">
    <ele>231.64000000000001</ele>
   </trkpt>
   <trkpt lat="-37.82721" lon="145.39939">
    <ele>233.46000000000004</ele>
   </trkpt>
   <trkpt lat="-37.82786" lon="145.39904">
    <ele>235.18000000000004</ele>
   </trkpt>
   <trkpt lat="-37.828" lon="145.39888000000002">
    <ele>235.49000000000004</ele>
   </trkpt>
   <trkpt lat="-37.82806" lon="145.39877">
    <ele>235.49000000000004</ele>
   </trkpt>
   <trkpt lat="-37.82808" lon="145.39864">
    <ele>235.62000000000003</ele>
   </trkpt>
   <trkpt lat="-37.82802" lon="145.39844000000002">
    <ele>236.24</ele>
   </trkpt>
   <trkpt lat="-37.82797" lon="145.39835000000002">
    <ele>236.24</ele>
   </trkpt>
   <trkpt lat="-37.82786" lon="145.39827000000002">
    <ele>236.75</ele>
   </trkpt>
   <trkpt lat="-37.8277" lon="145.39822">
    <ele>237.12000000000003</ele>
   </trkpt>
   <trkpt lat="-37.82717" lon="145.39794">
    <ele>237.82000000000002</ele>
   </trkpt>
   <trkpt lat="-37.82687" lon="145.3976">
    <ele>238.83</ele>
   </trkpt>
   <trkpt lat="-37.826710000000006" lon="145.39722">
    <ele>239.56000000000003</ele>
   </trkpt>
   <trkpt lat="-37.82674" lon="145.39683000000002">
    <ele>239.52</ele>
   </trkpt>
   <trkpt lat="-37.82708" lon="145.39584000000002">
    <ele>242.16</ele>
   </trkpt>
   <trkpt lat="-37.8271" lon="145.39566000000002">
    <ele>242.23000000000002</ele>
   </trkpt>
   <trkpt lat="-37.82699" lon="145.39524">
    <ele>242.76000000000002</ele>
   </trkpt>
   <trkpt lat="-37.82683" lon="145.3949">
    <ele>242.92000000000002</ele>
   </trkpt>
   <trkpt lat="-37.82658" lon="145.39459000000002">
    <ele>242.62000000000003</ele>
   </trkpt>
   <trkpt lat="-37.82596" lon="145.39401">
    <ele>243.19000000000003</ele>
   </trkpt>
   <trkpt lat="-37.82535" lon="145.39318">
    <ele>247.01</ele>
   </trkpt>
   <trkpt lat="-37.82528000000001" lon="145.39302">
    <ele>247.53000000000003</ele>
   </trkpt>
   <trkpt lat="-37.82549" lon="145.39275">
    <ele>242.62000000000003</ele>
   </trkpt>
   <trkpt lat="-37.82558" lon="145.39251000000002">
    <ele>241.27</ele>
   </trkpt>
   <trkpt lat="-37.82571" lon="145.39232">
    <ele>240.27</ele>
   </trkpt>
   <trkpt lat="-37.82584000000001" lon="145.39218000000002">
    <ele>239.95000000000002</ele>
   </trkpt>
   <trkpt lat="-37.82614" lon="145.39172000000002">
    <ele>240.39000000000001</ele>
   </trkpt>
   <trkpt lat="-37.82636" lon="145.3912">
    <ele>241.67000000000002</ele>
   </trkpt>
   <trkpt lat="-37.82647" lon="145.39103">
    <ele>242.35</ele>
   </trkpt>
   <trkpt lat="-37.82661" lon="145.39093000000003">
    <ele>243.50000000000003</ele>
   </trkpt>
   <trkpt lat="-37.82674" lon="145.39086">
    <ele>244.87000000000003</ele>
   </trkpt>
   <trkpt lat="-37.82701" lon="145.39096">
    <ele>247.36</ele>
   </trkpt>
   <trkpt lat="-37.82728" lon="145.39110000000002">
    <ele>250.09000000000003</ele>
   </trkpt>
   <trkpt lat="-37.82782" lon="145.39147">
    <ele>253.20000000000002</ele>
   </trkpt>
   <trkpt lat="-37.828160000000004" lon="145.39166">
    <ele>255.98000000000005</ele>
   </trkpt>
   <trkpt lat="-37.82846" lon="145.39174">
    <ele>257.15000000000003</ele>
   </trkpt>
   <trkpt lat="-37.8286" lon="145.39170000000001">
    <ele>257.40000000000003</ele>
   </trkpt>
   <trkpt lat="-37.82869" lon="145.39164000000002">
    <ele>257.45</ele>
   </trkpt>
   <trkpt lat="-37.82902" lon="145.39116">
    <ele>257.19</ele>
   </trkpt>
   <trkpt lat="-37.82909" lon="145.39100000000002">
    <ele>257.19</ele>
   </trkpt>
   <trkpt lat="-37.8292" lon="145.39066000000003">
    <ele>257.37000000000006</ele>
   </trkpt>
   <trkpt lat="-37.82927" lon="145.39053">
    <ele>257.72</ele>
   </trkpt>
   <trkpt lat="-37.829350000000005" lon="145.39053">
    <ele>258.03000000000003</ele>
   </trkpt>
   <trkpt lat="-37.82936" lon="145.39064000000002">
    <ele>258.21</ele>
   </trkpt>
   <trkpt lat="-37.82956" lon="145.39079">
    <ele>258.79</ele>
   </trkpt>
   <trkpt lat="-37.82972" lon="145.39087">
    <ele>259.22</ele>
   </trkpt>
   <trkpt lat="-37.82994" lon="145.39091000000002">
    <ele>260.31000000000006</ele>
   </trkpt>
   <trkpt lat="-37.83043" lon="145.39088">
    <ele>261.64000000000004</ele>
   </trkpt>
   <trkpt lat="-37.83104" lon="145.3908">
    <ele>264.79</ele>
   </trkpt>
   <trkpt lat="-37.83144" lon="145.39083000000002">
    <ele>265.73</ele>
   </trkpt>
   <trkpt lat="-37.83198" lon="145.39096">
    <ele>265.64000000000004</ele>
   </trkpt>
   <trkpt lat="-37.83207" lon="145.39095">
    <ele>265.70000000000005</ele>
   </trkpt>
   <trkpt lat="-37.83254" lon="145.39079">
    <ele>265.09000000000003</ele>
   </trkpt>
   <trkpt lat="-37.83281" lon="145.39064000000002">
    <ele>264.83</ele>
   </trkpt>
   <trkpt lat="-37.83325" lon="145.39020000000002">
    <ele>262.43</ele>
   </trkpt>
   <trkpt lat="-37.83352" lon="145.38988">
    <ele>261.79</ele>
   </trkpt>
   <trkpt lat="-37.83399" lon="145.3891">
    <ele>258.84000000000003</ele>
   </trkpt>
   <trkpt lat="-37.83419" lon="145.38856">
    <ele>257.85</ele>
   </trkpt>
   <trkpt lat="-37.83435" lon="145.38838">
    <ele>258.09000000000003</ele>
   </trkpt>
   <trkpt lat="-37.83442" lon="145.38834">
    <ele>258.41</ele>
   </trkpt>
   <trkpt lat="-37.83455" lon="145.38832000000002">
    <ele>259.09000000000003</ele>
   </trkpt>
   <trkpt lat="-37.83498" lon="145.38831000000002">
    <ele>262.02000000000004</ele>
   </trkpt>
   <trkpt lat="-37.83531" lon="145.38819">
    <ele>265.75000000000006</ele>
   </trkpt>
   <trkpt lat="-37.83547" lon="145.38808">
    <ele>267.81000000000006</ele>
   </trkpt>
   <trkpt lat="-37.83576" lon="145.38764">
    <ele>274.02000000000004</ele>
   </trkpt>
   <trkpt lat="-37.83614" lon="145.3872">
    <ele>280.68</ele>
   </trkpt>
   <trkpt lat="-37.8363" lon="145.38699000000003">
    <ele>282.56</ele>
   </trkpt>
   <trkpt lat="-37.83637" lon="145.38684">
    <ele>283.69</ele>
   </trkpt>
   <trkpt lat="-37.8365" lon="145.38641">
    <ele>286.66</ele>
   </trkpt>
   <trkpt lat="-37.83681" lon="145.38593">
    <ele>288.8</ele>
   </trkpt>
   <trkpt lat="-37.83711" lon="145.38571000000002">
    <ele>291.87</ele>
   </trkpt>
   <trkpt lat="-37.83722" lon="145.38565">
    <ele>292.07</ele>
   </trkpt>
   <trkpt lat="-37.83805" lon="145.38537000000002">
    <ele>292.66</ele>
   </trkpt>
   <trkpt lat="-37.83885" lon="145.38514">
    <ele>298.18</ele>
   </trkpt>
   <trkpt lat="-37.8395" lon="145.38522">
    <ele>295.36</ele>
   </trkpt>
   <trkpt lat="-37.83975" lon="145.38520000000003">
    <ele>294.47</ele>
   </trkpt>
   <trkpt lat="-37.83997" lon="145.38510000000002">
    <ele>294.58</ele>
   </trkpt>
   <trkpt lat="-37.840270000000004" lon="145.38492000000002">
    <ele>295.83000000000004</ele>
   </trkpt>
   <trkpt lat="-37.84028" lon="145.38492000000002">
    <ele>295.88000000000005</ele>
   </trkpt>
   <trkpt lat="-37.84073" lon="145.38456000000002">
    <ele>297.26</ele>
   </trkpt>
   <trkpt lat="-37.84089" lon="145.38447000000002">
    <ele>297.2</ele>
   </trkpt>
   <trkpt lat="-37.841" lon="145.38444">
    <ele>296.48</ele>
   </trkpt>
   <trkpt lat="-37.84129" lon="145.38446000000002">
    <ele>293.96</ele>
   </trkpt>
   <trkpt lat="-37.841440000000006" lon="145.38451">
    <ele>292.28000000000003</ele>
   </trkpt>
   <trkpt lat="-37.84154" lon="145.38462">
    <ele>290.90000000000003</ele>
   </trkpt>
   <trkpt lat="-37.84165" lon="145.38485">
    <ele>285.71000000000004</ele>
   </trkpt>
   <trkpt lat="-37.84178" lon="145.38521">
    <ele>279.92</ele>
   </trkpt>
   <trkpt lat="-37.84196" lon="145.38561">
    <ele>275.05</ele>
   </trkpt>
   <trkpt lat="-37.84205" lon="145.38577">
    <ele>273.97</ele>
   </trkpt>
   <trkpt lat="-37.84216" lon="145.38590000000002">
    <ele>273.81</ele>
   </trkpt>
   <trkpt lat="-37.84223" lon="145.38594">
    <ele>273.93</ele>
   </trkpt>
   <trkpt lat="-37.84237" lon="145.38589000000002">
    <ele>274.28000000000003</ele>
   </trkpt>
   <trkpt lat="-37.842470000000006" lon="145.38578">
    <ele>274.98</ele>
   </trkpt>
   <trkpt lat="-37.84254" lon="145.38564000000002">
    <ele>275.57000000000005</ele>
   </trkpt>
   <trkpt lat="-37.84266" lon="145.38509000000002">
    <ele>279.49</ele>
   </trkpt>
   <trkpt lat="-37.84272" lon="145.38490000000002">
    <ele>280.5</ele>
   </trkpt>
   <trkpt lat="-37.84281" lon="145.38477">
    <ele>281.25</ele>
   </trkpt>
   <trkpt lat="-37.84288" lon="145.38473000000002">
    <ele>281.66</ele>
   </trkpt>
   <trkpt lat="-37.84292000000001" lon="145.38473000000002">
    <ele>281.66</ele>
   </trkpt>
   <trkpt lat="-37.84297" lon="145.38451">
    <ele>283.33000000000004</ele>
   </trkpt>
   <trkpt lat="-37.84295" lon="145.38430000000002">
    <ele>286.75</ele>
   </trkpt>
   <trkpt lat="-37.84286" lon="145.38411000000002">
    <ele>287.83000000000004</ele>
   </trkpt>
   <trkpt lat="-37.84281" lon="145.38376000000002">
    <ele>291.64</ele>
   </trkpt>
   <trkpt lat="-37.84281" lon="145.38304000000002">
    <ele>296.74</ele>
   </trkpt>
   <trkpt lat="-37.84279" lon="145.38266000000002">
    <ele>300.12</ele>
   </trkpt>
   <trkpt lat="-37.84272" lon="145.38237">
    <ele>303.94000000000005</ele>
   </trkpt>
   <trkpt lat="-37.842690000000005" lon="145.38228">
    <ele>304.47</ele>
   </trkpt>
   <trkpt lat="-37.84263" lon="145.38217">
    <ele>305.76000000000005</ele>
   </trkpt>
   <trkpt lat="-37.84248" lon="145.38167">
    <ele>311.88000000000005</ele>
   </trkpt>
   <trkpt lat="-37.84248" lon="145.38133000000002">
    <ele>313.97</ele>
   </trkpt>
   <trkpt lat="-37.84243" lon="145.38109">
    <ele>316.01</ele>
   </trkpt>
   <trkpt lat="-37.8423" lon="145.38066">
    <ele>320.6</ele>
   </trkpt>
   <trkpt lat="-37.84205" lon="145.38012">
    <ele>324.61</ele>
   </trkpt>
   <trkpt lat="-37.84223" lon="145.38017000000002">
    <ele>327.52000000000004</ele>
   </trkpt>
   <trkpt lat="-37.842380000000006" lon="145.38016000000002">
    <ele>330.83</ele>
   </trkpt>
   <trkpt lat="-37.8425" lon="145.38008000000002">
    <ele>333.79</ele>
   </trkpt>
   <trkpt lat="-37.84257" lon="145.37998000000002">
    <ele>333.79</ele>
   </trkpt>
   <trkpt lat="-37.84277" lon="145.37985">
    <ele>339.05</ele>
   </trkpt>
   <trkpt lat="-37.84297" lon="145.37982000000002">
    <ele>342.21</ele>
   </trkpt>
   <trkpt lat="-37.84315" lon="145.37983">
    <ele>345.67</ele>
   </trkpt>
   <trkpt lat="-37.84396" lon="145.38022">
    <ele>357.05</ele>
   </trkpt>
   <trkpt lat="-37.84431" lon="145.38042000000002">
    <ele>362.57</ele>
   </trkpt>
   <trkpt lat="-37.844440000000006" lon="145.3804">
    <ele>365.50000000000006</ele>
   </trkpt>
   <trkpt lat="-37.84449" lon="145.38033000000001">
    <ele>367.85</ele>
   </trkpt>
   <trkpt lat="-37.84451" lon="145.3802">
    <ele>369.35</ele>
   </trkpt>
   <trkpt lat="-37.84451" lon="145.38000000000002">
    <ele>370.71000000000004</ele>
   </trkpt>
   <trkpt lat="-37.8444" lon="145.37967">
    <ele>376.20000000000005</ele>
   </trkpt>
   <trkpt lat="-37.84427" lon="145.37936000000002">
    <ele>378.82000000000005</ele>
   </trkpt>
   <trkpt lat="-37.84411" lon="145.37913">
    <ele>383.66</ele>
   </trkpt>
   <trkpt lat="-37.84375" lon="145.37878">
    <ele>388.04</ele>
   </trkpt>
   <trkpt lat="-37.84333" lon="145.37800000000001">
    <ele>398.64000000000004</ele>
   </trkpt>
   <trkpt lat="-37.84326" lon="145.3778">
    <ele>399.93</ele>
   </trkpt>
   <trkpt lat="-37.84324" lon="145.37767000000002">
    <ele>400.88</ele>
   </trkpt>
   <trkpt lat="-37.84326" lon="145.37756000000002">
    <ele>402.63000000000005</ele>
   </trkpt>
   <trkpt lat="-37.84333" lon="145.37742">
    <ele>404.87</ele>
   </trkpt>
   <trkpt lat="-37.84346" lon="145.37734">
    <ele>407.65</ele>
   </trkpt>
   <trkpt lat="-37.8436" lon="145.37728">
    <ele>407.65</ele>
   </trkpt>
   <trkpt lat="-37.84384" lon="145.37723000000003">
    <ele>415.64</ele>
   </trkpt>
   <trkpt lat="-37.84431" lon="145.37730000000002">
    <ele>426.47</ele>
   </trkpt>
   <trkpt lat="-37.84492" lon="145.37729000000002">
    <ele>437.11000000000007</ele>
   </trkpt>
   <trkpt lat="-37.84523" lon="145.37737">
    <ele>441.90000000000003</ele>
   </trkpt>
   <trkpt lat="-37.84582" lon="145.37730000000002">
    <ele>455.76000000000005</ele>
   </trkpt>
   <trkpt lat="-37.8459" lon="145.37727">
    <ele>458.56</ele>
   </trkpt>
   <trkpt lat="-37.8461" lon="145.37725">
    <ele>458.56</ele>
   </trkpt>
   <trkpt lat="-37.84633" lon="145.37718">
    <ele>467.51000000000005</ele>
   </trkpt>
   <trkpt lat="-37.84646" lon="145.37716">
    <ele>468.33000000000004</ele>
   </trkpt>
   <trkpt lat="-37.84666" lon="145.37718">
    <ele>473.67</ele>
   </trkpt>
   <trkpt lat="-37.8468" lon="145.37722000000002">
    <ele>473.67</ele>
   </trkpt>
   <trkpt lat="-37.84729" lon="145.37757000000002">
    <ele>483.71000000000004</ele>
   </trkpt>
   <trkpt lat="-37.84751" lon="145.37740000000002">
    <ele>484.7</ele>
   </trkpt>
   <trkpt lat="-37.84787" lon="145.37705000000003">
    <ele>489.27000000000004</ele>
   </trkpt>
   <trkpt lat="-37.8481" lon="145.3767">
    <ele>490.36</ele>
   </trkpt>
   <trkpt lat="-37.84814" lon="145.37654">
    <ele>490.13000000000005</ele>
   </trkpt>
   <trkpt lat="-37.84816" lon="145.37637">
    <ele>489.52000000000004</ele>
   </trkpt>
   <trkpt lat="-37.8481" lon="145.37556">
    <ele>485.56000000000006</ele>
   </trkpt>
   <trkpt lat="-37.84816" lon="145.3751">
    <ele>481.72</ele>
   </trkpt>
   <trkpt lat="-37.84816" lon="145.37512">
    <ele>481.72</ele>
   </trkpt>
   <trkpt lat="-37.84821" lon="145.37490000000003">
    <ele>480.38</ele>
   </trkpt>
   <trkpt lat="-37.84832" lon="145.37466">
    <ele>479.5</ele>
   </trkpt>
   <trkpt lat="-37.84834" lon="145.37458">
    <ele>479.5</ele>
   </trkpt>
   <trkpt lat="-37.84832" lon="145.37447">
    <ele>479.27000000000004</ele>
   </trkpt>
   <trkpt lat="-37.848200000000006" lon="145.37433000000001">
    <ele>479.36000000000007</ele>
   </trkpt>
   <trkpt lat="-37.84794" lon="145.37421">
    <ele>479.65000000000003</ele>
   </trkpt>
   <trkpt lat="-37.84765" lon="145.37413">
    <ele>480.57000000000005</ele>
   </trkpt>
   <trkpt lat="-37.84745" lon="145.37404">
    <ele>481.11</ele>
   </trkpt>
   <trkpt lat="-37.846700000000006" lon="145.37385">
    <ele>483.73</ele>
   </trkpt>
   <trkpt lat="-37.84595" lon="145.37358">
    <ele>488.1</ele>
   </trkpt>
   <trkpt lat="-37.8457" lon="145.37356000000003">
    <ele>488.39000000000004</ele>
   </trkpt>
   <trkpt lat="-37.84534" lon="145.3736">
    <ele>487.13000000000005</ele>
   </trkpt>
   <trkpt lat="-37.844895000037866" lon="145.37369500057332">
    <ele>484.99</ele>
   </trkpt>
   <trkpt lat="-37.84445" lon="145.37379">
    <ele>482.96000000000004</ele>
   </trkpt>
   <trkpt lat="-37.8442" lon="145.37382000000002">
    <ele>482.29</ele>
   </trkpt>
   <trkpt lat="-37.84373" lon="145.37384">
    <ele>477.76</ele>
   </trkpt>
   <trkpt lat="-37.843410000000006" lon="145.37382000000002">
    <ele>475.52000000000004</ele>
   </trkpt>
   <trkpt lat="-37.84313" lon="145.37378">
    <ele>475.52000000000004</ele>
   </trkpt>
   <trkpt lat="-37.84261" lon="145.37362000000002">
    <ele>470.09000000000003</ele>
   </trkpt>
   <trkpt lat="-37.84232" lon="145.37346000000002">
    <ele>468.55</ele>
   </trkpt>
   <trkpt lat="-37.84205" lon="145.37321">
    <ele>467.81000000000006</ele>
   </trkpt>
   <trkpt lat="-37.84183" lon="145.37294">
    <ele>467.69000000000005</ele>
   </trkpt>
   <trkpt lat="-37.8416" lon="145.37259">
    <ele>467.68</ele>
   </trkpt>
   <trkpt lat="-37.84124500209939" lon="145.3718899966855">
    <ele>466.06</ele>
   </trkpt>
   <trkpt lat="-37.84089" lon="145.37119">
    <ele>465.12</ele>
   </trkpt>
   <trkpt lat="-37.84075" lon="145.37084000000002">
    <ele>465.05</ele>
   </trkpt>
   <trkpt lat="-37.84073" lon="145.37071">
    <ele>465.15000000000003</ele>
   </trkpt>
   <trkpt lat="-37.84073" lon="145.37049000000002">
    <ele>465.38</ele>
   </trkpt>
   <trkpt lat="-37.84080500173234" lon="145.3698500006453">
    <ele>466.71</ele>
   </trkpt>
   <trkpt lat="-37.840880000000006" lon="145.36921">
    <ele>470.4800000000001</ele>
   </trkpt>
   <trkpt lat="-37.84087" lon="145.36892">
    <ele>472.17</ele>
   </trkpt>
   <trkpt lat="-37.84057" lon="145.36894">
    <ele>468.32</ele>
   </trkpt>
   <trkpt lat="-37.84022" lon="145.36902">
    <ele>463.16</ele>
   </trkpt>
   <trkpt lat="-37.83999" lon="145.36903">
    <ele>461.02000000000004</ele>
   </trkpt>
   <trkpt lat="-37.839940000000006" lon="145.36906000000002">
    <ele>459.93000000000006</ele>
   </trkpt>
   <trkpt lat="-37.83975" lon="145.36926000000003">
    <ele>455.79</ele>
   </trkpt>
   <trkpt lat="-37.839560000000006" lon="145.36941000000002">
    <ele>450.92</ele>
   </trkpt>
   <trkpt lat="-37.8391" lon="145.36968000000002">
    <ele>445.65000000000003</ele>
   </trkpt>
   <trkpt lat="-37.839110000000005" lon="145.36967">
    <ele>445.75</ele>
   </trkpt>
   <trkpt lat="-37.83885" lon="145.3698">
    <ele>442.32000000000005</ele>
   </trkpt>
   <trkpt lat="-37.83869" lon="145.36991">
    <ele>440.36</ele>
   </trkpt>
   <trkpt lat="-37.83849" lon="145.36997000000002">
    <ele>436.55000000000007</ele>
   </trkpt>
   <trkpt lat="-37.83798" lon="145.37023000000002">
    <ele>430.34000000000003</ele>
   </trkpt>
   <trkpt lat="-37.83769" lon="145.37040000000002">
    <ele>430.11</ele>
   </trkpt>
   <trkpt lat="-37.83737" lon="145.37053">
    <ele>433.81</ele>
   </trkpt>
   <trkpt lat="-37.83701000000001" lon="145.37063">
    <ele>434.16</ele>
   </trkpt>
   <trkpt lat="-37.83706" lon="145.3701">
    <ele>437.64000000000004</ele>
   </trkpt>
   <trkpt lat="-37.83719" lon="145.36971">
    <ele>442.90000000000003</ele>
   </trkpt>
   <trkpt lat="-37.83719" lon="145.36952000000002">
    <ele>444.46000000000004</ele>
   </trkpt>
   <trkpt lat="-37.83708" lon="145.36950000000002">
    <ele>443.75</ele>
   </trkpt>
   <trkpt lat="-37.8369" lon="145.36938">
    <ele>442.47</ele>
   </trkpt>
   <trkpt lat="-37.8367" lon="145.36918">
    <ele>440.33000000000004</ele>
   </trkpt>
   <trkpt lat="-37.83628" lon="145.36864">
    <ele>434.50000000000006</ele>
   </trkpt>
   <trkpt lat="-37.83583" lon="145.36804">
    <ele>428.62000000000006</ele>
   </trkpt>
   <trkpt lat="-37.83554" lon="145.36737000000002">
    <ele>425.98</ele>
   </trkpt>
   <trkpt lat="-37.83545" lon="145.36728000000002">
    <ele>425.49</ele>
   </trkpt>
   <trkpt lat="-37.83536" lon="145.36729000000003">
    <ele>425.3500000000001</ele>
   </trkpt>
   <trkpt lat="-37.83527" lon="145.36734">
    <ele>425.51000000000005</ele>
   </trkpt>
   <trkpt lat="-37.835190000000004" lon="145.36743">
    <ele>425.92</ele>
   </trkpt>
   <trkpt lat="-37.83509" lon="145.36758">
    <ele>427.65000000000003</ele>
   </trkpt>
   <trkpt lat="-37.83484500298116" lon="145.36842000279586">
    <ele>437.62</ele>
   </trkpt>
   <trkpt lat="-37.8346" lon="145.36926000000003">
    <ele>446.40000000000003</ele>
   </trkpt>
   <trkpt lat="-37.834120000000006" lon="145.36987000000002">
    <ele>445.47</ele>
   </trkpt>
   <trkpt lat="-37.83391" lon="145.3699">
    <ele>438.07</ele>
   </trkpt>
   <trkpt lat="-37.83415" lon="145.37048000000001">
    <ele>429.57</ele>
   </trkpt>
   <trkpt lat="-37.83411" lon="145.37062">
    <ele>429.57</ele>
   </trkpt>
   <trkpt lat="-37.834030000000006" lon="145.3707">
    <ele>427.82000000000005</ele>
   </trkpt>
   <trkpt lat="-37.83388" lon="145.37073">
    <ele>426.13</ele>
   </trkpt>
   <trkpt lat="-37.8331" lon="145.37032000000002">
    <ele>418.38</ele>
   </trkpt>
   <trkpt lat="-37.832480000000004" lon="145.37004000000002">
    <ele>412.32</ele>
   </trkpt>
   <trkpt lat="-37.83225" lon="145.36994">
    <ele>409.74000000000007</ele>
   </trkpt>
   <trkpt lat="-37.83207" lon="145.36970000000002">
    <ele>407.74000000000007</ele>
   </trkpt>
   <trkpt lat="-37.83193" lon="145.36960000000002">
    <ele>407.28000000000003</ele>
   </trkpt>
   <trkpt lat="-37.8318" lon="145.36954">
    <ele>406.5</ele>
   </trkpt>
   <trkpt lat="-37.83162" lon="145.36958">
    <ele>405.46000000000004</ele>
   </trkpt>
   <trkpt lat="-37.83153" lon="145.36968000000002">
    <ele>404.30000000000007</ele>
   </trkpt>
   <trkpt lat="-37.83128" lon="145.37031000000002">
    <ele>397.36</ele>
   </trkpt>
   <trkpt lat="-37.83111" lon="145.37041000000002">
    <ele>397.65000000000003</ele>
   </trkpt>
   <trkpt lat="-37.83099" lon="145.37044">
    <ele>398.22</ele>
   </trkpt>
   <trkpt lat="-37.8307" lon="145.37040000000002">
    <ele>401.69000000000005</ele>
   </trkpt>
   <trkpt lat="-37.83025500005151" lon="145.37015499841107">
    <ele>405.06</ele>
   </trkpt>
   <trkpt lat="-37.82981" lon="145.36991">
    <ele>405.66</ele>
   </trkpt>
   <trkpt lat="-37.82916" lon="145.36975">
    <ele>407.13000000000005</ele>
   </trkpt>
   <trkpt lat="-37.82881000076548" lon="145.36935999828665">
    <ele>407.44</ele>
   </trkpt>
   <trkpt lat="-37.82846" lon="145.36897000000002">
    <ele>409.06</ele>
   </trkpt>
   <trkpt lat="-37.827740000000006" lon="145.36890000000002">
    <ele>416.84000000000003</ele>
   </trkpt>
   <trkpt lat="-37.827290000000005" lon="145.36875">
    <ele>420.26</ele>
   </trkpt>
   <trkpt lat="-37.82674" lon="145.36804">
    <ele>420.93</ele>
   </trkpt>
   <trkpt lat="-37.82667" lon="145.36788">
    <ele>420.47</ele>
   </trkpt>
   <trkpt lat="-37.82658" lon="145.36779">
    <ele>419.52000000000004</ele>
   </trkpt>
   <trkpt lat="-37.82647" lon="145.36777">
    <ele>418.07000000000005</ele>
   </trkpt>
   <trkpt lat="-37.82636" lon="145.36780000000002">
    <ele>417.46000000000004</ele>
   </trkpt>
   <trkpt lat="-37.82583" lon="145.36805">
    <ele>409.43</ele>
   </trkpt>
   <trkpt lat="-37.82569" lon="145.36805">
    <ele>409.01000000000005</ele>
   </trkpt>
   <trkpt lat="-37.82556" lon="145.36797">
    <ele>409.24000000000007</ele>
   </trkpt>
   <trkpt lat="-37.82531" lon="145.36783">
    <ele>410.82</ele>
   </trkpt>
   <trkpt lat="-37.82499" lon="145.36769">
    <ele>411.69000000000005</ele>
   </trkpt>
   <trkpt lat="-37.82461" lon="145.36755000000002">
    <ele>410.58000000000004</ele>
   </trkpt>
   <trkpt lat="-37.82452" lon="145.36758">
    <ele>409.45000000000005</ele>
   </trkpt>
   <trkpt lat="-37.824095000256314" lon="145.36781500134063">
    <ele>404.57000000000005</ele>
   </trkpt>
   <trkpt lat="-37.82367" lon="145.36805">
    <ele>397.20000000000005</ele>
   </trkpt>
   <trkpt lat="-37.82305500046791" lon="145.36773999744793">
    <ele>404.49</ele>
   </trkpt>
   <trkpt lat="-37.82244" lon="145.36743">
    <ele>413.15000000000003</ele>
   </trkpt>
   <trkpt lat="-37.82164" lon="145.36713">
    <ele>423.93</ele>
   </trkpt>
   <trkpt lat="-37.82108" lon="145.36698">
    <ele>427.62000000000006</ele>
   </trkpt>
   <trkpt lat="-37.82101" lon="145.36702000000002">
    <ele>428.52</ele>
   </trkpt>
   <trkpt lat="-37.82085" lon="145.36732">
    <ele>430.57</ele>
   </trkpt>
   <trkpt lat="-37.82079" lon="145.36739">
    <ele>430.96</ele>
   </trkpt>
   <trkpt lat="-37.8207" lon="145.36744000000002">
    <ele>431.88000000000005</ele>
   </trkpt>
   <trkpt lat="-37.82045" lon="145.36743">
    <ele>436.28000000000003</ele>
   </trkpt>
   <trkpt lat="-37.820330000000006" lon="145.36735000000002">
    <ele>437.56000000000006</ele>
   </trkpt>
   <trkpt lat="-37.82027" lon="145.36749">
    <ele>434.88000000000005</ele>
   </trkpt>
   <trkpt lat="-37.81989" lon="145.36791000000002">
    <ele>429.58</ele>
   </trkpt>
   <trkpt lat="-37.81971" lon="145.36796">
    <ele>427.00000000000006</ele>
   </trkpt>
   <trkpt lat="-37.81969" lon="145.36809000000002">
    <ele>426.31</ele>
   </trkpt>
   <trkpt lat="-37.81947" lon="145.36825000000002">
    <ele>425.16</ele>
   </trkpt>
   <trkpt lat="-37.81938" lon="145.36834000000002">
    <ele>422.89000000000004</ele>
   </trkpt>
   <trkpt lat="-37.81924" lon="145.36837">
    <ele>422.53000000000003</ele>
   </trkpt>
   <trkpt lat="-37.819250000000004" lon="145.36837">
    <ele>422.53000000000003</ele>
   </trkpt>
   <trkpt lat="-37.8192" lon="145.36838">
    <ele>422.27000000000004</ele>
   </trkpt>
   <trkpt lat="-37.81897" lon="145.36854000000002">
    <ele>421.69</ele>
   </trkpt>
   <trkpt lat="-37.81882" lon="145.36880000000002">
    <ele>420.1</ele>
   </trkpt>
   <trkpt lat="-37.8187" lon="145.36887000000002">
    <ele>419.71000000000004</ele>
   </trkpt>
   <trkpt lat="-37.81859" lon="145.36884">
    <ele>419.75</ele>
   </trkpt>
   <trkpt lat="-37.81841" lon="145.36882">
    <ele>420.16</ele>
   </trkpt>
   <trkpt lat="-37.81806" lon="145.36912">
    <ele>425.23</ele>
   </trkpt>
   <trkpt lat="-37.81803" lon="145.36933000000002">
    <ele>426.86</ele>
   </trkpt>
   <trkpt lat="-37.81792" lon="145.36955">
    <ele>429.82000000000005</ele>
   </trkpt>
   <trkpt lat="-37.817890000000006" lon="145.36960000000002">
    <ele>430.04</ele>
   </trkpt>
   <trkpt lat="-37.81788" lon="145.36993">
    <ele>429.8</ele>
   </trkpt>
   <trkpt lat="-37.818070000000006" lon="145.37030000000001">
    <ele>421.72</ele>
   </trkpt>
   <trkpt lat="-37.8181" lon="145.37048000000001">
    <ele>419.79</ele>
   </trkpt>
   <trkpt lat="-37.81819" lon="145.37076000000002">
    <ele>416.06000000000006</ele>
   </trkpt>
   <trkpt lat="-37.81814" lon="145.371">
    <ele>415.44</ele>
   </trkpt>
   <trkpt lat="-37.81832" lon="145.37119">
    <ele>411.53</ele>
   </trkpt>
   <trkpt lat="-37.81839" lon="145.37130000000002">
    <ele>410.34000000000003</ele>
   </trkpt>
   <trkpt lat="-37.81841" lon="145.37143">
    <ele>409.29</ele>
   </trkpt>
   <trkpt lat="-37.81846" lon="145.37146">
    <ele>409.09</ele>
   </trkpt>
   <trkpt lat="-37.8185" lon="145.37158000000002">
    <ele>408.92</ele>
   </trkpt>
   <trkpt lat="-37.8185" lon="145.37183000000002">
    <ele>408.75000000000006</ele>
   </trkpt>
   <trkpt lat="-37.81875" lon="145.37217">
    <ele>405.1</ele>
   </trkpt>
   <trkpt lat="-37.81884" lon="145.37257000000002">
    <ele>405.81000000000006</ele>
   </trkpt>
   <trkpt lat="-37.81884" lon="145.37265000000002">
    <ele>406.09</ele>
   </trkpt>
   <trkpt lat="-37.81882" lon="145.37272000000002">
    <ele>406.47</ele>
   </trkpt>
   <trkpt lat="-37.81884" lon="145.37327000000002">
    <ele>406.47</ele>
   </trkpt>
   <trkpt lat="-37.81868" lon="145.37389000000002">
    <ele>410.11</ele>
   </trkpt>
   <trkpt lat="-37.81873" lon="145.37412">
    <ele>410.21000000000004</ele>
   </trkpt>
   <trkpt lat="-37.8187" lon="145.37428">
    <ele>410.07000000000005</ele>
   </trkpt>
   <trkpt lat="-37.81868" lon="145.37429">
    <ele>410.07000000000005</ele>
   </trkpt>
   <trkpt lat="-37.81866" lon="145.37460000000002">
    <ele>409.56</ele>
   </trkpt>
   <trkpt lat="-37.81866" lon="145.37513">
    <ele>409.49</ele>
   </trkpt>
   <trkpt lat="-37.81866" lon="145.37574">
    <ele>408.54</ele>
   </trkpt>
   <trkpt lat="-37.8187" lon="145.37608">
    <ele>409.26</ele>
   </trkpt>
   <trkpt lat="-37.81879" lon="145.37638">
    <ele>409.53000000000003</ele>
   </trkpt>
   <trkpt lat="-37.81884" lon="145.37678000000002">
    <ele>410.40000000000003</ele>
   </trkpt>
   <trkpt lat="-37.81884" lon="145.37714000000003">
    <ele>411.39000000000004</ele>
   </trkpt>
   <trkpt lat="-37.818895002218454" lon="145.37786499941572">
    <ele>414.96000000000004</ele>
   </trkpt>
   <trkpt lat="-37.81895" lon="145.37859">
    <ele>418.81</ele>
   </trkpt>
   <trkpt lat="-37.819" lon="145.37879">
    <ele>418.81</ele>
   </trkpt>
   <trkpt lat="-37.8192" lon="145.37943">
    <ele>421.59000000000003</ele>
   </trkpt>
   <trkpt lat="-37.81926" lon="145.37973000000002">
    <ele>424.13</ele>
   </trkpt>
   <trkpt lat="-37.81922" lon="145.37983">
    <ele>424.54</ele>
   </trkpt>
   <trkpt lat="-37.81911" lon="145.37999000000002">
    <ele>425.73</ele>
   </trkpt>
   <trkpt lat="-37.81879" lon="145.38028">
    <ele>426.69</ele>
   </trkpt>
   <trkpt lat="-37.81846" lon="145.38033000000001">
    <ele>427.65000000000003</ele>
   </trkpt>
   <trkpt lat="-37.81803" lon="145.38037">
    <ele>424.45000000000005</ele>
   </trkpt>
   <trkpt lat="-37.81808" lon="145.38009000000002">
    <ele>425.37</ele>
   </trkpt>
   <trkpt lat="-37.81803" lon="145.37981000000002">
    <ele>425.98</ele>
   </trkpt>
   <trkpt lat="-37.818000000000005" lon="145.37973000000002">
    <ele>425.98</ele>
   </trkpt>
   <trkpt lat="-37.81741" lon="145.37981000000002">
    <ele>432.89000000000004</ele>
   </trkpt>
   <trkpt lat="-37.81736" lon="145.37944000000002">
    <ele>432.76000000000005</ele>
   </trkpt>
   <trkpt lat="-37.81725" lon="145.37947">
    <ele>433.50000000000006</ele>
   </trkpt>
   <trkpt lat="-37.81707" lon="145.37982000000002">
    <ele>435.22</ele>
   </trkpt>
  </trkseg>
 </trk>
</gpx>
