<?xml version="1.0" encoding="UTF-8"?>
<gpx creator="StravaGPX" version="1.1" xmlns="http://www.topografix.com/GPX/1/1" xmlns:xsi="http://www.w3.org/2001/XMLSchema-instance" xsi:schemaLocation="http://www.topografix.com/GPX/1/1 http://www.topografix.com/GPX/1/1/gpx.xsd">
 <metadata>
  <name>DTR 5/7 8k</name>
  <author>
   <name>Richard Jones</name>
   <link href="https://www.strava.com/athletes/38085969"/>
  </author>
  <copyright author="OpenStreetMap contributors">
   <year>2020</year>
   <license>https://www.openstreetmap.org/copyright</license>
  </copyright>
  <link href="https://www.strava.com/routes/3507579636756268244"/>
 </metadata>
 <trk>
  <name>DTR 5/7 8k</name>
  <link href="https://www.strava.com/routes/3507579636756268244"/>
  <type>trail_running</type>
  <trkseg>
   <trkpt lat="-37.88754" lon="145.3699">
    <ele>361.04</ele>
   </trkpt>
   <trkpt lat="-37.887550000000005" lon="145.36996000000002">
    <ele>361.61</ele>
   </trkpt>
   <trkpt lat="-37.88738" lon="145.37008">
    <ele>363.72</ele>
   </trkpt>
   <trkpt lat="-37.88729" lon="145.37024000000002">
    <ele>366.21000000000004</ele>
   </trkpt>
   <trkpt lat="-37.886860000000006" lon="145.37055">
    <ele>368.81</ele>
   </trkpt>
   <trkpt lat="-37.88689" lon="145.37066000000002">
    <ele>370.3</ele>
   </trkpt>
   <trkpt lat="-37.88694" lon="145.37120000000002">
    <ele>370.6700000000001</ele>
   </trkpt>
   <trkpt lat="-37.88698" lon="145.37135">
    <ele>371.07</ele>
   </trkpt>
   <trkpt lat="-37.88705" lon="145.37147000000002">
    <ele>371.14000000000004</ele>
   </trkpt>
   <trkpt lat="-37.887425000479915" lon="145.37178999841026">
    <ele>369.42</ele>
   </trkpt>
   <trkpt lat="-37.887800000000006" lon="145.37211000000002">
    <ele>365.11</ele>
   </trkpt>
   <trkpt lat="-37.88841000078449" lon="145.37258499593258">
    <ele>360.64</ele>
   </trkpt>
   <trkpt lat="-37.88902" lon="145.37306">
    <ele>356.07000000000005</ele>
   </trkpt>
   <trkpt lat="-37.88950000069874" lon="145.37347499726883">
    <ele>351.45000000000005</ele>
   </trkpt>
   <trkpt lat="-37.88998" lon="145.37389000000002">
    <ele>347.36</ele>
   </trkpt>
   <trkpt lat="-37.89007" lon="145.37402">
    <ele>346.82</ele>
   </trkpt>
   <trkpt lat="-37.89011" lon="145.37428">
    <ele>345.72</ele>
   </trkpt>
   <trkpt lat="-37.89009" lon="145.37448">
    <ele>344.19000000000005</ele>
   </trkpt>
   <trkpt lat="-37.89" lon="145.37468">
    <ele>343.74000000000007</ele>
   </trkpt>
   <trkpt lat="-37.88993" lon="145.37490000000003">
    <ele>343.38</ele>
   </trkpt>
   <trkpt lat="-37.88996" lon="145.37504">
    <ele>343.83000000000004</ele>
   </trkpt>
   <trkpt lat="-37.89007" lon="145.37515000000002">
    <ele>344.85</ele>
   </trkpt>
   <trkpt lat="-37.89025" lon="145.37519">
    <ele>345.45000000000005</ele>
   </trkpt>
   <trkpt lat="-37.89052" lon="145.37509">
    <ele>344.86000000000007</ele>
   </trkpt>
   <trkpt lat="-37.89079" lon="145.37492">
    <ele>344.44</ele>
   </trkpt>
   <trkpt lat="-37.89114" lon="145.37492">
    <ele>343.55</ele>
   </trkpt>
   <trkpt lat="-37.89137" lon="145.37499000000003">
    <ele>343.41</ele>
   </trkpt>
   <trkpt lat="-37.89146" lon="145.37505000000002">
    <ele>343.69000000000005</ele>
   </trkpt>
   <trkpt lat="-37.89166" lon="145.37524000000002">
    <ele>345.36000000000007</ele>
   </trkpt>
   <trkpt lat="-37.892120000000006" lon="145.37593">
    <ele>351.52000000000004</ele>
   </trkpt>
   <trkpt lat="-37.89235000148019" lon="145.37650499840794">
    <ele>357.43</ele>
   </trkpt>
   <trkpt lat="-37.89258" lon="145.37708">
    <ele>362.50000000000006</ele>
   </trkpt>
   <trkpt lat="-37.89264" lon="145.37733">
    <ele>364.73</ele>
   </trkpt>
   <trkpt lat="-37.89267" lon="145.37773">
    <ele>369.14000000000004</ele>
   </trkpt>
   <trkpt lat="-37.89262" lon="145.37792000000002">
    <ele>372.19</ele>
   </trkpt>
   <trkpt lat="-37.89249" lon="145.37814">
    <ele>377.58000000000004</ele>
   </trkpt>
   <trkpt lat="-37.89235" lon="145.37830000000002">
    <ele>379.95</ele>
   </trkpt>
   <trkpt lat="-37.89229" lon="145.37834">
    <ele>380.52000000000004</ele>
   </trkpt>
   <trkpt lat="-37.89222" lon="145.37835">
    <ele>381.24</ele>
   </trkpt>
   <trkpt lat="-37.89177" lon="145.37807">
    <ele>382.70000000000005</ele>
   </trkpt>
   <trkpt lat="-37.89139" lon="145.37794000000002">
    <ele>385.02000000000004</ele>
   </trkpt>
   <trkpt lat="-37.89123" lon="145.37791">
    <ele>385.61</ele>
   </trkpt>
   <trkpt lat="-37.89112" lon="145.3779">
    <ele>386.35</ele>
   </trkpt>
   <trkpt lat="-37.89085" lon="145.37794000000002">
    <ele>388.44</ele>
   </trkpt>
   <trkpt lat="-37.89016" lon="145.37795">
    <ele>391.05</ele>
   </trkpt>
   <trkpt lat="-37.88931" lon="145.37781">
    <ele>394.18</ele>
   </trkpt>
   <trkpt lat="-37.88850500008015" lon="145.37797500181114">
    <ele>400.59000000000003</ele>
   </trkpt>
   <trkpt lat="-37.8877" lon="145.37814">
    <ele>408.14000000000004</ele>
   </trkpt>
   <trkpt lat="-37.887890000000006" lon="145.37830000000002">
    <ele>409.95000000000005</ele>
   </trkpt>
   <trkpt lat="-37.88812" lon="145.37844">
    <ele>410.61</ele>
   </trkpt>
   <trkpt lat="-37.88832" lon="145.3785">
    <ele>411.81</ele>
   </trkpt>
   <trkpt lat="-37.88861" lon="145.37863000000002">
    <ele>414.80000000000007</ele>
   </trkpt>
   <trkpt lat="-37.88917000045836" lon="145.3789299977599">
    <ele>419.64</ele>
   </trkpt>
   <trkpt lat="-37.88973" lon="145.37923">
    <ele>423.23</ele>
   </trkpt>
   <trkpt lat="-37.890150000000006" lon="145.3795">
    <ele>425.27000000000004</ele>
   </trkpt>
   <trkpt lat="-37.89045" lon="145.37973000000002">
    <ele>427.96000000000004</ele>
   </trkpt>
   <trkpt lat="-37.89085" lon="145.38015000000001">
    <ele>430.64</ele>
   </trkpt>
   <trkpt lat="-37.8913550007523" lon="145.38059499687247">
    <ele>429.36</ele>
   </trkpt>
   <trkpt lat="-37.89186" lon="145.38104">
    <ele>428.63</ele>
   </trkpt>
   <trkpt lat="-37.89206" lon="145.38125000000002">
    <ele>427.96000000000004</ele>
   </trkpt>
   <trkpt lat="-37.89233" lon="145.38163">
    <ele>428.24</ele>
   </trkpt>
   <trkpt lat="-37.89247" lon="145.38202">
    <ele>427.31</ele>
   </trkpt>
   <trkpt lat="-37.89255" lon="145.38238">
    <ele>426.04</ele>
   </trkpt>
   <trkpt lat="-37.892520001865584" lon="145.38304500037967">
    <ele>424.56000000000006</ele>
   </trkpt>
   <trkpt lat="-37.89249" lon="145.38371">
    <ele>424.97</ele>
   </trkpt>
   <trkpt lat="-37.89251" lon="145.38418000000001">
    <ele>425.17</ele>
   </trkpt>
   <trkpt lat="-37.8926" lon="145.38464000000002">
    <ele>424.81</ele>
   </trkpt>
   <trkpt lat="-37.89279000134739" lon="145.3851949986977">
    <ele>424.40000000000003</ele>
   </trkpt>
   <trkpt lat="-37.89298" lon="145.38575">
    <ele>423.21000000000004</ele>
   </trkpt>
   <trkpt lat="-37.89323" lon="145.38596">
    <ele>422.84000000000003</ele>
   </trkpt>
   <trkpt lat="-37.89356" lon="145.38617000000002">
    <ele>424.41</ele>
   </trkpt>
   <trkpt lat="-37.89372" lon="145.38635000000002">
    <ele>425.51000000000005</ele>
   </trkpt>
   <trkpt lat="-37.89432" lon="145.38645000000002">
    <ele>423.93</ele>
   </trkpt>
   <trkpt lat="-37.89495" lon="145.38648">
    <ele>422.07000000000005</ele>
   </trkpt>
   <trkpt lat="-37.89535" lon="145.38631">
    <ele>419.97</ele>
   </trkpt>
   <trkpt lat="-37.89551" lon="145.38614">
    <ele>418.66</ele>
   </trkpt>
   <trkpt lat="-37.89593" lon="145.38579000000001">
    <ele>416.19000000000005</ele>
   </trkpt>
   <trkpt lat="-37.89609" lon="145.38563000000002">
    <ele>414.92</ele>
   </trkpt>
   <trkpt lat="-37.89663" lon="145.38522">
    <ele>407.97</ele>
   </trkpt>
   <trkpt lat="-37.8969" lon="145.38498">
    <ele>403.9200000000001</ele>
   </trkpt>
   <trkpt lat="-37.89703" lon="145.38479">
    <ele>402.61</ele>
   </trkpt>
   <trkpt lat="-37.89719" lon="145.38446000000002">
    <ele>399.46000000000004</ele>
   </trkpt>
   <trkpt lat="-37.8973" lon="145.38409000000001">
    <ele>397.0</ele>
   </trkpt>
   <trkpt lat="-37.89742500207104" lon="145.3833950010252">
    <ele>393.94</ele>
   </trkpt>
   <trkpt lat="-37.89755" lon="145.3827">
    <ele>391.96000000000004</ele>
   </trkpt>
   <trkpt lat="-37.89762000167261" lon="145.38207500041318">
    <ele>391.20000000000005</ele>
   </trkpt>
   <trkpt lat="-37.897690000000004" lon="145.38145">
    <ele>390.92</ele>
   </trkpt>
   <trkpt lat="-37.89779" lon="145.38079000000002">
    <ele>392.35</ele>
   </trkpt>
   <trkpt lat="-37.89784" lon="145.38036000000002">
    <ele>394.14000000000004</ele>
   </trkpt>
   <trkpt lat="-37.89788" lon="145.37979">
    <ele>397.32</ele>
   </trkpt>
   <trkpt lat="-37.897980000000004" lon="145.37919000000002">
    <ele>398.52000000000004</ele>
   </trkpt>
   <trkpt lat="-37.89822" lon="145.37928000000002">
    <ele>398.8</ele>
   </trkpt>
   <trkpt lat="-37.8984" lon="145.3794">
    <ele>398.05</ele>
   </trkpt>
   <trkpt lat="-37.899115000498796" lon="145.37975999647793">
    <ele>389.27</ele>
   </trkpt>
   <trkpt lat="-37.89983" lon="145.38012">
    <ele>382.76000000000005</ele>
   </trkpt>
   <trkpt lat="-37.90019" lon="145.38024000000001">
    <ele>380.66</ele>
   </trkpt>
   <trkpt lat="-37.90025" lon="145.38027000000002">
    <ele>380.37000000000006</ele>
   </trkpt>
   <trkpt lat="-37.90095" lon="145.38066">
    <ele>376.4</ele>
   </trkpt>
   <trkpt lat="-37.90166" lon="145.38102">
    <ele>372.04</ele>
   </trkpt>
   <trkpt lat="-37.9022" lon="145.38132000000002">
    <ele>371.37</ele>
   </trkpt>
   <trkpt lat="-37.90243" lon="145.38138">
    <ele>371.11000000000007</ele>
   </trkpt>
   <trkpt lat="-37.9026" lon="145.38141000000002">
    <ele>370.21000000000004</ele>
   </trkpt>
   <trkpt lat="-37.90278" lon="145.38134000000002">
    <ele>368.43</ele>
   </trkpt>
   <trkpt lat="-37.90285" lon="145.38128">
    <ele>367.11</ele>
   </trkpt>
   <trkpt lat="-37.90307" lon="145.38094">
    <ele>360.88000000000005</ele>
   </trkpt>
   <trkpt lat="-37.90325" lon="145.38043000000002">
    <ele>350.41</ele>
   </trkpt>
   <trkpt lat="-37.90339" lon="145.38022">
    <ele>344.82</ele>
   </trkpt>
   <trkpt lat="-37.90368" lon="145.37987">
    <ele>338.26</ele>
   </trkpt>
   <trkpt lat="-37.90404" lon="145.37937000000002">
    <ele>329.45</ele>
   </trkpt>
   <trkpt lat="-37.904320000859784" lon="145.3788850020797">
    <ele>315.87000000000006</ele>
   </trkpt>
   <trkpt lat="-37.9046" lon="145.3784">
    <ele>306.26000000000005</ele>
   </trkpt>
   <trkpt lat="-37.90475" lon="145.37804">
    <ele>297.78000000000003</ele>
   </trkpt>
   <trkpt lat="-37.904970000000006" lon="145.37744">
    <ele>284.22</ele>
   </trkpt>
   <trkpt lat="-37.90523000176999" lon="145.3768050020867">
    <ele>274.62</ele>
   </trkpt>
   <trkpt lat="-37.90549" lon="145.37617">
    <ele>272.40000000000003</ele>
   </trkpt>
   <trkpt lat="-37.905910000000006" lon="145.37546">
    <ele>268.53000000000003</ele>
   </trkpt>
   <trkpt lat="-37.90643" lon="145.37461000000002">
    <ele>259.52000000000004</ele>
   </trkpt>
   <trkpt lat="-37.9069" lon="145.37378">
    <ele>248.05</ele>
   </trkpt>
   <trkpt lat="-37.90699" lon="145.37323">
    <ele>243.17000000000002</ele>
   </trkpt>
   <trkpt lat="-37.90713" lon="145.37263000000002">
    <ele>233.12</ele>
   </trkpt>
   <trkpt lat="-37.90713" lon="145.37253">
    <ele>231.8</ele>
   </trkpt>
   <trkpt lat="-37.90701" lon="145.37227000000001">
    <ele>229.47</ele>
   </trkpt>
   <trkpt lat="-37.90672" lon="145.37188">
    <ele>223.86</ele>
   </trkpt>
   <trkpt lat="-37.90639" lon="145.37087000000002">
    <ele>225.59</ele>
   </trkpt>
   <trkpt lat="-37.90628" lon="145.37043">
    <ele>228.32000000000002</ele>
   </trkpt>
   <trkpt lat="-37.9063" lon="145.37003">
    <ele>229.54000000000002</ele>
   </trkpt>
   <trkpt lat="-37.90634" lon="145.36982">
    <ele>229.54000000000002</ele>
   </trkpt>
   <trkpt lat="-37.9065" lon="145.36961000000002">
    <ele>229.27000000000004</ele>
   </trkpt>
   <trkpt lat="-37.9067" lon="145.36924000000002">
    <ele>229.71</ele>
   </trkpt>
   <trkpt lat="-37.90677" lon="145.36897000000002">
    <ele>229.76000000000002</ele>
   </trkpt>
   <trkpt lat="-37.90677" lon="145.36884">
    <ele>229.80000000000004</ele>
   </trkpt>
   <trkpt lat="-37.90668" lon="145.36825000000002">
    <ele>230.13000000000002</ele>
   </trkpt>
   <trkpt lat="-37.90675" lon="145.36773000000002">
    <ele>227.4</ele>
   </trkpt>
   <trkpt lat="-37.90663" lon="145.36713">
    <ele>225.82000000000002</ele>
   </trkpt>
   <trkpt lat="-37.90661" lon="145.36685">
    <ele>228.31</ele>
   </trkpt>
   <trkpt lat="-37.90657" lon="145.36668">
    <ele>232.33</ele>
   </trkpt>
   <trkpt lat="-37.90663" lon="145.36637000000002">
    <ele>238.03</ele>
   </trkpt>
   <trkpt lat="-37.90646" lon="145.36564">
    <ele>258.34000000000003</ele>
   </trkpt>
   <trkpt lat="-37.90623" lon="145.36459000000002">
    <ele>278.16</ele>
   </trkpt>
   <trkpt lat="-37.90614" lon="145.36395000000002">
    <ele>287.27000000000004</ele>
   </trkpt>
   <trkpt lat="-37.906060000000004" lon="145.36378000000002">
    <ele>290.54</ele>
   </trkpt>
   <trkpt lat="-37.905770000000004" lon="145.36347">
    <ele>294.99</ele>
   </trkpt>
   <trkpt lat="-37.90565" lon="145.3634">
    <ele>297.17</ele>
   </trkpt>
   <trkpt lat="-37.90545" lon="145.36334000000002">
    <ele>299.26000000000005</ele>
   </trkpt>
   <trkpt lat="-37.905350000000006" lon="145.36324000000002">
    <ele>302.81</ele>
   </trkpt>
   <trkpt lat="-37.90522" lon="145.36309">
    <ele>306.23</ele>
   </trkpt>
   <trkpt lat="-37.9046" lon="145.36269000000001">
    <ele>315.26000000000005</ele>
   </trkpt>
   <trkpt lat="-37.90442" lon="145.36266">
    <ele>316.38000000000005</ele>
   </trkpt>
   <trkpt lat="-37.90417" lon="145.36270000000002">
    <ele>318.23</ele>
   </trkpt>
   <trkpt lat="-37.90366" lon="145.36271000000002">
    <ele>322.45</ele>
   </trkpt>
   <trkpt lat="-37.90307" lon="145.36296000000002">
    <ele>326.64000000000004</ele>
   </trkpt>
   <trkpt lat="-37.90283" lon="145.36315000000002">
    <ele>330.16</ele>
   </trkpt>
   <trkpt lat="-37.90263" lon="145.36328">
    <ele>332.84000000000003</ele>
   </trkpt>
   <trkpt lat="-37.90216" lon="145.36339">
    <ele>338.77</ele>
   </trkpt>
   <trkpt lat="-37.90189" lon="145.36350000000002">
    <ele>342.39000000000004</ele>
   </trkpt>
   <trkpt lat="-37.901450000000004" lon="145.36383">
    <ele>347.22</ele>
   </trkpt>
   <trkpt lat="-37.90124" lon="145.36343000000002">
    <ele>346.1</ele>
   </trkpt>
   <trkpt lat="-37.901050001985745" lon="145.36273999811638">
    <ele>339.18</ele>
   </trkpt>
   <trkpt lat="-37.90086" lon="145.36205">
    <ele>334.23</ele>
   </trkpt>
   <trkpt lat="-37.900830000000006" lon="145.36186">
    <ele>333.70000000000005</ele>
   </trkpt>
   <trkpt lat="-37.90073" lon="145.36187">
    <ele>337.59</ele>
   </trkpt>
   <trkpt lat="-37.90073" lon="145.36188">
    <ele>334.90000000000003</ele>
   </trkpt>
   <trkpt lat="-37.9005" lon="145.36184">
    <ele>337.22</ele>
   </trkpt>
   <trkpt lat="-37.90046" lon="145.36185">
    <ele>338.14000000000004</ele>
   </trkpt>
   <trkpt lat="-37.90041" lon="145.36191000000002">
    <ele>338.66</ele>
   </trkpt>
   <trkpt lat="-37.90039" lon="145.36194">
    <ele>338.9200000000001</ele>
   </trkpt>
   <trkpt lat="-37.90034" lon="145.36195">
    <ele>338.9200000000001</ele>
   </trkpt>
   <trkpt lat="-37.90012" lon="145.36187">
    <ele>340.53000000000003</ele>
   </trkpt>
   <trkpt lat="-37.90001" lon="145.36191000000002">
    <ele>341.97</ele>
   </trkpt>
   <trkpt lat="-37.89916" lon="145.36178">
    <ele>347.09</ele>
   </trkpt>
   <trkpt lat="-37.89884" lon="145.36182000000002">
    <ele>348.28000000000003</ele>
   </trkpt>
   <trkpt lat="-37.89875" lon="145.36189000000002">
    <ele>348.81</ele>
   </trkpt>
   <trkpt lat="-37.89871" lon="145.3621">
    <ele>349.46000000000004</ele>
   </trkpt>
   <trkpt lat="-37.89873" lon="145.36228">
    <ele>349.89000000000004</ele>
   </trkpt>
   <trkpt lat="-37.8986" lon="145.36254000000002">
    <ele>352.02000000000004</ele>
   </trkpt>
   <trkpt lat="-37.89853" lon="145.36281000000002">
    <ele>353.40000000000003</ele>
   </trkpt>
   <trkpt lat="-37.8984" lon="145.36321">
    <ele>357.53000000000003</ele>
   </trkpt>
   <trkpt lat="-37.89837" lon="145.36339">
    <ele>357.92</ele>
   </trkpt>
   <trkpt lat="-37.8984" lon="145.36349">
    <ele>358.56000000000006</ele>
   </trkpt>
   <trkpt lat="-37.89846" lon="145.36354">
    <ele>358.94000000000005</ele>
   </trkpt>
   <trkpt lat="-37.89878" lon="145.36367">
    <ele>359.03000000000003</ele>
   </trkpt>
   <trkpt lat="-37.89898" lon="145.36370000000002">
    <ele>358.77000000000004</ele>
   </trkpt>
   <trkpt lat="-37.89907" lon="145.36374">
    <ele>358.79</ele>
   </trkpt>
   <trkpt lat="-37.89936" lon="145.36412">
    <ele>360.38000000000005</ele>
   </trkpt>
   <trkpt lat="-37.89945" lon="145.3642">
    <ele>360.78000000000003</ele>
   </trkpt>
   <trkpt lat="-37.899530000000006" lon="145.36441000000002">
    <ele>361.68000000000006</ele>
   </trkpt>
   <trkpt lat="-37.8994" lon="145.36443">
    <ele>362.64</ele>
   </trkpt>
   <trkpt lat="-37.89934" lon="145.36446">
    <ele>362.64</ele>
   </trkpt>
   <trkpt lat="-37.899350000000005" lon="145.36446">
    <ele>362.59000000000003</ele>
   </trkpt>
   <trkpt lat="-37.8992" lon="145.36459000000002">
    <ele>363.41</ele>
   </trkpt>
   <trkpt lat="-37.89909" lon="145.36476000000002">
    <ele>364.38000000000005</ele>
   </trkpt>
   <trkpt lat="-37.89887" lon="145.36534">
    <ele>366.71000000000004</ele>
   </trkpt>
   <trkpt lat="-37.89871" lon="145.36567000000002">
    <ele>367.6</ele>
   </trkpt>
   <trkpt lat="-37.89851" lon="145.36595">
    <ele>369.46</ele>
   </trkpt>
   <trkpt lat="-37.8984" lon="145.36607">
    <ele>370.02</ele>
   </trkpt>
   <trkpt lat="-37.89802" lon="145.36632">
    <ele>373.19</ele>
   </trkpt>
   <trkpt lat="-37.89743" lon="145.36684000000002">
    <ele>375.62</ele>
   </trkpt>
   <trkpt lat="-37.89685" lon="145.36728000000002">
    <ele>375.18</ele>
   </trkpt>
   <trkpt lat="-37.8964" lon="145.36767">
    <ele>372.6700000000001</ele>
   </trkpt>
   <trkpt lat="-37.89622" lon="145.36780000000002">
    <ele>372.3</ele>
   </trkpt>
   <trkpt lat="-37.896" lon="145.36790000000002">
    <ele>371.51</ele>
   </trkpt>
   <trkpt lat="-37.89578" lon="145.36797">
    <ele>371.19</ele>
   </trkpt>
   <trkpt lat="-37.89508" lon="145.36802">
    <ele>370.9</ele>
   </trkpt>
   <trkpt lat="-37.89464" lon="145.36809000000002">
    <ele>369.92</ele>
   </trkpt>
   <trkpt lat="-37.89439" lon="145.3681">
    <ele>369.22</ele>
   </trkpt>
   <trkpt lat="-37.89414" lon="145.36802">
    <ele>368.37</ele>
   </trkpt>
   <trkpt lat="-37.89349" lon="145.36792">
    <ele>366.29</ele>
   </trkpt>
   <trkpt lat="-37.89316" lon="145.36801">
    <ele>364.96</ele>
   </trkpt>
   <trkpt lat="-37.89269" lon="145.36831">
    <ele>364.01000000000005</ele>
   </trkpt>
   <trkpt lat="-37.89226" lon="145.36863000000002">
    <ele>364.37</ele>
   </trkpt>
   <trkpt lat="-37.89184" lon="145.36885">
    <ele>364.88000000000005</ele>
   </trkpt>
   <trkpt lat="-37.89146" lon="145.369">
    <ele>366.63</ele>
   </trkpt>
   <trkpt lat="-37.89101" lon="145.36944000000003">
    <ele>368.81</ele>
   </trkpt>
   <trkpt lat="-37.89074" lon="145.36965">
    <ele>370.68</ele>
   </trkpt>
   <trkpt lat="-37.890150000000006" lon="145.36999">
    <ele>371.08000000000004</ele>
   </trkpt>
   <trkpt lat="-37.88996" lon="145.37003">
    <ele>370.74</ele>
   </trkpt>
   <trkpt lat="-37.889770000000006" lon="145.37002">
    <ele>370.26000000000005</ele>
   </trkpt>
   <trkpt lat="-37.889540000000004" lon="145.37005000000002">
    <ele>369.37</ele>
   </trkpt>
   <trkpt lat="-37.88904499995207" lon="145.37000499969233">
    <ele>366.00000000000006</ele>
   </trkpt>
   <trkpt lat="-37.88855" lon="145.36996000000002">
    <ele>363.54</ele>
   </trkpt>
   <trkpt lat="-37.88812" lon="145.36999">
    <ele>362.6</ele>
   </trkpt>
   <trkpt lat="-37.887620000000005" lon="145.36993">
    <ele>361.56000000000006</ele>
   </trkpt>
   <trkpt lat="-37.887550000000005" lon="145.36996000000002">
    <ele>361.61</ele>
   </trkpt>
   <trkpt lat="-37.88754" lon="145.3699">
    <ele>361.04</ele>
   </trkpt>
  </trkseg>
 </trk>
</gpx>
