<?xml version="1.0" encoding="UTF-8"?>
<gpx creator="StravaGPX" version="1.1" xmlns="http://www.topografix.com/GPX/1/1" xmlns:xsi="http://www.w3.org/2001/XMLSchema-instance" xsi:schemaLocation="http://www.topografix.com/GPX/1/1 http://www.topografix.com/GPX/1/1/gpx.xsd">
 <metadata>
  <name>DTR 5/7 20k</name>
  <author>
   <name>Richard Jones</name>
   <link href="https://www.strava.com/athletes/38085969"/>
  </author>
  <copyright author="OpenStreetMap contributors">
   <year>2020</year>
   <license>https://www.openstreetmap.org/copyright</license>
  </copyright>
  <link href="https://www.strava.com/routes/3507232612457202950"/>
 </metadata>
 <trk>
  <name>DTR 5/7 20k</name>
  <link href="https://www.strava.com/routes/3507232612457202950"/>
  <type>trail_running</type>
  <trkseg>
   <trkpt lat="-37.88718" lon="145.37023000000002">
    <ele>366.07</ele>
   </trkpt>
   <trkpt lat="-37.88731000000001" lon="145.37011">
    <ele>366.13</ele>
   </trkpt>
   <trkpt lat="-37.887350000000005" lon="145.37013000000002">
    <ele>366.05</ele>
   </trkpt>
   <trkpt lat="-37.88729" lon="145.37024000000002">
    <ele>366.21000000000004</ele>
   </trkpt>
   <trkpt lat="-37.886860000000006" lon="145.37055">
    <ele>368.81</ele>
   </trkpt>
   <trkpt lat="-37.88689" lon="145.37066000000002">
    <ele>370.42</ele>
   </trkpt>
   <trkpt lat="-37.88694" lon="145.37120000000002">
    <ele>370.6700000000001</ele>
   </trkpt>
   <trkpt lat="-37.88698" lon="145.37135">
    <ele>371.07</ele>
   </trkpt>
   <trkpt lat="-37.88705" lon="145.37147000000002">
    <ele>371.14000000000004</ele>
   </trkpt>
   <trkpt lat="-37.887425000479915" lon="145.37178999841026">
    <ele>368.1700000000001</ele>
   </trkpt>
   <trkpt lat="-37.887800000000006" lon="145.37211000000002">
    <ele>365.11</ele>
   </trkpt>
   <trkpt lat="-37.88841000078449" lon="145.37258499593258">
    <ele>360.64</ele>
   </trkpt>
   <trkpt lat="-37.88902" lon="145.37306">
    <ele>356.07000000000005</ele>
   </trkpt>
   <trkpt lat="-37.88950000069874" lon="145.37347499726883">
    <ele>351.45000000000005</ele>
   </trkpt>
   <trkpt lat="-37.88998" lon="145.37389000000002">
    <ele>347.36</ele>
   </trkpt>
   <trkpt lat="-37.89007" lon="145.37402">
    <ele>346.82</ele>
   </trkpt>
   <trkpt lat="-37.89011" lon="145.37428">
    <ele>345.23</ele>
   </trkpt>
   <trkpt lat="-37.89009" lon="145.37448">
    <ele>344.19000000000005</ele>
   </trkpt>
   <trkpt lat="-37.89" lon="145.37468">
    <ele>343.55</ele>
   </trkpt>
   <trkpt lat="-37.88993" lon="145.37490000000003">
    <ele>343.38</ele>
   </trkpt>
   <trkpt lat="-37.88996" lon="145.37504">
    <ele>343.83000000000004</ele>
   </trkpt>
   <trkpt lat="-37.89007" lon="145.37515000000002">
    <ele>345.12</ele>
   </trkpt>
   <trkpt lat="-37.89025" lon="145.37519">
    <ele>345.41</ele>
   </trkpt>
   <trkpt lat="-37.89052" lon="145.37509">
    <ele>344.86000000000007</ele>
   </trkpt>
   <trkpt lat="-37.89079" lon="145.37492">
    <ele>344.44</ele>
   </trkpt>
   <trkpt lat="-37.89114" lon="145.37492">
    <ele>343.55</ele>
   </trkpt>
   <trkpt lat="-37.89137" lon="145.37499000000003">
    <ele>343.53</ele>
   </trkpt>
   <trkpt lat="-37.89146" lon="145.37505000000002">
    <ele>343.89000000000004</ele>
   </trkpt>
   <trkpt lat="-37.89162" lon="145.37519">
    <ele>344.75</ele>
   </trkpt>
   <trkpt lat="-37.891600000000004" lon="145.37517000000003">
    <ele>344.75</ele>
   </trkpt>
   <trkpt lat="-37.89166" lon="145.37524000000002">
    <ele>345.36000000000007</ele>
   </trkpt>
   <trkpt lat="-37.892120000000006" lon="145.37593">
    <ele>351.52000000000004</ele>
   </trkpt>
   <trkpt lat="-37.89235000148019" lon="145.37650499840794">
    <ele>357.43</ele>
   </trkpt>
   <trkpt lat="-37.89258" lon="145.37708">
    <ele>362.50000000000006</ele>
   </trkpt>
   <trkpt lat="-37.89264" lon="145.37733">
    <ele>364.73</ele>
   </trkpt>
   <trkpt lat="-37.89267" lon="145.37773">
    <ele>369.14000000000004</ele>
   </trkpt>
   <trkpt lat="-37.89262" lon="145.37792000000002">
    <ele>372.19</ele>
   </trkpt>
   <trkpt lat="-37.89249" lon="145.37814">
    <ele>377.58000000000004</ele>
   </trkpt>
   <trkpt lat="-37.89235" lon="145.37830000000002">
    <ele>379.95</ele>
   </trkpt>
   <trkpt lat="-37.89229" lon="145.37834">
    <ele>380.52000000000004</ele>
   </trkpt>
   <trkpt lat="-37.89222" lon="145.37835">
    <ele>381.24</ele>
   </trkpt>
   <trkpt lat="-37.89177" lon="145.37807">
    <ele>382.70000000000005</ele>
   </trkpt>
   <trkpt lat="-37.89139" lon="145.37794000000002">
    <ele>385.02000000000004</ele>
   </trkpt>
   <trkpt lat="-37.89112" lon="145.3779">
    <ele>386.35</ele>
   </trkpt>
   <trkpt lat="-37.89085" lon="145.37794000000002">
    <ele>388.44</ele>
   </trkpt>
   <trkpt lat="-37.89016" lon="145.37795">
    <ele>391.05</ele>
   </trkpt>
   <trkpt lat="-37.88931" lon="145.37781">
    <ele>394.18</ele>
   </trkpt>
   <trkpt lat="-37.88850500008015" lon="145.37797500181114">
    <ele>400.59000000000003</ele>
   </trkpt>
   <trkpt lat="-37.8877" lon="145.37814">
    <ele>408.14000000000004</ele>
   </trkpt>
   <trkpt lat="-37.887240000000006" lon="145.3779">
    <ele>403.70000000000005</ele>
   </trkpt>
   <trkpt lat="-37.886720000000004" lon="145.37794000000002">
    <ele>404.15</ele>
   </trkpt>
   <trkpt lat="-37.8866" lon="145.3778">
    <ele>404.79</ele>
   </trkpt>
   <trkpt lat="-37.8864" lon="145.37868">
    <ele>404.23</ele>
   </trkpt>
   <trkpt lat="-37.886320000000005" lon="145.37939">
    <ele>401.36</ele>
   </trkpt>
   <trkpt lat="-37.88624" lon="145.37927000000002">
    <ele>399.57000000000005</ele>
   </trkpt>
   <trkpt lat="-37.885630000000006" lon="145.37892000000002">
    <ele>396.63000000000005</ele>
   </trkpt>
   <trkpt lat="-37.88541" lon="145.37883000000002">
    <ele>395.41</ele>
   </trkpt>
   <trkpt lat="-37.88514" lon="145.37882000000002">
    <ele>393.87000000000006</ele>
   </trkpt>
   <trkpt lat="-37.88434500007413" lon="145.3789750016787">
    <ele>394.18</ele>
   </trkpt>
   <trkpt lat="-37.88355" lon="145.37913">
    <ele>397.94</ele>
   </trkpt>
   <trkpt lat="-37.88378" lon="145.37941">
    <ele>395.03000000000003</ele>
   </trkpt>
   <trkpt lat="-37.884" lon="145.37962000000002">
    <ele>392.36</ele>
   </trkpt>
   <trkpt lat="-37.88411" lon="145.37969">
    <ele>392.36</ele>
   </trkpt>
   <trkpt lat="-37.88432" lon="145.37973000000002">
    <ele>390.0</ele>
   </trkpt>
   <trkpt lat="-37.88449" lon="145.3797">
    <ele>390.25000000000006</ele>
   </trkpt>
   <trkpt lat="-37.88467" lon="145.37961">
    <ele>390.61</ele>
   </trkpt>
   <trkpt lat="-37.88479" lon="145.37959">
    <ele>390.88</ele>
   </trkpt>
   <trkpt lat="-37.88494" lon="145.37961">
    <ele>390.91</ele>
   </trkpt>
   <trkpt lat="-37.88508" lon="145.37972000000002">
    <ele>390.91</ele>
   </trkpt>
   <trkpt lat="-37.88526" lon="145.37989000000002">
    <ele>390.89</ele>
   </trkpt>
   <trkpt lat="-37.885360000000006" lon="145.38008000000002">
    <ele>390.69000000000005</ele>
   </trkpt>
   <trkpt lat="-37.885545001283404" lon="145.38061999878957">
    <ele>390.02000000000004</ele>
   </trkpt>
   <trkpt lat="-37.88573" lon="145.38116000000002">
    <ele>392.99</ele>
   </trkpt>
   <trkpt lat="-37.88566" lon="145.38173">
    <ele>390.20000000000005</ele>
   </trkpt>
   <trkpt lat="-37.8857" lon="145.38243">
    <ele>387.19</ele>
   </trkpt>
   <trkpt lat="-37.88566" lon="145.38265">
    <ele>386.48</ele>
   </trkpt>
   <trkpt lat="-37.88546" lon="145.38329000000002">
    <ele>385.37000000000006</ele>
   </trkpt>
   <trkpt lat="-37.88541" lon="145.38352">
    <ele>385.47</ele>
   </trkpt>
   <trkpt lat="-37.88541" lon="145.38381">
    <ele>385.04</ele>
   </trkpt>
   <trkpt lat="-37.8855" lon="145.38451">
    <ele>380.1</ele>
   </trkpt>
   <trkpt lat="-37.88564" lon="145.38502000000003">
    <ele>375.51</ele>
   </trkpt>
   <trkpt lat="-37.885850000000005" lon="145.38562000000002">
    <ele>371.00000000000006</ele>
   </trkpt>
   <trkpt lat="-37.88595" lon="145.38580000000002">
    <ele>360.07000000000005</ele>
   </trkpt>
   <trkpt lat="-37.88599" lon="145.38580000000002">
    <ele>360.43</ele>
   </trkpt>
   <trkpt lat="-37.886" lon="145.38581000000002">
    <ele>360.43</ele>
   </trkpt>
   <trkpt lat="-37.885920000000006" lon="145.38592">
    <ele>362.7900000000001</ele>
   </trkpt>
   <trkpt lat="-37.88590000000001" lon="145.38636000000002">
    <ele>358.00000000000006</ele>
   </trkpt>
   <trkpt lat="-37.88585401746393" lon="145.3873760025317">
    <ele>332.55</ele>
   </trkpt>
   <trkpt lat="-37.88580802619602" lon="145.38839200379442">
    <ele>317.78</ele>
   </trkpt>
   <trkpt lat="-37.88576202619631" lon="145.3894080037879">
    <ele>305.44000000000005</ele>
   </trkpt>
   <trkpt lat="-37.8857160174648" lon="145.39042400251188">
    <ele>298.42</ele>
   </trkpt>
   <trkpt lat="-37.885670000000005" lon="145.39144000000002">
    <ele>286.0</ele>
   </trkpt>
   <trkpt lat="-37.88566" lon="145.39198000000002">
    <ele>274.09</ele>
   </trkpt>
   <trkpt lat="-37.885670000000005" lon="145.39202">
    <ele>274.09</ele>
   </trkpt>
   <trkpt lat="-37.88561" lon="145.39205">
    <ele>274.09</ele>
   </trkpt>
   <trkpt lat="-37.88548" lon="145.3922">
    <ele>276.49</ele>
   </trkpt>
   <trkpt lat="-37.885290001160435" lon="145.39272500136923">
    <ele>281.66</ele>
   </trkpt>
   <trkpt lat="-37.8851" lon="145.39325000000002">
    <ele>285.44</ele>
   </trkpt>
   <trkpt lat="-37.885090000000005" lon="145.39328">
    <ele>285.7</ele>
   </trkpt>
   <trkpt lat="-37.88483" lon="145.394">
    <ele>288.18000000000006</ele>
   </trkpt>
   <trkpt lat="-37.88461" lon="145.39433000000002">
    <ele>286.33000000000004</ele>
   </trkpt>
   <trkpt lat="-37.884115000421794" lon="145.39467000233154">
    <ele>281.23</ele>
   </trkpt>
   <trkpt lat="-37.88362" lon="145.39501">
    <ele>277.30000000000007</ele>
   </trkpt>
   <trkpt lat="-37.88317500026989" lon="145.39529000173079">
    <ele>272.28000000000003</ele>
   </trkpt>
   <trkpt lat="-37.88273" lon="145.39557000000002">
    <ele>268.69000000000005</ele>
   </trkpt>
   <trkpt lat="-37.88268" lon="145.39563">
    <ele>268.3</ele>
   </trkpt>
   <trkpt lat="-37.88266" lon="145.3957">
    <ele>267.6</ele>
   </trkpt>
   <trkpt lat="-37.88252000000001" lon="145.39578">
    <ele>267.42</ele>
   </trkpt>
   <trkpt lat="-37.88221" lon="145.39561">
    <ele>268.01000000000005</ele>
   </trkpt>
   <trkpt lat="-37.882200000000005" lon="145.39622">
    <ele>267.35</ele>
   </trkpt>
   <trkpt lat="-37.88215" lon="145.39622">
    <ele>265.55</ele>
   </trkpt>
   <trkpt lat="-37.8821" lon="145.39617">
    <ele>265.19000000000005</ele>
   </trkpt>
   <trkpt lat="-37.88157000006111" lon="145.39613499975184">
    <ele>261.61</ele>
   </trkpt>
   <trkpt lat="-37.881040000000006" lon="145.39610000000002">
    <ele>257.62</ele>
   </trkpt>
   <trkpt lat="-37.88071" lon="145.39603000000002">
    <ele>256.45</ele>
   </trkpt>
   <trkpt lat="-37.88058" lon="145.39603000000002">
    <ele>256.03000000000003</ele>
   </trkpt>
   <trkpt lat="-37.88000500016043" lon="145.39624000164898">
    <ele>253.96</ele>
   </trkpt>
   <trkpt lat="-37.879430000000006" lon="145.39645000000002">
    <ele>255.07000000000002</ele>
   </trkpt>
   <trkpt lat="-37.87941" lon="145.39634">
    <ele>241.79000000000002</ele>
   </trkpt>
   <trkpt lat="-37.87908" lon="145.39647000000002">
    <ele>239.13</ele>
   </trkpt>
   <trkpt lat="-37.87904" lon="145.39645000000002">
    <ele>239.14000000000001</ele>
   </trkpt>
   <trkpt lat="-37.878930000000004" lon="145.39648000000003">
    <ele>239.54000000000002</ele>
   </trkpt>
   <trkpt lat="-37.878930000000004" lon="145.39631">
    <ele>239.41</ele>
   </trkpt>
   <trkpt lat="-37.87859" lon="145.39628000000002">
    <ele>238.86</ele>
   </trkpt>
   <trkpt lat="-37.878600000000006" lon="145.39610000000002">
    <ele>241.95000000000002</ele>
   </trkpt>
   <trkpt lat="-37.87888" lon="145.39579">
    <ele>249.48</ele>
   </trkpt>
   <trkpt lat="-37.879070000000006" lon="145.39567000000002">
    <ele>253.71000000000004</ele>
   </trkpt>
   <trkpt lat="-37.87921" lon="145.39564000000001">
    <ele>254.15000000000003</ele>
   </trkpt>
   <trkpt lat="-37.87937" lon="145.39569">
    <ele>255.04000000000005</ele>
   </trkpt>
   <trkpt lat="-37.87955" lon="145.39568">
    <ele>256.53000000000003</ele>
   </trkpt>
   <trkpt lat="-37.87968" lon="145.39564000000001">
    <ele>257.11</ele>
   </trkpt>
   <trkpt lat="-37.87975" lon="145.3956">
    <ele>257.18</ele>
   </trkpt>
   <trkpt lat="-37.87982" lon="145.39553">
    <ele>257.14000000000004</ele>
   </trkpt>
   <trkpt lat="-37.87993" lon="145.3955">
    <ele>256.84000000000003</ele>
   </trkpt>
   <trkpt lat="-37.88009" lon="145.39517">
    <ele>256.59999999999997</ele>
   </trkpt>
   <trkpt lat="-37.88017" lon="145.39508">
    <ele>256.82000000000005</ele>
   </trkpt>
   <trkpt lat="-37.88035" lon="145.39497">
    <ele>257.83</ele>
   </trkpt>
   <trkpt lat="-37.88047" lon="145.3948">
    <ele>259.67</ele>
   </trkpt>
   <trkpt lat="-37.88053" lon="145.39459000000002">
    <ele>260.43</ele>
   </trkpt>
   <trkpt lat="-37.88067" lon="145.39444">
    <ele>259.65000000000003</ele>
   </trkpt>
   <trkpt lat="-37.88105" lon="145.39424000000002">
    <ele>259.64000000000004</ele>
   </trkpt>
   <trkpt lat="-37.8812" lon="145.3941">
    <ele>259.91</ele>
   </trkpt>
   <trkpt lat="-37.88129" lon="145.3939">
    <ele>260.49</ele>
   </trkpt>
   <trkpt lat="-37.88109" lon="145.39360000000002">
    <ele>263.66</ele>
   </trkpt>
   <trkpt lat="-37.881040000000006" lon="145.39341000000002">
    <ele>265.09000000000003</ele>
   </trkpt>
   <trkpt lat="-37.88103" lon="145.39316000000002">
    <ele>265.44</ele>
   </trkpt>
   <trkpt lat="-37.88105" lon="145.39290000000003">
    <ele>265.22</ele>
   </trkpt>
   <trkpt lat="-37.88114" lon="145.39270000000002">
    <ele>264.53000000000003</ele>
   </trkpt>
   <trkpt lat="-37.88125" lon="145.39251000000002">
    <ele>264.53000000000003</ele>
   </trkpt>
   <trkpt lat="-37.88129" lon="145.39199000000002">
    <ele>266.29</ele>
   </trkpt>
   <trkpt lat="-37.88138" lon="145.39182000000002">
    <ele>266.36</ele>
   </trkpt>
   <trkpt lat="-37.881510000000006" lon="145.39169">
    <ele>265.99</ele>
   </trkpt>
   <trkpt lat="-37.8817" lon="145.39170000000001">
    <ele>266.31000000000006</ele>
   </trkpt>
   <trkpt lat="-37.88181" lon="145.3916">
    <ele>267.15</ele>
   </trkpt>
   <trkpt lat="-37.88199" lon="145.39137000000002">
    <ele>267.99</ele>
   </trkpt>
   <trkpt lat="-37.88226" lon="145.39113">
    <ele>268.84000000000003</ele>
   </trkpt>
   <trkpt lat="-37.88232" lon="145.39103">
    <ele>269.21</ele>
   </trkpt>
   <trkpt lat="-37.882360000000006" lon="145.39082000000002">
    <ele>269.69000000000005</ele>
   </trkpt>
   <trkpt lat="-37.88235" lon="145.39065000000002">
    <ele>271.03000000000003</ele>
   </trkpt>
   <trkpt lat="-37.88223" lon="145.39036000000002">
    <ele>272.34000000000003</ele>
   </trkpt>
   <trkpt lat="-37.88223" lon="145.39020000000002">
    <ele>273.06</ele>
   </trkpt>
   <trkpt lat="-37.882070000000006" lon="145.38981">
    <ele>274.57000000000005</ele>
   </trkpt>
   <trkpt lat="-37.88208" lon="145.38973000000001">
    <ele>274.61</ele>
   </trkpt>
   <trkpt lat="-37.88221" lon="145.38958000000002">
    <ele>274.61</ele>
   </trkpt>
   <trkpt lat="-37.88239" lon="145.38930000000002">
    <ele>275.28000000000003</ele>
   </trkpt>
   <trkpt lat="-37.88244" lon="145.38894000000002">
    <ele>275.92</ele>
   </trkpt>
   <trkpt lat="-37.88255" lon="145.38872">
    <ele>276.57000000000005</ele>
   </trkpt>
   <trkpt lat="-37.882670000000005" lon="145.38839000000002">
    <ele>276.85</ele>
   </trkpt>
   <trkpt lat="-37.882830000000006" lon="145.38811">
    <ele>279.7</ele>
   </trkpt>
   <trkpt lat="-37.88295" lon="145.38770000000002">
    <ele>280.56</ele>
   </trkpt>
   <trkpt lat="-37.88311" lon="145.38696000000002">
    <ele>283.16</ele>
   </trkpt>
   <trkpt lat="-37.88313" lon="145.38674">
    <ele>284.03</ele>
   </trkpt>
   <trkpt lat="-37.88286" lon="145.38613">
    <ele>285.90000000000003</ele>
   </trkpt>
   <trkpt lat="-37.88277" lon="145.38558">
    <ele>288.31</ele>
   </trkpt>
   <trkpt lat="-37.88277" lon="145.38517000000002">
    <ele>290.59000000000003</ele>
   </trkpt>
   <trkpt lat="-37.88239" lon="145.38424">
    <ele>292.96</ele>
   </trkpt>
   <trkpt lat="-37.88241" lon="145.38393000000002">
    <ele>294.24</ele>
   </trkpt>
   <trkpt lat="-37.8823" lon="145.38363">
    <ele>295.90000000000003</ele>
   </trkpt>
   <trkpt lat="-37.881980000000006" lon="145.38336">
    <ele>297.32000000000005</ele>
   </trkpt>
   <trkpt lat="-37.88181" lon="145.38306">
    <ele>299.39000000000004</ele>
   </trkpt>
   <trkpt lat="-37.88183" lon="145.3829">
    <ele>299.98</ele>
   </trkpt>
   <trkpt lat="-37.88174" lon="145.38281">
    <ele>300.07</ele>
   </trkpt>
   <trkpt lat="-37.88163" lon="145.38285000000002">
    <ele>300.15000000000003</ele>
   </trkpt>
   <trkpt lat="-37.88156" lon="145.38291">
    <ele>300.29</ele>
   </trkpt>
   <trkpt lat="-37.88145" lon="145.38292">
    <ele>301.1</ele>
   </trkpt>
   <trkpt lat="-37.88123" lon="145.38276000000002">
    <ele>301.75</ele>
   </trkpt>
   <trkpt lat="-37.881" lon="145.38254">
    <ele>303.6700000000001</ele>
   </trkpt>
   <trkpt lat="-37.88094" lon="145.38244">
    <ele>303.92</ele>
   </trkpt>
   <trkpt lat="-37.88098" lon="145.38230000000001">
    <ele>304.72</ele>
   </trkpt>
   <trkpt lat="-37.88114" lon="145.38207">
    <ele>306.1</ele>
   </trkpt>
   <trkpt lat="-37.88123" lon="145.38188000000002">
    <ele>306.92</ele>
   </trkpt>
   <trkpt lat="-37.88078" lon="145.38125000000002">
    <ele>315.28</ele>
   </trkpt>
   <trkpt lat="-37.8804" lon="145.38083">
    <ele>317.90000000000003</ele>
   </trkpt>
   <trkpt lat="-37.88029" lon="145.38060000000002">
    <ele>316.14000000000004</ele>
   </trkpt>
   <trkpt lat="-37.88029" lon="145.38036000000002">
    <ele>316.06</ele>
   </trkpt>
   <trkpt lat="-37.88033" lon="145.3801">
    <ele>319.01</ele>
   </trkpt>
   <trkpt lat="-37.88026" lon="145.37994">
    <ele>320.1</ele>
   </trkpt>
   <trkpt lat="-37.88013" lon="145.37941">
    <ele>325.02000000000004</ele>
   </trkpt>
   <trkpt lat="-37.88009" lon="145.3793">
    <ele>324.82000000000005</ele>
   </trkpt>
   <trkpt lat="-37.87997" lon="145.37905">
    <ele>323.77</ele>
   </trkpt>
   <trkpt lat="-37.87982" lon="145.37881000000002">
    <ele>322.76000000000005</ele>
   </trkpt>
   <trkpt lat="-37.87975" lon="145.37853">
    <ele>323.13</ele>
   </trkpt>
   <trkpt lat="-37.87966" lon="145.37843">
    <ele>325.09999999999997</ele>
   </trkpt>
   <trkpt lat="-37.87948" lon="145.37797">
    <ele>331.64000000000004</ele>
   </trkpt>
   <trkpt lat="-37.87912" lon="145.37754">
    <ele>339.62</ele>
   </trkpt>
   <trkpt lat="-37.87894" lon="145.37752">
    <ele>340.95000000000005</ele>
   </trkpt>
   <trkpt lat="-37.87852" lon="145.37720000000002">
    <ele>340.61</ele>
   </trkpt>
   <trkpt lat="-37.87841" lon="145.37688">
    <ele>336.27</ele>
   </trkpt>
   <trkpt lat="-37.87841" lon="145.3767">
    <ele>334.47</ele>
   </trkpt>
   <trkpt lat="-37.878510000000006" lon="145.37664">
    <ele>334.29</ele>
   </trkpt>
   <trkpt lat="-37.87854" lon="145.37655">
    <ele>334.59000000000003</ele>
   </trkpt>
   <trkpt lat="-37.87861" lon="145.37649000000002">
    <ele>335.24</ele>
   </trkpt>
   <trkpt lat="-37.8787" lon="145.37637">
    <ele>336.55</ele>
   </trkpt>
   <trkpt lat="-37.878710000000005" lon="145.37606000000002">
    <ele>338.33000000000004</ele>
   </trkpt>
   <trkpt lat="-37.87872" lon="145.37596000000002">
    <ele>338.36000000000007</ele>
   </trkpt>
   <trkpt lat="-37.87861" lon="145.37571">
    <ele>338.3</ele>
   </trkpt>
   <trkpt lat="-37.87854" lon="145.37534000000002">
    <ele>338.8</ele>
   </trkpt>
   <trkpt lat="-37.87843" lon="145.37523000000002">
    <ele>336.0</ele>
   </trkpt>
   <trkpt lat="-37.87825" lon="145.375">
    <ele>333.19000000000005</ele>
   </trkpt>
   <trkpt lat="-37.87816" lon="145.37472000000002">
    <ele>331.48</ele>
   </trkpt>
   <trkpt lat="-37.87823" lon="145.37415000000001">
    <ele>329.70000000000005</ele>
   </trkpt>
   <trkpt lat="-37.87829" lon="145.37389000000002">
    <ele>328.40000000000003</ele>
   </trkpt>
   <trkpt lat="-37.87829" lon="145.37361">
    <ele>323.86</ele>
   </trkpt>
   <trkpt lat="-37.87836" lon="145.37346000000002">
    <ele>324.99</ele>
   </trkpt>
   <trkpt lat="-37.878460000000004" lon="145.37306">
    <ele>328.08000000000004</ele>
   </trkpt>
   <trkpt lat="-37.87843" lon="145.37283000000002">
    <ele>339.14000000000004</ele>
   </trkpt>
   <trkpt lat="-37.87838" lon="145.37277">
    <ele>344.73</ele>
   </trkpt>
   <trkpt lat="-37.878310000000006" lon="145.37275000000002">
    <ele>344.65</ele>
   </trkpt>
   <trkpt lat="-37.87807" lon="145.37275000000002">
    <ele>343.56</ele>
   </trkpt>
   <trkpt lat="-37.87791" lon="145.37255000000002">
    <ele>344.6</ele>
   </trkpt>
   <trkpt lat="-37.87782" lon="145.37237000000002">
    <ele>345.89000000000004</ele>
   </trkpt>
   <trkpt lat="-37.87778" lon="145.37220000000002">
    <ele>347.49</ele>
   </trkpt>
   <trkpt lat="-37.87773" lon="145.37208">
    <ele>347.88</ele>
   </trkpt>
   <trkpt lat="-37.877570000000006" lon="145.37197">
    <ele>348.53</ele>
   </trkpt>
   <trkpt lat="-37.87713" lon="145.37159000000003">
    <ele>350.62000000000006</ele>
   </trkpt>
   <trkpt lat="-37.87693" lon="145.37134">
    <ele>351.82</ele>
   </trkpt>
   <trkpt lat="-37.87691" lon="145.37124">
    <ele>353.34000000000003</ele>
   </trkpt>
   <trkpt lat="-37.876850000000005" lon="145.37126">
    <ele>335.53000000000003</ele>
   </trkpt>
   <trkpt lat="-37.87675" lon="145.37167000000002">
    <ele>334.73</ele>
   </trkpt>
   <trkpt lat="-37.8765" lon="145.37138000000002">
    <ele>335.41</ele>
   </trkpt>
   <trkpt lat="-37.87635" lon="145.37115">
    <ele>358.89000000000004</ele>
   </trkpt>
   <trkpt lat="-37.87614000000001" lon="145.37109">
    <ele>358.89000000000004</ele>
   </trkpt>
   <trkpt lat="-37.87608" lon="145.37106">
    <ele>358.92</ele>
   </trkpt>
   <trkpt lat="-37.875600000000006" lon="145.37072">
    <ele>363.39000000000004</ele>
   </trkpt>
   <trkpt lat="-37.8755" lon="145.37059000000002">
    <ele>365.76000000000005</ele>
   </trkpt>
   <trkpt lat="-37.87541" lon="145.37033000000002">
    <ele>369.57</ele>
   </trkpt>
   <trkpt lat="-37.87536" lon="145.36978000000002">
    <ele>374.89000000000004</ele>
   </trkpt>
   <trkpt lat="-37.87541" lon="145.36953000000003">
    <ele>373.54</ele>
   </trkpt>
   <trkpt lat="-37.87545" lon="145.36945">
    <ele>372.48</ele>
   </trkpt>
   <trkpt lat="-37.87554" lon="145.36915000000002">
    <ele>370.29</ele>
   </trkpt>
   <trkpt lat="-37.87554" lon="145.36892">
    <ele>369.71000000000004</ele>
   </trkpt>
   <trkpt lat="-37.87545" lon="145.3683">
    <ele>373.51</ele>
   </trkpt>
   <trkpt lat="-37.875510000000006" lon="145.36811">
    <ele>373.71000000000004</ele>
   </trkpt>
   <trkpt lat="-37.87561" lon="145.36791000000002">
    <ele>374.05000000000007</ele>
   </trkpt>
   <trkpt lat="-37.875690000000006" lon="145.36763000000002">
    <ele>375.66</ele>
   </trkpt>
   <trkpt lat="-37.8757" lon="145.3675">
    <ele>377.13</ele>
   </trkpt>
   <trkpt lat="-37.87559" lon="145.36734">
    <ele>378.76000000000005</ele>
   </trkpt>
   <trkpt lat="-37.87523" lon="145.36692000000002">
    <ele>381.46000000000004</ele>
   </trkpt>
   <trkpt lat="-37.87514" lon="145.36678">
    <ele>381.83000000000004</ele>
   </trkpt>
   <trkpt lat="-37.87489" lon="145.36658">
    <ele>384.71000000000004</ele>
   </trkpt>
   <trkpt lat="-37.87482" lon="145.36644">
    <ele>385.92</ele>
   </trkpt>
   <trkpt lat="-37.8748" lon="145.366">
    <ele>383.75</ele>
   </trkpt>
   <trkpt lat="-37.874660000000006" lon="145.36564">
    <ele>384.87000000000006</ele>
   </trkpt>
   <trkpt lat="-37.87435" lon="145.36469000000002">
    <ele>387.18</ele>
   </trkpt>
   <trkpt lat="-37.87435" lon="145.36442000000002">
    <ele>386.56</ele>
   </trkpt>
   <trkpt lat="-37.87438" lon="145.3642">
    <ele>385.27000000000004</ele>
   </trkpt>
   <trkpt lat="-37.87438" lon="145.36402">
    <ele>384.92</ele>
   </trkpt>
   <trkpt lat="-37.87426" lon="145.36375">
    <ele>385.45</ele>
   </trkpt>
   <trkpt lat="-37.87404" lon="145.36343000000002">
    <ele>385.28000000000003</ele>
   </trkpt>
   <trkpt lat="-37.87402" lon="145.36301">
    <ele>382.12</ele>
   </trkpt>
   <trkpt lat="-37.87382" lon="145.36244000000002">
    <ele>379.5</ele>
   </trkpt>
   <trkpt lat="-37.87373" lon="145.36223">
    <ele>377.78</ele>
   </trkpt>
   <trkpt lat="-37.873740000000005" lon="145.36213">
    <ele>377.59000000000003</ele>
   </trkpt>
   <trkpt lat="-37.87377" lon="145.36206">
    <ele>392.42</ele>
   </trkpt>
   <trkpt lat="-37.873720000000006" lon="145.36151">
    <ele>395.58000000000004</ele>
   </trkpt>
   <trkpt lat="-37.87391" lon="145.36107">
    <ele>400.23</ele>
   </trkpt>
   <trkpt lat="-37.87406" lon="145.36083000000002">
    <ele>402.94</ele>
   </trkpt>
   <trkpt lat="-37.87456" lon="145.36044">
    <ele>407.1</ele>
   </trkpt>
   <trkpt lat="-37.87494" lon="145.36006">
    <ele>414.67</ele>
   </trkpt>
   <trkpt lat="-37.87516" lon="145.35986000000003">
    <ele>418.55</ele>
   </trkpt>
   <trkpt lat="-37.87521" lon="145.35967000000002">
    <ele>419.97</ele>
   </trkpt>
   <trkpt lat="-37.875130000000006" lon="145.35951">
    <ele>421.87</ele>
   </trkpt>
   <trkpt lat="-37.87496" lon="145.35946">
    <ele>423.6</ele>
   </trkpt>
   <trkpt lat="-37.87487" lon="145.35939000000002">
    <ele>424.47</ele>
   </trkpt>
   <trkpt lat="-37.874770000000005" lon="145.35926">
    <ele>424.63</ele>
   </trkpt>
   <trkpt lat="-37.87447" lon="145.35877000000002">
    <ele>430.37</ele>
   </trkpt>
   <trkpt lat="-37.87433" lon="145.35864">
    <ele>433.14000000000004</ele>
   </trkpt>
   <trkpt lat="-37.87402" lon="145.35849000000002">
    <ele>436.42</ele>
   </trkpt>
   <trkpt lat="-37.87373" lon="145.3582">
    <ele>440.64000000000004</ele>
   </trkpt>
   <trkpt lat="-37.873630000000006" lon="145.35801">
    <ele>441.48</ele>
   </trkpt>
   <trkpt lat="-37.87357" lon="145.35787000000002">
    <ele>441.48</ele>
   </trkpt>
   <trkpt lat="-37.87346" lon="145.35765">
    <ele>444.54</ele>
   </trkpt>
   <trkpt lat="-37.87341" lon="145.3574">
    <ele>446.94000000000005</ele>
   </trkpt>
   <trkpt lat="-37.87341" lon="145.357">
    <ele>449.01</ele>
   </trkpt>
   <trkpt lat="-37.87328" lon="145.35653000000002">
    <ele>451.19</ele>
   </trkpt>
   <trkpt lat="-37.87328" lon="145.35648">
    <ele>451.19</ele>
   </trkpt>
   <trkpt lat="-37.873310000000004" lon="145.35644000000002">
    <ele>451.54</ele>
   </trkpt>
   <trkpt lat="-37.87335" lon="145.35644000000002">
    <ele>451.54</ele>
   </trkpt>
   <trkpt lat="-37.87339" lon="145.35649">
    <ele>451.68</ele>
   </trkpt>
   <trkpt lat="-37.87353" lon="145.35718">
    <ele>453.6</ele>
   </trkpt>
   <trkpt lat="-37.87379" lon="145.35763">
    <ele>457.31000000000006</ele>
   </trkpt>
   <trkpt lat="-37.874120000000005" lon="145.35781">
    <ele>459.42</ele>
   </trkpt>
   <trkpt lat="-37.87435" lon="145.35784">
    <ele>461.19000000000005</ele>
   </trkpt>
   <trkpt lat="-37.87473" lon="145.35783">
    <ele>463.28000000000003</ele>
   </trkpt>
   <trkpt lat="-37.87482" lon="145.35784">
    <ele>463.57000000000005</ele>
   </trkpt>
   <trkpt lat="-37.87541" lon="145.35777000000002">
    <ele>469.70000000000005</ele>
   </trkpt>
   <trkpt lat="-37.87559" lon="145.35771000000003">
    <ele>470.30000000000007</ele>
   </trkpt>
   <trkpt lat="-37.87572" lon="145.35758">
    <ele>471.44</ele>
   </trkpt>
   <trkpt lat="-37.875840000000004" lon="145.3574">
    <ele>474.56</ele>
   </trkpt>
   <trkpt lat="-37.875930000000004" lon="145.35714000000002">
    <ele>475.77000000000004</ele>
   </trkpt>
   <trkpt lat="-37.876160000000006" lon="145.35686">
    <ele>476.30000000000007</ele>
   </trkpt>
   <trkpt lat="-37.8763" lon="145.35674">
    <ele>476.08000000000004</ele>
   </trkpt>
   <trkpt lat="-37.87637" lon="145.35671000000002">
    <ele>472.04</ele>
   </trkpt>
   <trkpt lat="-37.87642" lon="145.35680000000002">
    <ele>472.01000000000005</ele>
   </trkpt>
   <trkpt lat="-37.87639" lon="145.35675">
    <ele>472.04</ele>
   </trkpt>
   <trkpt lat="-37.87637" lon="145.35671000000002">
    <ele>476.08000000000004</ele>
   </trkpt>
   <trkpt lat="-37.87646" lon="145.35667">
    <ele>475.98</ele>
   </trkpt>
   <trkpt lat="-37.876870000000004" lon="145.35659">
    <ele>463.62</ele>
   </trkpt>
   <trkpt lat="-37.87664" lon="145.35614">
    <ele>462.47</ele>
   </trkpt>
   <trkpt lat="-37.87639" lon="145.35572000000002">
    <ele>463.51000000000005</ele>
   </trkpt>
   <trkpt lat="-37.87617" lon="145.35548">
    <ele>465.52000000000004</ele>
   </trkpt>
   <trkpt lat="-37.876070000000006" lon="145.35523">
    <ele>468.81000000000006</ele>
   </trkpt>
   <trkpt lat="-37.87608" lon="145.35506">
    <ele>469.1</ele>
   </trkpt>
   <trkpt lat="-37.876180000000005" lon="145.35491000000002">
    <ele>469.33000000000004</ele>
   </trkpt>
   <trkpt lat="-37.8761" lon="145.35474000000002">
    <ele>470.41</ele>
   </trkpt>
   <trkpt lat="-37.87599" lon="145.35412000000002">
    <ele>475.99</ele>
   </trkpt>
   <trkpt lat="-37.87619" lon="145.35323000000002">
    <ele>483.07000000000005</ele>
   </trkpt>
   <trkpt lat="-37.87635" lon="145.35294000000002">
    <ele>486.19000000000005</ele>
   </trkpt>
   <trkpt lat="-37.87635" lon="145.35272">
    <ele>487.96000000000004</ele>
   </trkpt>
   <trkpt lat="-37.87621" lon="145.35214000000002">
    <ele>495.12000000000006</ele>
   </trkpt>
   <trkpt lat="-37.87621" lon="145.35187000000002">
    <ele>499.50000000000006</ele>
   </trkpt>
   <trkpt lat="-37.87617" lon="145.35168000000002">
    <ele>500.86000000000007</ele>
   </trkpt>
   <trkpt lat="-37.875980000000006" lon="145.35139">
    <ele>507.21999999999997</ele>
   </trkpt>
   <trkpt lat="-37.87594" lon="145.35117000000002">
    <ele>508.6700000000001</ele>
   </trkpt>
   <trkpt lat="-37.87581" lon="145.35093">
    <ele>512.76</ele>
   </trkpt>
   <trkpt lat="-37.87576" lon="145.35080000000002">
    <ele>514.02</ele>
   </trkpt>
   <trkpt lat="-37.87561" lon="145.35064">
    <ele>515.7400000000001</ele>
   </trkpt>
   <trkpt lat="-37.87554" lon="145.35052000000002">
    <ele>517.34</ele>
   </trkpt>
   <trkpt lat="-37.87518" lon="145.35024">
    <ele>519.3800000000001</ele>
   </trkpt>
   <trkpt lat="-37.87482" lon="145.34974000000003">
    <ele>523.1800000000001</ele>
   </trkpt>
   <trkpt lat="-37.8746" lon="145.34956000000003">
    <ele>523.1800000000001</ele>
   </trkpt>
   <trkpt lat="-37.87438" lon="145.3494">
    <ele>522.86</ele>
   </trkpt>
   <trkpt lat="-37.87433" lon="145.34928000000002">
    <ele>522.95</ele>
   </trkpt>
   <trkpt lat="-37.87413" lon="145.34910000000002">
    <ele>523.4000000000001</ele>
   </trkpt>
   <trkpt lat="-37.87397" lon="145.34883000000002">
    <ele>525.0600000000001</ele>
   </trkpt>
   <trkpt lat="-37.87397" lon="145.34874000000002">
    <ele>525.0600000000001</ele>
   </trkpt>
   <trkpt lat="-37.8742" lon="145.34820000000002">
    <ele>526.2800000000001</ele>
   </trkpt>
   <trkpt lat="-37.87453" lon="145.34727">
    <ele>525.12</ele>
   </trkpt>
   <trkpt lat="-37.87453" lon="145.34695000000002">
    <ele>525.5300000000001</ele>
   </trkpt>
   <trkpt lat="-37.87432500137439" lon="145.34637499833306">
    <ele>527.73</ele>
   </trkpt>
   <trkpt lat="-37.874120000000005" lon="145.34580000000003">
    <ele>528.61</ele>
   </trkpt>
   <trkpt lat="-37.87472" lon="145.34599">
    <ele>525.59</ele>
   </trkpt>
   <trkpt lat="-37.875040000000006" lon="145.34609">
    <ele>523.47</ele>
   </trkpt>
   <trkpt lat="-37.875220000000006" lon="145.34619">
    <ele>522.58</ele>
   </trkpt>
   <trkpt lat="-37.87566" lon="145.34672">
    <ele>518.21</ele>
   </trkpt>
   <trkpt lat="-37.8757" lon="145.34677000000002">
    <ele>518.3000000000001</ele>
   </trkpt>
   <trkpt lat="-37.87588" lon="145.34683">
    <ele>515.95</ele>
   </trkpt>
   <trkpt lat="-37.87595" lon="145.3468">
    <ele>515.12</ele>
   </trkpt>
   <trkpt lat="-37.875960000000006" lon="145.3468">
    <ele>530.6</ele>
   </trkpt>
   <trkpt lat="-37.87615" lon="145.34676000000002">
    <ele>533.03</ele>
   </trkpt>
   <trkpt lat="-37.87614000000001" lon="145.34676000000002">
    <ele>517.34</ele>
   </trkpt>
   <trkpt lat="-37.87603" lon="145.34592">
    <ele>519.2800000000001</ele>
   </trkpt>
   <trkpt lat="-37.87603" lon="145.34573">
    <ele>519.3100000000001</ele>
   </trkpt>
   <trkpt lat="-37.87599" lon="145.3454">
    <ele>518.8900000000001</ele>
   </trkpt>
   <trkpt lat="-37.87599" lon="145.34493">
    <ele>517.54</ele>
   </trkpt>
   <trkpt lat="-37.8759" lon="145.34467">
    <ele>515.8600000000001</ele>
   </trkpt>
   <trkpt lat="-37.875690000000006" lon="145.34416000000002">
    <ele>513.9</ele>
   </trkpt>
   <trkpt lat="-37.87556" lon="145.34399000000002">
    <ele>513.1999999999999</ele>
   </trkpt>
   <trkpt lat="-37.875510000000006" lon="145.34384">
    <ele>512.51</ele>
   </trkpt>
   <trkpt lat="-37.87545" lon="145.3436">
    <ele>511.3500000000001</ele>
   </trkpt>
   <trkpt lat="-37.8755" lon="145.34335000000002">
    <ele>508.99000000000007</ele>
   </trkpt>
   <trkpt lat="-37.87561" lon="145.34307">
    <ele>510.83</ele>
   </trkpt>
   <trkpt lat="-37.875620000000005" lon="145.34306">
    <ele>510.8400000000001</ele>
   </trkpt>
   <trkpt lat="-37.8757" lon="145.34294">
    <ele>512.0600000000001</ele>
   </trkpt>
   <trkpt lat="-37.875980000000006" lon="145.34273000000002">
    <ele>511.85</ele>
   </trkpt>
   <trkpt lat="-37.8761" lon="145.34269">
    <ele>511.87000000000006</ele>
   </trkpt>
   <trkpt lat="-37.876290000000004" lon="145.34269">
    <ele>512.08</ele>
   </trkpt>
   <trkpt lat="-37.87644" lon="145.34274000000002">
    <ele>510.78000000000003</ele>
   </trkpt>
   <trkpt lat="-37.8767" lon="145.34279">
    <ele>509.4000000000001</ele>
   </trkpt>
   <trkpt lat="-37.87688" lon="145.3428">
    <ele>508.9100000000001</ele>
   </trkpt>
   <trkpt lat="-37.87722" lon="145.34272">
    <ele>509.02000000000004</ele>
   </trkpt>
   <trkpt lat="-37.87778" lon="145.34271">
    <ele>506.62000000000006</ele>
   </trkpt>
   <trkpt lat="-37.87791" lon="145.34269">
    <ele>505.95</ele>
   </trkpt>
   <trkpt lat="-37.87807" lon="145.34255000000002">
    <ele>506.21000000000004</ele>
   </trkpt>
   <trkpt lat="-37.87832" lon="145.34217">
    <ele>507.21999999999997</ele>
   </trkpt>
   <trkpt lat="-37.87847" lon="145.34209">
    <ele>504.58000000000004</ele>
   </trkpt>
   <trkpt lat="-37.87856" lon="145.34212000000002">
    <ele>502.63</ele>
   </trkpt>
   <trkpt lat="-37.8787" lon="145.34225">
    <ele>497.41</ele>
   </trkpt>
   <trkpt lat="-37.87874" lon="145.34236">
    <ele>497.41</ele>
   </trkpt>
   <trkpt lat="-37.878690000000006" lon="145.34248000000002">
    <ele>494.48</ele>
   </trkpt>
   <trkpt lat="-37.87865" lon="145.34264000000002">
    <ele>492.7900000000001</ele>
   </trkpt>
   <trkpt lat="-37.87865" lon="145.34273000000002">
    <ele>491.98</ele>
   </trkpt>
   <trkpt lat="-37.87877" lon="145.34292000000002">
    <ele>493.32000000000005</ele>
   </trkpt>
   <trkpt lat="-37.87892" lon="145.34284000000002">
    <ele>495.06000000000006</ele>
   </trkpt>
   <trkpt lat="-37.87901" lon="145.34286">
    <ele>497.1</ele>
   </trkpt>
   <trkpt lat="-37.87917" lon="145.34300000000002">
    <ele>498.45000000000005</ele>
   </trkpt>
   <trkpt lat="-37.87937" lon="145.34337000000002">
    <ele>500.65000000000003</ele>
   </trkpt>
   <trkpt lat="-37.87955" lon="145.34361">
    <ele>503.62000000000006</ele>
   </trkpt>
   <trkpt lat="-37.87964" lon="145.34372000000002">
    <ele>507.19</ele>
   </trkpt>
   <trkpt lat="-37.88034500034834" lon="145.34407999645205">
    <ele>519.8000000000001</ele>
   </trkpt>
   <trkpt lat="-37.88105" lon="145.34444000000002">
    <ele>524.36</ele>
   </trkpt>
   <trkpt lat="-37.881665000032825" lon="145.34460499860012">
    <ele>522.99</ele>
   </trkpt>
   <trkpt lat="-37.88228" lon="145.34477">
    <ele>519.6</ele>
   </trkpt>
   <trkpt lat="-37.88275" lon="145.34470000000002">
    <ele>516.1999999999999</ele>
   </trkpt>
   <trkpt lat="-37.883" lon="145.34471000000002">
    <ele>513.2500000000001</ele>
   </trkpt>
   <trkpt lat="-37.88349" lon="145.34484">
    <ele>510.44</ele>
   </trkpt>
   <trkpt lat="-37.883590000000005" lon="145.34490000000002">
    <ele>510.06000000000006</ele>
   </trkpt>
   <trkpt lat="-37.8836" lon="145.34490000000002">
    <ele>510.06000000000006</ele>
   </trkpt>
   <trkpt lat="-37.88389" lon="145.34507000000002">
    <ele>508.32</ele>
   </trkpt>
   <trkpt lat="-37.88396" lon="145.34514000000001">
    <ele>507.6700000000001</ele>
   </trkpt>
   <trkpt lat="-37.88411" lon="145.34534000000002">
    <ele>505.58000000000004</ele>
   </trkpt>
   <trkpt lat="-37.8842" lon="145.34558">
    <ele>503.40000000000003</ele>
   </trkpt>
   <trkpt lat="-37.88447" lon="145.34646">
    <ele>494.82000000000005</ele>
   </trkpt>
   <trkpt lat="-37.88454" lon="145.34662">
    <ele>493.81</ele>
   </trkpt>
   <trkpt lat="-37.88461" lon="145.34673">
    <ele>493.01000000000005</ele>
   </trkpt>
   <trkpt lat="-37.88492" lon="145.34708">
    <ele>491.27000000000004</ele>
   </trkpt>
   <trkpt lat="-37.88517" lon="145.34727">
    <ele>489.95000000000005</ele>
   </trkpt>
   <trkpt lat="-37.88555" lon="145.34747000000002">
    <ele>489.62000000000006</ele>
   </trkpt>
   <trkpt lat="-37.8855" lon="145.34765000000002">
    <ele>489.26</ele>
   </trkpt>
   <trkpt lat="-37.88548" lon="145.34823">
    <ele>487.00000000000006</ele>
   </trkpt>
   <trkpt lat="-37.88555" lon="145.34883000000002">
    <ele>486.06000000000006</ele>
   </trkpt>
   <trkpt lat="-37.885580000000004" lon="145.34897">
    <ele>485.95000000000005</ele>
   </trkpt>
   <trkpt lat="-37.88561" lon="145.34911000000002">
    <ele>485.82</ele>
   </trkpt>
   <trkpt lat="-37.88561" lon="145.34938000000002">
    <ele>485.37</ele>
   </trkpt>
   <trkpt lat="-37.88568" lon="145.34975">
    <ele>483.81</ele>
   </trkpt>
   <trkpt lat="-37.88568" lon="145.34986">
    <ele>483.13000000000005</ele>
   </trkpt>
   <trkpt lat="-37.88564" lon="145.34996">
    <ele>482.26</ele>
   </trkpt>
   <trkpt lat="-37.88537" lon="145.35015">
    <ele>478.96000000000004</ele>
   </trkpt>
   <trkpt lat="-37.88521" lon="145.35021">
    <ele>477.37</ele>
   </trkpt>
   <trkpt lat="-37.88503" lon="145.35021">
    <ele>476.36000000000007</ele>
   </trkpt>
   <trkpt lat="-37.88481" lon="145.35028">
    <ele>474.17</ele>
   </trkpt>
   <trkpt lat="-37.884640000000005" lon="145.35035000000002">
    <ele>473.25000000000006</ele>
   </trkpt>
   <trkpt lat="-37.88461" lon="145.35046">
    <ele>472.19000000000005</ele>
   </trkpt>
   <trkpt lat="-37.88461" lon="145.35066">
    <ele>469.74</ele>
   </trkpt>
   <trkpt lat="-37.884710000000005" lon="145.35090000000002">
    <ele>468.13000000000005</ele>
   </trkpt>
   <trkpt lat="-37.88477" lon="145.35099000000002">
    <ele>469.88</ele>
   </trkpt>
   <trkpt lat="-37.8853" lon="145.3514">
    <ele>470.68</ele>
   </trkpt>
   <trkpt lat="-37.88552" lon="145.35153000000003">
    <ele>469.81000000000006</ele>
   </trkpt>
   <trkpt lat="-37.88584" lon="145.35157">
    <ele>467.65000000000003</ele>
   </trkpt>
   <trkpt lat="-37.886030000000005" lon="145.35156">
    <ele>466.0400000000001</ele>
   </trkpt>
   <trkpt lat="-37.88615" lon="145.35176">
    <ele>468.91</ele>
   </trkpt>
   <trkpt lat="-37.88626" lon="145.35184">
    <ele>468.72</ele>
   </trkpt>
   <trkpt lat="-37.88662" lon="145.352">
    <ele>466.76000000000005</ele>
   </trkpt>
   <trkpt lat="-37.88678" lon="145.35202">
    <ele>465.72</ele>
   </trkpt>
   <trkpt lat="-37.88698" lon="145.35202">
    <ele>463.29</ele>
   </trkpt>
   <trkpt lat="-37.887240000000006" lon="145.35214000000002">
    <ele>457.70000000000005</ele>
   </trkpt>
   <trkpt lat="-37.88745" lon="145.35251000000002">
    <ele>451.25000000000006</ele>
   </trkpt>
   <trkpt lat="-37.88765" lon="145.35301">
    <ele>442.20000000000005</ele>
   </trkpt>
   <trkpt lat="-37.88772" lon="145.35336">
    <ele>439.24</ele>
   </trkpt>
   <trkpt lat="-37.88781" lon="145.35358000000002">
    <ele>436.01</ele>
   </trkpt>
   <trkpt lat="-37.88792" lon="145.35378">
    <ele>431.44000000000005</ele>
   </trkpt>
   <trkpt lat="-37.8881" lon="145.35416">
    <ele>427.06000000000006</ele>
   </trkpt>
   <trkpt lat="-37.88828" lon="145.35435">
    <ele>422.68000000000006</ele>
   </trkpt>
   <trkpt lat="-37.88848" lon="145.35468">
    <ele>415.77000000000004</ele>
   </trkpt>
   <trkpt lat="-37.88857" lon="145.35492000000002">
    <ele>413.27000000000004</ele>
   </trkpt>
   <trkpt lat="-37.88855" lon="145.35496">
    <ele>411.88</ele>
   </trkpt>
   <trkpt lat="-37.888600000000004" lon="145.35502000000002">
    <ele>411.25000000000006</ele>
   </trkpt>
   <trkpt lat="-37.888630000000006" lon="145.35499000000002">
    <ele>410.58000000000004</ele>
   </trkpt>
   <trkpt lat="-37.88893" lon="145.35489">
    <ele>403.91</ele>
   </trkpt>
   <trkpt lat="-37.88915" lon="145.35486">
    <ele>402.12</ele>
   </trkpt>
   <trkpt lat="-37.88922" lon="145.35487">
    <ele>401.76</ele>
   </trkpt>
   <trkpt lat="-37.88958" lon="145.35502000000002">
    <ele>397.95000000000005</ele>
   </trkpt>
   <trkpt lat="-37.88964" lon="145.35511000000002">
    <ele>396.70000000000005</ele>
   </trkpt>
   <trkpt lat="-37.88985" lon="145.35506">
    <ele>390.48</ele>
   </trkpt>
   <trkpt lat="-37.889880000000005" lon="145.35507">
    <ele>390.48</ele>
   </trkpt>
   <trkpt lat="-37.89014" lon="145.35523">
    <ele>387.40000000000003</ele>
   </trkpt>
   <trkpt lat="-37.89034" lon="145.35532">
    <ele>384.35</ele>
   </trkpt>
   <trkpt lat="-37.89049" lon="145.35545000000002">
    <ele>382.66</ele>
   </trkpt>
   <trkpt lat="-37.891200000000005" lon="145.35612">
    <ele>373.98</ele>
   </trkpt>
   <trkpt lat="-37.891740000000006" lon="145.35659">
    <ele>364.81</ele>
   </trkpt>
   <trkpt lat="-37.89186" lon="145.35682">
    <ele>361.93</ele>
   </trkpt>
   <trkpt lat="-37.89195" lon="145.35690000000002">
    <ele>361.08</ele>
   </trkpt>
   <trkpt lat="-37.89246" lon="145.35709">
    <ele>352.26</ele>
   </trkpt>
   <trkpt lat="-37.89258" lon="145.35709">
    <ele>349.49</ele>
   </trkpt>
   <trkpt lat="-37.89273" lon="145.35704">
    <ele>345.47</ele>
   </trkpt>
   <trkpt lat="-37.89287" lon="145.35705000000002">
    <ele>345.47</ele>
   </trkpt>
   <trkpt lat="-37.89298" lon="145.35709">
    <ele>344.44</ele>
   </trkpt>
   <trkpt lat="-37.89316" lon="145.35723000000002">
    <ele>343.32</ele>
   </trkpt>
   <trkpt lat="-37.89329" lon="145.35727">
    <ele>341.87</ele>
   </trkpt>
   <trkpt lat="-37.89372" lon="145.35718">
    <ele>337.35</ele>
   </trkpt>
   <trkpt lat="-37.89408" lon="145.35721">
    <ele>331.81000000000006</ele>
   </trkpt>
   <trkpt lat="-37.89434" lon="145.35721">
    <ele>325.96000000000004</ele>
   </trkpt>
   <trkpt lat="-37.89457" lon="145.35724000000002">
    <ele>321.70000000000005</ele>
   </trkpt>
   <trkpt lat="-37.89475" lon="145.35731">
    <ele>319.23</ele>
   </trkpt>
   <trkpt lat="-37.89488" lon="145.35737">
    <ele>317.69</ele>
   </trkpt>
   <trkpt lat="-37.89504" lon="145.35737">
    <ele>315.93000000000006</ele>
   </trkpt>
   <trkpt lat="-37.89522" lon="145.35726000000003">
    <ele>314.0</ele>
   </trkpt>
   <trkpt lat="-37.89531" lon="145.35732000000002">
    <ele>313.57</ele>
   </trkpt>
   <trkpt lat="-37.89558" lon="145.35738">
    <ele>309.82000000000005</ele>
   </trkpt>
   <trkpt lat="-37.89598" lon="145.35736">
    <ele>306.93</ele>
   </trkpt>
   <trkpt lat="-37.89616" lon="145.35745">
    <ele>306.38000000000005</ele>
   </trkpt>
   <trkpt lat="-37.89629" lon="145.35743000000002">
    <ele>305.1700000000001</ele>
   </trkpt>
   <trkpt lat="-37.89654" lon="145.35726000000003">
    <ele>303.02</ele>
   </trkpt>
   <trkpt lat="-37.8967" lon="145.357">
    <ele>301.55</ele>
   </trkpt>
   <trkpt lat="-37.89676" lon="145.35695">
    <ele>301.55</ele>
   </trkpt>
   <trkpt lat="-37.89728" lon="145.35668">
    <ele>295.68</ele>
   </trkpt>
   <trkpt lat="-37.89748" lon="145.35624">
    <ele>292.44000000000005</ele>
   </trkpt>
   <trkpt lat="-37.89795" lon="145.35578">
    <ele>286.58</ele>
   </trkpt>
   <trkpt lat="-37.89804" lon="145.35571000000002">
    <ele>285.74000000000007</ele>
   </trkpt>
   <trkpt lat="-37.89819" lon="145.35568">
    <ele>284.61</ele>
   </trkpt>
   <trkpt lat="-37.8984" lon="145.35568">
    <ele>281.64</ele>
   </trkpt>
   <trkpt lat="-37.89873" lon="145.35563000000002">
    <ele>279.26</ele>
   </trkpt>
   <trkpt lat="-37.89898" lon="145.3557">
    <ele>276.98</ele>
   </trkpt>
   <trkpt lat="-37.899170000000005" lon="145.35578">
    <ele>275.40000000000003</ele>
   </trkpt>
   <trkpt lat="-37.89927" lon="145.35586">
    <ele>274.99</ele>
   </trkpt>
   <trkpt lat="-37.89923" lon="145.35597">
    <ele>274.49</ele>
   </trkpt>
   <trkpt lat="-37.89932" lon="145.35603">
    <ele>274.13000000000005</ele>
   </trkpt>
   <trkpt lat="-37.89958" lon="145.35626000000002">
    <ele>271.22</ele>
   </trkpt>
   <trkpt lat="-37.89967" lon="145.35628">
    <ele>269.94</ele>
   </trkpt>
   <trkpt lat="-37.899730000000005" lon="145.35632">
    <ele>269.94</ele>
   </trkpt>
   <trkpt lat="-37.89974" lon="145.35645000000002">
    <ele>269.71</ele>
   </trkpt>
   <trkpt lat="-37.89985" lon="145.35665">
    <ele>268.89</ele>
   </trkpt>
   <trkpt lat="-37.89996" lon="145.35677">
    <ele>268.22</ele>
   </trkpt>
   <trkpt lat="-37.900110000000005" lon="145.35685">
    <ele>267.11</ele>
   </trkpt>
   <trkpt lat="-37.9001" lon="145.35691">
    <ele>267.05</ele>
   </trkpt>
   <trkpt lat="-37.90001" lon="145.35687000000001">
    <ele>267.05</ele>
   </trkpt>
   <trkpt lat="-37.89994" lon="145.35687000000001">
    <ele>256.92</ele>
   </trkpt>
   <trkpt lat="-37.89985" lon="145.35690000000002">
    <ele>256.92</ele>
   </trkpt>
   <trkpt lat="-37.89996" lon="145.35696000000002">
    <ele>256.91</ele>
   </trkpt>
   <trkpt lat="-37.900000000000006" lon="145.35713">
    <ele>266.14000000000004</ele>
   </trkpt>
   <trkpt lat="-37.900000000000006" lon="145.35732000000002">
    <ele>270.17</ele>
   </trkpt>
   <trkpt lat="-37.89992" lon="145.35755">
    <ele>276.39000000000004</ele>
   </trkpt>
   <trkpt lat="-37.89992" lon="145.35763">
    <ele>283.5</ele>
   </trkpt>
   <trkpt lat="-37.900000000000006" lon="145.35778000000002">
    <ele>286.81</ele>
   </trkpt>
   <trkpt lat="-37.9001" lon="145.35835">
    <ele>299.82000000000005</ele>
   </trkpt>
   <trkpt lat="-37.9001" lon="145.35860000000002">
    <ele>302.56000000000006</ele>
   </trkpt>
   <trkpt lat="-37.9003" lon="145.35946">
    <ele>318.63</ele>
   </trkpt>
   <trkpt lat="-37.9005" lon="145.36012000000002">
    <ele>336.29</ele>
   </trkpt>
   <trkpt lat="-37.90057" lon="145.36046000000002">
    <ele>338.73</ele>
   </trkpt>
   <trkpt lat="-37.90059" lon="145.36069">
    <ele>338.76</ele>
   </trkpt>
   <trkpt lat="-37.90077" lon="145.36145000000002">
    <ele>334.22</ele>
   </trkpt>
   <trkpt lat="-37.900830000000006" lon="145.36186">
    <ele>333.70000000000005</ele>
   </trkpt>
   <trkpt lat="-37.9009" lon="145.36215">
    <ele>335.33</ele>
   </trkpt>
   <trkpt lat="-37.900890000000004" lon="145.36215">
    <ele>335.31000000000006</ele>
   </trkpt>
   <trkpt lat="-37.90106500171473" lon="145.36278999841272">
    <ele>341.66</ele>
   </trkpt>
   <trkpt lat="-37.90124" lon="145.36343000000002">
    <ele>346.43</ele>
   </trkpt>
   <trkpt lat="-37.901450000000004" lon="145.36383">
    <ele>347.16</ele>
   </trkpt>
   <trkpt lat="-37.90189" lon="145.36350000000002">
    <ele>342.39000000000004</ele>
   </trkpt>
   <trkpt lat="-37.90216" lon="145.36339">
    <ele>338.77</ele>
   </trkpt>
   <trkpt lat="-37.90263" lon="145.36328">
    <ele>332.84000000000003</ele>
   </trkpt>
   <trkpt lat="-37.90283" lon="145.36315000000002">
    <ele>330.16</ele>
   </trkpt>
   <trkpt lat="-37.90307" lon="145.36296000000002">
    <ele>326.64000000000004</ele>
   </trkpt>
   <trkpt lat="-37.90366" lon="145.36271000000002">
    <ele>322.45</ele>
   </trkpt>
   <trkpt lat="-37.90417" lon="145.36270000000002">
    <ele>318.23</ele>
   </trkpt>
   <trkpt lat="-37.90442" lon="145.36266">
    <ele>316.38000000000005</ele>
   </trkpt>
   <trkpt lat="-37.9046" lon="145.36269000000001">
    <ele>314.81</ele>
   </trkpt>
   <trkpt lat="-37.90522" lon="145.36309">
    <ele>304.20000000000005</ele>
   </trkpt>
   <trkpt lat="-37.905350000000006" lon="145.36324000000002">
    <ele>302.81</ele>
   </trkpt>
   <trkpt lat="-37.90545" lon="145.36334000000002">
    <ele>299.26000000000005</ele>
   </trkpt>
   <trkpt lat="-37.90565" lon="145.3634">
    <ele>297.17</ele>
   </trkpt>
   <trkpt lat="-37.905770000000004" lon="145.36347">
    <ele>294.99</ele>
   </trkpt>
   <trkpt lat="-37.906060000000004" lon="145.36378000000002">
    <ele>290.54</ele>
   </trkpt>
   <trkpt lat="-37.90614" lon="145.36395000000002">
    <ele>287.27000000000004</ele>
   </trkpt>
   <trkpt lat="-37.90623" lon="145.36459000000002">
    <ele>278.16</ele>
   </trkpt>
   <trkpt lat="-37.90646" lon="145.36564">
    <ele>258.34000000000003</ele>
   </trkpt>
   <trkpt lat="-37.90663" lon="145.36637000000002">
    <ele>238.03</ele>
   </trkpt>
   <trkpt lat="-37.90657" lon="145.36668">
    <ele>230.19</ele>
   </trkpt>
   <trkpt lat="-37.90661" lon="145.36685">
    <ele>228.31</ele>
   </trkpt>
   <trkpt lat="-37.90663" lon="145.36713">
    <ele>225.82000000000002</ele>
   </trkpt>
   <trkpt lat="-37.90675" lon="145.36773000000002">
    <ele>227.4</ele>
   </trkpt>
   <trkpt lat="-37.90668" lon="145.36825000000002">
    <ele>230.22</ele>
   </trkpt>
   <trkpt lat="-37.90677" lon="145.36884">
    <ele>229.76000000000002</ele>
   </trkpt>
   <trkpt lat="-37.90677" lon="145.36897000000002">
    <ele>229.76000000000002</ele>
   </trkpt>
   <trkpt lat="-37.9067" lon="145.36924000000002">
    <ele>229.71</ele>
   </trkpt>
   <trkpt lat="-37.9065" lon="145.36961000000002">
    <ele>229.27000000000004</ele>
   </trkpt>
   <trkpt lat="-37.90634" lon="145.36982">
    <ele>229.54000000000002</ele>
   </trkpt>
   <trkpt lat="-37.9063" lon="145.37003">
    <ele>229.54000000000002</ele>
   </trkpt>
   <trkpt lat="-37.90628" lon="145.37043">
    <ele>228.32000000000002</ele>
   </trkpt>
   <trkpt lat="-37.90639" lon="145.37087000000002">
    <ele>225.59</ele>
   </trkpt>
   <trkpt lat="-37.90672" lon="145.37188">
    <ele>223.86</ele>
   </trkpt>
   <trkpt lat="-37.90701" lon="145.37227000000001">
    <ele>229.47</ele>
   </trkpt>
   <trkpt lat="-37.90713" lon="145.37253">
    <ele>232.43</ele>
   </trkpt>
   <trkpt lat="-37.90713" lon="145.37263000000002">
    <ele>233.12</ele>
   </trkpt>
   <trkpt lat="-37.90699" lon="145.37323">
    <ele>243.17000000000002</ele>
   </trkpt>
   <trkpt lat="-37.9069" lon="145.37378">
    <ele>248.05</ele>
   </trkpt>
   <trkpt lat="-37.90643" lon="145.37461000000002">
    <ele>259.52000000000004</ele>
   </trkpt>
   <trkpt lat="-37.905910000000006" lon="145.37546">
    <ele>268.53000000000003</ele>
   </trkpt>
   <trkpt lat="-37.90549" lon="145.37617">
    <ele>272.40000000000003</ele>
   </trkpt>
   <trkpt lat="-37.905230001641456" lon="145.3768050024006">
    <ele>274.99</ele>
   </trkpt>
   <trkpt lat="-37.904970000000006" lon="145.37744">
    <ele>284.22</ele>
   </trkpt>
   <trkpt lat="-37.90475" lon="145.37804">
    <ele>297.78000000000003</ele>
   </trkpt>
   <trkpt lat="-37.9046" lon="145.3784">
    <ele>306.26000000000005</ele>
   </trkpt>
   <trkpt lat="-37.904320001130316" lon="145.3788850016111">
    <ele>315.87000000000006</ele>
   </trkpt>
   <trkpt lat="-37.90404" lon="145.37937000000002">
    <ele>329.45</ele>
   </trkpt>
   <trkpt lat="-37.90368" lon="145.37987">
    <ele>338.26</ele>
   </trkpt>
   <trkpt lat="-37.90339" lon="145.38022">
    <ele>346.6</ele>
   </trkpt>
   <trkpt lat="-37.90325" lon="145.38043000000002">
    <ele>350.41</ele>
   </trkpt>
   <trkpt lat="-37.90307" lon="145.38094">
    <ele>360.88000000000005</ele>
   </trkpt>
   <trkpt lat="-37.90285" lon="145.38128">
    <ele>367.8</ele>
   </trkpt>
   <trkpt lat="-37.90278" lon="145.38134000000002">
    <ele>368.43</ele>
   </trkpt>
   <trkpt lat="-37.9026" lon="145.38141000000002">
    <ele>370.48</ele>
   </trkpt>
   <trkpt lat="-37.90243" lon="145.38138">
    <ele>371.11000000000007</ele>
   </trkpt>
   <trkpt lat="-37.9022" lon="145.38132000000002">
    <ele>371.37</ele>
   </trkpt>
   <trkpt lat="-37.90166" lon="145.38102">
    <ele>372.04</ele>
   </trkpt>
   <trkpt lat="-37.90121500013387" lon="145.38078999856285">
    <ele>374.52000000000004</ele>
   </trkpt>
   <trkpt lat="-37.90077" lon="145.38056">
    <ele>376.9</ele>
   </trkpt>
   <trkpt lat="-37.90077" lon="145.38055">
    <ele>376.9</ele>
   </trkpt>
   <trkpt lat="-37.90025" lon="145.38027000000002">
    <ele>380.37000000000006</ele>
   </trkpt>
   <trkpt lat="-37.89983" lon="145.38012">
    <ele>382.76000000000005</ele>
   </trkpt>
   <trkpt lat="-37.89911500059762" lon="145.37975999652772">
    <ele>392.94</ele>
   </trkpt>
   <trkpt lat="-37.8984" lon="145.3794">
    <ele>398.28000000000003</ele>
   </trkpt>
   <trkpt lat="-37.89822" lon="145.37928000000002">
    <ele>398.8</ele>
   </trkpt>
   <trkpt lat="-37.897980000000004" lon="145.37919000000002">
    <ele>398.52000000000004</ele>
   </trkpt>
   <trkpt lat="-37.897920000000006" lon="145.37907">
    <ele>399.75000000000006</ele>
   </trkpt>
   <trkpt lat="-37.8979" lon="145.37899000000002">
    <ele>399.75000000000006</ele>
   </trkpt>
   <trkpt lat="-37.89781" lon="145.3779">
    <ele>396.49</ele>
   </trkpt>
   <trkpt lat="-37.89772" lon="145.37738000000002">
    <ele>397.11</ele>
   </trkpt>
   <trkpt lat="-37.89753000247575" lon="145.37661999816837">
    <ele>399.66</ele>
   </trkpt>
   <trkpt lat="-37.89734" lon="145.37586000000002">
    <ele>400.31000000000006</ele>
   </trkpt>
   <trkpt lat="-37.89723" lon="145.37565">
    <ele>399.64000000000004</ele>
   </trkpt>
   <trkpt lat="-37.89701" lon="145.37541000000002">
    <ele>399.29</ele>
   </trkpt>
   <trkpt lat="-37.89676" lon="145.37524000000002">
    <ele>398.82</ele>
   </trkpt>
   <trkpt lat="-37.89658" lon="145.37518">
    <ele>398.68</ele>
   </trkpt>
   <trkpt lat="-37.89636" lon="145.37518">
    <ele>398.71</ele>
   </trkpt>
   <trkpt lat="-37.896080000000005" lon="145.37524000000002">
    <ele>398.28000000000003</ele>
   </trkpt>
   <trkpt lat="-37.8958" lon="145.37517000000003">
    <ele>397.88</ele>
   </trkpt>
   <trkpt lat="-37.89549" lon="145.37521">
    <ele>396.37000000000006</ele>
   </trkpt>
   <trkpt lat="-37.89513" lon="145.37514000000002">
    <ele>392.02000000000004</ele>
   </trkpt>
   <trkpt lat="-37.89479" lon="145.37516000000002">
    <ele>387.97</ele>
   </trkpt>
   <trkpt lat="-37.894560000000006" lon="145.37512">
    <ele>381.35</ele>
   </trkpt>
   <trkpt lat="-37.89437" lon="145.37505000000002">
    <ele>379.15000000000003</ele>
   </trkpt>
   <trkpt lat="-37.89423" lon="145.37495">
    <ele>377.63</ele>
   </trkpt>
   <trkpt lat="-37.89392" lon="145.37482">
    <ele>370.93</ele>
   </trkpt>
   <trkpt lat="-37.89383" lon="145.37475">
    <ele>369.06000000000006</ele>
   </trkpt>
   <trkpt lat="-37.89349" lon="145.37424000000001">
    <ele>363.09000000000003</ele>
   </trkpt>
   <trkpt lat="-37.89331" lon="145.37409000000002">
    <ele>360.66</ele>
   </trkpt>
   <trkpt lat="-37.89284" lon="145.37382000000002">
    <ele>356.25</ele>
   </trkpt>
   <trkpt lat="-37.8924" lon="145.37368">
    <ele>352.04</ele>
   </trkpt>
   <trkpt lat="-37.89213" lon="145.37365">
    <ele>346.31</ele>
   </trkpt>
   <trkpt lat="-37.89193" lon="145.37368">
    <ele>344.47</ele>
   </trkpt>
   <trkpt lat="-37.89175" lon="145.37377">
    <ele>342.28000000000003</ele>
   </trkpt>
   <trkpt lat="-37.89166" lon="145.37383">
    <ele>341.32</ele>
   </trkpt>
   <trkpt lat="-37.89161" lon="145.37392">
    <ele>340.43</ele>
   </trkpt>
   <trkpt lat="-37.89159" lon="145.37401">
    <ele>340.43</ele>
   </trkpt>
   <trkpt lat="-37.89159" lon="145.37459">
    <ele>335.88</ele>
   </trkpt>
   <trkpt lat="-37.89157" lon="145.37466">
    <ele>335.98</ele>
   </trkpt>
   <trkpt lat="-37.89148" lon="145.37473">
    <ele>337.08000000000004</ele>
   </trkpt>
   <trkpt lat="-37.89137" lon="145.37478000000002">
    <ele>338.07000000000005</ele>
   </trkpt>
   <trkpt lat="-37.891180000000006" lon="145.37476">
    <ele>340.15</ele>
   </trkpt>
   <trkpt lat="-37.89112" lon="145.37477">
    <ele>341.05</ele>
   </trkpt>
   <trkpt lat="-37.89079" lon="145.37492">
    <ele>344.44</ele>
   </trkpt>
   <trkpt lat="-37.89052" lon="145.37509">
    <ele>344.86000000000007</ele>
   </trkpt>
   <trkpt lat="-37.89025" lon="145.37519">
    <ele>345.42</ele>
   </trkpt>
   <trkpt lat="-37.89007" lon="145.37515000000002">
    <ele>344.85</ele>
   </trkpt>
   <trkpt lat="-37.88996" lon="145.37504">
    <ele>343.56</ele>
   </trkpt>
   <trkpt lat="-37.88993" lon="145.37490000000003">
    <ele>343.30000000000007</ele>
   </trkpt>
   <trkpt lat="-37.89" lon="145.37468">
    <ele>343.74000000000007</ele>
   </trkpt>
   <trkpt lat="-37.89009" lon="145.37448">
    <ele>345.23</ele>
   </trkpt>
   <trkpt lat="-37.89011" lon="145.37428">
    <ele>345.72</ele>
   </trkpt>
   <trkpt lat="-37.89007" lon="145.37402">
    <ele>346.82</ele>
   </trkpt>
   <trkpt lat="-37.88998" lon="145.37389000000002">
    <ele>347.36</ele>
   </trkpt>
   <trkpt lat="-37.889500000758154" lon="145.3734749973202">
    <ele>351.45000000000005</ele>
   </trkpt>
   <trkpt lat="-37.88902" lon="145.37306">
    <ele>356.07000000000005</ele>
   </trkpt>
   <trkpt lat="-37.88841000112411" lon="145.37258499619705">
    <ele>361.21000000000004</ele>
   </trkpt>
   <trkpt lat="-37.887800000000006" lon="145.37211000000002">
    <ele>365.79</ele>
   </trkpt>
   <trkpt lat="-37.88742500038631" lon="145.37178999833037">
    <ele>369.42</ele>
   </trkpt>
   <trkpt lat="-37.88705" lon="145.37147000000002">
    <ele>371.13</ele>
   </trkpt>
   <trkpt lat="-37.88698" lon="145.37135">
    <ele>371.07</ele>
   </trkpt>
   <trkpt lat="-37.88694" lon="145.37120000000002">
    <ele>370.6700000000001</ele>
   </trkpt>
   <trkpt lat="-37.88689" lon="145.37066000000002">
    <ele>370.3</ele>
   </trkpt>
   <trkpt lat="-37.886860000000006" lon="145.37055">
    <ele>368.81</ele>
   </trkpt>
   <trkpt lat="-37.88729" lon="145.37024000000002">
    <ele>366.21000000000004</ele>
   </trkpt>
   <trkpt lat="-37.887350000000005" lon="145.37013000000002">
    <ele>366.13</ele>
   </trkpt>
   <trkpt lat="-37.88731000000001" lon="145.37011">
    <ele>366.07</ele>
   </trkpt>
   <trkpt lat="-37.88716" lon="145.37024000000002">
    <ele>366.08</ele>
   </trkpt>
  </trkseg>
 </trk>
</gpx>
