<?xml version="1.0" encoding="UTF-8"?>
<gpx creator="StravaGPX" version="1.1" xmlns="http://www.topografix.com/GPX/1/1" xmlns:xsi="http://www.w3.org/2001/XMLSchema-instance" xsi:schemaLocation="http://www.topografix.com/GPX/1/1 http://www.topografix.com/GPX/1/1/gpx.xsd">
 <metadata>
  <name>DTR 14k - 26th JUly</name>
  <author>
   <name>DTR  Runleaders</name>
   <link href="https://www.strava.com/athletes/194056408"/>
  </author>
  <copyright author="OpenStreetMap contributors">
   <year>2020</year>
   <license>https://www.openstreetmap.org/copyright</license>
  </copyright>
  <link href="https://www.strava.com/routes/3515304672145066230"/>
 </metadata>
 <trk>
  <name>DTR 14k - 26th JUly</name>
  <link href="https://www.strava.com/routes/3515304672145066230"/>
  <type>running</type>
  <trkseg>
   <trkpt lat="-37.89094" lon="145.31733">
    <ele>178.91</ele>
   </trkpt>
   <trkpt lat="-37.89076" lon="145.31708">
    <ele>180.6</ele>
   </trkpt>
   <trkpt lat="-37.890730000000005" lon="145.31686000000002">
    <ele>181.8</ele>
   </trkpt>
   <trkpt lat="-37.8909" lon="145.31665">
    <ele>181.32</ele>
   </trkpt>
   <trkpt lat="-37.89099" lon="145.31640000000002">
    <ele>181.58</ele>
   </trkpt>
   <trkpt lat="-37.89099" lon="145.31613000000002">
    <ele>181.70000000000002</ele>
   </trkpt>
   <trkpt lat="-37.89072" lon="145.31638">
    <ele>186.21</ele>
   </trkpt>
   <trkpt lat="-37.89031000000001" lon="145.31666">
    <ele>191.63000000000002</ele>
   </trkpt>
   <trkpt lat="-37.89032" lon="145.31666">
    <ele>191.54000000000002</ele>
   </trkpt>
   <trkpt lat="-37.8902" lon="145.31674">
    <ele>191.54000000000002</ele>
   </trkpt>
   <trkpt lat="-37.89005" lon="145.3168">
    <ele>194.3</ele>
   </trkpt>
   <trkpt lat="-37.889680000000006" lon="145.31692">
    <ele>198.48000000000002</ele>
   </trkpt>
   <trkpt lat="-37.889250000000004" lon="145.31707">
    <ele>201.53</ele>
   </trkpt>
   <trkpt lat="-37.88897" lon="145.317">
    <ele>208.09000000000003</ele>
   </trkpt>
   <trkpt lat="-37.88843" lon="145.31668000000002">
    <ele>217.92000000000002</ele>
   </trkpt>
   <trkpt lat="-37.8883" lon="145.31667000000002">
    <ele>219.57000000000002</ele>
   </trkpt>
   <trkpt lat="-37.88803" lon="145.31671">
    <ele>221.54000000000002</ele>
   </trkpt>
   <trkpt lat="-37.88805" lon="145.31671">
    <ele>221.47000000000003</ele>
   </trkpt>
   <trkpt lat="-37.88725" lon="145.31685000000002">
    <ele>227.61</ele>
   </trkpt>
   <trkpt lat="-37.88707" lon="145.31704000000002">
    <ele>227.9</ele>
   </trkpt>
   <trkpt lat="-37.887080000000005" lon="145.31703000000002">
    <ele>227.93</ele>
   </trkpt>
   <trkpt lat="-37.88698" lon="145.31721000000002">
    <ele>226.94000000000003</ele>
   </trkpt>
   <trkpt lat="-37.88691" lon="145.31741000000002">
    <ele>225.52</ele>
   </trkpt>
   <trkpt lat="-37.88678" lon="145.31734">
    <ele>227.22</ele>
   </trkpt>
   <trkpt lat="-37.88671" lon="145.31736">
    <ele>227.44000000000003</ele>
   </trkpt>
   <trkpt lat="-37.88667" lon="145.31742">
    <ele>227.94000000000003</ele>
   </trkpt>
   <trkpt lat="-37.88655" lon="145.31725">
    <ele>230.20000000000002</ele>
   </trkpt>
   <trkpt lat="-37.88642" lon="145.31715">
    <ele>236.26000000000002</ele>
   </trkpt>
   <trkpt lat="-37.88631" lon="145.3171">
    <ele>239.83</ele>
   </trkpt>
   <trkpt lat="-37.88608" lon="145.31701">
    <ele>245.4</ele>
   </trkpt>
   <trkpt lat="-37.88532" lon="145.3168">
    <ele>265.02000000000004</ele>
   </trkpt>
   <trkpt lat="-37.884980000000006" lon="145.31674">
    <ele>271.03000000000003</ele>
   </trkpt>
   <trkpt lat="-37.88454" lon="145.31663">
    <ele>282.45000000000005</ele>
   </trkpt>
   <trkpt lat="-37.88405" lon="145.31654">
    <ele>294.66</ele>
   </trkpt>
   <trkpt lat="-37.88338" lon="145.31629">
    <ele>307.46</ele>
   </trkpt>
   <trkpt lat="-37.883010000000006" lon="145.31627">
    <ele>319.59000000000003</ele>
   </trkpt>
   <trkpt lat="-37.88268" lon="145.31621">
    <ele>325.31000000000006</ele>
   </trkpt>
   <trkpt lat="-37.88203" lon="145.31637">
    <ele>342.79</ele>
   </trkpt>
   <trkpt lat="-37.88163" lon="145.31638">
    <ele>349.42</ele>
   </trkpt>
   <trkpt lat="-37.88111" lon="145.31625000000003">
    <ele>360.63</ele>
   </trkpt>
   <trkpt lat="-37.88085" lon="145.31625000000003">
    <ele>365.27000000000004</ele>
   </trkpt>
   <trkpt lat="-37.88067" lon="145.31623000000002">
    <ele>367.84000000000003</ele>
   </trkpt>
   <trkpt lat="-37.880230000085334" lon="145.3160849991326">
    <ele>380.62</ele>
   </trkpt>
   <trkpt lat="-37.87979" lon="145.31594">
    <ele>389.16</ele>
   </trkpt>
   <trkpt lat="-37.87964" lon="145.31593">
    <ele>391.15000000000003</ele>
   </trkpt>
   <trkpt lat="-37.87955" lon="145.31595000000002">
    <ele>394.26000000000005</ele>
   </trkpt>
   <trkpt lat="-37.87932" lon="145.31608">
    <ele>398.62</ele>
   </trkpt>
   <trkpt lat="-37.87888" lon="145.31655">
    <ele>405.58000000000004</ele>
   </trkpt>
   <trkpt lat="-37.87827" lon="145.31706">
    <ele>416.91</ele>
   </trkpt>
   <trkpt lat="-37.87836" lon="145.31685000000002">
    <ele>417.35</ele>
   </trkpt>
   <trkpt lat="-37.87881000247602" lon="145.31607500484535">
    <ele>417.42</ele>
   </trkpt>
   <trkpt lat="-37.87926" lon="145.3153">
    <ele>419.49</ele>
   </trkpt>
   <trkpt lat="-37.87926" lon="145.31529">
    <ele>419.48</ele>
   </trkpt>
   <trkpt lat="-37.879540000000006" lon="145.31483">
    <ele>424.00000000000006</ele>
   </trkpt>
   <trkpt lat="-37.87955" lon="145.31474">
    <ele>425.54</ele>
   </trkpt>
   <trkpt lat="-37.87948" lon="145.31471000000002">
    <ele>425.54</ele>
   </trkpt>
   <trkpt lat="-37.87932" lon="145.31458">
    <ele>427.21000000000004</ele>
   </trkpt>
   <trkpt lat="-37.87924" lon="145.31446000000003">
    <ele>427.64</ele>
   </trkpt>
   <trkpt lat="-37.87915" lon="145.31446000000003">
    <ele>427.73</ele>
   </trkpt>
   <trkpt lat="-37.87939" lon="145.31436000000002">
    <ele>426.86</ele>
   </trkpt>
   <trkpt lat="-37.87946" lon="145.31428000000002">
    <ele>426.44000000000005</ele>
   </trkpt>
   <trkpt lat="-37.87948" lon="145.31417000000002">
    <ele>426.22</ele>
   </trkpt>
   <trkpt lat="-37.87928" lon="145.31419000000002">
    <ele>425.28000000000003</ele>
   </trkpt>
   <trkpt lat="-37.87882999993238" lon="145.31413999968586">
    <ele>421.47</ele>
   </trkpt>
   <trkpt lat="-37.87838" lon="145.31409000000002">
    <ele>416.18000000000006</ele>
   </trkpt>
   <trkpt lat="-37.87796" lon="145.31396">
    <ele>411.54</ele>
   </trkpt>
   <trkpt lat="-37.87753" lon="145.31387">
    <ele>407.52000000000004</ele>
   </trkpt>
   <trkpt lat="-37.87729" lon="145.31387">
    <ele>402.95000000000005</ele>
   </trkpt>
   <trkpt lat="-37.87684" lon="145.31383000000002">
    <ele>397.49</ele>
   </trkpt>
   <trkpt lat="-37.87635" lon="145.31387">
    <ele>391.18</ele>
   </trkpt>
   <trkpt lat="-37.87585" lon="145.31401000000002">
    <ele>385.59000000000003</ele>
   </trkpt>
   <trkpt lat="-37.8757" lon="145.31402">
    <ele>383.20000000000005</ele>
   </trkpt>
   <trkpt lat="-37.87556" lon="145.31397">
    <ele>383.20000000000005</ele>
   </trkpt>
   <trkpt lat="-37.87556" lon="145.31398000000002">
    <ele>383.33</ele>
   </trkpt>
   <trkpt lat="-37.87532" lon="145.31391000000002">
    <ele>381.12</ele>
   </trkpt>
   <trkpt lat="-37.87489" lon="145.31387">
    <ele>378.09000000000003</ele>
   </trkpt>
   <trkpt lat="-37.87447" lon="145.31404">
    <ele>374.02000000000004</ele>
   </trkpt>
   <trkpt lat="-37.8742" lon="145.31409000000002">
    <ele>372.12</ele>
   </trkpt>
   <trkpt lat="-37.87366" lon="145.31386">
    <ele>370.35</ele>
   </trkpt>
   <trkpt lat="-37.87344" lon="145.31381000000002">
    <ele>369.45000000000005</ele>
   </trkpt>
   <trkpt lat="-37.87288" lon="145.31377">
    <ele>367.51</ele>
   </trkpt>
   <trkpt lat="-37.872600000000006" lon="145.31367">
    <ele>364.35</ele>
   </trkpt>
   <trkpt lat="-37.87241" lon="145.3135">
    <ele>361.05</ele>
   </trkpt>
   <trkpt lat="-37.87229" lon="145.31326">
    <ele>360.12000000000006</ele>
   </trkpt>
   <trkpt lat="-37.87227" lon="145.31307">
    <ele>357.58</ele>
   </trkpt>
   <trkpt lat="-37.87229" lon="145.31288">
    <ele>355.93</ele>
   </trkpt>
   <trkpt lat="-37.87254" lon="145.31233">
    <ele>349.92</ele>
   </trkpt>
   <trkpt lat="-37.87259" lon="145.31212000000002">
    <ele>348.62000000000006</ele>
   </trkpt>
   <trkpt lat="-37.87254" lon="145.31198">
    <ele>348.04</ele>
   </trkpt>
   <trkpt lat="-37.87245" lon="145.31188">
    <ele>348.80000000000007</ele>
   </trkpt>
   <trkpt lat="-37.87236" lon="145.31185000000002">
    <ele>350.0</ele>
   </trkpt>
   <trkpt lat="-37.87227" lon="145.31188">
    <ele>351.89000000000004</ele>
   </trkpt>
   <trkpt lat="-37.87201" lon="145.31204000000002">
    <ele>360.53000000000003</ele>
   </trkpt>
   <trkpt lat="-37.87182" lon="145.31231000000002">
    <ele>370.33000000000004</ele>
   </trkpt>
   <trkpt lat="-37.87174" lon="145.31253">
    <ele>376.65000000000003</ele>
   </trkpt>
   <trkpt lat="-37.87165" lon="145.31262">
    <ele>376.65000000000003</ele>
   </trkpt>
   <trkpt lat="-37.87133" lon="145.3128">
    <ele>387.28000000000003</ele>
   </trkpt>
   <trkpt lat="-37.87127" lon="145.31286">
    <ele>389.11</ele>
   </trkpt>
   <trkpt lat="-37.87091000185914" lon="145.31352500326963">
    <ele>393.20000000000005</ele>
   </trkpt>
   <trkpt lat="-37.87055" lon="145.31419000000002">
    <ele>388.42</ele>
   </trkpt>
   <trkpt lat="-37.87041" lon="145.31411">
    <ele>386.52000000000004</ele>
   </trkpt>
   <trkpt lat="-37.870340000000006" lon="145.31408000000002">
    <ele>385.97</ele>
   </trkpt>
   <trkpt lat="-37.87026" lon="145.31409000000002">
    <ele>384.73</ele>
   </trkpt>
   <trkpt lat="-37.87017" lon="145.31414">
    <ele>383.33</ele>
   </trkpt>
   <trkpt lat="-37.86997" lon="145.31447">
    <ele>378.91</ele>
   </trkpt>
   <trkpt lat="-37.86988" lon="145.31455000000003">
    <ele>374.79</ele>
   </trkpt>
   <trkpt lat="-37.86972" lon="145.31458">
    <ele>374.79</ele>
   </trkpt>
   <trkpt lat="-37.869020000000006" lon="145.31414">
    <ele>361.62000000000006</ele>
   </trkpt>
   <trkpt lat="-37.86878" lon="145.31396">
    <ele>358.74</ele>
   </trkpt>
   <trkpt lat="-37.86856" lon="145.31388">
    <ele>356.44000000000005</ele>
   </trkpt>
   <trkpt lat="-37.86833" lon="145.31385">
    <ele>354.68000000000006</ele>
   </trkpt>
   <trkpt lat="-37.86777" lon="145.31386">
    <ele>354.19</ele>
   </trkpt>
   <trkpt lat="-37.86704" lon="145.31376">
    <ele>346.6</ele>
   </trkpt>
   <trkpt lat="-37.8667" lon="145.31372000000002">
    <ele>345.55</ele>
   </trkpt>
   <trkpt lat="-37.86654" lon="145.31367">
    <ele>344.61</ele>
   </trkpt>
   <trkpt lat="-37.86634" lon="145.31354000000002">
    <ele>341.86000000000007</ele>
   </trkpt>
   <trkpt lat="-37.86623" lon="145.31341">
    <ele>340.14000000000004</ele>
   </trkpt>
   <trkpt lat="-37.86616" lon="145.31338000000002">
    <ele>338.76</ele>
   </trkpt>
   <trkpt lat="-37.86609" lon="145.31339">
    <ele>338.01000000000005</ele>
   </trkpt>
   <trkpt lat="-37.86603" lon="145.31349">
    <ele>335.65</ele>
   </trkpt>
   <trkpt lat="-37.86603" lon="145.31443000000002">
    <ele>328.93</ele>
   </trkpt>
   <trkpt lat="-37.86605" lon="145.31453000000002">
    <ele>328.93</ele>
   </trkpt>
   <trkpt lat="-37.86603" lon="145.31467">
    <ele>328.39</ele>
   </trkpt>
   <trkpt lat="-37.86598" lon="145.31474">
    <ele>328.27</ele>
   </trkpt>
   <trkpt lat="-37.86565" lon="145.31466">
    <ele>327.59000000000003</ele>
   </trkpt>
   <trkpt lat="-37.86518" lon="145.3145">
    <ele>321.03000000000003</ele>
   </trkpt>
   <trkpt lat="-37.86462" lon="145.3142">
    <ele>318.8</ele>
   </trkpt>
   <trkpt lat="-37.86421" lon="145.31386">
    <ele>311.71000000000004</ele>
   </trkpt>
   <trkpt lat="-37.864000000000004" lon="145.31373000000002">
    <ele>307.47</ele>
   </trkpt>
   <trkpt lat="-37.8637" lon="145.31356000000002">
    <ele>301.81</ele>
   </trkpt>
   <trkpt lat="-37.86345" lon="145.31356000000002">
    <ele>297.74</ele>
   </trkpt>
   <trkpt lat="-37.86327" lon="145.31347000000002">
    <ele>292.82</ele>
   </trkpt>
   <trkpt lat="-37.863115001620876" lon="145.31409000132243">
    <ele>298.25</ele>
   </trkpt>
   <trkpt lat="-37.86296" lon="145.31471000000002">
    <ele>305.9</ele>
   </trkpt>
   <trkpt lat="-37.86286000181156" lon="145.3153650009059">
    <ele>309.71000000000004</ele>
   </trkpt>
   <trkpt lat="-37.86276" lon="145.31602">
    <ele>314.07</ele>
   </trkpt>
   <trkpt lat="-37.86274" lon="145.31642000000002">
    <ele>316.75</ele>
   </trkpt>
   <trkpt lat="-37.86283" lon="145.31667000000002">
    <ele>318.39</ele>
   </trkpt>
   <trkpt lat="-37.862840000000006" lon="145.31666">
    <ele>318.92</ele>
   </trkpt>
   <trkpt lat="-37.86312" lon="145.31692">
    <ele>322.87000000000006</ele>
   </trkpt>
   <trkpt lat="-37.86363999987441" lon="145.31696499967092">
    <ele>329.94</ele>
   </trkpt>
   <trkpt lat="-37.864160000000005" lon="145.31701">
    <ele>326.71</ele>
   </trkpt>
   <trkpt lat="-37.864850000000004" lon="145.31671">
    <ele>334.03000000000003</ele>
   </trkpt>
   <trkpt lat="-37.865030000000004" lon="145.31731000000002">
    <ele>317.94</ele>
   </trkpt>
   <trkpt lat="-37.865050000000004" lon="145.31789">
    <ele>298.44000000000005</ele>
   </trkpt>
   <trkpt lat="-37.86553" lon="145.31864000000002">
    <ele>273.71</ele>
   </trkpt>
   <trkpt lat="-37.86585" lon="145.31827">
    <ele>282.28000000000003</ele>
   </trkpt>
   <trkpt lat="-37.86623" lon="145.31763">
    <ele>293.66</ele>
   </trkpt>
   <trkpt lat="-37.866400000000006" lon="145.31707">
    <ele>302.17</ele>
   </trkpt>
   <trkpt lat="-37.86703" lon="145.31683">
    <ele>315.41</ele>
   </trkpt>
   <trkpt lat="-37.867520000000006" lon="145.31711">
    <ele>334.76</ele>
   </trkpt>
   <trkpt lat="-37.867670000000004" lon="145.31758000000002">
    <ele>344.41</ele>
   </trkpt>
   <trkpt lat="-37.867700000000006" lon="145.31758000000002">
    <ele>340.54</ele>
   </trkpt>
   <trkpt lat="-37.86759" lon="145.31787">
    <ele>339.63000000000005</ele>
   </trkpt>
   <trkpt lat="-37.86741" lon="145.31875000000002">
    <ele>336.01000000000005</ele>
   </trkpt>
   <trkpt lat="-37.86744" lon="145.31893000000002">
    <ele>335.62</ele>
   </trkpt>
   <trkpt lat="-37.86762" lon="145.31942">
    <ele>331.05</ele>
   </trkpt>
   <trkpt lat="-37.86782" lon="145.31976">
    <ele>329.11</ele>
   </trkpt>
   <trkpt lat="-37.86786" lon="145.31989000000002">
    <ele>328.86</ele>
   </trkpt>
   <trkpt lat="-37.86786" lon="145.31999000000002">
    <ele>328.81000000000006</ele>
   </trkpt>
   <trkpt lat="-37.867720000000006" lon="145.32028000000003">
    <ele>329.51</ele>
   </trkpt>
   <trkpt lat="-37.86737" lon="145.32079000000002">
    <ele>330.37000000000006</ele>
   </trkpt>
   <trkpt lat="-37.86712" lon="145.32127">
    <ele>329.42</ele>
   </trkpt>
   <trkpt lat="-37.86706" lon="145.32158">
    <ele>327.19000000000005</ele>
   </trkpt>
   <trkpt lat="-37.86715" lon="145.32185">
    <ele>325.84000000000003</ele>
   </trkpt>
   <trkpt lat="-37.86741" lon="145.32231000000002">
    <ele>322.29</ele>
   </trkpt>
   <trkpt lat="-37.86782500160754" lon="145.32293999634422">
    <ele>319.11</ele>
   </trkpt>
   <trkpt lat="-37.86824" lon="145.32357000000002">
    <ele>317.01</ele>
   </trkpt>
   <trkpt lat="-37.868280000000006" lon="145.32366000000002">
    <ele>316.83</ele>
   </trkpt>
   <trkpt lat="-37.86827" lon="145.32377000000002">
    <ele>316.35</ele>
   </trkpt>
   <trkpt lat="-37.868170000000006" lon="145.32392000000002">
    <ele>315.98</ele>
   </trkpt>
   <trkpt lat="-37.867715001552334" lon="145.32454000392826">
    <ele>311.26000000000005</ele>
   </trkpt>
   <trkpt lat="-37.86726" lon="145.32516">
    <ele>302.34</ele>
   </trkpt>
   <trkpt lat="-37.866870000000006" lon="145.32592000000002">
    <ele>296.82000000000005</ele>
   </trkpt>
   <trkpt lat="-37.86663000271787" lon="145.32672000256738">
    <ele>306.8</ele>
   </trkpt>
   <trkpt lat="-37.86639" lon="145.32752000000002">
    <ele>299.83000000000004</ele>
   </trkpt>
   <trkpt lat="-37.865520000000004" lon="145.32732000000001">
    <ele>265.94</ele>
   </trkpt>
   <trkpt lat="-37.86491" lon="145.32739">
    <ele>255.1</ele>
   </trkpt>
   <trkpt lat="-37.864140000000006" lon="145.32764">
    <ele>249.13000000000002</ele>
   </trkpt>
   <trkpt lat="-37.864180000000005" lon="145.32759000000001">
    <ele>247.04</ele>
   </trkpt>
   <trkpt lat="-37.86397" lon="145.32753000000002">
    <ele>246.72000000000003</ele>
   </trkpt>
   <trkpt lat="-37.86356" lon="145.32760000000002">
    <ele>247.29</ele>
   </trkpt>
   <trkpt lat="-37.86307" lon="145.32762000000002">
    <ele>249.34000000000003</ele>
   </trkpt>
   <trkpt lat="-37.86265" lon="145.32778000000002">
    <ele>249.91000000000003</ele>
   </trkpt>
   <trkpt lat="-37.86222" lon="145.32782">
    <ele>247.74</ele>
   </trkpt>
   <trkpt lat="-37.861990000000006" lon="145.32794">
    <ele>245.81000000000003</ele>
   </trkpt>
   <trkpt lat="-37.86177" lon="145.32821">
    <ele>245.53000000000003</ele>
   </trkpt>
   <trkpt lat="-37.86159" lon="145.32859000000002">
    <ele>244.52</ele>
   </trkpt>
   <trkpt lat="-37.861560000000004" lon="145.32881">
    <ele>243.93</ele>
   </trkpt>
   <trkpt lat="-37.861560000000004" lon="145.3288">
    <ele>243.98000000000002</ele>
   </trkpt>
   <trkpt lat="-37.86148" lon="145.32925">
    <ele>243.56000000000003</ele>
   </trkpt>
   <trkpt lat="-37.861450000000005" lon="145.32929000000001">
    <ele>243.57</ele>
   </trkpt>
   <trkpt lat="-37.86162" lon="145.32949000000002">
    <ele>246.70000000000002</ele>
   </trkpt>
   <trkpt lat="-37.86175" lon="145.32975000000002">
    <ele>254.69000000000003</ele>
   </trkpt>
   <trkpt lat="-37.86186" lon="145.33004000000003">
    <ele>259.26000000000005</ele>
   </trkpt>
   <trkpt lat="-37.86189" lon="145.33014">
    <ele>260.71</ele>
   </trkpt>
   <trkpt lat="-37.862" lon="145.33024">
    <ele>264.53000000000003</ele>
   </trkpt>
   <trkpt lat="-37.86218" lon="145.33063">
    <ele>271.43</ele>
   </trkpt>
   <trkpt lat="-37.8624" lon="145.33099">
    <ele>282.7</ele>
   </trkpt>
   <trkpt lat="-37.86249" lon="145.33118000000002">
    <ele>286.17</ele>
   </trkpt>
   <trkpt lat="-37.86251" lon="145.33129000000002">
    <ele>287.66</ele>
   </trkpt>
   <trkpt lat="-37.86247" lon="145.33146000000002">
    <ele>289.61</ele>
   </trkpt>
   <trkpt lat="-37.86251" lon="145.33174000000002">
    <ele>297.92</ele>
   </trkpt>
   <trkpt lat="-37.86249" lon="145.33190000000002">
    <ele>300.91</ele>
   </trkpt>
   <trkpt lat="-37.86252" lon="145.33206">
    <ele>304.72</ele>
   </trkpt>
   <trkpt lat="-37.8628" lon="145.33177">
    <ele>305.46</ele>
   </trkpt>
   <trkpt lat="-37.86294" lon="145.33152">
    <ele>305.69</ele>
   </trkpt>
   <trkpt lat="-37.863" lon="145.33128000000002">
    <ele>305.82000000000005</ele>
   </trkpt>
   <trkpt lat="-37.863" lon="145.33125">
    <ele>305.82000000000005</ele>
   </trkpt>
   <trkpt lat="-37.86316" lon="145.33042">
    <ele>306.28000000000003</ele>
   </trkpt>
   <trkpt lat="-37.86332" lon="145.33006">
    <ele>306.56</ele>
   </trkpt>
   <trkpt lat="-37.86341" lon="145.32991">
    <ele>306.83000000000004</ele>
   </trkpt>
   <trkpt lat="-37.86352" lon="145.3298">
    <ele>306.97</ele>
   </trkpt>
   <trkpt lat="-37.86361" lon="145.32976000000002">
    <ele>307.17</ele>
   </trkpt>
   <trkpt lat="-37.86403" lon="145.32975000000002">
    <ele>308.87</ele>
   </trkpt>
   <trkpt lat="-37.86424" lon="145.32978">
    <ele>310.64000000000004</ele>
   </trkpt>
   <trkpt lat="-37.86446" lon="145.32988">
    <ele>311.6</ele>
   </trkpt>
   <trkpt lat="-37.86459" lon="145.32996">
    <ele>312.52000000000004</ele>
   </trkpt>
   <trkpt lat="-37.86475" lon="145.33010000000002">
    <ele>313.53000000000003</ele>
   </trkpt>
   <trkpt lat="-37.8652" lon="145.33063">
    <ele>318.35</ele>
   </trkpt>
   <trkpt lat="-37.86543" lon="145.33086">
    <ele>318.35</ele>
   </trkpt>
   <trkpt lat="-37.86544000000001" lon="145.33086">
    <ele>321.35</ele>
   </trkpt>
   <trkpt lat="-37.865995000451726" lon="145.33121499727437">
    <ele>324.09999999999997</ele>
   </trkpt>
   <trkpt lat="-37.866550000000004" lon="145.33157">
    <ele>341.76</ele>
   </trkpt>
   <trkpt lat="-37.86734000000549" lon="145.33155500016073">
    <ele>343.43</ele>
   </trkpt>
   <trkpt lat="-37.86813" lon="145.33154000000002">
    <ele>338.98</ele>
   </trkpt>
   <trkpt lat="-37.86854500098266" lon="145.33202999720163">
    <ele>350.98</ele>
   </trkpt>
   <trkpt lat="-37.86896" lon="145.33252000000002">
    <ele>353.89000000000004</ele>
   </trkpt>
   <trkpt lat="-37.86894000201313" lon="145.33321000019495">
    <ele>354.65000000000003</ele>
   </trkpt>
   <trkpt lat="-37.86892" lon="145.3339">
    <ele>362.86</ele>
   </trkpt>
   <trkpt lat="-37.869545000246006" lon="145.3341249981029">
    <ele>352.09000000000003</ele>
   </trkpt>
   <trkpt lat="-37.87017" lon="145.33435">
    <ele>353.21000000000004</ele>
   </trkpt>
   <trkpt lat="-37.870580000000004" lon="145.33477000000002">
    <ele>374.16</ele>
   </trkpt>
   <trkpt lat="-37.87059" lon="145.33473">
    <ele>355.72</ele>
   </trkpt>
   <trkpt lat="-37.87066" lon="145.33478000000002">
    <ele>356.58</ele>
   </trkpt>
   <trkpt lat="-37.87075" lon="145.33478000000002">
    <ele>356.58</ele>
   </trkpt>
   <trkpt lat="-37.870810000000006" lon="145.3347">
    <ele>358.09000000000003</ele>
   </trkpt>
   <trkpt lat="-37.870810000000006" lon="145.33446">
    <ele>359.32</ele>
   </trkpt>
   <trkpt lat="-37.87075" lon="145.33419">
    <ele>360.39000000000004</ele>
   </trkpt>
   <trkpt lat="-37.87082" lon="145.33339">
    <ele>366.04</ele>
   </trkpt>
   <trkpt lat="-37.87091" lon="145.33315000000002">
    <ele>367.45000000000005</ele>
   </trkpt>
   <trkpt lat="-37.87102" lon="145.33292">
    <ele>367.44000000000005</ele>
   </trkpt>
   <trkpt lat="-37.87113" lon="145.33284">
    <ele>367.45000000000005</ele>
   </trkpt>
   <trkpt lat="-37.871280000000006" lon="145.33282">
    <ele>367.9</ele>
   </trkpt>
   <trkpt lat="-37.87167" lon="145.33290000000002">
    <ele>371.96</ele>
   </trkpt>
   <trkpt lat="-37.87207" lon="145.33307000000002">
    <ele>378.8</ele>
   </trkpt>
   <trkpt lat="-37.87238" lon="145.33305000000001">
    <ele>381.35</ele>
   </trkpt>
   <trkpt lat="-37.87268" lon="145.33283">
    <ele>383.3</ele>
   </trkpt>
   <trkpt lat="-37.872890000000005" lon="145.3325">
    <ele>384.52000000000004</ele>
   </trkpt>
   <trkpt lat="-37.87301" lon="145.33226000000002">
    <ele>384.64000000000004</ele>
   </trkpt>
   <trkpt lat="-37.87301" lon="145.33218000000002">
    <ele>384.78000000000003</ele>
   </trkpt>
   <trkpt lat="-37.87297" lon="145.33206">
    <ele>385.23</ele>
   </trkpt>
   <trkpt lat="-37.87279" lon="145.33183000000002">
    <ele>387.04</ele>
   </trkpt>
   <trkpt lat="-37.87263" lon="145.33171000000002">
    <ele>388.47</ele>
   </trkpt>
   <trkpt lat="-37.87236" lon="145.33138000000002">
    <ele>389.91</ele>
   </trkpt>
   <trkpt lat="-37.87225" lon="145.33113">
    <ele>391.02000000000004</ele>
   </trkpt>
   <trkpt lat="-37.87223" lon="145.3309">
    <ele>391.27</ele>
   </trkpt>
   <trkpt lat="-37.87221" lon="145.33036">
    <ele>395.32</ele>
   </trkpt>
   <trkpt lat="-37.87221" lon="145.33035">
    <ele>395.33</ele>
   </trkpt>
   <trkpt lat="-37.87223" lon="145.33017">
    <ele>396.70000000000005</ele>
   </trkpt>
   <trkpt lat="-37.87227" lon="145.33004000000003">
    <ele>398.01000000000005</ele>
   </trkpt>
   <trkpt lat="-37.8725" lon="145.32989">
    <ele>401.53000000000003</ele>
   </trkpt>
   <trkpt lat="-37.87292" lon="145.32993000000002">
    <ele>407.98</ele>
   </trkpt>
   <trkpt lat="-37.87341" lon="145.33013000000003">
    <ele>414.46000000000004</ele>
   </trkpt>
   <trkpt lat="-37.87371" lon="145.33031000000003">
    <ele>417.95000000000005</ele>
   </trkpt>
   <trkpt lat="-37.87384" lon="145.33040000000003">
    <ele>420.62000000000006</ele>
   </trkpt>
   <trkpt lat="-37.87397" lon="145.33055000000002">
    <ele>421.59000000000003</ele>
   </trkpt>
   <trkpt lat="-37.87415" lon="145.33067">
    <ele>423.89000000000004</ele>
   </trkpt>
   <trkpt lat="-37.87444" lon="145.33082000000002">
    <ele>429.06000000000006</ele>
   </trkpt>
   <trkpt lat="-37.87465" lon="145.33086">
    <ele>431.85</ele>
   </trkpt>
   <trkpt lat="-37.875" lon="145.33088">
    <ele>434.94000000000005</ele>
   </trkpt>
   <trkpt lat="-37.875400000000006" lon="145.33097">
    <ele>439.97</ele>
   </trkpt>
   <trkpt lat="-37.87514" lon="145.33068">
    <ele>440.21000000000004</ele>
   </trkpt>
   <trkpt lat="-37.87491" lon="145.33029000000002">
    <ele>440.45000000000005</ele>
   </trkpt>
   <trkpt lat="-37.8748" lon="145.32998">
    <ele>440.28000000000003</ele>
   </trkpt>
   <trkpt lat="-37.87469" lon="145.32956000000001">
    <ele>440.98</ele>
   </trkpt>
   <trkpt lat="-37.87456" lon="145.32923000000002">
    <ele>443.08000000000004</ele>
   </trkpt>
   <trkpt lat="-37.87435" lon="145.32887000000002">
    <ele>446.98</ele>
   </trkpt>
   <trkpt lat="-37.87382" lon="145.32833000000002">
    <ele>452.86</ele>
   </trkpt>
   <trkpt lat="-37.87368" lon="145.32803">
    <ele>458.04</ele>
   </trkpt>
   <trkpt lat="-37.87366" lon="145.32778000000002">
    <ele>462.66</ele>
   </trkpt>
   <trkpt lat="-37.87359" lon="145.32762000000002">
    <ele>465.26000000000005</ele>
   </trkpt>
   <trkpt lat="-37.873215001252085" lon="145.3270949974487">
    <ele>471.79</ele>
   </trkpt>
   <trkpt lat="-37.872840000000004" lon="145.32657">
    <ele>477.46000000000004</ele>
   </trkpt>
   <trkpt lat="-37.87261" lon="145.32628000000003">
    <ele>480.97</ele>
   </trkpt>
   <trkpt lat="-37.87238" lon="145.32607000000002">
    <ele>483.24000000000007</ele>
   </trkpt>
   <trkpt lat="-37.87182" lon="145.3257">
    <ele>483.61</ele>
   </trkpt>
   <trkpt lat="-37.87171" lon="145.32548">
    <ele>484.09000000000003</ele>
   </trkpt>
   <trkpt lat="-37.87171" lon="145.32545000000002">
    <ele>484.09000000000003</ele>
   </trkpt>
   <trkpt lat="-37.871880000000004" lon="145.32536000000002">
    <ele>485.2</ele>
   </trkpt>
   <trkpt lat="-37.87207" lon="145.32511000000002">
    <ele>488.48</ele>
   </trkpt>
   <trkpt lat="-37.87265" lon="145.32472">
    <ele>491.05</ele>
   </trkpt>
   <trkpt lat="-37.873310000000004" lon="145.32432">
    <ele>494.03000000000003</ele>
   </trkpt>
   <trkpt lat="-37.873790000493585" lon="145.32396500234216">
    <ele>496.87</ele>
   </trkpt>
   <trkpt lat="-37.87427" lon="145.32361">
    <ele>501.72</ele>
   </trkpt>
   <trkpt lat="-37.874320000000004" lon="145.32357000000002">
    <ele>502.26000000000005</ele>
   </trkpt>
   <trkpt lat="-37.87463000195269" lon="145.32288500295257">
    <ele>501.16</ele>
   </trkpt>
   <trkpt lat="-37.87494" lon="145.3222">
    <ele>494.68000000000006</ele>
   </trkpt>
   <trkpt lat="-37.875060000000005" lon="145.32206000000002">
    <ele>494.68000000000006</ele>
   </trkpt>
   <trkpt lat="-37.87518" lon="145.32201">
    <ele>494.24000000000007</ele>
   </trkpt>
   <trkpt lat="-37.87529" lon="145.32202">
    <ele>494.05</ele>
   </trkpt>
   <trkpt lat="-37.87568" lon="145.32217">
    <ele>494.50000000000006</ele>
   </trkpt>
   <trkpt lat="-37.876215000218856" lon="145.322354998682">
    <ele>495.28000000000003</ele>
   </trkpt>
   <trkpt lat="-37.87675" lon="145.32254">
    <ele>493.66</ele>
   </trkpt>
   <trkpt lat="-37.877" lon="145.32270000000003">
    <ele>495.3500000000001</ele>
   </trkpt>
   <trkpt lat="-37.87783" lon="145.32313000000002">
    <ele>498.09000000000003</ele>
   </trkpt>
   <trkpt lat="-37.8782" lon="145.32342">
    <ele>497.6</ele>
   </trkpt>
   <trkpt lat="-37.878280000000004" lon="145.32351">
    <ele>497.56000000000006</ele>
   </trkpt>
   <trkpt lat="-37.8787" lon="145.32406">
    <ele>498.37</ele>
   </trkpt>
   <trkpt lat="-37.87892" lon="145.32431000000003">
    <ele>499.37</ele>
   </trkpt>
   <trkpt lat="-37.87932" lon="145.32488">
    <ele>498.37</ele>
   </trkpt>
   <trkpt lat="-37.87993" lon="145.32551">
    <ele>493.02</ele>
   </trkpt>
   <trkpt lat="-37.88067" lon="145.32611">
    <ele>485.61</ele>
   </trkpt>
   <trkpt lat="-37.88132" lon="145.32653000000002">
    <ele>478.71000000000004</ele>
   </trkpt>
   <trkpt lat="-37.88172" lon="145.32688000000002">
    <ele>474.05</ele>
   </trkpt>
   <trkpt lat="-37.88181" lon="145.32698000000002">
    <ele>473.64000000000004</ele>
   </trkpt>
   <trkpt lat="-37.88201" lon="145.32736">
    <ele>471.54</ele>
   </trkpt>
   <trkpt lat="-37.88223" lon="145.32806000000002">
    <ele>465.51000000000005</ele>
   </trkpt>
   <trkpt lat="-37.88241" lon="145.32832000000002">
    <ele>461.85</ele>
   </trkpt>
   <trkpt lat="-37.88264" lon="145.32853">
    <ele>455.94</ele>
   </trkpt>
   <trkpt lat="-37.88284" lon="145.32863">
    <ele>451.94000000000005</ele>
   </trkpt>
   <trkpt lat="-37.88311" lon="145.32864">
    <ele>446.75</ele>
   </trkpt>
   <trkpt lat="-37.88342" lon="145.32859000000002">
    <ele>442.64000000000004</ele>
   </trkpt>
   <trkpt lat="-37.88378" lon="145.32857">
    <ele>436.86</ele>
   </trkpt>
   <trkpt lat="-37.88407" lon="145.32862">
    <ele>431.17</ele>
   </trkpt>
   <trkpt lat="-37.88447" lon="145.32879">
    <ele>424.71000000000004</ele>
   </trkpt>
   <trkpt lat="-37.88499" lon="145.32899">
    <ele>412.7</ele>
   </trkpt>
   <trkpt lat="-37.88555" lon="145.32899">
    <ele>402.14000000000004</ele>
   </trkpt>
   <trkpt lat="-37.88584" lon="145.32891">
    <ele>396.20000000000005</ele>
   </trkpt>
   <trkpt lat="-37.88604" lon="145.32873">
    <ele>387.87000000000006</ele>
   </trkpt>
   <trkpt lat="-37.88624" lon="145.32841000000002">
    <ele>382.14000000000004</ele>
   </trkpt>
   <trkpt lat="-37.886390000000006" lon="145.32833000000002">
    <ele>380.93000000000006</ele>
   </trkpt>
   <trkpt lat="-37.88638" lon="145.32786000000002">
    <ele>378.22</ele>
   </trkpt>
   <trkpt lat="-37.88624" lon="145.32771000000002">
    <ele>377.73</ele>
   </trkpt>
   <trkpt lat="-37.8862" lon="145.3274">
    <ele>376.56</ele>
   </trkpt>
   <trkpt lat="-37.886190000000006" lon="145.32696">
    <ele>376.55000000000007</ele>
   </trkpt>
   <trkpt lat="-37.88608" lon="145.32707000000002">
    <ele>374.89000000000004</ele>
   </trkpt>
   <trkpt lat="-37.8857" lon="145.3273">
    <ele>370.83000000000004</ele>
   </trkpt>
   <trkpt lat="-37.88559" lon="145.32723000000001">
    <ele>369.29</ele>
   </trkpt>
   <trkpt lat="-37.88555" lon="145.32716000000002">
    <ele>368.81</ele>
   </trkpt>
   <trkpt lat="-37.88546" lon="145.32689000000002">
    <ele>365.91</ele>
   </trkpt>
   <trkpt lat="-37.88539" lon="145.32681000000002">
    <ele>364.94000000000005</ele>
   </trkpt>
   <trkpt lat="-37.88532" lon="145.32677">
    <ele>363.51000000000005</ele>
   </trkpt>
   <trkpt lat="-37.88517" lon="145.32679000000002">
    <ele>363.51000000000005</ele>
   </trkpt>
   <trkpt lat="-37.8851" lon="145.32674">
    <ele>361.52</ele>
   </trkpt>
   <trkpt lat="-37.88503" lon="145.32657">
    <ele>360.13</ele>
   </trkpt>
   <trkpt lat="-37.88501" lon="145.32641">
    <ele>357.22</ele>
   </trkpt>
   <trkpt lat="-37.88481" lon="145.32615">
    <ele>355.29</ele>
   </trkpt>
   <trkpt lat="-37.88472" lon="145.32611">
    <ele>354.47</ele>
   </trkpt>
   <trkpt lat="-37.8847" lon="145.32606">
    <ele>353.72</ele>
   </trkpt>
   <trkpt lat="-37.88467" lon="145.32594">
    <ele>352.7</ele>
   </trkpt>
   <trkpt lat="-37.88472" lon="145.32581000000002">
    <ele>352.3</ele>
   </trkpt>
   <trkpt lat="-37.88483" lon="145.32566">
    <ele>349.78000000000003</ele>
   </trkpt>
   <trkpt lat="-37.8849" lon="145.32534">
    <ele>345.77000000000004</ele>
   </trkpt>
   <trkpt lat="-37.88494" lon="145.32504">
    <ele>341.40000000000003</ele>
   </trkpt>
   <trkpt lat="-37.88494" lon="145.32475000000002">
    <ele>337.78000000000003</ele>
   </trkpt>
   <trkpt lat="-37.8849" lon="145.32459">
    <ele>335.87</ele>
   </trkpt>
   <trkpt lat="-37.88481" lon="145.32436">
    <ele>333.70000000000005</ele>
   </trkpt>
   <trkpt lat="-37.88481" lon="145.32417">
    <ele>331.46000000000004</ele>
   </trkpt>
   <trkpt lat="-37.88483" lon="145.32404000000002">
    <ele>329.28000000000003</ele>
   </trkpt>
   <trkpt lat="-37.88481" lon="145.32355">
    <ele>317.98</ele>
   </trkpt>
   <trkpt lat="-37.8849" lon="145.32336">
    <ele>315.21000000000004</ele>
   </trkpt>
   <trkpt lat="-37.88488" lon="145.32315">
    <ele>313.76000000000005</ele>
   </trkpt>
   <trkpt lat="-37.88479" lon="145.32282">
    <ele>307.63</ele>
   </trkpt>
   <trkpt lat="-37.88465" lon="145.32261000000003">
    <ele>304.73</ele>
   </trkpt>
   <trkpt lat="-37.884570000000004" lon="145.32260000000002">
    <ele>304.72</ele>
   </trkpt>
   <trkpt lat="-37.88447" lon="145.32227">
    <ele>302.57</ele>
   </trkpt>
   <trkpt lat="-37.88443" lon="145.32186000000002">
    <ele>296.71000000000004</ele>
   </trkpt>
   <trkpt lat="-37.88432" lon="145.32141000000001">
    <ele>291.96</ele>
   </trkpt>
   <trkpt lat="-37.88423" lon="145.32127">
    <ele>290.78000000000003</ele>
   </trkpt>
   <trkpt lat="-37.88416" lon="145.3211">
    <ele>288.93</ele>
   </trkpt>
   <trkpt lat="-37.88416" lon="145.32099000000002">
    <ele>286.40000000000003</ele>
   </trkpt>
   <trkpt lat="-37.88425" lon="145.32069">
    <ele>284.63000000000005</ele>
   </trkpt>
   <trkpt lat="-37.88429" lon="145.32048">
    <ele>282.46999999999997</ele>
   </trkpt>
   <trkpt lat="-37.88425" lon="145.3202">
    <ele>279.1</ele>
   </trkpt>
   <trkpt lat="-37.88416" lon="145.31998000000002">
    <ele>277.5</ele>
   </trkpt>
   <trkpt lat="-37.88416" lon="145.31972000000002">
    <ele>276.01000000000005</ele>
   </trkpt>
   <trkpt lat="-37.88409" lon="145.31915">
    <ele>268.65</ele>
   </trkpt>
   <trkpt lat="-37.884" lon="145.31884000000002">
    <ele>266.11</ele>
   </trkpt>
   <trkpt lat="-37.88378" lon="145.31852">
    <ele>263.49</ele>
   </trkpt>
   <trkpt lat="-37.88373" lon="145.31835">
    <ele>261.53999999999996</ele>
   </trkpt>
   <trkpt lat="-37.88396" lon="145.31833">
    <ele>257.54</ele>
   </trkpt>
   <trkpt lat="-37.88429" lon="145.31839000000002">
    <ele>254.17000000000002</ele>
   </trkpt>
   <trkpt lat="-37.88479" lon="145.31835">
    <ele>244.69000000000003</ele>
   </trkpt>
   <trkpt lat="-37.88528" lon="145.31820000000002">
    <ele>237.0</ele>
   </trkpt>
   <trkpt lat="-37.88537" lon="145.31811000000002">
    <ele>236.15000000000003</ele>
   </trkpt>
   <trkpt lat="-37.88546" lon="145.31806">
    <ele>235.48000000000002</ele>
   </trkpt>
   <trkpt lat="-37.88553" lon="145.31806">
    <ele>235.32000000000002</ele>
   </trkpt>
   <trkpt lat="-37.885740000000006" lon="145.31805">
    <ele>232.68</ele>
   </trkpt>
   <trkpt lat="-37.88588" lon="145.31813000000002">
    <ele>230.88000000000002</ele>
   </trkpt>
   <trkpt lat="-37.88608" lon="145.31801000000002">
    <ele>228.45000000000002</ele>
   </trkpt>
   <trkpt lat="-37.88613" lon="145.318">
    <ele>228.09</ele>
   </trkpt>
   <trkpt lat="-37.88642" lon="145.31822000000003">
    <ele>227.89000000000001</ele>
   </trkpt>
   <trkpt lat="-37.88687" lon="145.31819000000002">
    <ele>224.10000000000002</ele>
   </trkpt>
   <trkpt lat="-37.88729" lon="145.31833">
    <ele>218.33</ele>
   </trkpt>
   <trkpt lat="-37.88745" lon="145.31834">
    <ele>217.22000000000003</ele>
   </trkpt>
   <trkpt lat="-37.88752" lon="145.31833">
    <ele>215.22000000000003</ele>
   </trkpt>
   <trkpt lat="-37.887510000000006" lon="145.31829000000002">
    <ele>215.22000000000003</ele>
   </trkpt>
   <trkpt lat="-37.88754" lon="145.31786000000002">
    <ele>215.53000000000003</ele>
   </trkpt>
   <trkpt lat="-37.887460000000004" lon="145.31768000000002">
    <ele>215.47000000000003</ele>
   </trkpt>
   <trkpt lat="-37.887460000000004" lon="145.31762">
    <ele>215.53000000000003</ele>
   </trkpt>
   <trkpt lat="-37.88772" lon="145.31759000000002">
    <ele>212.26</ele>
   </trkpt>
   <trkpt lat="-37.88781" lon="145.31755">
    <ele>210.71</ele>
   </trkpt>
   <trkpt lat="-37.88787000000001" lon="145.31756000000001">
    <ele>210.71</ele>
   </trkpt>
   <trkpt lat="-37.88808" lon="145.31744">
    <ele>208.39000000000001</ele>
   </trkpt>
   <trkpt lat="-37.888270000000006" lon="145.31747000000001">
    <ele>206.91</ele>
   </trkpt>
   <trkpt lat="-37.88828" lon="145.31748000000002">
    <ele>206.91</ele>
   </trkpt>
   <trkpt lat="-37.88839" lon="145.31750000000002">
    <ele>204.69</ele>
   </trkpt>
   <trkpt lat="-37.88846" lon="145.31753">
    <ele>204.69</ele>
   </trkpt>
   <trkpt lat="-37.88866" lon="145.31772">
    <ele>201.14000000000001</ele>
   </trkpt>
   <trkpt lat="-37.88882" lon="145.31772">
    <ele>200.09</ele>
   </trkpt>
   <trkpt lat="-37.8889" lon="145.31777000000002">
    <ele>198.45000000000002</ele>
   </trkpt>
   <trkpt lat="-37.88893" lon="145.31777000000002">
    <ele>198.45000000000002</ele>
   </trkpt>
   <trkpt lat="-37.88895" lon="145.31774000000001">
    <ele>198.45000000000002</ele>
   </trkpt>
   <trkpt lat="-37.88931" lon="145.31776000000002">
    <ele>195.37</ele>
   </trkpt>
   <trkpt lat="-37.889410000000005" lon="145.31771">
    <ele>193.87</ele>
   </trkpt>
   <trkpt lat="-37.88967" lon="145.31767000000002">
    <ele>191.55</ele>
   </trkpt>
   <trkpt lat="-37.889810000000004" lon="145.31752">
    <ele>189.61</ele>
   </trkpt>
   <trkpt lat="-37.890280000000004" lon="145.31739000000002">
    <ele>185.8</ele>
   </trkpt>
   <trkpt lat="-37.8904" lon="145.31744">
    <ele>184.86</ele>
   </trkpt>
   <trkpt lat="-37.8905" lon="145.31752">
    <ele>184.36</ele>
   </trkpt>
   <trkpt lat="-37.89058" lon="145.31753">
    <ele>183.52</ele>
   </trkpt>
   <trkpt lat="-37.89067" lon="145.31745">
    <ele>181.56000000000003</ele>
   </trkpt>
   <trkpt lat="-37.89072" lon="145.31744">
    <ele>181.56000000000003</ele>
   </trkpt>
  </trkseg>
 </trk>
</gpx>
