<?xml version="1.0" encoding="UTF-8"?>
<gpx creator="StravaGPX" version="1.1" xmlns="http://www.topografix.com/GPX/1/1" xmlns:xsi="http://www.w3.org/2001/XMLSchema-instance" xsi:schemaLocation="http://www.topografix.com/GPX/1/1 http://www.topografix.com/GPX/1/1/gpx.xsd">
 <metadata>
  <name>DTR 12/7 8k</name>
  <author>
   <name>Richard Jones</name>
   <link href="https://www.strava.com/athletes/38085969"/>
  </author>
  <copyright author="OpenStreetMap contributors">
   <year>2020</year>
   <license>https://www.openstreetmap.org/copyright</license>
  </copyright>
  <link href="https://www.strava.com/routes/3510512522733523410"/>
 </metadata>
 <trk>
  <name>DTR 12/7 8k</name>
  <link href="https://www.strava.com/routes/3510512522733523410"/>
  <type>trail_running</type>
  <trkseg>
   <trkpt lat="-37.81622" lon="145.37958">
    <ele>434.70000000000005</ele>
   </trkpt>
   <trkpt lat="-37.8162" lon="145.37919000000002">
    <ele>434.2300000000001</ele>
   </trkpt>
   <trkpt lat="-37.81613" lon="145.37898">
    <ele>434.27000000000004</ele>
   </trkpt>
   <trkpt lat="-37.816" lon="145.37896">
    <ele>433.24</ele>
   </trkpt>
   <trkpt lat="-37.81579" lon="145.3788">
    <ele>432.00000000000006</ele>
   </trkpt>
   <trkpt lat="-37.81546" lon="145.37838000000002">
    <ele>430.98</ele>
   </trkpt>
   <trkpt lat="-37.815000000000005" lon="145.37811000000002">
    <ele>430.20000000000005</ele>
   </trkpt>
   <trkpt lat="-37.81450000127363" lon="145.3775549962098">
    <ele>435.58000000000004</ele>
   </trkpt>
   <trkpt lat="-37.814" lon="145.377">
    <ele>440.63</ele>
   </trkpt>
   <trkpt lat="-37.81394" lon="145.37682">
    <ele>444.05000000000007</ele>
   </trkpt>
   <trkpt lat="-37.8138" lon="145.37578000000002">
    <ele>450.28000000000003</ele>
   </trkpt>
   <trkpt lat="-37.813705001405076" lon="145.37520499930613">
    <ele>458.62</ele>
   </trkpt>
   <trkpt lat="-37.813610000000004" lon="145.37463000000002">
    <ele>461.46000000000004</ele>
   </trkpt>
   <trkpt lat="-37.8134" lon="145.37372000000002">
    <ele>465.9800000000001</ele>
   </trkpt>
   <trkpt lat="-37.813340000000004" lon="145.37318000000002">
    <ele>466.11</ele>
   </trkpt>
   <trkpt lat="-37.81329" lon="145.37335000000002">
    <ele>463.65000000000003</ele>
   </trkpt>
   <trkpt lat="-37.81324" lon="145.37391000000002">
    <ele>455.35</ele>
   </trkpt>
   <trkpt lat="-37.813190000000006" lon="145.37398000000002">
    <ele>451.66</ele>
   </trkpt>
   <trkpt lat="-37.81311" lon="145.37392">
    <ele>450.49000000000007</ele>
   </trkpt>
   <trkpt lat="-37.81284" lon="145.37353000000002">
    <ele>442.91</ele>
   </trkpt>
   <trkpt lat="-37.812780000000004" lon="145.37318000000002">
    <ele>437.44000000000005</ele>
   </trkpt>
   <trkpt lat="-37.81266" lon="145.37316">
    <ele>433.18</ele>
   </trkpt>
   <trkpt lat="-37.81253" lon="145.37309000000002">
    <ele>429.59000000000003</ele>
   </trkpt>
   <trkpt lat="-37.81232" lon="145.37303">
    <ele>415.11</ele>
   </trkpt>
   <trkpt lat="-37.81208" lon="145.37284000000002">
    <ele>407.33000000000004</ele>
   </trkpt>
   <trkpt lat="-37.81194" lon="145.37281000000002">
    <ele>395.03000000000003</ele>
   </trkpt>
   <trkpt lat="-37.81152" lon="145.3726">
    <ele>382.0</ele>
   </trkpt>
   <trkpt lat="-37.81114" lon="145.37238000000002">
    <ele>370.05</ele>
   </trkpt>
   <trkpt lat="-37.81049" lon="145.37237000000002">
    <ele>349.07000000000005</ele>
   </trkpt>
   <trkpt lat="-37.81031" lon="145.37220000000002">
    <ele>343.59</ele>
   </trkpt>
   <trkpt lat="-37.81011" lon="145.37183000000002">
    <ele>333.68</ele>
   </trkpt>
   <trkpt lat="-37.81002" lon="145.3718">
    <ele>332.6</ele>
   </trkpt>
   <trkpt lat="-37.80991" lon="145.3719">
    <ele>329.52000000000004</ele>
   </trkpt>
   <trkpt lat="-37.80982" lon="145.37209000000001">
    <ele>325.97</ele>
   </trkpt>
   <trkpt lat="-37.809830000000005" lon="145.37236000000001">
    <ele>323.07</ele>
   </trkpt>
   <trkpt lat="-37.8098" lon="145.37228000000002">
    <ele>322.24</ele>
   </trkpt>
   <trkpt lat="-37.80977" lon="145.37235">
    <ele>320.65999999999997</ele>
   </trkpt>
   <trkpt lat="-37.80966" lon="145.37247000000002">
    <ele>317.33</ele>
   </trkpt>
   <trkpt lat="-37.80957" lon="145.37253">
    <ele>310.93</ele>
   </trkpt>
   <trkpt lat="-37.80937" lon="145.37258">
    <ele>303.8</ele>
   </trkpt>
   <trkpt lat="-37.8093" lon="145.37262">
    <ele>301.49</ele>
   </trkpt>
   <trkpt lat="-37.80931" lon="145.37262">
    <ele>301.83000000000004</ele>
   </trkpt>
   <trkpt lat="-37.809250000000006" lon="145.37266000000002">
    <ele>301.83000000000004</ele>
   </trkpt>
   <trkpt lat="-37.80894" lon="145.37269">
    <ele>286.68000000000006</ele>
   </trkpt>
   <trkpt lat="-37.808780000000006" lon="145.37272000000002">
    <ele>282.35</ele>
   </trkpt>
   <trkpt lat="-37.80883" lon="145.37291000000002">
    <ele>281.54</ele>
   </trkpt>
   <trkpt lat="-37.80894" lon="145.37384">
    <ele>271.40000000000003</ele>
   </trkpt>
   <trkpt lat="-37.80897" lon="145.37433000000001">
    <ele>265.86</ele>
   </trkpt>
   <trkpt lat="-37.80897" lon="145.37442000000001">
    <ele>259.86</ele>
   </trkpt>
   <trkpt lat="-37.80892" lon="145.37447">
    <ele>259.86</ele>
   </trkpt>
   <trkpt lat="-37.80883" lon="145.37444000000002">
    <ele>258.93</ele>
   </trkpt>
   <trkpt lat="-37.80868" lon="145.37449">
    <ele>256.70000000000005</ele>
   </trkpt>
   <trkpt lat="-37.8087" lon="145.37458">
    <ele>257.18</ele>
   </trkpt>
   <trkpt lat="-37.80868" lon="145.37464">
    <ele>257.40000000000003</ele>
   </trkpt>
   <trkpt lat="-37.80845" lon="145.37493">
    <ele>258.96000000000004</ele>
   </trkpt>
   <trkpt lat="-37.80827000111302" lon="145.37546500159164">
    <ele>261.99</ele>
   </trkpt>
   <trkpt lat="-37.80809" lon="145.376">
    <ele>265.94</ele>
   </trkpt>
   <trkpt lat="-37.80798" lon="145.37635">
    <ele>269.2</ele>
   </trkpt>
   <trkpt lat="-37.807900000000004" lon="145.37681">
    <ele>273.94</ele>
   </trkpt>
   <trkpt lat="-37.80772" lon="145.37712000000002">
    <ele>277.16</ele>
   </trkpt>
   <trkpt lat="-37.80738" lon="145.3778">
    <ele>270.75000000000006</ele>
   </trkpt>
   <trkpt lat="-37.807280000000006" lon="145.3779">
    <ele>270.5</ele>
   </trkpt>
   <trkpt lat="-37.807280000000006" lon="145.37789">
    <ele>270.51000000000005</ele>
   </trkpt>
   <trkpt lat="-37.80718" lon="145.37802000000002">
    <ele>270.76</ele>
   </trkpt>
   <trkpt lat="-37.807" lon="145.37806">
    <ele>270.66</ele>
   </trkpt>
   <trkpt lat="-37.80684" lon="145.37806">
    <ele>269.91</ele>
   </trkpt>
   <trkpt lat="-37.80621" lon="145.37791">
    <ele>267.81000000000006</ele>
   </trkpt>
   <trkpt lat="-37.80608" lon="145.37796">
    <ele>267.55</ele>
   </trkpt>
   <trkpt lat="-37.80594" lon="145.37808">
    <ele>267.18</ele>
   </trkpt>
   <trkpt lat="-37.80588" lon="145.37819000000002">
    <ele>267.04</ele>
   </trkpt>
   <trkpt lat="-37.80583" lon="145.37830000000002">
    <ele>267.01000000000005</ele>
   </trkpt>
   <trkpt lat="-37.80588" lon="145.37913">
    <ele>264.05</ele>
   </trkpt>
   <trkpt lat="-37.80588" lon="145.37927000000002">
    <ele>263.8</ele>
   </trkpt>
   <trkpt lat="-37.805870000000006" lon="145.37941">
    <ele>263.59000000000003</ele>
   </trkpt>
   <trkpt lat="-37.80579" lon="145.37951">
    <ele>263.34000000000003</ele>
   </trkpt>
   <trkpt lat="-37.80554" lon="145.37967">
    <ele>261.14000000000004</ele>
   </trkpt>
   <trkpt lat="-37.80545" lon="145.37979">
    <ele>260.42</ele>
   </trkpt>
   <trkpt lat="-37.80527" lon="145.38013">
    <ele>258.77</ele>
   </trkpt>
   <trkpt lat="-37.80516" lon="145.38018000000002">
    <ele>257.98</ele>
   </trkpt>
   <trkpt lat="-37.80451" lon="145.37987">
    <ele>252.57000000000002</ele>
   </trkpt>
   <trkpt lat="-37.80429" lon="145.37978">
    <ele>250.67</ele>
   </trkpt>
   <trkpt lat="-37.803720000000006" lon="145.37977">
    <ele>243.90000000000003</ele>
   </trkpt>
   <trkpt lat="-37.80328" lon="145.37992">
    <ele>241.75000000000003</ele>
   </trkpt>
   <trkpt lat="-37.80265" lon="145.38053000000002">
    <ele>239.04000000000002</ele>
   </trkpt>
   <trkpt lat="-37.80223" lon="145.38061000000002">
    <ele>239.47</ele>
   </trkpt>
   <trkpt lat="-37.801750000000006" lon="145.38096000000002">
    <ele>243.63</ele>
   </trkpt>
   <trkpt lat="-37.80153" lon="145.38107000000002">
    <ele>245.8</ele>
   </trkpt>
   <trkpt lat="-37.80113" lon="145.38123000000002">
    <ele>248.09000000000003</ele>
   </trkpt>
   <trkpt lat="-37.800920000000005" lon="145.38134000000002">
    <ele>250.41000000000003</ele>
   </trkpt>
   <trkpt lat="-37.80088000000001" lon="145.38169000000002">
    <ele>255.98999999999998</ele>
   </trkpt>
   <trkpt lat="-37.801100000000005" lon="145.38212000000001">
    <ele>266.5</ele>
   </trkpt>
   <trkpt lat="-37.80111" lon="145.38224000000002">
    <ele>268.46000000000004</ele>
   </trkpt>
   <trkpt lat="-37.80106" lon="145.38253">
    <ele>271.77</ele>
   </trkpt>
   <trkpt lat="-37.80107" lon="145.38273">
    <ele>273.1</ele>
   </trkpt>
   <trkpt lat="-37.800740000000005" lon="145.38276000000002">
    <ele>268.45</ele>
   </trkpt>
   <trkpt lat="-37.80068" lon="145.38275000000002">
    <ele>268.35</ele>
   </trkpt>
   <trkpt lat="-37.80042" lon="145.38274">
    <ele>264.88</ele>
   </trkpt>
   <trkpt lat="-37.80003" lon="145.38287000000003">
    <ele>259.62</ele>
   </trkpt>
   <trkpt lat="-37.799490000000006" lon="145.38330000000002">
    <ele>243.70000000000002</ele>
   </trkpt>
   <trkpt lat="-37.79934" lon="145.38338000000002">
    <ele>241.44</ele>
   </trkpt>
   <trkpt lat="-37.799290000000006" lon="145.38337">
    <ele>240.07000000000002</ele>
   </trkpt>
   <trkpt lat="-37.79894" lon="145.38313000000002">
    <ele>230.12</ele>
   </trkpt>
   <trkpt lat="-37.79867" lon="145.38313000000002">
    <ele>223.01000000000002</ele>
   </trkpt>
   <trkpt lat="-37.79865" lon="145.38325">
    <ele>222.96</ele>
   </trkpt>
   <trkpt lat="-37.798640000000006" lon="145.38345">
    <ele>224.03</ele>
   </trkpt>
   <trkpt lat="-37.79876" lon="145.38364">
    <ele>225.79000000000002</ele>
   </trkpt>
   <trkpt lat="-37.79887" lon="145.38376000000002">
    <ele>226.67000000000002</ele>
   </trkpt>
   <trkpt lat="-37.79942000064289" lon="145.38417499684587">
    <ele>221.65</ele>
   </trkpt>
   <trkpt lat="-37.79997" lon="145.38459">
    <ele>218.35000000000002</ele>
   </trkpt>
   <trkpt lat="-37.800250000000005" lon="145.3847">
    <ele>214.54</ele>
   </trkpt>
   <trkpt lat="-37.80048" lon="145.38472000000002">
    <ele>212.55</ele>
   </trkpt>
   <trkpt lat="-37.80066" lon="145.38479">
    <ele>211.56000000000003</ele>
   </trkpt>
   <trkpt lat="-37.801" lon="145.38509000000002">
    <ele>207.53000000000003</ele>
   </trkpt>
   <trkpt lat="-37.801640000000006" lon="145.38558">
    <ele>200.38</ele>
   </trkpt>
   <trkpt lat="-37.8018" lon="145.38568">
    <ele>199.17000000000002</ele>
   </trkpt>
   <trkpt lat="-37.80196" lon="145.38572000000002">
    <ele>196.97</ele>
   </trkpt>
   <trkpt lat="-37.80207" lon="145.3857">
    <ele>196.19</ele>
   </trkpt>
   <trkpt lat="-37.80214" lon="145.38571000000002">
    <ele>195.48000000000002</ele>
   </trkpt>
   <trkpt lat="-37.8023" lon="145.38581000000002">
    <ele>194.0</ele>
   </trkpt>
   <trkpt lat="-37.80234" lon="145.38588000000001">
    <ele>193.72</ele>
   </trkpt>
   <trkpt lat="-37.80234" lon="145.38604">
    <ele>193.34</ele>
   </trkpt>
   <trkpt lat="-37.80223" lon="145.38624000000002">
    <ele>194.51000000000002</ele>
   </trkpt>
   <trkpt lat="-37.802040000000005" lon="145.38648">
    <ele>195.36</ele>
   </trkpt>
   <trkpt lat="-37.802060000000004" lon="145.38646">
    <ele>195.36</ele>
   </trkpt>
   <trkpt lat="-37.801840000000006" lon="145.38673">
    <ele>196.56</ele>
   </trkpt>
   <trkpt lat="-37.80176" lon="145.387">
    <ele>199.29000000000002</ele>
   </trkpt>
   <trkpt lat="-37.80183" lon="145.38770000000002">
    <ele>205.22</ele>
   </trkpt>
   <trkpt lat="-37.80196" lon="145.38812000000001">
    <ele>208.33</ele>
   </trkpt>
   <trkpt lat="-37.802200000000006" lon="145.38854">
    <ele>212.20000000000002</ele>
   </trkpt>
   <trkpt lat="-37.80243" lon="145.38933">
    <ele>225.16000000000003</ele>
   </trkpt>
   <trkpt lat="-37.802580000000006" lon="145.38963">
    <ele>229.78</ele>
   </trkpt>
   <trkpt lat="-37.80263" lon="145.38952">
    <ele>230.89000000000001</ele>
   </trkpt>
   <trkpt lat="-37.80268" lon="145.38948000000002">
    <ele>231.62</ele>
   </trkpt>
   <trkpt lat="-37.80272" lon="145.38946">
    <ele>232.43</ele>
   </trkpt>
   <trkpt lat="-37.8031" lon="145.38961">
    <ele>240.14000000000001</ele>
   </trkpt>
   <trkpt lat="-37.803430000000006" lon="145.38959">
    <ele>243.96</ele>
   </trkpt>
   <trkpt lat="-37.80362" lon="145.38951">
    <ele>245.25000000000003</ele>
   </trkpt>
   <trkpt lat="-37.80384" lon="145.38932">
    <ele>248.57000000000002</ele>
   </trkpt>
   <trkpt lat="-37.80411" lon="145.38901">
    <ele>254.59000000000003</ele>
   </trkpt>
   <trkpt lat="-37.80442" lon="145.38840000000002">
    <ele>268.5</ele>
   </trkpt>
   <trkpt lat="-37.80465" lon="145.38811">
    <ele>275.79</ele>
   </trkpt>
   <trkpt lat="-37.8048" lon="145.38797000000002">
    <ele>279.03</ele>
   </trkpt>
   <trkpt lat="-37.80491" lon="145.38793">
    <ele>280.74000000000007</ele>
   </trkpt>
   <trkpt lat="-37.80509" lon="145.38794000000001">
    <ele>281.96000000000004</ele>
   </trkpt>
   <trkpt lat="-37.80525" lon="145.388">
    <ele>282.24000000000007</ele>
   </trkpt>
   <trkpt lat="-37.80561" lon="145.38825">
    <ele>279.96000000000004</ele>
   </trkpt>
   <trkpt lat="-37.80579" lon="145.38858000000002">
    <ele>276.26</ele>
   </trkpt>
   <trkpt lat="-37.80583" lon="145.38891">
    <ele>275.43</ele>
   </trkpt>
   <trkpt lat="-37.8059" lon="145.38919">
    <ele>274.56</ele>
   </trkpt>
   <trkpt lat="-37.80599" lon="145.38936">
    <ele>274.27</ele>
   </trkpt>
   <trkpt lat="-37.80628" lon="145.38969">
    <ele>279.28000000000003</ele>
   </trkpt>
   <trkpt lat="-37.8066" lon="145.39014">
    <ele>289.40999999999997</ele>
   </trkpt>
   <trkpt lat="-37.80675" lon="145.39037000000002">
    <ele>292.8</ele>
   </trkpt>
   <trkpt lat="-37.80691" lon="145.39068">
    <ele>293.86</ele>
   </trkpt>
   <trkpt lat="-37.80695" lon="145.39072000000002">
    <ele>293.74</ele>
   </trkpt>
   <trkpt lat="-37.8072" lon="145.3908">
    <ele>292.45000000000005</ele>
   </trkpt>
   <trkpt lat="-37.80747" lon="145.39085">
    <ele>289.62000000000006</ele>
   </trkpt>
   <trkpt lat="-37.807840000000006" lon="145.39083000000002">
    <ele>288.36</ele>
   </trkpt>
   <trkpt lat="-37.80828000004263" lon="145.39066500101035">
    <ele>290.07000000000005</ele>
   </trkpt>
   <trkpt lat="-37.80872" lon="145.3905">
    <ele>294.73</ele>
   </trkpt>
   <trkpt lat="-37.80897" lon="145.39046000000002">
    <ele>297.24</ele>
   </trkpt>
   <trkpt lat="-37.80953" lon="145.39024">
    <ele>304.85</ele>
   </trkpt>
   <trkpt lat="-37.809985000140664" lon="145.390095000877">
    <ele>314.3</ele>
   </trkpt>
   <trkpt lat="-37.81044" lon="145.38995">
    <ele>328.09000000000003</ele>
   </trkpt>
   <trkpt lat="-37.81098" lon="145.38993000000002">
    <ele>329.67</ele>
   </trkpt>
   <trkpt lat="-37.8115" lon="145.38977">
    <ele>332.77</ele>
   </trkpt>
   <trkpt lat="-37.811890000000005" lon="145.38958000000002">
    <ele>337.53000000000003</ele>
   </trkpt>
   <trkpt lat="-37.81181" lon="145.3891">
    <ele>334.15</ele>
   </trkpt>
   <trkpt lat="-37.811780000000006" lon="145.38864">
    <ele>324.31000000000006</ele>
   </trkpt>
   <trkpt lat="-37.81179" lon="145.38861">
    <ele>324.31000000000006</ele>
   </trkpt>
   <trkpt lat="-37.81183" lon="145.38856">
    <ele>324.35</ele>
   </trkpt>
   <trkpt lat="-37.8121" lon="145.38851000000003">
    <ele>325.55</ele>
   </trkpt>
   <trkpt lat="-37.81264" lon="145.38830000000002">
    <ele>333.11</ele>
   </trkpt>
   <trkpt lat="-37.81275" lon="145.38813000000002">
    <ele>333.35</ele>
   </trkpt>
   <trkpt lat="-37.81279" lon="145.38799">
    <ele>331.82</ele>
   </trkpt>
   <trkpt lat="-37.81275" lon="145.38768000000002">
    <ele>327.04</ele>
   </trkpt>
   <trkpt lat="-37.81246" lon="145.38681000000003">
    <ele>306.57</ele>
   </trkpt>
   <trkpt lat="-37.81241" lon="145.38647">
    <ele>306.47</ele>
   </trkpt>
   <trkpt lat="-37.81223" lon="145.38587">
    <ele>307.33000000000004</ele>
   </trkpt>
   <trkpt lat="-37.81219" lon="145.38541">
    <ele>309.16</ele>
   </trkpt>
   <trkpt lat="-37.81215" lon="145.38534">
    <ele>309.25</ele>
   </trkpt>
   <trkpt lat="-37.81217" lon="145.38492000000002">
    <ele>314.76000000000005</ele>
   </trkpt>
   <trkpt lat="-37.81212" lon="145.38468">
    <ele>318.24</ele>
   </trkpt>
   <trkpt lat="-37.81212" lon="145.38423">
    <ele>322.32000000000005</ele>
   </trkpt>
   <trkpt lat="-37.812160000000006" lon="145.38382000000001">
    <ele>325.99</ele>
   </trkpt>
   <trkpt lat="-37.81212" lon="145.38356000000002">
    <ele>327.3</ele>
   </trkpt>
   <trkpt lat="-37.81212" lon="145.38327">
    <ele>329.18</ele>
   </trkpt>
   <trkpt lat="-37.81208" lon="145.38254">
    <ele>335.14000000000004</ele>
   </trkpt>
   <trkpt lat="-37.81197" lon="145.38242000000002">
    <ele>336.86</ele>
   </trkpt>
   <trkpt lat="-37.81179" lon="145.38250000000002">
    <ele>337.90000000000003</ele>
   </trkpt>
   <trkpt lat="-37.81096" lon="145.38266000000002">
    <ele>343.65</ele>
   </trkpt>
   <trkpt lat="-37.810480000000005" lon="145.38272">
    <ele>349.66</ele>
   </trkpt>
   <trkpt lat="-37.81091" lon="145.38247">
    <ele>351.45000000000005</ele>
   </trkpt>
   <trkpt lat="-37.81147" lon="145.38206000000002">
    <ele>359.09000000000003</ele>
   </trkpt>
   <trkpt lat="-37.81168" lon="145.38187000000002">
    <ele>360.25</ele>
   </trkpt>
   <trkpt lat="-37.81199" lon="145.38147">
    <ele>363.86</ele>
   </trkpt>
   <trkpt lat="-37.811980000000005" lon="145.38149">
    <ele>363.86</ele>
   </trkpt>
   <trkpt lat="-37.81233000096212" lon="145.38100500234367">
    <ele>369.54</ele>
   </trkpt>
   <trkpt lat="-37.81268" lon="145.38052000000002">
    <ele>373.62</ele>
   </trkpt>
   <trkpt lat="-37.81295" lon="145.38005">
    <ele>378.77000000000004</ele>
   </trkpt>
   <trkpt lat="-37.81309" lon="145.37990000000002">
    <ele>379.74</ele>
   </trkpt>
   <trkpt lat="-37.81329" lon="145.37979">
    <ele>381.35</ele>
   </trkpt>
   <trkpt lat="-37.81338" lon="145.37976">
    <ele>381.35</ele>
   </trkpt>
   <trkpt lat="-37.81347" lon="145.37979">
    <ele>381.91</ele>
   </trkpt>
   <trkpt lat="-37.81353" lon="145.37992">
    <ele>382.21000000000004</ele>
   </trkpt>
   <trkpt lat="-37.81358" lon="145.38007000000002">
    <ele>382.65000000000003</ele>
   </trkpt>
   <trkpt lat="-37.81366000169857" lon="145.38070499926613">
    <ele>384.36</ele>
   </trkpt>
   <trkpt lat="-37.81374" lon="145.38134000000002">
    <ele>386.71000000000004</ele>
   </trkpt>
   <trkpt lat="-37.81391" lon="145.381">
    <ele>388.25000000000006</ele>
   </trkpt>
   <trkpt lat="-37.81412500282287" lon="145.38018500231533">
    <ele>391.47</ele>
   </trkpt>
   <trkpt lat="-37.81434" lon="145.37937000000002">
    <ele>393.45</ele>
   </trkpt>
   <trkpt lat="-37.81443" lon="145.37976">
    <ele>395.65000000000003</ele>
   </trkpt>
   <trkpt lat="-37.81452" lon="145.3805">
    <ele>399.67</ele>
   </trkpt>
   <trkpt lat="-37.81461" lon="145.38094">
    <ele>400.18</ele>
   </trkpt>
   <trkpt lat="-37.814800000000005" lon="145.3813">
    <ele>403.22</ele>
   </trkpt>
   <trkpt lat="-37.81479" lon="145.38113">
    <ele>404.70000000000005</ele>
   </trkpt>
   <trkpt lat="-37.81483" lon="145.38063000000002">
    <ele>408.39000000000004</ele>
   </trkpt>
   <trkpt lat="-37.81492" lon="145.3801">
    <ele>413.48</ele>
   </trkpt>
   <trkpt lat="-37.81526" lon="145.37915">
    <ele>421.42</ele>
   </trkpt>
   <trkpt lat="-37.8153" lon="145.37888">
    <ele>423.35</ele>
   </trkpt>
   <trkpt lat="-37.81528" lon="145.37866000000002">
    <ele>426.37</ele>
   </trkpt>
   <trkpt lat="-37.81521" lon="145.37843">
    <ele>427.8</ele>
   </trkpt>
   <trkpt lat="-37.815000000000005" lon="145.37811000000002">
    <ele>430.20000000000005</ele>
   </trkpt>
   <trkpt lat="-37.81546" lon="145.37838000000002">
    <ele>431.22</ele>
   </trkpt>
   <trkpt lat="-37.81579" lon="145.3788">
    <ele>432.00000000000006</ele>
   </trkpt>
   <trkpt lat="-37.816" lon="145.37896">
    <ele>433.24</ele>
   </trkpt>
   <trkpt lat="-37.81613" lon="145.37898">
    <ele>434.27000000000004</ele>
   </trkpt>
   <trkpt lat="-37.8162" lon="145.37919000000002">
    <ele>434.2300000000001</ele>
   </trkpt>
   <trkpt lat="-37.81622" lon="145.37958">
    <ele>434.69</ele>
   </trkpt>
  </trkseg>
 </trk>
</gpx>
