<?xml version="1.0" encoding="UTF-8"?>
<gpx creator="StravaGPX" version="1.1" xmlns="http://www.topografix.com/GPX/1/1" xmlns:xsi="http://www.w3.org/2001/XMLSchema-instance" xsi:schemaLocation="http://www.topografix.com/GPX/1/1 http://www.topografix.com/GPX/1/1/gpx.xsd">
 <metadata>
  <name>DTR - 26th July 20k</name>
  <author>
   <name>DTR  Runleaders</name>
   <link href="https://www.strava.com/athletes/194056408"/>
  </author>
  <copyright author="OpenStreetMap contributors">
   <year>2020</year>
   <license>https://www.openstreetmap.org/copyright</license>
  </copyright>
  <link href="https://www.strava.com/routes/3515287758975082812"/>
 </metadata>
 <trk>
  <name>DTR - 26th July 20k</name>
  <link href="https://www.strava.com/routes/3515287758975082812"/>
  <type>running</type>
  <trkseg>
   <trkpt lat="-37.89094" lon="145.31733">
    <ele>178.91</ele>
   </trkpt>
   <trkpt lat="-37.89076" lon="145.31708">
    <ele>180.6</ele>
   </trkpt>
   <trkpt lat="-37.890730000000005" lon="145.31686000000002">
    <ele>181.8</ele>
   </trkpt>
   <trkpt lat="-37.8909" lon="145.31665">
    <ele>181.32</ele>
   </trkpt>
   <trkpt lat="-37.89099" lon="145.31640000000002">
    <ele>181.58</ele>
   </trkpt>
   <trkpt lat="-37.89099" lon="145.31613000000002">
    <ele>181.70000000000002</ele>
   </trkpt>
   <trkpt lat="-37.89072" lon="145.31638">
    <ele>186.21</ele>
   </trkpt>
   <trkpt lat="-37.890480000000004" lon="145.31655">
    <ele>189.5</ele>
   </trkpt>
   <trkpt lat="-37.89049" lon="145.31654">
    <ele>189.37</ele>
   </trkpt>
   <trkpt lat="-37.8902" lon="145.31674">
    <ele>191.60999999999999</ele>
   </trkpt>
   <trkpt lat="-37.889725000074336" lon="145.31690500107865">
    <ele>198.06</ele>
   </trkpt>
   <trkpt lat="-37.889250000000004" lon="145.31707">
    <ele>201.53</ele>
   </trkpt>
   <trkpt lat="-37.88897" lon="145.317">
    <ele>208.09000000000003</ele>
   </trkpt>
   <trkpt lat="-37.88884" lon="145.31691">
    <ele>209.59000000000003</ele>
   </trkpt>
   <trkpt lat="-37.88884" lon="145.31692">
    <ele>209.62000000000003</ele>
   </trkpt>
   <trkpt lat="-37.88843" lon="145.31668000000002">
    <ele>217.92000000000002</ele>
   </trkpt>
   <trkpt lat="-37.8883" lon="145.31667000000002">
    <ele>219.57000000000002</ele>
   </trkpt>
   <trkpt lat="-37.88823" lon="145.31668000000002">
    <ele>220.12</ele>
   </trkpt>
   <trkpt lat="-37.88824" lon="145.31668000000002">
    <ele>220.12</ele>
   </trkpt>
   <trkpt lat="-37.88774499989936" lon="145.316765000594">
    <ele>224.17000000000002</ele>
   </trkpt>
   <trkpt lat="-37.88725" lon="145.31685000000002">
    <ele>227.61</ele>
   </trkpt>
   <trkpt lat="-37.887130000000006" lon="145.31697">
    <ele>228.01000000000002</ele>
   </trkpt>
   <trkpt lat="-37.88714" lon="145.31697">
    <ele>228.01000000000002</ele>
   </trkpt>
   <trkpt lat="-37.88707" lon="145.31704000000002">
    <ele>227.95000000000002</ele>
   </trkpt>
   <trkpt lat="-37.88698" lon="145.31721000000002">
    <ele>226.94000000000003</ele>
   </trkpt>
   <trkpt lat="-37.88691" lon="145.31741000000002">
    <ele>225.52</ele>
   </trkpt>
   <trkpt lat="-37.886880000000005" lon="145.31755">
    <ele>225.07000000000002</ele>
   </trkpt>
   <trkpt lat="-37.88667" lon="145.31742">
    <ele>227.94000000000003</ele>
   </trkpt>
   <trkpt lat="-37.88655" lon="145.31725">
    <ele>230.20000000000002</ele>
   </trkpt>
   <trkpt lat="-37.88642" lon="145.31715">
    <ele>236.26000000000002</ele>
   </trkpt>
   <trkpt lat="-37.88608" lon="145.31701">
    <ele>245.4</ele>
   </trkpt>
   <trkpt lat="-37.88532" lon="145.3168">
    <ele>265.02000000000004</ele>
   </trkpt>
   <trkpt lat="-37.88492" lon="145.31672">
    <ele>273.79</ele>
   </trkpt>
   <trkpt lat="-37.88454" lon="145.31663">
    <ele>282.45000000000005</ele>
   </trkpt>
   <trkpt lat="-37.88405" lon="145.31654">
    <ele>294.66</ele>
   </trkpt>
   <trkpt lat="-37.88338" lon="145.31629">
    <ele>307.46</ele>
   </trkpt>
   <trkpt lat="-37.883010000000006" lon="145.31627">
    <ele>319.59000000000003</ele>
   </trkpt>
   <trkpt lat="-37.88268" lon="145.31621">
    <ele>325.31000000000006</ele>
   </trkpt>
   <trkpt lat="-37.88203" lon="145.31637">
    <ele>342.79</ele>
   </trkpt>
   <trkpt lat="-37.88163" lon="145.31638">
    <ele>349.42</ele>
   </trkpt>
   <trkpt lat="-37.88111" lon="145.31625000000003">
    <ele>360.63</ele>
   </trkpt>
   <trkpt lat="-37.88085" lon="145.31625000000003">
    <ele>365.27000000000004</ele>
   </trkpt>
   <trkpt lat="-37.88067" lon="145.31623000000002">
    <ele>367.84000000000003</ele>
   </trkpt>
   <trkpt lat="-37.880230000085334" lon="145.3160849991326">
    <ele>380.62</ele>
   </trkpt>
   <trkpt lat="-37.87979" lon="145.31594">
    <ele>389.16</ele>
   </trkpt>
   <trkpt lat="-37.87964" lon="145.31593">
    <ele>391.15000000000003</ele>
   </trkpt>
   <trkpt lat="-37.87955" lon="145.31595000000002">
    <ele>394.26000000000005</ele>
   </trkpt>
   <trkpt lat="-37.87932" lon="145.31608">
    <ele>398.62</ele>
   </trkpt>
   <trkpt lat="-37.87888" lon="145.31655">
    <ele>405.58000000000004</ele>
   </trkpt>
   <trkpt lat="-37.87827" lon="145.31706">
    <ele>416.91</ele>
   </trkpt>
   <trkpt lat="-37.87836" lon="145.31685000000002">
    <ele>417.35</ele>
   </trkpt>
   <trkpt lat="-37.87885" lon="145.31601">
    <ele>417.29</ele>
   </trkpt>
   <trkpt lat="-37.87885" lon="145.316">
    <ele>417.29</ele>
   </trkpt>
   <trkpt lat="-37.87919500153184" lon="145.31541500259686">
    <ele>418.55</ele>
   </trkpt>
   <trkpt lat="-37.879540000000006" lon="145.31483">
    <ele>424.00000000000006</ele>
   </trkpt>
   <trkpt lat="-37.87955" lon="145.31474">
    <ele>425.54</ele>
   </trkpt>
   <trkpt lat="-37.87948" lon="145.31471000000002">
    <ele>425.54</ele>
   </trkpt>
   <trkpt lat="-37.87932" lon="145.31458">
    <ele>427.21000000000004</ele>
   </trkpt>
   <trkpt lat="-37.87924" lon="145.31446000000003">
    <ele>427.64</ele>
   </trkpt>
   <trkpt lat="-37.87915" lon="145.31446000000003">
    <ele>427.73</ele>
   </trkpt>
   <trkpt lat="-37.87939" lon="145.31436000000002">
    <ele>426.86</ele>
   </trkpt>
   <trkpt lat="-37.87946" lon="145.31428000000002">
    <ele>426.44000000000005</ele>
   </trkpt>
   <trkpt lat="-37.87948" lon="145.31417000000002">
    <ele>426.22</ele>
   </trkpt>
   <trkpt lat="-37.87928" lon="145.31419000000002">
    <ele>425.28000000000003</ele>
   </trkpt>
   <trkpt lat="-37.87882999993238" lon="145.31413999968586">
    <ele>421.47</ele>
   </trkpt>
   <trkpt lat="-37.87838" lon="145.31409000000002">
    <ele>416.18000000000006</ele>
   </trkpt>
   <trkpt lat="-37.87796" lon="145.31396">
    <ele>411.54</ele>
   </trkpt>
   <trkpt lat="-37.87753" lon="145.31387">
    <ele>407.52000000000004</ele>
   </trkpt>
   <trkpt lat="-37.877320000000005" lon="145.31387">
    <ele>404.24</ele>
   </trkpt>
   <trkpt lat="-37.87684" lon="145.31383000000002">
    <ele>397.49</ele>
   </trkpt>
   <trkpt lat="-37.87635" lon="145.31387">
    <ele>391.18</ele>
   </trkpt>
   <trkpt lat="-37.87585" lon="145.31401000000002">
    <ele>385.59000000000003</ele>
   </trkpt>
   <trkpt lat="-37.8757" lon="145.31402">
    <ele>385.59000000000003</ele>
   </trkpt>
   <trkpt lat="-37.87532" lon="145.31391000000002">
    <ele>381.12</ele>
   </trkpt>
   <trkpt lat="-37.87489" lon="145.31387">
    <ele>378.09000000000003</ele>
   </trkpt>
   <trkpt lat="-37.87447" lon="145.31404">
    <ele>374.02000000000004</ele>
   </trkpt>
   <trkpt lat="-37.8742" lon="145.31409000000002">
    <ele>372.12</ele>
   </trkpt>
   <trkpt lat="-37.87366" lon="145.31386">
    <ele>370.35</ele>
   </trkpt>
   <trkpt lat="-37.87344" lon="145.31381000000002">
    <ele>369.45000000000005</ele>
   </trkpt>
   <trkpt lat="-37.87288" lon="145.31377">
    <ele>367.51</ele>
   </trkpt>
   <trkpt lat="-37.872600000000006" lon="145.31367">
    <ele>364.35</ele>
   </trkpt>
   <trkpt lat="-37.87241" lon="145.3135">
    <ele>361.05</ele>
   </trkpt>
   <trkpt lat="-37.87229" lon="145.31326">
    <ele>360.12000000000006</ele>
   </trkpt>
   <trkpt lat="-37.87227" lon="145.31307">
    <ele>357.58</ele>
   </trkpt>
   <trkpt lat="-37.87229" lon="145.31288">
    <ele>355.93</ele>
   </trkpt>
   <trkpt lat="-37.87254" lon="145.31233">
    <ele>349.92</ele>
   </trkpt>
   <trkpt lat="-37.87259" lon="145.31212000000002">
    <ele>348.62000000000006</ele>
   </trkpt>
   <trkpt lat="-37.87254" lon="145.31198">
    <ele>348.04</ele>
   </trkpt>
   <trkpt lat="-37.87245" lon="145.31188">
    <ele>348.80000000000007</ele>
   </trkpt>
   <trkpt lat="-37.87236" lon="145.31185000000002">
    <ele>350.0</ele>
   </trkpt>
   <trkpt lat="-37.87227" lon="145.31188">
    <ele>351.89000000000004</ele>
   </trkpt>
   <trkpt lat="-37.87201" lon="145.31204000000002">
    <ele>360.53000000000003</ele>
   </trkpt>
   <trkpt lat="-37.87182" lon="145.31231000000002">
    <ele>370.33000000000004</ele>
   </trkpt>
   <trkpt lat="-37.87174" lon="145.31253">
    <ele>376.65000000000003</ele>
   </trkpt>
   <trkpt lat="-37.87165" lon="145.31262">
    <ele>376.65000000000003</ele>
   </trkpt>
   <trkpt lat="-37.87156" lon="145.31266000000002">
    <ele>381.25</ele>
   </trkpt>
   <trkpt lat="-37.871570000000006" lon="145.31266000000002">
    <ele>380.92</ele>
   </trkpt>
   <trkpt lat="-37.87133" lon="145.3128">
    <ele>387.28000000000003</ele>
   </trkpt>
   <trkpt lat="-37.87127" lon="145.31286">
    <ele>389.11</ele>
   </trkpt>
   <trkpt lat="-37.87106" lon="145.31255000000002">
    <ele>390.0</ele>
   </trkpt>
   <trkpt lat="-37.87046" lon="145.31199">
    <ele>393.70000000000005</ele>
   </trkpt>
   <trkpt lat="-37.8703" lon="145.31188">
    <ele>394.65000000000003</ele>
   </trkpt>
   <trkpt lat="-37.87021" lon="145.31183000000001">
    <ele>395.17</ele>
   </trkpt>
   <trkpt lat="-37.86994" lon="145.31179">
    <ele>398.6</ele>
   </trkpt>
   <trkpt lat="-37.86981" lon="145.31181">
    <ele>399.05</ele>
   </trkpt>
   <trkpt lat="-37.86963" lon="145.31187">
    <ele>400.56</ele>
   </trkpt>
   <trkpt lat="-37.8695" lon="145.31185000000002">
    <ele>401.49</ele>
   </trkpt>
   <trkpt lat="-37.86921" lon="145.31163">
    <ele>405.08000000000004</ele>
   </trkpt>
   <trkpt lat="-37.86898" lon="145.31142">
    <ele>409.94</ele>
   </trkpt>
   <trkpt lat="-37.868840000000006" lon="145.31129">
    <ele>412.76</ele>
   </trkpt>
   <trkpt lat="-37.86871" lon="145.31121000000002">
    <ele>414.86</ele>
   </trkpt>
   <trkpt lat="-37.86847" lon="145.31113000000002">
    <ele>417.36</ele>
   </trkpt>
   <trkpt lat="-37.86836" lon="145.31107">
    <ele>417.66</ele>
   </trkpt>
   <trkpt lat="-37.86822" lon="145.31095000000002">
    <ele>417.16</ele>
   </trkpt>
   <trkpt lat="-37.868" lon="145.31061000000003">
    <ele>412.48</ele>
   </trkpt>
   <trkpt lat="-37.8678" lon="145.31037">
    <ele>406.37</ele>
   </trkpt>
   <trkpt lat="-37.86773" lon="145.31028">
    <ele>405.51000000000005</ele>
   </trkpt>
   <trkpt lat="-37.86748" lon="145.30969000000002">
    <ele>395.88</ele>
   </trkpt>
   <trkpt lat="-37.86726" lon="145.30929">
    <ele>389.28000000000003</ele>
   </trkpt>
   <trkpt lat="-37.86683" lon="145.30834000000002">
    <ele>364.66</ele>
   </trkpt>
   <trkpt lat="-37.86672" lon="145.30775">
    <ele>354.57000000000005</ele>
   </trkpt>
   <trkpt lat="-37.86668" lon="145.30759">
    <ele>352.49</ele>
   </trkpt>
   <trkpt lat="-37.8665" lon="145.30726">
    <ele>349.34000000000003</ele>
   </trkpt>
   <trkpt lat="-37.86645" lon="145.30707">
    <ele>344.80000000000007</ele>
   </trkpt>
   <trkpt lat="-37.86641" lon="145.30689">
    <ele>342.21</ele>
   </trkpt>
   <trkpt lat="-37.86641" lon="145.30642">
    <ele>333.25000000000006</ele>
   </trkpt>
   <trkpt lat="-37.86625" lon="145.3059">
    <ele>321.79</ele>
   </trkpt>
   <trkpt lat="-37.86612" lon="145.30566000000002">
    <ele>316.38000000000005</ele>
   </trkpt>
   <trkpt lat="-37.86576" lon="145.30557000000002">
    <ele>310.22</ele>
   </trkpt>
   <trkpt lat="-37.86569" lon="145.30548000000002">
    <ele>308.62</ele>
   </trkpt>
   <trkpt lat="-37.86567" lon="145.30535">
    <ele>306.14000000000004</ele>
   </trkpt>
   <trkpt lat="-37.86567" lon="145.30508">
    <ele>303.58</ele>
   </trkpt>
   <trkpt lat="-37.86558" lon="145.30416000000002">
    <ele>293.04</ele>
   </trkpt>
   <trkpt lat="-37.86547" lon="145.30376">
    <ele>286.27000000000004</ele>
   </trkpt>
   <trkpt lat="-37.86527" lon="145.3035">
    <ele>279.88</ele>
   </trkpt>
   <trkpt lat="-37.86475" lon="145.30303">
    <ele>265.16</ele>
   </trkpt>
   <trkpt lat="-37.8645" lon="145.30270000000002">
    <ele>259.17</ele>
   </trkpt>
   <trkpt lat="-37.86442" lon="145.30261000000002">
    <ele>257.59999999999997</ele>
   </trkpt>
   <trkpt lat="-37.864340000000006" lon="145.30257">
    <ele>255.31000000000003</ele>
   </trkpt>
   <trkpt lat="-37.86421" lon="145.30257">
    <ele>251.36</ele>
   </trkpt>
   <trkpt lat="-37.86406" lon="145.30265">
    <ele>249.85000000000002</ele>
   </trkpt>
   <trkpt lat="-37.86392" lon="145.30282000000003">
    <ele>247.66000000000003</ele>
   </trkpt>
   <trkpt lat="-37.86379" lon="145.30302">
    <ele>243.14000000000001</ele>
   </trkpt>
   <trkpt lat="-37.863710000000005" lon="145.30308000000002">
    <ele>243.07</ele>
   </trkpt>
   <trkpt lat="-37.86379" lon="145.30353000000002">
    <ele>247.3</ele>
   </trkpt>
   <trkpt lat="-37.863870000000006" lon="145.30377000000001">
    <ele>249.22000000000003</ele>
   </trkpt>
   <trkpt lat="-37.86399" lon="145.30405000000002">
    <ele>251.72</ele>
   </trkpt>
   <trkpt lat="-37.86403" lon="145.30415000000002">
    <ele>251.64000000000001</ele>
   </trkpt>
   <trkpt lat="-37.8645" lon="145.30495000000002">
    <ele>261.43</ele>
   </trkpt>
   <trkpt lat="-37.86457" lon="145.30517">
    <ele>264.06</ele>
   </trkpt>
   <trkpt lat="-37.86462" lon="145.30539000000002">
    <ele>267.23</ele>
   </trkpt>
   <trkpt lat="-37.86459" lon="145.30563">
    <ele>268.78000000000003</ele>
   </trkpt>
   <trkpt lat="-37.86455" lon="145.30585000000002">
    <ele>267.32</ele>
   </trkpt>
   <trkpt lat="-37.86437" lon="145.30624">
    <ele>261.57</ele>
   </trkpt>
   <trkpt lat="-37.8643" lon="145.30647000000002">
    <ele>260.24</ele>
   </trkpt>
   <trkpt lat="-37.86415" lon="145.30717">
    <ele>259.95</ele>
   </trkpt>
   <trkpt lat="-37.86417" lon="145.30737000000002">
    <ele>262.03999999999996</ele>
   </trkpt>
   <trkpt lat="-37.86435" lon="145.30793">
    <ele>270.25000000000006</ele>
   </trkpt>
   <trkpt lat="-37.86428" lon="145.30827000000002">
    <ele>270.74</ele>
   </trkpt>
   <trkpt lat="-37.86435" lon="145.30909000000003">
    <ele>269.97</ele>
   </trkpt>
   <trkpt lat="-37.86439" lon="145.30924000000002">
    <ele>271.47</ele>
   </trkpt>
   <trkpt lat="-37.86471" lon="145.30987000000002">
    <ele>284.03</ele>
   </trkpt>
   <trkpt lat="-37.865" lon="145.31022000000002">
    <ele>293.8</ele>
   </trkpt>
   <trkpt lat="-37.86509" lon="145.31053">
    <ele>297.72</ele>
   </trkpt>
   <trkpt lat="-37.86522" lon="145.31083">
    <ele>299.32000000000005</ele>
   </trkpt>
   <trkpt lat="-37.86533" lon="145.31125">
    <ele>300.72</ele>
   </trkpt>
   <trkpt lat="-37.86536" lon="145.31157000000002">
    <ele>300.24</ele>
   </trkpt>
   <trkpt lat="-37.86533" lon="145.31178">
    <ele>300.4</ele>
   </trkpt>
   <trkpt lat="-37.865390000000005" lon="145.31223">
    <ele>304.85</ele>
   </trkpt>
   <trkpt lat="-37.86547" lon="145.31276000000003">
    <ele>310.70000000000005</ele>
   </trkpt>
   <trkpt lat="-37.8656" lon="145.31320000000002">
    <ele>318.43000000000006</ele>
   </trkpt>
   <trkpt lat="-37.86571" lon="145.31355000000002">
    <ele>323.17</ele>
   </trkpt>
   <trkpt lat="-37.866" lon="145.31425000000002">
    <ele>327.22</ele>
   </trkpt>
   <trkpt lat="-37.86605" lon="145.31453000000002">
    <ele>328.93</ele>
   </trkpt>
   <trkpt lat="-37.86603" lon="145.31467">
    <ele>328.39</ele>
   </trkpt>
   <trkpt lat="-37.86598" lon="145.31474">
    <ele>328.27</ele>
   </trkpt>
   <trkpt lat="-37.86565" lon="145.31466">
    <ele>327.59000000000003</ele>
   </trkpt>
   <trkpt lat="-37.86518" lon="145.3145">
    <ele>321.03000000000003</ele>
   </trkpt>
   <trkpt lat="-37.86462" lon="145.3142">
    <ele>319.17</ele>
   </trkpt>
   <trkpt lat="-37.86421" lon="145.31386">
    <ele>311.71000000000004</ele>
   </trkpt>
   <trkpt lat="-37.8637" lon="145.31356000000002">
    <ele>301.81</ele>
   </trkpt>
   <trkpt lat="-37.86359" lon="145.31356000000002">
    <ele>298.83000000000004</ele>
   </trkpt>
   <trkpt lat="-37.86361" lon="145.31356000000002">
    <ele>299.27000000000004</ele>
   </trkpt>
   <trkpt lat="-37.86345" lon="145.31356000000002">
    <ele>297.74</ele>
   </trkpt>
   <trkpt lat="-37.86327" lon="145.31347000000002">
    <ele>292.82</ele>
   </trkpt>
   <trkpt lat="-37.863115001620876" lon="145.31409000132243">
    <ele>298.25</ele>
   </trkpt>
   <trkpt lat="-37.86296" lon="145.31471000000002">
    <ele>305.9</ele>
   </trkpt>
   <trkpt lat="-37.86286000181156" lon="145.3153650009059">
    <ele>309.71000000000004</ele>
   </trkpt>
   <trkpt lat="-37.86276" lon="145.31602">
    <ele>314.07</ele>
   </trkpt>
   <trkpt lat="-37.86274" lon="145.31642000000002">
    <ele>316.75</ele>
   </trkpt>
   <trkpt lat="-37.86285" lon="145.31676000000002">
    <ele>318.64000000000004</ele>
   </trkpt>
   <trkpt lat="-37.86298" lon="145.31692">
    <ele>320.58000000000004</ele>
   </trkpt>
   <trkpt lat="-37.8631" lon="145.31695000000002">
    <ele>320.61</ele>
   </trkpt>
   <trkpt lat="-37.863110000000006" lon="145.31695000000002">
    <ele>321.69</ele>
   </trkpt>
   <trkpt lat="-37.863620000312636" lon="145.31697499984222">
    <ele>329.94</ele>
   </trkpt>
   <trkpt lat="-37.86413" lon="145.317">
    <ele>326.82</ele>
   </trkpt>
   <trkpt lat="-37.864230000000006" lon="145.31715">
    <ele>320.26000000000005</ele>
   </trkpt>
   <trkpt lat="-37.865" lon="145.3169">
    <ele>328.32</ele>
   </trkpt>
   <trkpt lat="-37.86502" lon="145.31763">
    <ele>307.01</ele>
   </trkpt>
   <trkpt lat="-37.865500000000004" lon="145.31851">
    <ele>277.33000000000004</ele>
   </trkpt>
   <trkpt lat="-37.86547" lon="145.31857000000002">
    <ele>274.68</ele>
   </trkpt>
   <trkpt lat="-37.86580000083478" lon="145.3181800015201">
    <ele>286.23</ele>
   </trkpt>
   <trkpt lat="-37.866130000000005" lon="145.31779">
    <ele>291.17</ele>
   </trkpt>
   <trkpt lat="-37.86641500109569" lon="145.31730000175696">
    <ele>299.7</ele>
   </trkpt>
   <trkpt lat="-37.8667" lon="145.31681">
    <ele>307.44000000000005</ele>
   </trkpt>
   <trkpt lat="-37.86732000000001" lon="145.31685000000002">
    <ele>327.62</ele>
   </trkpt>
   <trkpt lat="-37.86766" lon="145.31762">
    <ele>344.41</ele>
   </trkpt>
   <trkpt lat="-37.86768" lon="145.31763">
    <ele>340.39000000000004</ele>
   </trkpt>
   <trkpt lat="-37.86759" lon="145.31787">
    <ele>339.63000000000005</ele>
   </trkpt>
   <trkpt lat="-37.86741" lon="145.31875000000002">
    <ele>336.01000000000005</ele>
   </trkpt>
   <trkpt lat="-37.86744" lon="145.31893000000002">
    <ele>335.62</ele>
   </trkpt>
   <trkpt lat="-37.86762" lon="145.31942">
    <ele>331.05</ele>
   </trkpt>
   <trkpt lat="-37.86782" lon="145.31976">
    <ele>329.11</ele>
   </trkpt>
   <trkpt lat="-37.86786" lon="145.31989000000002">
    <ele>328.86</ele>
   </trkpt>
   <trkpt lat="-37.86786" lon="145.31999000000002">
    <ele>328.81000000000006</ele>
   </trkpt>
   <trkpt lat="-37.867720000000006" lon="145.32028000000003">
    <ele>329.51</ele>
   </trkpt>
   <trkpt lat="-37.86737" lon="145.32079000000002">
    <ele>330.37000000000006</ele>
   </trkpt>
   <trkpt lat="-37.86712" lon="145.32127">
    <ele>329.42</ele>
   </trkpt>
   <trkpt lat="-37.86706" lon="145.32158">
    <ele>327.19000000000005</ele>
   </trkpt>
   <trkpt lat="-37.86715" lon="145.32185">
    <ele>325.84000000000003</ele>
   </trkpt>
   <trkpt lat="-37.86741" lon="145.32231000000002">
    <ele>322.29</ele>
   </trkpt>
   <trkpt lat="-37.86782500160754" lon="145.32293999634422">
    <ele>319.11</ele>
   </trkpt>
   <trkpt lat="-37.86824" lon="145.32357000000002">
    <ele>317.21999999999997</ele>
   </trkpt>
   <trkpt lat="-37.868280000000006" lon="145.32366000000002">
    <ele>316.83</ele>
   </trkpt>
   <trkpt lat="-37.86827" lon="145.32377000000002">
    <ele>316.35</ele>
   </trkpt>
   <trkpt lat="-37.868170000000006" lon="145.32392000000002">
    <ele>315.98</ele>
   </trkpt>
   <trkpt lat="-37.867715001552334" lon="145.32454000392826">
    <ele>311.26000000000005</ele>
   </trkpt>
   <trkpt lat="-37.86726" lon="145.32516">
    <ele>302.34</ele>
   </trkpt>
   <trkpt lat="-37.86692" lon="145.32583000000002">
    <ele>297.7</ele>
   </trkpt>
   <trkpt lat="-37.86694" lon="145.32580000000002">
    <ele>311.01</ele>
   </trkpt>
   <trkpt lat="-37.86663" lon="145.32646000000003">
    <ele>305.1</ele>
   </trkpt>
   <trkpt lat="-37.86638000000001" lon="145.32745">
    <ele>298.64</ele>
   </trkpt>
   <trkpt lat="-37.86583999990051" lon="145.32739499958555">
    <ele>282.2</ele>
   </trkpt>
   <trkpt lat="-37.865300000000005" lon="145.32734000000002">
    <ele>259.97</ele>
   </trkpt>
   <trkpt lat="-37.86475" lon="145.32761000000002">
    <ele>254.19000000000003</ele>
   </trkpt>
   <trkpt lat="-37.86482" lon="145.32749">
    <ele>248.89000000000001</ele>
   </trkpt>
   <trkpt lat="-37.864810000000006" lon="145.32766">
    <ele>247.22000000000003</ele>
   </trkpt>
   <trkpt lat="-37.86471" lon="145.32788000000002">
    <ele>241.20000000000002</ele>
   </trkpt>
   <trkpt lat="-37.86462" lon="145.3279">
    <ele>243.49</ele>
   </trkpt>
   <trkpt lat="-37.86453" lon="145.3279">
    <ele>247.60000000000002</ele>
   </trkpt>
   <trkpt lat="-37.86446" lon="145.32787000000002">
    <ele>248.38000000000002</ele>
   </trkpt>
   <trkpt lat="-37.8643" lon="145.32765">
    <ele>247.58</ele>
   </trkpt>
   <trkpt lat="-37.864180000000005" lon="145.32759000000001">
    <ele>247.04</ele>
   </trkpt>
   <trkpt lat="-37.86397" lon="145.32753000000002">
    <ele>246.72000000000003</ele>
   </trkpt>
   <trkpt lat="-37.86356" lon="145.32760000000002">
    <ele>247.29</ele>
   </trkpt>
   <trkpt lat="-37.86307" lon="145.32762000000002">
    <ele>249.34000000000003</ele>
   </trkpt>
   <trkpt lat="-37.86265" lon="145.32778000000002">
    <ele>249.63000000000002</ele>
   </trkpt>
   <trkpt lat="-37.862210000000005" lon="145.32783">
    <ele>247.47000000000003</ele>
   </trkpt>
   <trkpt lat="-37.86222" lon="145.32782">
    <ele>247.62</ele>
   </trkpt>
   <trkpt lat="-37.861990000000006" lon="145.32794">
    <ele>245.81000000000003</ele>
   </trkpt>
   <trkpt lat="-37.862570000000005" lon="145.32853">
    <ele>264.39</ele>
   </trkpt>
   <trkpt lat="-37.863" lon="145.32928">
    <ele>289.87</ele>
   </trkpt>
   <trkpt lat="-37.863440000000004" lon="145.3298">
    <ele>308.98</ele>
   </trkpt>
   <trkpt lat="-37.86348" lon="145.32984000000002">
    <ele>306.88000000000005</ele>
   </trkpt>
   <trkpt lat="-37.86352" lon="145.3298">
    <ele>306.97</ele>
   </trkpt>
   <trkpt lat="-37.86361" lon="145.32976000000002">
    <ele>307.17</ele>
   </trkpt>
   <trkpt lat="-37.86403" lon="145.32975000000002">
    <ele>308.87</ele>
   </trkpt>
   <trkpt lat="-37.86424" lon="145.32978">
    <ele>310.64000000000004</ele>
   </trkpt>
   <trkpt lat="-37.86446" lon="145.32988">
    <ele>311.6</ele>
   </trkpt>
   <trkpt lat="-37.86459" lon="145.32996">
    <ele>312.52000000000004</ele>
   </trkpt>
   <trkpt lat="-37.86475" lon="145.33010000000002">
    <ele>313.53000000000003</ele>
   </trkpt>
   <trkpt lat="-37.865010000000005" lon="145.33040000000003">
    <ele>315.32000000000005</ele>
   </trkpt>
   <trkpt lat="-37.86542000086532" lon="145.3308699973062">
    <ele>320.67</ele>
   </trkpt>
   <trkpt lat="-37.86583" lon="145.33134">
    <ele>331.61</ele>
   </trkpt>
   <trkpt lat="-37.86634000004035" lon="145.33143999930752">
    <ele>336.67</ele>
   </trkpt>
   <trkpt lat="-37.86685000000001" lon="145.33154000000002">
    <ele>340.22</ele>
   </trkpt>
   <trkpt lat="-37.86741000002079" lon="145.33154000000002">
    <ele>344.93</ele>
   </trkpt>
   <trkpt lat="-37.86797" lon="145.33154000000002">
    <ele>341.6</ele>
   </trkpt>
   <trkpt lat="-37.86797" lon="145.33153000000001">
    <ele>341.6</ele>
   </trkpt>
   <trkpt lat="-37.868610000000004" lon="145.33205">
    <ele>348.92</ele>
   </trkpt>
   <trkpt lat="-37.868930000000006" lon="145.33298000000002">
    <ele>354.25</ele>
   </trkpt>
   <trkpt lat="-37.869020000000006" lon="145.33392">
    <ele>360.26</ele>
   </trkpt>
   <trkpt lat="-37.86973000011706" lon="145.33411999805807">
    <ele>347.07000000000005</ele>
   </trkpt>
   <trkpt lat="-37.87044" lon="145.33432000000002">
    <ele>361.23</ele>
   </trkpt>
   <trkpt lat="-37.870450000000005" lon="145.33465">
    <ele>354.85</ele>
   </trkpt>
   <trkpt lat="-37.87055" lon="145.33518">
    <ele>364.03000000000003</ele>
   </trkpt>
   <trkpt lat="-37.87035" lon="145.3356">
    <ele>377.06</ele>
   </trkpt>
   <trkpt lat="-37.8701" lon="145.33595000000003">
    <ele>383.45</ele>
   </trkpt>
   <trkpt lat="-37.87001" lon="145.33628000000002">
    <ele>389.16</ele>
   </trkpt>
   <trkpt lat="-37.86983" lon="145.33668">
    <ele>395.6</ele>
   </trkpt>
   <trkpt lat="-37.86968" lon="145.33686">
    <ele>396.38</ele>
   </trkpt>
   <trkpt lat="-37.86927" lon="145.33711000000002">
    <ele>396.34000000000003</ele>
   </trkpt>
   <trkpt lat="-37.86914" lon="145.33722">
    <ele>398.37000000000006</ele>
   </trkpt>
   <trkpt lat="-37.86905" lon="145.33726000000001">
    <ele>399.02000000000004</ele>
   </trkpt>
   <trkpt lat="-37.86891" lon="145.33724">
    <ele>398.64000000000004</ele>
   </trkpt>
   <trkpt lat="-37.8686" lon="145.33698">
    <ele>395.44</ele>
   </trkpt>
   <trkpt lat="-37.86831" lon="145.3368">
    <ele>396.40000000000003</ele>
   </trkpt>
   <trkpt lat="-37.86813" lon="145.33664000000002">
    <ele>396.92</ele>
   </trkpt>
   <trkpt lat="-37.867900000000006" lon="145.33622000000003">
    <ele>397.85</ele>
   </trkpt>
   <trkpt lat="-37.86766" lon="145.33592000000002">
    <ele>398.70000000000005</ele>
   </trkpt>
   <trkpt lat="-37.86748" lon="145.33566000000002">
    <ele>399.75000000000006</ele>
   </trkpt>
   <trkpt lat="-37.86741" lon="145.33546">
    <ele>400.69000000000005</ele>
   </trkpt>
   <trkpt lat="-37.86735" lon="145.33513000000002">
    <ele>403.57000000000005</ele>
   </trkpt>
   <trkpt lat="-37.86735" lon="145.33496000000002">
    <ele>403.57000000000005</ele>
   </trkpt>
   <trkpt lat="-37.86744" lon="145.33439">
    <ele>406.13000000000005</ele>
   </trkpt>
   <trkpt lat="-37.86744" lon="145.33422000000002">
    <ele>406.41</ele>
   </trkpt>
   <trkpt lat="-37.86741" lon="145.33403">
    <ele>408.33000000000004</ele>
   </trkpt>
   <trkpt lat="-37.86737" lon="145.33386000000002">
    <ele>408.33000000000004</ele>
   </trkpt>
   <trkpt lat="-37.8673" lon="145.33371000000002">
    <ele>409.56</ele>
   </trkpt>
   <trkpt lat="-37.867200000000004" lon="145.33355">
    <ele>410.97</ele>
   </trkpt>
   <trkpt lat="-37.86724" lon="145.33364">
    <ele>411.58000000000004</ele>
   </trkpt>
   <trkpt lat="-37.867250000000006" lon="145.33384">
    <ele>412.44</ele>
   </trkpt>
   <trkpt lat="-37.86721" lon="145.33406000000002">
    <ele>413.86000000000007</ele>
   </trkpt>
   <trkpt lat="-37.86688" lon="145.33481">
    <ele>421.03000000000003</ele>
   </trkpt>
   <trkpt lat="-37.86683" lon="145.335">
    <ele>421.03000000000003</ele>
   </trkpt>
   <trkpt lat="-37.86683" lon="145.33499">
    <ele>421.1</ele>
   </trkpt>
   <trkpt lat="-37.866690000000006" lon="145.33556000000002">
    <ele>425.19</ele>
   </trkpt>
   <trkpt lat="-37.86652" lon="145.33642">
    <ele>430.68000000000006</ele>
   </trkpt>
   <trkpt lat="-37.86641" lon="145.33626">
    <ele>430.14</ele>
   </trkpt>
   <trkpt lat="-37.86621" lon="145.33622000000003">
    <ele>428.94000000000005</ele>
   </trkpt>
   <trkpt lat="-37.86598" lon="145.33559000000002">
    <ele>423.95000000000005</ele>
   </trkpt>
   <trkpt lat="-37.86587" lon="145.33555">
    <ele>421.58</ele>
   </trkpt>
   <trkpt lat="-37.86585" lon="145.3356">
    <ele>420.81</ele>
   </trkpt>
   <trkpt lat="-37.86585" lon="145.33585000000002">
    <ele>419.64</ele>
   </trkpt>
   <trkpt lat="-37.86583" lon="145.33618">
    <ele>418.55</ele>
   </trkpt>
   <trkpt lat="-37.86562" lon="145.33726000000001">
    <ele>417.7</ele>
   </trkpt>
   <trkpt lat="-37.865465001196924" lon="145.3377950011717">
    <ele>417.23</ele>
   </trkpt>
   <trkpt lat="-37.86531" lon="145.33833">
    <ele>417.63000000000005</ele>
   </trkpt>
   <trkpt lat="-37.86509" lon="145.33883">
    <ele>420.42</ele>
   </trkpt>
   <trkpt lat="-37.86509" lon="145.33882">
    <ele>420.37</ele>
   </trkpt>
   <trkpt lat="-37.86486" lon="145.33964">
    <ele>422.72</ele>
   </trkpt>
   <trkpt lat="-37.86475" lon="145.33980000000003">
    <ele>424.43</ele>
   </trkpt>
   <trkpt lat="-37.86464" lon="145.33988000000002">
    <ele>426.67</ele>
   </trkpt>
   <trkpt lat="-37.8645" lon="145.33989000000003">
    <ele>428.50000000000006</ele>
   </trkpt>
   <trkpt lat="-37.8641" lon="145.33975">
    <ele>431.11</ele>
   </trkpt>
   <trkpt lat="-37.863780000000006" lon="145.33974">
    <ele>433.1</ele>
   </trkpt>
   <trkpt lat="-37.86354" lon="145.33979000000002">
    <ele>434.85</ele>
   </trkpt>
   <trkpt lat="-37.86318" lon="145.33996000000002">
    <ele>437.58000000000004</ele>
   </trkpt>
   <trkpt lat="-37.862860000000005" lon="145.34025000000003">
    <ele>439.6</ele>
   </trkpt>
   <trkpt lat="-37.863310000000006" lon="145.34074">
    <ele>456.32000000000005</ele>
   </trkpt>
   <trkpt lat="-37.8639" lon="145.34133">
    <ele>473.63000000000005</ele>
   </trkpt>
   <trkpt lat="-37.86433" lon="145.34163">
    <ele>480.74000000000007</ele>
   </trkpt>
   <trkpt lat="-37.86489" lon="145.34179">
    <ele>482.94</ele>
   </trkpt>
   <trkpt lat="-37.86515" lon="145.3418">
    <ele>482.04</ele>
   </trkpt>
   <trkpt lat="-37.86529" lon="145.34177000000003">
    <ele>481.64</ele>
   </trkpt>
   <trkpt lat="-37.865300000000005" lon="145.34177000000003">
    <ele>481.64</ele>
   </trkpt>
   <trkpt lat="-37.865610000000004" lon="145.34172">
    <ele>482.02000000000004</ele>
   </trkpt>
   <trkpt lat="-37.86565" lon="145.34188">
    <ele>481.48</ele>
   </trkpt>
   <trkpt lat="-37.86587" lon="145.34215">
    <ele>479.98</ele>
   </trkpt>
   <trkpt lat="-37.86634" lon="145.34241">
    <ele>478.44</ele>
   </trkpt>
   <trkpt lat="-37.86663" lon="145.34261">
    <ele>477.21000000000004</ele>
   </trkpt>
   <trkpt lat="-37.86717" lon="145.34283000000002">
    <ele>478.2</ele>
   </trkpt>
   <trkpt lat="-37.86741" lon="145.34287">
    <ele>481.06000000000006</ele>
   </trkpt>
   <trkpt lat="-37.86766" lon="145.34284000000002">
    <ele>484.94000000000005</ele>
   </trkpt>
   <trkpt lat="-37.86838" lon="145.34305">
    <ele>489.52000000000004</ele>
   </trkpt>
   <trkpt lat="-37.86891" lon="145.34316">
    <ele>492.73</ele>
   </trkpt>
   <trkpt lat="-37.86914" lon="145.34323">
    <ele>494.17</ele>
   </trkpt>
   <trkpt lat="-37.86979" lon="145.34337000000002">
    <ele>497.07000000000005</ele>
   </trkpt>
   <trkpt lat="-37.86985" lon="145.34342">
    <ele>497.53000000000003</ele>
   </trkpt>
   <trkpt lat="-37.87001" lon="145.34359">
    <ele>496.04</ele>
   </trkpt>
   <trkpt lat="-37.87026" lon="145.34375">
    <ele>493.2</ele>
   </trkpt>
   <trkpt lat="-37.87037" lon="145.34386">
    <ele>493.7300000000001</ele>
   </trkpt>
   <trkpt lat="-37.87066" lon="145.34400000000002">
    <ele>500.65999999999997</ele>
   </trkpt>
   <trkpt lat="-37.87088" lon="145.34415">
    <ele>505.5200000000001</ele>
   </trkpt>
   <trkpt lat="-37.87109" lon="145.34422">
    <ele>508.56</ele>
   </trkpt>
   <trkpt lat="-37.87147" lon="145.34362000000002">
    <ele>510.97</ele>
   </trkpt>
   <trkpt lat="-37.87169" lon="145.34336000000002">
    <ele>512.95</ele>
   </trkpt>
   <trkpt lat="-37.87241000187123" lon="145.34400999372386">
    <ele>516.6800000000001</ele>
   </trkpt>
   <trkpt lat="-37.87313" lon="145.34466">
    <ele>521.4300000000001</ele>
   </trkpt>
   <trkpt lat="-37.87326" lon="145.34478000000001">
    <ele>522.48</ele>
   </trkpt>
   <trkpt lat="-37.87367000090755" lon="145.34525499730245">
    <ele>525.1800000000001</ele>
   </trkpt>
   <trkpt lat="-37.874080000000006" lon="145.34573">
    <ele>526.39</ele>
   </trkpt>
   <trkpt lat="-37.874120000000005" lon="145.34580000000003">
    <ele>528.61</ele>
   </trkpt>
   <trkpt lat="-37.87458000027516" lon="145.3459449991533">
    <ele>526.5500000000001</ele>
   </trkpt>
   <trkpt lat="-37.875040000000006" lon="145.34609">
    <ele>523.47</ele>
   </trkpt>
   <trkpt lat="-37.875220000000006" lon="145.34619">
    <ele>522.58</ele>
   </trkpt>
   <trkpt lat="-37.8757" lon="145.34677000000002">
    <ele>518.21</ele>
   </trkpt>
   <trkpt lat="-37.87588" lon="145.34683">
    <ele>515.95</ele>
   </trkpt>
   <trkpt lat="-37.87595" lon="145.3468">
    <ele>515.12</ele>
   </trkpt>
   <trkpt lat="-37.875960000000006" lon="145.3468">
    <ele>530.6</ele>
   </trkpt>
   <trkpt lat="-37.8761" lon="145.34653">
    <ele>530.25</ele>
   </trkpt>
   <trkpt lat="-37.876110000000004" lon="145.34653">
    <ele>518.5000000000001</ele>
   </trkpt>
   <trkpt lat="-37.87603" lon="145.34592">
    <ele>519.2800000000001</ele>
   </trkpt>
   <trkpt lat="-37.87603" lon="145.34573">
    <ele>519.3100000000001</ele>
   </trkpt>
   <trkpt lat="-37.87599" lon="145.3454">
    <ele>518.8900000000001</ele>
   </trkpt>
   <trkpt lat="-37.87599" lon="145.34493">
    <ele>517.54</ele>
   </trkpt>
   <trkpt lat="-37.8759" lon="145.34467">
    <ele>515.8600000000001</ele>
   </trkpt>
   <trkpt lat="-37.875690000000006" lon="145.34416000000002">
    <ele>513.9</ele>
   </trkpt>
   <trkpt lat="-37.87556" lon="145.34399000000002">
    <ele>513.1999999999999</ele>
   </trkpt>
   <trkpt lat="-37.875510000000006" lon="145.34384">
    <ele>512.51</ele>
   </trkpt>
   <trkpt lat="-37.87545" lon="145.3436">
    <ele>511.3500000000001</ele>
   </trkpt>
   <trkpt lat="-37.875490000000006" lon="145.34341">
    <ele>509.53999999999996</ele>
   </trkpt>
   <trkpt lat="-37.8755" lon="145.34335000000002">
    <ele>508.99000000000007</ele>
   </trkpt>
   <trkpt lat="-37.875510000000006" lon="145.34301000000002">
    <ele>504.70000000000005</ele>
   </trkpt>
   <trkpt lat="-37.875370000000004" lon="145.34295">
    <ele>503.06000000000006</ele>
   </trkpt>
   <trkpt lat="-37.875350000000005" lon="145.3428">
    <ele>502.65999999999997</ele>
   </trkpt>
   <trkpt lat="-37.87581" lon="145.34248000000002">
    <ele>501.87</ele>
   </trkpt>
   <trkpt lat="-37.875980000000006" lon="145.34243">
    <ele>501.92999999999995</ele>
   </trkpt>
   <trkpt lat="-37.876000000000005" lon="145.34233">
    <ele>501.73</ele>
   </trkpt>
   <trkpt lat="-37.87603" lon="145.34226">
    <ele>502.09999999999997</ele>
   </trkpt>
   <trkpt lat="-37.87664" lon="145.34179">
    <ele>505.63</ele>
   </trkpt>
   <trkpt lat="-37.876650000000005" lon="145.34179">
    <ele>505.68</ele>
   </trkpt>
   <trkpt lat="-37.877010000000006" lon="145.34152">
    <ele>508.55000000000007</ele>
   </trkpt>
   <trkpt lat="-37.87711" lon="145.34137">
    <ele>510.9600000000001</ele>
   </trkpt>
   <trkpt lat="-37.87743500123226" lon="145.3408600020427">
    <ele>513.97</ele>
   </trkpt>
   <trkpt lat="-37.87776" lon="145.34035">
    <ele>517.0600000000001</ele>
   </trkpt>
   <trkpt lat="-37.87824000311462" lon="145.33950000543462">
    <ele>522.6700000000001</ele>
   </trkpt>
   <trkpt lat="-37.87872" lon="145.33865">
    <ele>529.87</ele>
   </trkpt>
   <trkpt lat="-37.87866" lon="145.3386">
    <ele>532.2600000000001</ele>
   </trkpt>
   <trkpt lat="-37.87796333363467" lon="145.3384166632032">
    <ele>541.7700000000001</ele>
   </trkpt>
   <trkpt lat="-37.877266666985044" lon="145.33823332987438">
    <ele>543.85</ele>
   </trkpt>
   <trkpt lat="-37.87657" lon="145.33805">
    <ele>539.24</ele>
   </trkpt>
   <trkpt lat="-37.87581" lon="145.33782000000002">
    <ele>529.0</ele>
   </trkpt>
   <trkpt lat="-37.87563" lon="145.33741">
    <ele>525.81</ele>
   </trkpt>
   <trkpt lat="-37.87532" lon="145.33717000000001">
    <ele>520.58</ele>
   </trkpt>
   <trkpt lat="-37.87489" lon="145.33734">
    <ele>514.42</ele>
   </trkpt>
   <trkpt lat="-37.87442" lon="145.33729000000002">
    <ele>505.7900000000001</ele>
   </trkpt>
   <trkpt lat="-37.87406" lon="145.33732">
    <ele>499.18000000000006</ele>
   </trkpt>
   <trkpt lat="-37.87397" lon="145.33701000000002">
    <ele>495.2300000000001</ele>
   </trkpt>
   <trkpt lat="-37.87391" lon="145.33668">
    <ele>492.98</ele>
   </trkpt>
   <trkpt lat="-37.87393" lon="145.33620000000002">
    <ele>488.17</ele>
   </trkpt>
   <trkpt lat="-37.87406" lon="145.33561">
    <ele>483.06000000000006</ele>
   </trkpt>
   <trkpt lat="-37.87415" lon="145.33495000000002">
    <ele>477.59000000000003</ele>
   </trkpt>
   <trkpt lat="-37.87415" lon="145.33494000000002">
    <ele>477.66</ele>
   </trkpt>
   <trkpt lat="-37.87422" lon="145.33445">
    <ele>473.09000000000003</ele>
   </trkpt>
   <trkpt lat="-37.87443500202568" lon="145.33376000197453">
    <ele>468.86000000000007</ele>
   </trkpt>
   <trkpt lat="-37.87465" lon="145.33307000000002">
    <ele>462.53000000000003</ele>
   </trkpt>
   <trkpt lat="-37.87489" lon="145.33247">
    <ele>455.51</ele>
   </trkpt>
   <trkpt lat="-37.87534" lon="145.33156000000002">
    <ele>443.58000000000004</ele>
   </trkpt>
   <trkpt lat="-37.87543" lon="145.33131">
    <ele>440.99000000000007</ele>
   </trkpt>
   <trkpt lat="-37.87545" lon="145.33118000000002">
    <ele>440.54</ele>
   </trkpt>
   <trkpt lat="-37.87543" lon="145.33104">
    <ele>440.22</ele>
   </trkpt>
   <trkpt lat="-37.875400000000006" lon="145.33097">
    <ele>439.97</ele>
   </trkpt>
   <trkpt lat="-37.87514" lon="145.33068">
    <ele>440.21000000000004</ele>
   </trkpt>
   <trkpt lat="-37.87491" lon="145.33029000000002">
    <ele>440.45000000000005</ele>
   </trkpt>
   <trkpt lat="-37.8748" lon="145.32998">
    <ele>440.28000000000003</ele>
   </trkpt>
   <trkpt lat="-37.87469" lon="145.32956000000001">
    <ele>440.98</ele>
   </trkpt>
   <trkpt lat="-37.87456" lon="145.32923000000002">
    <ele>443.08000000000004</ele>
   </trkpt>
   <trkpt lat="-37.87435" lon="145.32887000000002">
    <ele>447.48</ele>
   </trkpt>
   <trkpt lat="-37.87382" lon="145.32833000000002">
    <ele>452.86</ele>
   </trkpt>
   <trkpt lat="-37.87375" lon="145.3282">
    <ele>454.76000000000005</ele>
   </trkpt>
   <trkpt lat="-37.87368" lon="145.32803">
    <ele>457.03000000000003</ele>
   </trkpt>
   <trkpt lat="-37.87366" lon="145.32778000000002">
    <ele>462.66</ele>
   </trkpt>
   <trkpt lat="-37.87359" lon="145.32762000000002">
    <ele>465.26000000000005</ele>
   </trkpt>
   <trkpt lat="-37.87315500148315" lon="145.32701999640304">
    <ele>471.79</ele>
   </trkpt>
   <trkpt lat="-37.87272" lon="145.32642">
    <ele>479.68000000000006</ele>
   </trkpt>
   <trkpt lat="-37.87261" lon="145.32628000000003">
    <ele>480.97</ele>
   </trkpt>
   <trkpt lat="-37.87238" lon="145.32607000000002">
    <ele>483.05</ele>
   </trkpt>
   <trkpt lat="-37.87182" lon="145.3257">
    <ele>483.57000000000005</ele>
   </trkpt>
   <trkpt lat="-37.87171" lon="145.32548">
    <ele>484.09000000000003</ele>
   </trkpt>
   <trkpt lat="-37.87171" lon="145.32545000000002">
    <ele>484.09000000000003</ele>
   </trkpt>
   <trkpt lat="-37.871880000000004" lon="145.32536000000002">
    <ele>485.2</ele>
   </trkpt>
   <trkpt lat="-37.87207" lon="145.32511000000002">
    <ele>488.48</ele>
   </trkpt>
   <trkpt lat="-37.87277" lon="145.32465000000002">
    <ele>491.56000000000006</ele>
   </trkpt>
   <trkpt lat="-37.87277" lon="145.32464000000002">
    <ele>491.62000000000006</ele>
   </trkpt>
   <trkpt lat="-37.873310000000004" lon="145.32432">
    <ele>494.03000000000003</ele>
   </trkpt>
   <trkpt lat="-37.87381500064726" lon="145.3239450025316">
    <ele>497.21000000000004</ele>
   </trkpt>
   <trkpt lat="-37.874320000000004" lon="145.32357000000002">
    <ele>502.26000000000005</ele>
   </trkpt>
   <trkpt lat="-37.87463000195269" lon="145.32288500295257">
    <ele>501.16</ele>
   </trkpt>
   <trkpt lat="-37.87494" lon="145.3222">
    <ele>494.68000000000006</ele>
   </trkpt>
   <trkpt lat="-37.875060000000005" lon="145.32206000000002">
    <ele>494.68000000000006</ele>
   </trkpt>
   <trkpt lat="-37.87518" lon="145.32201">
    <ele>494.37</ele>
   </trkpt>
   <trkpt lat="-37.87529" lon="145.32202">
    <ele>494.05</ele>
   </trkpt>
   <trkpt lat="-37.87568" lon="145.32217">
    <ele>494.50000000000006</ele>
   </trkpt>
   <trkpt lat="-37.876215000218856" lon="145.322354998682">
    <ele>495.28000000000003</ele>
   </trkpt>
   <trkpt lat="-37.87675" lon="145.32254">
    <ele>493.66</ele>
   </trkpt>
   <trkpt lat="-37.87713" lon="145.32276000000002">
    <ele>495.63</ele>
   </trkpt>
   <trkpt lat="-37.87713" lon="145.32277000000002">
    <ele>495.63</ele>
   </trkpt>
   <trkpt lat="-37.87783" lon="145.32313000000002">
    <ele>498.09000000000003</ele>
   </trkpt>
   <trkpt lat="-37.8782" lon="145.32342">
    <ele>497.6</ele>
   </trkpt>
   <trkpt lat="-37.8787" lon="145.32406">
    <ele>498.37</ele>
   </trkpt>
   <trkpt lat="-37.87892" lon="145.32431000000003">
    <ele>499.37</ele>
   </trkpt>
   <trkpt lat="-37.87932" lon="145.32488">
    <ele>498.37</ele>
   </trkpt>
   <trkpt lat="-37.87993" lon="145.32551">
    <ele>493.02</ele>
   </trkpt>
   <trkpt lat="-37.88067" lon="145.32611">
    <ele>485.61</ele>
   </trkpt>
   <trkpt lat="-37.88132" lon="145.32653000000002">
    <ele>478.71000000000004</ele>
   </trkpt>
   <trkpt lat="-37.88172" lon="145.32688000000002">
    <ele>474.05</ele>
   </trkpt>
   <trkpt lat="-37.88181" lon="145.32698000000002">
    <ele>473.64000000000004</ele>
   </trkpt>
   <trkpt lat="-37.88201" lon="145.32736">
    <ele>471.54</ele>
   </trkpt>
   <trkpt lat="-37.88223" lon="145.32806000000002">
    <ele>465.51000000000005</ele>
   </trkpt>
   <trkpt lat="-37.88241" lon="145.32832000000002">
    <ele>461.85</ele>
   </trkpt>
   <trkpt lat="-37.88264" lon="145.32853">
    <ele>455.94</ele>
   </trkpt>
   <trkpt lat="-37.88284" lon="145.32863">
    <ele>451.94000000000005</ele>
   </trkpt>
   <trkpt lat="-37.88311" lon="145.32864">
    <ele>446.75</ele>
   </trkpt>
   <trkpt lat="-37.88342" lon="145.32859000000002">
    <ele>442.64000000000004</ele>
   </trkpt>
   <trkpt lat="-37.88378" lon="145.32857">
    <ele>436.86</ele>
   </trkpt>
   <trkpt lat="-37.88407" lon="145.32862">
    <ele>431.17</ele>
   </trkpt>
   <trkpt lat="-37.88447" lon="145.32879">
    <ele>424.71000000000004</ele>
   </trkpt>
   <trkpt lat="-37.88499" lon="145.32899">
    <ele>412.7</ele>
   </trkpt>
   <trkpt lat="-37.88533" lon="145.32899">
    <ele>406.06</ele>
   </trkpt>
   <trkpt lat="-37.88534000000001" lon="145.32899">
    <ele>406.08000000000004</ele>
   </trkpt>
   <trkpt lat="-37.88555" lon="145.32899">
    <ele>402.14000000000004</ele>
   </trkpt>
   <trkpt lat="-37.88584" lon="145.32891">
    <ele>396.20000000000005</ele>
   </trkpt>
   <trkpt lat="-37.88604" lon="145.32873">
    <ele>390.18</ele>
   </trkpt>
   <trkpt lat="-37.88624" lon="145.32841000000002">
    <ele>382.14000000000004</ele>
   </trkpt>
   <trkpt lat="-37.886390000000006" lon="145.32833000000002">
    <ele>380.93000000000006</ele>
   </trkpt>
   <trkpt lat="-37.88638" lon="145.32786000000002">
    <ele>378.22</ele>
   </trkpt>
   <trkpt lat="-37.88624" lon="145.32771000000002">
    <ele>377.73</ele>
   </trkpt>
   <trkpt lat="-37.8862" lon="145.3274">
    <ele>376.56</ele>
   </trkpt>
   <trkpt lat="-37.886190000000006" lon="145.32696">
    <ele>376.55000000000007</ele>
   </trkpt>
   <trkpt lat="-37.88608" lon="145.32707000000002">
    <ele>374.89000000000004</ele>
   </trkpt>
   <trkpt lat="-37.8857" lon="145.3273">
    <ele>370.83000000000004</ele>
   </trkpt>
   <trkpt lat="-37.88559" lon="145.32723000000001">
    <ele>369.70000000000005</ele>
   </trkpt>
   <trkpt lat="-37.88555" lon="145.32716000000002">
    <ele>368.81</ele>
   </trkpt>
   <trkpt lat="-37.88546" lon="145.32689000000002">
    <ele>365.91</ele>
   </trkpt>
   <trkpt lat="-37.88539" lon="145.32682">
    <ele>364.89000000000004</ele>
   </trkpt>
   <trkpt lat="-37.88532" lon="145.32677">
    <ele>363.51000000000005</ele>
   </trkpt>
   <trkpt lat="-37.88517" lon="145.32679000000002">
    <ele>361.52</ele>
   </trkpt>
   <trkpt lat="-37.8851" lon="145.32674">
    <ele>361.52</ele>
   </trkpt>
   <trkpt lat="-37.88503" lon="145.32657">
    <ele>360.13</ele>
   </trkpt>
   <trkpt lat="-37.88501" lon="145.32641">
    <ele>357.22</ele>
   </trkpt>
   <trkpt lat="-37.88481" lon="145.32615">
    <ele>355.29</ele>
   </trkpt>
   <trkpt lat="-37.88472" lon="145.32611">
    <ele>354.47</ele>
   </trkpt>
   <trkpt lat="-37.8847" lon="145.32606">
    <ele>353.72</ele>
   </trkpt>
   <trkpt lat="-37.88467" lon="145.32594">
    <ele>352.7</ele>
   </trkpt>
   <trkpt lat="-37.88472" lon="145.32581000000002">
    <ele>352.3</ele>
   </trkpt>
   <trkpt lat="-37.88483" lon="145.32566">
    <ele>349.78000000000003</ele>
   </trkpt>
   <trkpt lat="-37.8849" lon="145.32534">
    <ele>345.77000000000004</ele>
   </trkpt>
   <trkpt lat="-37.88494" lon="145.32504">
    <ele>341.40000000000003</ele>
   </trkpt>
   <trkpt lat="-37.88494" lon="145.32475000000002">
    <ele>337.78000000000003</ele>
   </trkpt>
   <trkpt lat="-37.88488" lon="145.32452">
    <ele>335.40000000000003</ele>
   </trkpt>
   <trkpt lat="-37.88481" lon="145.32436">
    <ele>333.70000000000005</ele>
   </trkpt>
   <trkpt lat="-37.88481" lon="145.32417">
    <ele>331.46000000000004</ele>
   </trkpt>
   <trkpt lat="-37.88483" lon="145.32404000000002">
    <ele>329.28000000000003</ele>
   </trkpt>
   <trkpt lat="-37.88481" lon="145.32355">
    <ele>317.98</ele>
   </trkpt>
   <trkpt lat="-37.8849" lon="145.32336">
    <ele>315.21000000000004</ele>
   </trkpt>
   <trkpt lat="-37.88488" lon="145.32315">
    <ele>313.76000000000005</ele>
   </trkpt>
   <trkpt lat="-37.88479" lon="145.32282">
    <ele>307.63</ele>
   </trkpt>
   <trkpt lat="-37.88465" lon="145.32261000000003">
    <ele>304.73</ele>
   </trkpt>
   <trkpt lat="-37.884570000000004" lon="145.32260000000002">
    <ele>304.72</ele>
   </trkpt>
   <trkpt lat="-37.88447" lon="145.32227">
    <ele>302.57</ele>
   </trkpt>
   <trkpt lat="-37.88443" lon="145.32186000000002">
    <ele>296.71000000000004</ele>
   </trkpt>
   <trkpt lat="-37.88432" lon="145.32141000000001">
    <ele>291.96</ele>
   </trkpt>
   <trkpt lat="-37.88423" lon="145.32127">
    <ele>290.78000000000003</ele>
   </trkpt>
   <trkpt lat="-37.88416" lon="145.3211">
    <ele>288.93</ele>
   </trkpt>
   <trkpt lat="-37.88416" lon="145.32099000000002">
    <ele>286.40000000000003</ele>
   </trkpt>
   <trkpt lat="-37.88425" lon="145.32069">
    <ele>284.63000000000005</ele>
   </trkpt>
   <trkpt lat="-37.88429" lon="145.32048">
    <ele>282.46999999999997</ele>
   </trkpt>
   <trkpt lat="-37.88425" lon="145.3202">
    <ele>279.1</ele>
   </trkpt>
   <trkpt lat="-37.88416" lon="145.31998000000002">
    <ele>277.5</ele>
   </trkpt>
   <trkpt lat="-37.88416" lon="145.31972000000002">
    <ele>276.01000000000005</ele>
   </trkpt>
   <trkpt lat="-37.88409" lon="145.31915">
    <ele>268.65</ele>
   </trkpt>
   <trkpt lat="-37.884" lon="145.31884000000002">
    <ele>266.11</ele>
   </trkpt>
   <trkpt lat="-37.88378" lon="145.31852">
    <ele>263.49</ele>
   </trkpt>
   <trkpt lat="-37.88373" lon="145.31835">
    <ele>261.53999999999996</ele>
   </trkpt>
   <trkpt lat="-37.88351" lon="145.31843">
    <ele>266.20000000000005</ele>
   </trkpt>
   <trkpt lat="-37.88315" lon="145.31848000000002">
    <ele>272.45000000000005</ele>
   </trkpt>
   <trkpt lat="-37.883160000000004" lon="145.31848000000002">
    <ele>272.43</ele>
   </trkpt>
   <trkpt lat="-37.88304" lon="145.3185">
    <ele>274.31</ele>
   </trkpt>
   <trkpt lat="-37.882830000000006" lon="145.31837000000002">
    <ele>275.73</ele>
   </trkpt>
   <trkpt lat="-37.88275" lon="145.31825">
    <ele>275.89000000000004</ele>
   </trkpt>
   <trkpt lat="-37.88335" lon="145.31807">
    <ele>270.01000000000005</ele>
   </trkpt>
   <trkpt lat="-37.88378" lon="145.31787">
    <ele>267.96000000000004</ele>
   </trkpt>
   <trkpt lat="-37.88438" lon="145.31769">
    <ele>263.25000000000006</ele>
   </trkpt>
   <trkpt lat="-37.88463" lon="145.31769">
    <ele>260.11</ele>
   </trkpt>
   <trkpt lat="-37.8847" lon="145.3177">
    <ele>259.3</ele>
   </trkpt>
   <trkpt lat="-37.88501" lon="145.31764">
    <ele>253.93000000000004</ele>
   </trkpt>
   <trkpt lat="-37.88544" lon="145.31749000000002">
    <ele>247.41000000000003</ele>
   </trkpt>
   <trkpt lat="-37.88589499988768" lon="145.31745000025762">
    <ele>238.86</ele>
   </trkpt>
   <trkpt lat="-37.88635" lon="145.31741000000002">
    <ele>231.54000000000002</ele>
   </trkpt>
   <trkpt lat="-37.88667" lon="145.31742">
    <ele>229.01000000000002</ele>
   </trkpt>
   <trkpt lat="-37.886880000000005" lon="145.31755">
    <ele>225.07000000000002</ele>
   </trkpt>
   <trkpt lat="-37.88712" lon="145.31764">
    <ele>220.83</ele>
   </trkpt>
   <trkpt lat="-37.88761" lon="145.31761">
    <ele>213.96</ele>
   </trkpt>
   <trkpt lat="-37.88772" lon="145.31759000000002">
    <ele>212.26</ele>
   </trkpt>
   <trkpt lat="-37.88781" lon="145.31755">
    <ele>210.71</ele>
   </trkpt>
   <trkpt lat="-37.88787000000001" lon="145.31756000000001">
    <ele>210.71</ele>
   </trkpt>
   <trkpt lat="-37.88808" lon="145.31744">
    <ele>208.39000000000001</ele>
   </trkpt>
   <trkpt lat="-37.888270000000006" lon="145.31747000000001">
    <ele>206.91</ele>
   </trkpt>
   <trkpt lat="-37.88828" lon="145.31748000000002">
    <ele>206.91</ele>
   </trkpt>
   <trkpt lat="-37.88839" lon="145.31750000000002">
    <ele>204.69</ele>
   </trkpt>
   <trkpt lat="-37.88846" lon="145.31753">
    <ele>204.69</ele>
   </trkpt>
   <trkpt lat="-37.88862" lon="145.31767000000002">
    <ele>202.39000000000001</ele>
   </trkpt>
   <trkpt lat="-37.88866" lon="145.31772">
    <ele>201.14000000000001</ele>
   </trkpt>
   <trkpt lat="-37.888830000000006" lon="145.31773">
    <ele>201.14000000000001</ele>
   </trkpt>
   <trkpt lat="-37.8889" lon="145.31777000000002">
    <ele>198.45000000000002</ele>
   </trkpt>
   <trkpt lat="-37.88893" lon="145.31777000000002">
    <ele>198.45000000000002</ele>
   </trkpt>
   <trkpt lat="-37.88895" lon="145.31774000000001">
    <ele>198.45000000000002</ele>
   </trkpt>
   <trkpt lat="-37.88931" lon="145.31776000000002">
    <ele>195.37</ele>
   </trkpt>
   <trkpt lat="-37.889410000000005" lon="145.31771">
    <ele>193.87</ele>
   </trkpt>
   <trkpt lat="-37.88967" lon="145.31767000000002">
    <ele>191.55</ele>
   </trkpt>
   <trkpt lat="-37.889810000000004" lon="145.31752">
    <ele>189.61</ele>
   </trkpt>
   <trkpt lat="-37.890280000000004" lon="145.31739000000002">
    <ele>185.8</ele>
   </trkpt>
   <trkpt lat="-37.8904" lon="145.31744">
    <ele>184.86</ele>
   </trkpt>
   <trkpt lat="-37.8905" lon="145.31752">
    <ele>184.36</ele>
   </trkpt>
   <trkpt lat="-37.89058" lon="145.31753">
    <ele>183.52</ele>
   </trkpt>
   <trkpt lat="-37.89067" lon="145.31745">
    <ele>181.56000000000003</ele>
   </trkpt>
   <trkpt lat="-37.89072" lon="145.31744">
    <ele>181.56000000000003</ele>
   </trkpt>
  </trkseg>
 </trk>
</gpx>
