<?xml version="1.0" encoding="UTF-8"?>
<gpx creator="StravaGPX" version="1.1" xmlns="http://www.topografix.com/GPX/1/1" xmlns:xsi="http://www.w3.org/2001/XMLSchema-instance" xsi:schemaLocation="http://www.topografix.com/GPX/1/1 http://www.topografix.com/GPX/1/1/gpx.xsd">
 <metadata>
  <name>DTR 5/7 14k</name>
  <author>
   <name>Richard Jones</name>
   <link href="https://www.strava.com/athletes/38085969"/>
  </author>
  <copyright author="OpenStreetMap contributors">
   <year>2020</year>
   <license>https://www.openstreetmap.org/copyright</license>
  </copyright>
  <link href="https://www.strava.com/routes/3507579636757178580"/>
 </metadata>
 <trk>
  <name>DTR 5/7 14k</name>
  <link href="https://www.strava.com/routes/3507579636757178580"/>
  <type>trail_running</type>
  <trkseg>
   <trkpt lat="-37.88718" lon="145.37023000000002">
    <ele>366.07</ele>
   </trkpt>
   <trkpt lat="-37.88731000000001" lon="145.37011">
    <ele>366.13</ele>
   </trkpt>
   <trkpt lat="-37.887350000000005" lon="145.37013000000002">
    <ele>366.05</ele>
   </trkpt>
   <trkpt lat="-37.88729" lon="145.37024000000002">
    <ele>366.21000000000004</ele>
   </trkpt>
   <trkpt lat="-37.886860000000006" lon="145.37055">
    <ele>368.81</ele>
   </trkpt>
   <trkpt lat="-37.88689" lon="145.37066000000002">
    <ele>370.42</ele>
   </trkpt>
   <trkpt lat="-37.88694" lon="145.37120000000002">
    <ele>370.6700000000001</ele>
   </trkpt>
   <trkpt lat="-37.88698" lon="145.37135">
    <ele>371.07</ele>
   </trkpt>
   <trkpt lat="-37.88705" lon="145.37147000000002">
    <ele>371.14000000000004</ele>
   </trkpt>
   <trkpt lat="-37.887425000479915" lon="145.37178999841026">
    <ele>368.1700000000001</ele>
   </trkpt>
   <trkpt lat="-37.887800000000006" lon="145.37211000000002">
    <ele>365.11</ele>
   </trkpt>
   <trkpt lat="-37.88841000078449" lon="145.37258499593258">
    <ele>360.64</ele>
   </trkpt>
   <trkpt lat="-37.88902" lon="145.37306">
    <ele>356.07000000000005</ele>
   </trkpt>
   <trkpt lat="-37.88950000069874" lon="145.37347499726883">
    <ele>351.45000000000005</ele>
   </trkpt>
   <trkpt lat="-37.88998" lon="145.37389000000002">
    <ele>347.36</ele>
   </trkpt>
   <trkpt lat="-37.89007" lon="145.37402">
    <ele>346.82</ele>
   </trkpt>
   <trkpt lat="-37.89011" lon="145.37428">
    <ele>345.23</ele>
   </trkpt>
   <trkpt lat="-37.89009" lon="145.37448">
    <ele>344.19000000000005</ele>
   </trkpt>
   <trkpt lat="-37.89" lon="145.37468">
    <ele>343.55</ele>
   </trkpt>
   <trkpt lat="-37.88993" lon="145.37490000000003">
    <ele>343.38</ele>
   </trkpt>
   <trkpt lat="-37.88996" lon="145.37504">
    <ele>343.83000000000004</ele>
   </trkpt>
   <trkpt lat="-37.89007" lon="145.37515000000002">
    <ele>345.12</ele>
   </trkpt>
   <trkpt lat="-37.89025" lon="145.37519">
    <ele>345.41</ele>
   </trkpt>
   <trkpt lat="-37.89052" lon="145.37509">
    <ele>344.86000000000007</ele>
   </trkpt>
   <trkpt lat="-37.89079" lon="145.37492">
    <ele>344.44</ele>
   </trkpt>
   <trkpt lat="-37.89114" lon="145.37492">
    <ele>343.55</ele>
   </trkpt>
   <trkpt lat="-37.89137" lon="145.37499000000003">
    <ele>343.53</ele>
   </trkpt>
   <trkpt lat="-37.89146" lon="145.37505000000002">
    <ele>343.89000000000004</ele>
   </trkpt>
   <trkpt lat="-37.89162" lon="145.37519">
    <ele>344.75</ele>
   </trkpt>
   <trkpt lat="-37.891600000000004" lon="145.37517000000003">
    <ele>344.75</ele>
   </trkpt>
   <trkpt lat="-37.89166" lon="145.37524000000002">
    <ele>345.36000000000007</ele>
   </trkpt>
   <trkpt lat="-37.892120000000006" lon="145.37593">
    <ele>351.52000000000004</ele>
   </trkpt>
   <trkpt lat="-37.89235000148019" lon="145.37650499840794">
    <ele>357.43</ele>
   </trkpt>
   <trkpt lat="-37.89258" lon="145.37708">
    <ele>362.50000000000006</ele>
   </trkpt>
   <trkpt lat="-37.89264" lon="145.37733">
    <ele>364.73</ele>
   </trkpt>
   <trkpt lat="-37.89267" lon="145.37773">
    <ele>369.14000000000004</ele>
   </trkpt>
   <trkpt lat="-37.89262" lon="145.37792000000002">
    <ele>372.19</ele>
   </trkpt>
   <trkpt lat="-37.89249" lon="145.37814">
    <ele>377.58000000000004</ele>
   </trkpt>
   <trkpt lat="-37.89235" lon="145.37830000000002">
    <ele>379.95</ele>
   </trkpt>
   <trkpt lat="-37.89229" lon="145.37834">
    <ele>380.52000000000004</ele>
   </trkpt>
   <trkpt lat="-37.89222" lon="145.37835">
    <ele>381.24</ele>
   </trkpt>
   <trkpt lat="-37.89177" lon="145.37807">
    <ele>382.70000000000005</ele>
   </trkpt>
   <trkpt lat="-37.89139" lon="145.37794000000002">
    <ele>385.02000000000004</ele>
   </trkpt>
   <trkpt lat="-37.89112" lon="145.3779">
    <ele>386.35</ele>
   </trkpt>
   <trkpt lat="-37.89085" lon="145.37794000000002">
    <ele>388.44</ele>
   </trkpt>
   <trkpt lat="-37.89016" lon="145.37795">
    <ele>391.05</ele>
   </trkpt>
   <trkpt lat="-37.88931" lon="145.37781">
    <ele>394.18</ele>
   </trkpt>
   <trkpt lat="-37.88850500008015" lon="145.37797500181114">
    <ele>400.59000000000003</ele>
   </trkpt>
   <trkpt lat="-37.8877" lon="145.37814">
    <ele>408.14000000000004</ele>
   </trkpt>
   <trkpt lat="-37.887240000000006" lon="145.3779">
    <ele>403.70000000000005</ele>
   </trkpt>
   <trkpt lat="-37.886720000000004" lon="145.37794000000002">
    <ele>404.15</ele>
   </trkpt>
   <trkpt lat="-37.8866" lon="145.3778">
    <ele>404.79</ele>
   </trkpt>
   <trkpt lat="-37.8864" lon="145.37868">
    <ele>404.23</ele>
   </trkpt>
   <trkpt lat="-37.886320000000005" lon="145.37939">
    <ele>401.36</ele>
   </trkpt>
   <trkpt lat="-37.88624" lon="145.37927000000002">
    <ele>399.57000000000005</ele>
   </trkpt>
   <trkpt lat="-37.885630000000006" lon="145.37892000000002">
    <ele>396.63000000000005</ele>
   </trkpt>
   <trkpt lat="-37.88541" lon="145.37883000000002">
    <ele>395.41</ele>
   </trkpt>
   <trkpt lat="-37.88514" lon="145.37882000000002">
    <ele>393.87000000000006</ele>
   </trkpt>
   <trkpt lat="-37.88434500007413" lon="145.3789750016787">
    <ele>394.18</ele>
   </trkpt>
   <trkpt lat="-37.88355" lon="145.37913">
    <ele>397.94</ele>
   </trkpt>
   <trkpt lat="-37.88378" lon="145.37941">
    <ele>395.03000000000003</ele>
   </trkpt>
   <trkpt lat="-37.884" lon="145.37962000000002">
    <ele>392.36</ele>
   </trkpt>
   <trkpt lat="-37.88411" lon="145.37969">
    <ele>392.36</ele>
   </trkpt>
   <trkpt lat="-37.88432" lon="145.37973000000002">
    <ele>390.0</ele>
   </trkpt>
   <trkpt lat="-37.88449" lon="145.3797">
    <ele>390.25000000000006</ele>
   </trkpt>
   <trkpt lat="-37.88467" lon="145.37961">
    <ele>390.61</ele>
   </trkpt>
   <trkpt lat="-37.88479" lon="145.37959">
    <ele>390.88</ele>
   </trkpt>
   <trkpt lat="-37.88494" lon="145.37961">
    <ele>390.91</ele>
   </trkpt>
   <trkpt lat="-37.88508" lon="145.37972000000002">
    <ele>390.91</ele>
   </trkpt>
   <trkpt lat="-37.88526" lon="145.37989000000002">
    <ele>390.89</ele>
   </trkpt>
   <trkpt lat="-37.885360000000006" lon="145.38008000000002">
    <ele>390.69000000000005</ele>
   </trkpt>
   <trkpt lat="-37.885545001283404" lon="145.38061999878957">
    <ele>390.02000000000004</ele>
   </trkpt>
   <trkpt lat="-37.88573" lon="145.38116000000002">
    <ele>392.99</ele>
   </trkpt>
   <trkpt lat="-37.88566" lon="145.38173">
    <ele>390.20000000000005</ele>
   </trkpt>
   <trkpt lat="-37.8857" lon="145.38243">
    <ele>387.19</ele>
   </trkpt>
   <trkpt lat="-37.88566" lon="145.38265">
    <ele>386.48</ele>
   </trkpt>
   <trkpt lat="-37.88546" lon="145.38329000000002">
    <ele>385.37000000000006</ele>
   </trkpt>
   <trkpt lat="-37.88541" lon="145.38352">
    <ele>385.47</ele>
   </trkpt>
   <trkpt lat="-37.88541" lon="145.38381">
    <ele>385.04</ele>
   </trkpt>
   <trkpt lat="-37.8855" lon="145.38451">
    <ele>380.1</ele>
   </trkpt>
   <trkpt lat="-37.88564" lon="145.38502000000003">
    <ele>375.51</ele>
   </trkpt>
   <trkpt lat="-37.885850000000005" lon="145.38562000000002">
    <ele>371.00000000000006</ele>
   </trkpt>
   <trkpt lat="-37.88595" lon="145.38580000000002">
    <ele>360.07000000000005</ele>
   </trkpt>
   <trkpt lat="-37.88599" lon="145.38580000000002">
    <ele>360.43</ele>
   </trkpt>
   <trkpt lat="-37.886" lon="145.38581000000002">
    <ele>360.43</ele>
   </trkpt>
   <trkpt lat="-37.885920000000006" lon="145.38592">
    <ele>362.7900000000001</ele>
   </trkpt>
   <trkpt lat="-37.88590000000001" lon="145.38636000000002">
    <ele>358.00000000000006</ele>
   </trkpt>
   <trkpt lat="-37.88585401746393" lon="145.3873760025317">
    <ele>332.55</ele>
   </trkpt>
   <trkpt lat="-37.88580802619602" lon="145.38839200379442">
    <ele>317.78</ele>
   </trkpt>
   <trkpt lat="-37.88576202619631" lon="145.3894080037879">
    <ele>305.44000000000005</ele>
   </trkpt>
   <trkpt lat="-37.8857160174648" lon="145.39042400251188">
    <ele>298.42</ele>
   </trkpt>
   <trkpt lat="-37.885670000000005" lon="145.39144000000002">
    <ele>286.0</ele>
   </trkpt>
   <trkpt lat="-37.88566" lon="145.39198000000002">
    <ele>274.09</ele>
   </trkpt>
   <trkpt lat="-37.885670000000005" lon="145.39202">
    <ele>274.09</ele>
   </trkpt>
   <trkpt lat="-37.88561" lon="145.39205">
    <ele>274.09</ele>
   </trkpt>
   <trkpt lat="-37.88548" lon="145.3922">
    <ele>276.49</ele>
   </trkpt>
   <trkpt lat="-37.885290001160435" lon="145.39272500136923">
    <ele>281.66</ele>
   </trkpt>
   <trkpt lat="-37.8851" lon="145.39325000000002">
    <ele>285.44</ele>
   </trkpt>
   <trkpt lat="-37.885090000000005" lon="145.39328">
    <ele>285.7</ele>
   </trkpt>
   <trkpt lat="-37.88483" lon="145.394">
    <ele>288.18000000000006</ele>
   </trkpt>
   <trkpt lat="-37.88461" lon="145.39433000000002">
    <ele>286.33000000000004</ele>
   </trkpt>
   <trkpt lat="-37.884115000421794" lon="145.39467000233154">
    <ele>281.23</ele>
   </trkpt>
   <trkpt lat="-37.88362" lon="145.39501">
    <ele>277.30000000000007</ele>
   </trkpt>
   <trkpt lat="-37.88317500026989" lon="145.39529000173079">
    <ele>272.28000000000003</ele>
   </trkpt>
   <trkpt lat="-37.88273" lon="145.39557000000002">
    <ele>268.69000000000005</ele>
   </trkpt>
   <trkpt lat="-37.88268" lon="145.39563">
    <ele>268.3</ele>
   </trkpt>
   <trkpt lat="-37.88266" lon="145.3957">
    <ele>267.6</ele>
   </trkpt>
   <trkpt lat="-37.88252000000001" lon="145.39578">
    <ele>267.42</ele>
   </trkpt>
   <trkpt lat="-37.88221" lon="145.39561">
    <ele>268.01000000000005</ele>
   </trkpt>
   <trkpt lat="-37.882200000000005" lon="145.39622">
    <ele>267.35</ele>
   </trkpt>
   <trkpt lat="-37.88215" lon="145.39622">
    <ele>265.55</ele>
   </trkpt>
   <trkpt lat="-37.8821" lon="145.39617">
    <ele>265.19000000000005</ele>
   </trkpt>
   <trkpt lat="-37.88157000006111" lon="145.39613499975184">
    <ele>261.61</ele>
   </trkpt>
   <trkpt lat="-37.881040000000006" lon="145.39610000000002">
    <ele>257.62</ele>
   </trkpt>
   <trkpt lat="-37.88071" lon="145.39603000000002">
    <ele>256.45</ele>
   </trkpt>
   <trkpt lat="-37.88058" lon="145.39603000000002">
    <ele>256.03000000000003</ele>
   </trkpt>
   <trkpt lat="-37.88000500016043" lon="145.39624000164898">
    <ele>253.96</ele>
   </trkpt>
   <trkpt lat="-37.879430000000006" lon="145.39645000000002">
    <ele>255.07000000000002</ele>
   </trkpt>
   <trkpt lat="-37.87941" lon="145.39634">
    <ele>241.79000000000002</ele>
   </trkpt>
   <trkpt lat="-37.87908" lon="145.39647000000002">
    <ele>239.13</ele>
   </trkpt>
   <trkpt lat="-37.87904" lon="145.39645000000002">
    <ele>239.14000000000001</ele>
   </trkpt>
   <trkpt lat="-37.878930000000004" lon="145.39648000000003">
    <ele>239.54000000000002</ele>
   </trkpt>
   <trkpt lat="-37.878930000000004" lon="145.39631">
    <ele>239.41</ele>
   </trkpt>
   <trkpt lat="-37.87859" lon="145.39628000000002">
    <ele>238.86</ele>
   </trkpt>
   <trkpt lat="-37.878600000000006" lon="145.39610000000002">
    <ele>241.95000000000002</ele>
   </trkpt>
   <trkpt lat="-37.87888" lon="145.39579">
    <ele>249.48</ele>
   </trkpt>
   <trkpt lat="-37.879070000000006" lon="145.39567000000002">
    <ele>253.71000000000004</ele>
   </trkpt>
   <trkpt lat="-37.87921" lon="145.39564000000001">
    <ele>254.15000000000003</ele>
   </trkpt>
   <trkpt lat="-37.87937" lon="145.39569">
    <ele>255.04000000000005</ele>
   </trkpt>
   <trkpt lat="-37.87955" lon="145.39568">
    <ele>256.53000000000003</ele>
   </trkpt>
   <trkpt lat="-37.87968" lon="145.39564000000001">
    <ele>257.11</ele>
   </trkpt>
   <trkpt lat="-37.87975" lon="145.3956">
    <ele>257.18</ele>
   </trkpt>
   <trkpt lat="-37.87982" lon="145.39553">
    <ele>257.14000000000004</ele>
   </trkpt>
   <trkpt lat="-37.87993" lon="145.3955">
    <ele>256.84000000000003</ele>
   </trkpt>
   <trkpt lat="-37.88009" lon="145.39517">
    <ele>256.59999999999997</ele>
   </trkpt>
   <trkpt lat="-37.88017" lon="145.39508">
    <ele>256.82000000000005</ele>
   </trkpt>
   <trkpt lat="-37.88035" lon="145.39497">
    <ele>257.83</ele>
   </trkpt>
   <trkpt lat="-37.88047" lon="145.3948">
    <ele>259.67</ele>
   </trkpt>
   <trkpt lat="-37.88053" lon="145.39459000000002">
    <ele>260.43</ele>
   </trkpt>
   <trkpt lat="-37.88067" lon="145.39444">
    <ele>259.65000000000003</ele>
   </trkpt>
   <trkpt lat="-37.88105" lon="145.39424000000002">
    <ele>259.64000000000004</ele>
   </trkpt>
   <trkpt lat="-37.8812" lon="145.3941">
    <ele>259.91</ele>
   </trkpt>
   <trkpt lat="-37.88129" lon="145.3939">
    <ele>260.49</ele>
   </trkpt>
   <trkpt lat="-37.88109" lon="145.39360000000002">
    <ele>263.66</ele>
   </trkpt>
   <trkpt lat="-37.881040000000006" lon="145.39341000000002">
    <ele>265.09000000000003</ele>
   </trkpt>
   <trkpt lat="-37.88103" lon="145.39316000000002">
    <ele>265.44</ele>
   </trkpt>
   <trkpt lat="-37.88105" lon="145.39290000000003">
    <ele>265.22</ele>
   </trkpt>
   <trkpt lat="-37.88114" lon="145.39270000000002">
    <ele>264.53000000000003</ele>
   </trkpt>
   <trkpt lat="-37.88125" lon="145.39251000000002">
    <ele>264.53000000000003</ele>
   </trkpt>
   <trkpt lat="-37.88129" lon="145.39199000000002">
    <ele>266.29</ele>
   </trkpt>
   <trkpt lat="-37.88138" lon="145.39182000000002">
    <ele>266.36</ele>
   </trkpt>
   <trkpt lat="-37.881510000000006" lon="145.39169">
    <ele>265.99</ele>
   </trkpt>
   <trkpt lat="-37.8817" lon="145.39170000000001">
    <ele>266.31000000000006</ele>
   </trkpt>
   <trkpt lat="-37.88181" lon="145.3916">
    <ele>267.15</ele>
   </trkpt>
   <trkpt lat="-37.88199" lon="145.39137000000002">
    <ele>267.99</ele>
   </trkpt>
   <trkpt lat="-37.88226" lon="145.39113">
    <ele>268.84000000000003</ele>
   </trkpt>
   <trkpt lat="-37.88232" lon="145.39103">
    <ele>269.21</ele>
   </trkpt>
   <trkpt lat="-37.882360000000006" lon="145.39082000000002">
    <ele>269.69000000000005</ele>
   </trkpt>
   <trkpt lat="-37.88235" lon="145.39065000000002">
    <ele>271.03000000000003</ele>
   </trkpt>
   <trkpt lat="-37.88223" lon="145.39036000000002">
    <ele>272.34000000000003</ele>
   </trkpt>
   <trkpt lat="-37.88223" lon="145.39020000000002">
    <ele>273.06</ele>
   </trkpt>
   <trkpt lat="-37.882070000000006" lon="145.38981">
    <ele>274.57000000000005</ele>
   </trkpt>
   <trkpt lat="-37.88208" lon="145.38973000000001">
    <ele>274.61</ele>
   </trkpt>
   <trkpt lat="-37.88221" lon="145.38958000000002">
    <ele>274.61</ele>
   </trkpt>
   <trkpt lat="-37.88239" lon="145.38930000000002">
    <ele>275.28000000000003</ele>
   </trkpt>
   <trkpt lat="-37.88244" lon="145.38894000000002">
    <ele>275.92</ele>
   </trkpt>
   <trkpt lat="-37.88255" lon="145.38872">
    <ele>276.57000000000005</ele>
   </trkpt>
   <trkpt lat="-37.882670000000005" lon="145.38839000000002">
    <ele>276.85</ele>
   </trkpt>
   <trkpt lat="-37.882830000000006" lon="145.38811">
    <ele>279.7</ele>
   </trkpt>
   <trkpt lat="-37.88295" lon="145.38770000000002">
    <ele>280.56</ele>
   </trkpt>
   <trkpt lat="-37.88311" lon="145.38696000000002">
    <ele>283.16</ele>
   </trkpt>
   <trkpt lat="-37.88313" lon="145.38674">
    <ele>284.03</ele>
   </trkpt>
   <trkpt lat="-37.88286" lon="145.38613">
    <ele>285.90000000000003</ele>
   </trkpt>
   <trkpt lat="-37.88277" lon="145.38558">
    <ele>288.31</ele>
   </trkpt>
   <trkpt lat="-37.88277" lon="145.38517000000002">
    <ele>290.59000000000003</ele>
   </trkpt>
   <trkpt lat="-37.88239" lon="145.38424">
    <ele>292.96</ele>
   </trkpt>
   <trkpt lat="-37.88241" lon="145.38393000000002">
    <ele>294.24</ele>
   </trkpt>
   <trkpt lat="-37.8823" lon="145.38363">
    <ele>295.90000000000003</ele>
   </trkpt>
   <trkpt lat="-37.881980000000006" lon="145.38336">
    <ele>297.32000000000005</ele>
   </trkpt>
   <trkpt lat="-37.88181" lon="145.38306">
    <ele>299.39000000000004</ele>
   </trkpt>
   <trkpt lat="-37.88183" lon="145.3829">
    <ele>299.98</ele>
   </trkpt>
   <trkpt lat="-37.88174" lon="145.38281">
    <ele>300.07</ele>
   </trkpt>
   <trkpt lat="-37.88163" lon="145.38285000000002">
    <ele>300.15000000000003</ele>
   </trkpt>
   <trkpt lat="-37.88156" lon="145.38291">
    <ele>300.29</ele>
   </trkpt>
   <trkpt lat="-37.88145" lon="145.38292">
    <ele>301.1</ele>
   </trkpt>
   <trkpt lat="-37.88123" lon="145.38276000000002">
    <ele>301.75</ele>
   </trkpt>
   <trkpt lat="-37.881" lon="145.38254">
    <ele>303.6700000000001</ele>
   </trkpt>
   <trkpt lat="-37.88094" lon="145.38244">
    <ele>303.92</ele>
   </trkpt>
   <trkpt lat="-37.88098" lon="145.38230000000001">
    <ele>304.72</ele>
   </trkpt>
   <trkpt lat="-37.88114" lon="145.38207">
    <ele>306.1</ele>
   </trkpt>
   <trkpt lat="-37.88123" lon="145.38188000000002">
    <ele>306.92</ele>
   </trkpt>
   <trkpt lat="-37.88078" lon="145.38125000000002">
    <ele>315.28</ele>
   </trkpt>
   <trkpt lat="-37.8804" lon="145.38083">
    <ele>317.90000000000003</ele>
   </trkpt>
   <trkpt lat="-37.88029" lon="145.38060000000002">
    <ele>316.14000000000004</ele>
   </trkpt>
   <trkpt lat="-37.88029" lon="145.38036000000002">
    <ele>316.06</ele>
   </trkpt>
   <trkpt lat="-37.88033" lon="145.3801">
    <ele>319.01</ele>
   </trkpt>
   <trkpt lat="-37.88026" lon="145.37994">
    <ele>320.1</ele>
   </trkpt>
   <trkpt lat="-37.88013" lon="145.37941">
    <ele>325.02000000000004</ele>
   </trkpt>
   <trkpt lat="-37.88009" lon="145.3793">
    <ele>324.82000000000005</ele>
   </trkpt>
   <trkpt lat="-37.87997" lon="145.37905">
    <ele>323.77</ele>
   </trkpt>
   <trkpt lat="-37.87982" lon="145.37881000000002">
    <ele>322.76000000000005</ele>
   </trkpt>
   <trkpt lat="-37.87975" lon="145.37853">
    <ele>323.13</ele>
   </trkpt>
   <trkpt lat="-37.87966" lon="145.37843">
    <ele>325.09999999999997</ele>
   </trkpt>
   <trkpt lat="-37.87948" lon="145.37797">
    <ele>331.64000000000004</ele>
   </trkpt>
   <trkpt lat="-37.87912" lon="145.37754">
    <ele>339.62</ele>
   </trkpt>
   <trkpt lat="-37.87894" lon="145.37752">
    <ele>340.95000000000005</ele>
   </trkpt>
   <trkpt lat="-37.87852" lon="145.37720000000002">
    <ele>340.61</ele>
   </trkpt>
   <trkpt lat="-37.87841" lon="145.37688">
    <ele>336.27</ele>
   </trkpt>
   <trkpt lat="-37.87841" lon="145.3767">
    <ele>334.47</ele>
   </trkpt>
   <trkpt lat="-37.878510000000006" lon="145.37664">
    <ele>334.29</ele>
   </trkpt>
   <trkpt lat="-37.87854" lon="145.37655">
    <ele>334.59000000000003</ele>
   </trkpt>
   <trkpt lat="-37.87861" lon="145.37649000000002">
    <ele>335.24</ele>
   </trkpt>
   <trkpt lat="-37.8787" lon="145.37637">
    <ele>336.55</ele>
   </trkpt>
   <trkpt lat="-37.878710000000005" lon="145.37606000000002">
    <ele>338.33000000000004</ele>
   </trkpt>
   <trkpt lat="-37.87872" lon="145.37596000000002">
    <ele>338.36000000000007</ele>
   </trkpt>
   <trkpt lat="-37.87861" lon="145.37571">
    <ele>338.3</ele>
   </trkpt>
   <trkpt lat="-37.87854" lon="145.37534000000002">
    <ele>338.8</ele>
   </trkpt>
   <trkpt lat="-37.87843" lon="145.37523000000002">
    <ele>336.0</ele>
   </trkpt>
   <trkpt lat="-37.87825" lon="145.375">
    <ele>333.19000000000005</ele>
   </trkpt>
   <trkpt lat="-37.87816" lon="145.37472000000002">
    <ele>331.48</ele>
   </trkpt>
   <trkpt lat="-37.87823" lon="145.37415000000001">
    <ele>329.70000000000005</ele>
   </trkpt>
   <trkpt lat="-37.87829" lon="145.37389000000002">
    <ele>328.40000000000003</ele>
   </trkpt>
   <trkpt lat="-37.87829" lon="145.37361">
    <ele>323.86</ele>
   </trkpt>
   <trkpt lat="-37.87836" lon="145.37346000000002">
    <ele>324.99</ele>
   </trkpt>
   <trkpt lat="-37.878460000000004" lon="145.37306">
    <ele>328.08000000000004</ele>
   </trkpt>
   <trkpt lat="-37.87843" lon="145.37283000000002">
    <ele>339.14000000000004</ele>
   </trkpt>
   <trkpt lat="-37.87838" lon="145.37277">
    <ele>344.73</ele>
   </trkpt>
   <trkpt lat="-37.878310000000006" lon="145.37275000000002">
    <ele>344.65</ele>
   </trkpt>
   <trkpt lat="-37.87807" lon="145.37275000000002">
    <ele>343.56</ele>
   </trkpt>
   <trkpt lat="-37.87791" lon="145.37255000000002">
    <ele>344.6</ele>
   </trkpt>
   <trkpt lat="-37.87782" lon="145.37237000000002">
    <ele>345.89000000000004</ele>
   </trkpt>
   <trkpt lat="-37.87778" lon="145.37220000000002">
    <ele>347.49</ele>
   </trkpt>
   <trkpt lat="-37.87773" lon="145.37208">
    <ele>347.88</ele>
   </trkpt>
   <trkpt lat="-37.877570000000006" lon="145.37197">
    <ele>348.53</ele>
   </trkpt>
   <trkpt lat="-37.87713" lon="145.37159000000003">
    <ele>350.62000000000006</ele>
   </trkpt>
   <trkpt lat="-37.87693" lon="145.37134">
    <ele>351.82</ele>
   </trkpt>
   <trkpt lat="-37.87691" lon="145.37124">
    <ele>353.34000000000003</ele>
   </trkpt>
   <trkpt lat="-37.876850000000005" lon="145.37126">
    <ele>335.53000000000003</ele>
   </trkpt>
   <trkpt lat="-37.87675" lon="145.37167000000002">
    <ele>334.73</ele>
   </trkpt>
   <trkpt lat="-37.8765" lon="145.37138000000002">
    <ele>335.41</ele>
   </trkpt>
   <trkpt lat="-37.87635" lon="145.37115">
    <ele>358.89000000000004</ele>
   </trkpt>
   <trkpt lat="-37.87614000000001" lon="145.37109">
    <ele>358.89000000000004</ele>
   </trkpt>
   <trkpt lat="-37.87608" lon="145.37106">
    <ele>358.92</ele>
   </trkpt>
   <trkpt lat="-37.875600000000006" lon="145.37072">
    <ele>363.39000000000004</ele>
   </trkpt>
   <trkpt lat="-37.8755" lon="145.37059000000002">
    <ele>365.76000000000005</ele>
   </trkpt>
   <trkpt lat="-37.87541" lon="145.37033000000002">
    <ele>369.57</ele>
   </trkpt>
   <trkpt lat="-37.87536" lon="145.36978000000002">
    <ele>374.89000000000004</ele>
   </trkpt>
   <trkpt lat="-37.87541" lon="145.36953000000003">
    <ele>373.54</ele>
   </trkpt>
   <trkpt lat="-37.87545" lon="145.36945">
    <ele>372.48</ele>
   </trkpt>
   <trkpt lat="-37.87554" lon="145.36915000000002">
    <ele>370.29</ele>
   </trkpt>
   <trkpt lat="-37.87554" lon="145.36892">
    <ele>369.71000000000004</ele>
   </trkpt>
   <trkpt lat="-37.87545" lon="145.3683">
    <ele>373.51</ele>
   </trkpt>
   <trkpt lat="-37.875510000000006" lon="145.36811">
    <ele>373.71000000000004</ele>
   </trkpt>
   <trkpt lat="-37.87561" lon="145.36791000000002">
    <ele>374.05000000000007</ele>
   </trkpt>
   <trkpt lat="-37.875690000000006" lon="145.36763000000002">
    <ele>375.66</ele>
   </trkpt>
   <trkpt lat="-37.8757" lon="145.3675">
    <ele>377.13</ele>
   </trkpt>
   <trkpt lat="-37.87559" lon="145.36734">
    <ele>378.76000000000005</ele>
   </trkpt>
   <trkpt lat="-37.87523" lon="145.36692000000002">
    <ele>381.46000000000004</ele>
   </trkpt>
   <trkpt lat="-37.87514" lon="145.36678">
    <ele>381.83000000000004</ele>
   </trkpt>
   <trkpt lat="-37.87489" lon="145.36658">
    <ele>384.71000000000004</ele>
   </trkpt>
   <trkpt lat="-37.87482" lon="145.36644">
    <ele>385.92</ele>
   </trkpt>
   <trkpt lat="-37.8748" lon="145.366">
    <ele>383.75</ele>
   </trkpt>
   <trkpt lat="-37.874660000000006" lon="145.36564">
    <ele>384.87000000000006</ele>
   </trkpt>
   <trkpt lat="-37.87435" lon="145.36469000000002">
    <ele>387.18</ele>
   </trkpt>
   <trkpt lat="-37.87435" lon="145.36442000000002">
    <ele>386.56</ele>
   </trkpt>
   <trkpt lat="-37.87438" lon="145.3642">
    <ele>385.27000000000004</ele>
   </trkpt>
   <trkpt lat="-37.87438" lon="145.36402">
    <ele>384.92</ele>
   </trkpt>
   <trkpt lat="-37.87426" lon="145.36375">
    <ele>385.45</ele>
   </trkpt>
   <trkpt lat="-37.87404" lon="145.36343000000002">
    <ele>385.28000000000003</ele>
   </trkpt>
   <trkpt lat="-37.87402" lon="145.36301">
    <ele>382.12</ele>
   </trkpt>
   <trkpt lat="-37.87382" lon="145.36244000000002">
    <ele>379.5</ele>
   </trkpt>
   <trkpt lat="-37.87373" lon="145.36223">
    <ele>377.78</ele>
   </trkpt>
   <trkpt lat="-37.873740000000005" lon="145.36213">
    <ele>377.59000000000003</ele>
   </trkpt>
   <trkpt lat="-37.87377" lon="145.36206">
    <ele>392.42</ele>
   </trkpt>
   <trkpt lat="-37.873720000000006" lon="145.36151">
    <ele>395.58000000000004</ele>
   </trkpt>
   <trkpt lat="-37.87391" lon="145.36107">
    <ele>400.23</ele>
   </trkpt>
   <trkpt lat="-37.87406" lon="145.36083000000002">
    <ele>402.94</ele>
   </trkpt>
   <trkpt lat="-37.87456" lon="145.36044">
    <ele>407.1</ele>
   </trkpt>
   <trkpt lat="-37.87494" lon="145.36006">
    <ele>414.67</ele>
   </trkpt>
   <trkpt lat="-37.87516" lon="145.35986000000003">
    <ele>418.55</ele>
   </trkpt>
   <trkpt lat="-37.87521" lon="145.35967000000002">
    <ele>419.97</ele>
   </trkpt>
   <trkpt lat="-37.875130000000006" lon="145.35951">
    <ele>421.87</ele>
   </trkpt>
   <trkpt lat="-37.87496" lon="145.35946">
    <ele>423.6</ele>
   </trkpt>
   <trkpt lat="-37.87487" lon="145.35939000000002">
    <ele>424.47</ele>
   </trkpt>
   <trkpt lat="-37.874770000000005" lon="145.35926">
    <ele>424.63</ele>
   </trkpt>
   <trkpt lat="-37.87447" lon="145.35877000000002">
    <ele>430.37</ele>
   </trkpt>
   <trkpt lat="-37.87433" lon="145.35864">
    <ele>433.14000000000004</ele>
   </trkpt>
   <trkpt lat="-37.87402" lon="145.35849000000002">
    <ele>436.42</ele>
   </trkpt>
   <trkpt lat="-37.87373" lon="145.3582">
    <ele>440.64000000000004</ele>
   </trkpt>
   <trkpt lat="-37.873630000000006" lon="145.35801">
    <ele>441.48</ele>
   </trkpt>
   <trkpt lat="-37.87357" lon="145.35787000000002">
    <ele>441.48</ele>
   </trkpt>
   <trkpt lat="-37.87346" lon="145.35765">
    <ele>444.54</ele>
   </trkpt>
   <trkpt lat="-37.87341" lon="145.3574">
    <ele>446.94000000000005</ele>
   </trkpt>
   <trkpt lat="-37.87341" lon="145.357">
    <ele>449.01</ele>
   </trkpt>
   <trkpt lat="-37.87328" lon="145.35653000000002">
    <ele>451.19</ele>
   </trkpt>
   <trkpt lat="-37.87328" lon="145.35648">
    <ele>451.19</ele>
   </trkpt>
   <trkpt lat="-37.873310000000004" lon="145.35644000000002">
    <ele>451.54</ele>
   </trkpt>
   <trkpt lat="-37.87335" lon="145.35644000000002">
    <ele>451.54</ele>
   </trkpt>
   <trkpt lat="-37.87339" lon="145.35649">
    <ele>451.68</ele>
   </trkpt>
   <trkpt lat="-37.87353" lon="145.35718">
    <ele>453.6</ele>
   </trkpt>
   <trkpt lat="-37.87379" lon="145.35763">
    <ele>457.31000000000006</ele>
   </trkpt>
   <trkpt lat="-37.874120000000005" lon="145.35781">
    <ele>459.42</ele>
   </trkpt>
   <trkpt lat="-37.87435" lon="145.35784">
    <ele>461.19000000000005</ele>
   </trkpt>
   <trkpt lat="-37.87473" lon="145.35783">
    <ele>463.28000000000003</ele>
   </trkpt>
   <trkpt lat="-37.87482" lon="145.35784">
    <ele>463.57000000000005</ele>
   </trkpt>
   <trkpt lat="-37.87541" lon="145.35777000000002">
    <ele>469.70000000000005</ele>
   </trkpt>
   <trkpt lat="-37.87559" lon="145.35771000000003">
    <ele>470.30000000000007</ele>
   </trkpt>
   <trkpt lat="-37.87572" lon="145.35758">
    <ele>471.44</ele>
   </trkpt>
   <trkpt lat="-37.875840000000004" lon="145.3574">
    <ele>474.56</ele>
   </trkpt>
   <trkpt lat="-37.875930000000004" lon="145.35714000000002">
    <ele>475.77000000000004</ele>
   </trkpt>
   <trkpt lat="-37.876160000000006" lon="145.35686">
    <ele>476.30000000000007</ele>
   </trkpt>
   <trkpt lat="-37.8763" lon="145.35674">
    <ele>476.08000000000004</ele>
   </trkpt>
   <trkpt lat="-37.87637" lon="145.35671000000002">
    <ele>472.04</ele>
   </trkpt>
   <trkpt lat="-37.87642" lon="145.35680000000002">
    <ele>472.01000000000005</ele>
   </trkpt>
   <trkpt lat="-37.87639" lon="145.35675">
    <ele>472.04</ele>
   </trkpt>
   <trkpt lat="-37.87637" lon="145.35671000000002">
    <ele>476.08000000000004</ele>
   </trkpt>
   <trkpt lat="-37.87646" lon="145.35667">
    <ele>475.98</ele>
   </trkpt>
   <trkpt lat="-37.87675" lon="145.35661000000002">
    <ele>475.58000000000004</ele>
   </trkpt>
   <trkpt lat="-37.876900000000006" lon="145.35659">
    <ele>460.34000000000003</ele>
   </trkpt>
   <trkpt lat="-37.87708000000001" lon="145.35653000000002">
    <ele>475.96000000000004</ele>
   </trkpt>
   <trkpt lat="-37.87673" lon="145.35552">
    <ele>472.39000000000004</ele>
   </trkpt>
   <trkpt lat="-37.87666" lon="145.35527000000002">
    <ele>475.14000000000004</ele>
   </trkpt>
   <trkpt lat="-37.87666" lon="145.35511000000002">
    <ele>477.30000000000007</ele>
   </trkpt>
   <trkpt lat="-37.8767" lon="145.35494">
    <ele>479.13000000000005</ele>
   </trkpt>
   <trkpt lat="-37.87684" lon="145.35466000000002">
    <ele>481.42</ele>
   </trkpt>
   <trkpt lat="-37.87702" lon="145.35441">
    <ele>483.14</ele>
   </trkpt>
   <trkpt lat="-37.877230000000004" lon="145.35415">
    <ele>484.33000000000004</ele>
   </trkpt>
   <trkpt lat="-37.87773" lon="145.35335">
    <ele>489.49</ele>
   </trkpt>
   <trkpt lat="-37.87782" lon="145.35314000000002">
    <ele>489.69</ele>
   </trkpt>
   <trkpt lat="-37.87816" lon="145.35258000000002">
    <ele>491.46000000000004</ele>
   </trkpt>
   <trkpt lat="-37.87827" lon="145.35227">
    <ele>493.37</ele>
   </trkpt>
   <trkpt lat="-37.87832" lon="145.35207000000003">
    <ele>493.75</ele>
   </trkpt>
   <trkpt lat="-37.87841" lon="145.3519">
    <ele>494.2300000000001</ele>
   </trkpt>
   <trkpt lat="-37.87859" lon="145.35132000000002">
    <ele>496.45000000000005</ele>
   </trkpt>
   <trkpt lat="-37.87876" lon="145.35029">
    <ele>500.0300000000001</ele>
   </trkpt>
   <trkpt lat="-37.87872" lon="145.34991000000002">
    <ele>501.55000000000007</ele>
   </trkpt>
   <trkpt lat="-37.87847" lon="145.34895">
    <ele>503.39</ele>
   </trkpt>
   <trkpt lat="-37.87825" lon="145.34847000000002">
    <ele>506.27</ele>
   </trkpt>
   <trkpt lat="-37.878040000000006" lon="145.34804000000003">
    <ele>509.57000000000005</ele>
   </trkpt>
   <trkpt lat="-37.87794" lon="145.34774000000002">
    <ele>511.46000000000004</ele>
   </trkpt>
   <trkpt lat="-37.87776" lon="145.34745">
    <ele>513.08</ele>
   </trkpt>
   <trkpt lat="-37.87758" lon="145.34729000000002">
    <ele>514.0</ele>
   </trkpt>
   <trkpt lat="-37.87726" lon="145.34721000000002">
    <ele>514.38</ele>
   </trkpt>
   <trkpt lat="-37.876760000000004" lon="145.34722000000002">
    <ele>514.38</ele>
   </trkpt>
   <trkpt lat="-37.87688" lon="145.34705000000002">
    <ele>512.42</ele>
   </trkpt>
   <trkpt lat="-37.87702" lon="145.34689">
    <ele>509.63</ele>
   </trkpt>
   <trkpt lat="-37.87726" lon="145.34634">
    <ele>506.05</ele>
   </trkpt>
   <trkpt lat="-37.877570000000006" lon="145.34542000000002">
    <ele>502.06000000000006</ele>
   </trkpt>
   <trkpt lat="-37.87767" lon="145.34526000000002">
    <ele>501.27</ele>
   </trkpt>
   <trkpt lat="-37.87794" lon="145.34497000000002">
    <ele>499.07</ele>
   </trkpt>
   <trkpt lat="-37.87801" lon="145.34486">
    <ele>498.52</ele>
   </trkpt>
   <trkpt lat="-37.878" lon="145.34487000000001">
    <ele>498.52</ele>
   </trkpt>
   <trkpt lat="-37.878040000000006" lon="145.34474">
    <ele>495.93</ele>
   </trkpt>
   <trkpt lat="-37.87805" lon="145.34458">
    <ele>495.93</ele>
   </trkpt>
   <trkpt lat="-37.87807" lon="145.34451">
    <ele>495.01000000000005</ele>
   </trkpt>
   <trkpt lat="-37.87814" lon="145.34448">
    <ele>494.61</ele>
   </trkpt>
   <trkpt lat="-37.87827" lon="145.34451">
    <ele>493.91</ele>
   </trkpt>
   <trkpt lat="-37.87836" lon="145.34455">
    <ele>492.94000000000005</ele>
   </trkpt>
   <trkpt lat="-37.87861" lon="145.34490000000002">
    <ele>491.97</ele>
   </trkpt>
   <trkpt lat="-37.878750000000004" lon="145.34495">
    <ele>490.53000000000003</ele>
   </trkpt>
   <trkpt lat="-37.87888" lon="145.34482">
    <ele>491.92</ele>
   </trkpt>
   <trkpt lat="-37.8789" lon="145.34474">
    <ele>492.93</ele>
   </trkpt>
   <trkpt lat="-37.87914" lon="145.34452000000002">
    <ele>500.24</ele>
   </trkpt>
   <trkpt lat="-37.87919" lon="145.34452000000002">
    <ele>500.24</ele>
   </trkpt>
   <trkpt lat="-37.87944" lon="145.34486">
    <ele>502.26000000000005</ele>
   </trkpt>
   <trkpt lat="-37.87973" lon="145.34534000000002">
    <ele>500.30000000000007</ele>
   </trkpt>
   <trkpt lat="-37.8802" lon="145.34602">
    <ele>496.77000000000004</ele>
   </trkpt>
   <trkpt lat="-37.88042" lon="145.34634">
    <ele>494.8</ele>
   </trkpt>
   <trkpt lat="-37.88067" lon="145.34663">
    <ele>493.41</ele>
   </trkpt>
   <trkpt lat="-37.880860000000006" lon="145.34682">
    <ele>492.8500000000001</ele>
   </trkpt>
   <trkpt lat="-37.88105" lon="145.34695000000002">
    <ele>492.43</ele>
   </trkpt>
   <trkpt lat="-37.88154" lon="145.34723000000002">
    <ele>489.61</ele>
   </trkpt>
   <trkpt lat="-37.88167" lon="145.34744">
    <ele>486.66</ele>
   </trkpt>
   <trkpt lat="-37.88201" lon="145.34819000000002">
    <ele>482.49</ele>
   </trkpt>
   <trkpt lat="-37.88226" lon="145.34839000000002">
    <ele>481.16</ele>
   </trkpt>
   <trkpt lat="-37.88255" lon="145.34856000000002">
    <ele>480.48</ele>
   </trkpt>
   <trkpt lat="-37.88302" lon="145.3487">
    <ele>480.5</ele>
   </trkpt>
   <trkpt lat="-37.88311" lon="145.34876">
    <ele>480.48</ele>
   </trkpt>
   <trkpt lat="-37.8836" lon="145.34926000000002">
    <ele>479.35</ele>
   </trkpt>
   <trkpt lat="-37.88405" lon="145.34945000000002">
    <ele>478.41</ele>
   </trkpt>
   <trkpt lat="-37.88436" lon="145.34969">
    <ele>477.63000000000005</ele>
   </trkpt>
   <trkpt lat="-37.88456" lon="145.35004">
    <ele>475.33000000000004</ele>
   </trkpt>
   <trkpt lat="-37.88461" lon="145.35017000000002">
    <ele>475.33000000000004</ele>
   </trkpt>
   <trkpt lat="-37.884640000000005" lon="145.35035000000002">
    <ele>473.25000000000006</ele>
   </trkpt>
   <trkpt lat="-37.88461" lon="145.35046">
    <ele>472.19000000000005</ele>
   </trkpt>
   <trkpt lat="-37.88461" lon="145.35066">
    <ele>469.74</ele>
   </trkpt>
   <trkpt lat="-37.884710000000005" lon="145.35090000000002">
    <ele>468.13000000000005</ele>
   </trkpt>
   <trkpt lat="-37.88477" lon="145.35099000000002">
    <ele>469.88</ele>
   </trkpt>
   <trkpt lat="-37.8853" lon="145.3514">
    <ele>470.68</ele>
   </trkpt>
   <trkpt lat="-37.88552" lon="145.35153000000003">
    <ele>469.59000000000003</ele>
   </trkpt>
   <trkpt lat="-37.88584" lon="145.35157">
    <ele>467.65000000000003</ele>
   </trkpt>
   <trkpt lat="-37.886030000000005" lon="145.35156">
    <ele>466.0400000000001</ele>
   </trkpt>
   <trkpt lat="-37.88615" lon="145.35176">
    <ele>468.91</ele>
   </trkpt>
   <trkpt lat="-37.88606" lon="145.35204000000002">
    <ele>474.12</ele>
   </trkpt>
   <trkpt lat="-37.88588" lon="145.35242000000002">
    <ele>478.47</ele>
   </trkpt>
   <trkpt lat="-37.885630000000006" lon="145.35282">
    <ele>483.40000000000003</ele>
   </trkpt>
   <trkpt lat="-37.88555" lon="145.35296000000002">
    <ele>483.42</ele>
   </trkpt>
   <trkpt lat="-37.88544" lon="145.35307">
    <ele>487.47</ele>
   </trkpt>
   <trkpt lat="-37.88508" lon="145.35324">
    <ele>489.88000000000005</ele>
   </trkpt>
   <trkpt lat="-37.88497" lon="145.35328">
    <ele>490.96000000000004</ele>
   </trkpt>
   <trkpt lat="-37.88434" lon="145.35368000000003">
    <ele>492.11</ele>
   </trkpt>
   <trkpt lat="-37.88423" lon="145.35381">
    <ele>491.59000000000003</ele>
   </trkpt>
   <trkpt lat="-37.88371" lon="145.35464000000002">
    <ele>485.7</ele>
   </trkpt>
   <trkpt lat="-37.88351" lon="145.35512">
    <ele>486.92</ele>
   </trkpt>
   <trkpt lat="-37.88351" lon="145.3553">
    <ele>487.35</ele>
   </trkpt>
   <trkpt lat="-37.8838" lon="145.35575">
    <ele>488.50000000000006</ele>
   </trkpt>
   <trkpt lat="-37.88387" lon="145.35593">
    <ele>489.43</ele>
   </trkpt>
   <trkpt lat="-37.88391" lon="145.35613">
    <ele>490.86</ele>
   </trkpt>
   <trkpt lat="-37.88391" lon="145.35645000000002">
    <ele>493.38000000000005</ele>
   </trkpt>
   <trkpt lat="-37.88389" lon="145.35675">
    <ele>494.76000000000005</ele>
   </trkpt>
   <trkpt lat="-37.883790000000005" lon="145.35711">
    <ele>496.07000000000005</ele>
   </trkpt>
   <trkpt lat="-37.8838" lon="145.35725000000002">
    <ele>496.65000000000003</ele>
   </trkpt>
   <trkpt lat="-37.88385" lon="145.35776">
    <ele>498.55</ele>
   </trkpt>
   <trkpt lat="-37.884" lon="145.35808">
    <ele>501.21000000000004</ele>
   </trkpt>
   <trkpt lat="-37.88402" lon="145.35827">
    <ele>502.01000000000005</ele>
   </trkpt>
   <trkpt lat="-37.88407" lon="145.35852">
    <ele>502.39</ele>
   </trkpt>
   <trkpt lat="-37.88441" lon="145.35840000000002">
    <ele>504.13000000000005</ele>
   </trkpt>
   <trkpt lat="-37.88456" lon="145.35838">
    <ele>504.45000000000005</ele>
   </trkpt>
   <trkpt lat="-37.88476" lon="145.35842000000002">
    <ele>504.45000000000005</ele>
   </trkpt>
   <trkpt lat="-37.88532" lon="145.35860000000002">
    <ele>507.94000000000005</ele>
   </trkpt>
   <trkpt lat="-37.885450000000006" lon="145.35868000000002">
    <ele>509.21000000000004</ele>
   </trkpt>
   <trkpt lat="-37.8858" lon="145.35913000000002">
    <ele>512.3000000000001</ele>
   </trkpt>
   <trkpt lat="-37.88591" lon="145.35922000000002">
    <ele>512.51</ele>
   </trkpt>
   <trkpt lat="-37.88595" lon="145.35933">
    <ele>512.63</ele>
   </trkpt>
   <trkpt lat="-37.88598" lon="145.35957000000002">
    <ele>512.57</ele>
   </trkpt>
   <trkpt lat="-37.88573" lon="145.36033">
    <ele>510.61</ele>
   </trkpt>
   <trkpt lat="-37.88568" lon="145.36059">
    <ele>509.2000000000001</ele>
   </trkpt>
   <trkpt lat="-37.88555" lon="145.36100000000002">
    <ele>506.29</ele>
   </trkpt>
   <trkpt lat="-37.88537" lon="145.36136000000002">
    <ele>503.84000000000003</ele>
   </trkpt>
   <trkpt lat="-37.88514" lon="145.36202">
    <ele>499.33000000000004</ele>
   </trkpt>
   <trkpt lat="-37.88503" lon="145.36224">
    <ele>497.81</ele>
   </trkpt>
   <trkpt lat="-37.88496000000001" lon="145.36231">
    <ele>497.12000000000006</ele>
   </trkpt>
   <trkpt lat="-37.8851" lon="145.36238">
    <ele>496.52</ele>
   </trkpt>
   <trkpt lat="-37.88514" lon="145.36243000000002">
    <ele>496.01000000000005</ele>
   </trkpt>
   <trkpt lat="-37.88514" lon="145.36251000000001">
    <ele>496.01000000000005</ele>
   </trkpt>
   <trkpt lat="-37.8849" lon="145.36279000000002">
    <ele>490.83000000000004</ele>
   </trkpt>
   <trkpt lat="-37.88479" lon="145.36302">
    <ele>484.40000000000003</ele>
   </trkpt>
   <trkpt lat="-37.88474" lon="145.36315000000002">
    <ele>484.40000000000003</ele>
   </trkpt>
   <trkpt lat="-37.88472" lon="145.36334000000002">
    <ele>481.13000000000005</ele>
   </trkpt>
   <trkpt lat="-37.8847" lon="145.36339">
    <ele>480.48</ele>
   </trkpt>
   <trkpt lat="-37.88456" lon="145.3634">
    <ele>478.85</ele>
   </trkpt>
   <trkpt lat="-37.88449" lon="145.36339">
    <ele>478.24000000000007</ele>
   </trkpt>
   <trkpt lat="-37.88443" lon="145.36341000000002">
    <ele>476.64000000000004</ele>
   </trkpt>
   <trkpt lat="-37.884420000000006" lon="145.36347">
    <ele>475.66</ele>
   </trkpt>
   <trkpt lat="-37.88445" lon="145.36369000000002">
    <ele>472.43</ele>
   </trkpt>
   <trkpt lat="-37.88463" lon="145.36419">
    <ele>462.83</ele>
   </trkpt>
   <trkpt lat="-37.88476" lon="145.36443">
    <ele>458.38000000000005</ele>
   </trkpt>
   <trkpt lat="-37.88479" lon="145.36451000000002">
    <ele>457.43000000000006</ele>
   </trkpt>
   <trkpt lat="-37.88476" lon="145.36459000000002">
    <ele>457.43000000000006</ele>
   </trkpt>
   <trkpt lat="-37.88483" lon="145.36484000000002">
    <ele>451.47</ele>
   </trkpt>
   <trkpt lat="-37.88494" lon="145.36503000000002">
    <ele>449.74</ele>
   </trkpt>
   <trkpt lat="-37.88499" lon="145.36505000000002">
    <ele>449.68</ele>
   </trkpt>
   <trkpt lat="-37.88517" lon="145.36524">
    <ele>447.76000000000005</ele>
   </trkpt>
   <trkpt lat="-37.88519" lon="145.36531000000002">
    <ele>446.91</ele>
   </trkpt>
   <trkpt lat="-37.885360000000006" lon="145.36547000000002">
    <ele>440.94000000000005</ele>
   </trkpt>
   <trkpt lat="-37.88539" lon="145.36557000000002">
    <ele>440.01</ele>
   </trkpt>
   <trkpt lat="-37.88546" lon="145.36561">
    <ele>437.42</ele>
   </trkpt>
   <trkpt lat="-37.88548" lon="145.36577">
    <ele>436.47</ele>
   </trkpt>
   <trkpt lat="-37.88546" lon="145.36592000000002">
    <ele>433.18</ele>
   </trkpt>
   <trkpt lat="-37.885270000000006" lon="145.36607">
    <ele>427.53000000000003</ele>
   </trkpt>
   <trkpt lat="-37.884980000000006" lon="145.36612000000002">
    <ele>423.69</ele>
   </trkpt>
   <trkpt lat="-37.88474" lon="145.36611000000002">
    <ele>419.78000000000003</ele>
   </trkpt>
   <trkpt lat="-37.88463" lon="145.36617">
    <ele>416.81</ele>
   </trkpt>
   <trkpt lat="-37.88458" lon="145.36623">
    <ele>416.81</ele>
   </trkpt>
   <trkpt lat="-37.88461" lon="145.36635">
    <ele>412.27000000000004</ele>
   </trkpt>
   <trkpt lat="-37.88465" lon="145.36642">
    <ele>412.27000000000004</ele>
   </trkpt>
   <trkpt lat="-37.88465" lon="145.36651">
    <ele>406.75000000000006</ele>
   </trkpt>
   <trkpt lat="-37.8847" lon="145.36657000000002">
    <ele>406.75000000000006</ele>
   </trkpt>
   <trkpt lat="-37.8847" lon="145.36672000000002">
    <ele>404.46000000000004</ele>
   </trkpt>
   <trkpt lat="-37.88481" lon="145.36711000000003">
    <ele>396.18</ele>
   </trkpt>
   <trkpt lat="-37.88499" lon="145.36737000000002">
    <ele>390.0</ele>
   </trkpt>
   <trkpt lat="-37.88517" lon="145.36757">
    <ele>384.87000000000006</ele>
   </trkpt>
   <trkpt lat="-37.8855" lon="145.36785">
    <ele>378.71000000000004</ele>
   </trkpt>
   <trkpt lat="-37.88564" lon="145.36801">
    <ele>374.01</ele>
   </trkpt>
   <trkpt lat="-37.88602" lon="145.36834000000002">
    <ele>360.42</ele>
   </trkpt>
   <trkpt lat="-37.886100000000006" lon="145.36837">
    <ele>360.42</ele>
   </trkpt>
   <trkpt lat="-37.88611" lon="145.36851000000001">
    <ele>361.27000000000004</ele>
   </trkpt>
   <trkpt lat="-37.88642" lon="145.36872000000002">
    <ele>364.66</ele>
   </trkpt>
   <trkpt lat="-37.88667" lon="145.36906000000002">
    <ele>367.31</ele>
   </trkpt>
   <trkpt lat="-37.88736" lon="145.36978000000002">
    <ele>351.24000000000007</ele>
   </trkpt>
   <trkpt lat="-37.88732" lon="145.36981">
    <ele>351.24000000000007</ele>
   </trkpt>
   <trkpt lat="-37.88738" lon="145.37008">
    <ele>366.05</ele>
   </trkpt>
   <trkpt lat="-37.887350000000005" lon="145.37013000000002">
    <ele>366.13</ele>
   </trkpt>
   <trkpt lat="-37.88731000000001" lon="145.37011">
    <ele>366.07</ele>
   </trkpt>
   <trkpt lat="-37.88716" lon="145.37024000000002">
    <ele>366.08</ele>
   </trkpt>
  </trkseg>
 </trk>
</gpx>
