<?xml version="1.0" encoding="UTF-8"?>
<gpx creator="StravaGPX" version="1.1" xmlns="http://www.topografix.com/GPX/1/1" xmlns:xsi="http://www.w3.org/2001/XMLSchema-instance" xsi:schemaLocation="http://www.topografix.com/GPX/1/1 http://www.topografix.com/GPX/1/1/gpx.xsd">
 <metadata>
  <name>DTR 14K - 19th July</name>
  <author>
   <name>DTR  Runleaders</name>
   <link href="https://www.strava.com/athletes/194056408"/>
  </author>
  <copyright author="OpenStreetMap contributors">
   <year>2020</year>
   <license>https://www.openstreetmap.org/copyright</license>
  </copyright>
  <link href="https://www.strava.com/routes/3512798965906756958"/>
 </metadata>
 <trk>
  <name>DTR 14K - 19th July</name>
  <link href="https://www.strava.com/routes/3512798965906756958"/>
  <type>running</type>
  <trkseg>
   <trkpt lat="-37.85222" lon="145.36827000000002">
    <ele>570.32</ele>
   </trkpt>
   <trkpt lat="-37.85228" lon="145.36824000000001">
    <ele>570.76</ele>
   </trkpt>
   <trkpt lat="-37.85264" lon="145.36819">
    <ele>574.3900000000001</ele>
   </trkpt>
   <trkpt lat="-37.85295" lon="145.36823">
    <ele>577.37</ele>
   </trkpt>
   <trkpt lat="-37.85314" lon="145.36833000000001">
    <ele>578.2900000000001</ele>
   </trkpt>
   <trkpt lat="-37.853660000000005" lon="145.36857">
    <ele>579.0000000000001</ele>
   </trkpt>
   <trkpt lat="-37.85409000000001" lon="145.36882">
    <ele>576.23</ele>
   </trkpt>
   <trkpt lat="-37.85441" lon="145.36911">
    <ele>572.5100000000001</ele>
   </trkpt>
   <trkpt lat="-37.85421" lon="145.36937">
    <ele>573.16</ele>
   </trkpt>
   <trkpt lat="-37.85419" lon="145.36952000000002">
    <ele>573.16</ele>
   </trkpt>
   <trkpt lat="-37.85410500503596" lon="145.37061000109864">
    <ele>576.6300000000001</ele>
   </trkpt>
   <trkpt lat="-37.854020000000006" lon="145.3717">
    <ele>579.22</ele>
   </trkpt>
   <trkpt lat="-37.854020000000006" lon="145.37182">
    <ele>579.4</ele>
   </trkpt>
   <trkpt lat="-37.85405" lon="145.37220000000002">
    <ele>579.84</ele>
   </trkpt>
   <trkpt lat="-37.85414" lon="145.37239000000002">
    <ele>579.76</ele>
   </trkpt>
   <trkpt lat="-37.8543" lon="145.37263000000002">
    <ele>579.37</ele>
   </trkpt>
   <trkpt lat="-37.85448" lon="145.37287">
    <ele>579.0500000000001</ele>
   </trkpt>
   <trkpt lat="-37.85484500071746" lon="145.3732699980644">
    <ele>578.44</ele>
   </trkpt>
   <trkpt lat="-37.85521" lon="145.37367">
    <ele>578.19</ele>
   </trkpt>
   <trkpt lat="-37.85531" lon="145.37379">
    <ele>578.2700000000001</ele>
   </trkpt>
   <trkpt lat="-37.85535" lon="145.37377">
    <ele>578.22</ele>
   </trkpt>
   <trkpt lat="-37.85567500077416" lon="145.37416499839765">
    <ele>578.8000000000001</ele>
   </trkpt>
   <trkpt lat="-37.856" lon="145.37456">
    <ele>577.01</ele>
   </trkpt>
   <trkpt lat="-37.856260000000006" lon="145.37480000000002">
    <ele>574.26</ele>
   </trkpt>
   <trkpt lat="-37.85622" lon="145.37490000000003">
    <ele>574.3100000000001</ele>
   </trkpt>
   <trkpt lat="-37.85683" lon="145.37527">
    <ele>567.3600000000001</ele>
   </trkpt>
   <trkpt lat="-37.856930000000006" lon="145.37535000000003">
    <ele>566.6300000000001</ele>
   </trkpt>
   <trkpt lat="-37.85714" lon="145.37555">
    <ele>565.44</ele>
   </trkpt>
   <trkpt lat="-37.8575" lon="145.37597000000002">
    <ele>560.69</ele>
   </trkpt>
   <trkpt lat="-37.85786" lon="145.37659000000002">
    <ele>554.5</ele>
   </trkpt>
   <trkpt lat="-37.85819333708845" lon="145.37725332740155">
    <ele>547.6800000000001</ele>
   </trkpt>
   <trkpt lat="-37.85852667045583" lon="145.37791666080253">
    <ele>542.64</ele>
   </trkpt>
   <trkpt lat="-37.85886" lon="145.37858">
    <ele>535.1400000000001</ele>
   </trkpt>
   <trkpt lat="-37.859" lon="145.37889">
    <ele>530.9200000000001</ele>
   </trkpt>
   <trkpt lat="-37.85922" lon="145.37926000000002">
    <ele>528.51</ele>
   </trkpt>
   <trkpt lat="-37.8595700005479" lon="145.37964999804194">
    <ele>526.7</ele>
   </trkpt>
   <trkpt lat="-37.85992" lon="145.38004">
    <ele>523.07</ele>
   </trkpt>
   <trkpt lat="-37.860330000000005" lon="145.38064">
    <ele>518.95</ele>
   </trkpt>
   <trkpt lat="-37.86032" lon="145.38089000000002">
    <ele>517.98</ele>
   </trkpt>
   <trkpt lat="-37.86027" lon="145.38124000000002">
    <ele>517.36</ele>
   </trkpt>
   <trkpt lat="-37.86021" lon="145.38127">
    <ele>517.3000000000001</ele>
   </trkpt>
   <trkpt lat="-37.86007" lon="145.38119">
    <ele>519.45</ele>
   </trkpt>
   <trkpt lat="-37.860020000000006" lon="145.38135000000003">
    <ele>519.93</ele>
   </trkpt>
   <trkpt lat="-37.85998" lon="145.38159000000002">
    <ele>519.5600000000001</ele>
   </trkpt>
   <trkpt lat="-37.859930000000006" lon="145.38259000000002">
    <ele>518.14</ele>
   </trkpt>
   <trkpt lat="-37.85983" lon="145.38273">
    <ele>516.46</ele>
   </trkpt>
   <trkpt lat="-37.859770000000005" lon="145.38287000000003">
    <ele>513.94</ele>
   </trkpt>
   <trkpt lat="-37.8598" lon="145.38292">
    <ele>512.8600000000001</ele>
   </trkpt>
   <trkpt lat="-37.859860000000005" lon="145.38325">
    <ele>510.45000000000005</ele>
   </trkpt>
   <trkpt lat="-37.85987" lon="145.38334">
    <ele>510.2</ele>
   </trkpt>
   <trkpt lat="-37.8598" lon="145.38387">
    <ele>506.13000000000005</ele>
   </trkpt>
   <trkpt lat="-37.85974" lon="145.38416">
    <ele>504.49</ele>
   </trkpt>
   <trkpt lat="-37.85974" lon="145.38429000000002">
    <ele>503.49</ele>
   </trkpt>
   <trkpt lat="-37.85971" lon="145.38439000000002">
    <ele>502.92</ele>
   </trkpt>
   <trkpt lat="-37.85965" lon="145.38445000000002">
    <ele>501.65000000000003</ele>
   </trkpt>
   <trkpt lat="-37.8594" lon="145.38458">
    <ele>496.3</ele>
   </trkpt>
   <trkpt lat="-37.85927" lon="145.38478">
    <ele>492.71000000000004</ele>
   </trkpt>
   <trkpt lat="-37.85924" lon="145.38524">
    <ele>487.65000000000003</ele>
   </trkpt>
   <trkpt lat="-37.8592" lon="145.3854">
    <ele>484.4700000000001</ele>
   </trkpt>
   <trkpt lat="-37.85891" lon="145.38586">
    <ele>476.15000000000003</ele>
   </trkpt>
   <trkpt lat="-37.85871" lon="145.38611">
    <ele>472.99</ele>
   </trkpt>
   <trkpt lat="-37.8586" lon="145.3862">
    <ele>472.03000000000003</ele>
   </trkpt>
   <trkpt lat="-37.85839" lon="145.38625000000002">
    <ele>468.44</ele>
   </trkpt>
   <trkpt lat="-37.85821" lon="145.38625000000002">
    <ele>463.22</ele>
   </trkpt>
   <trkpt lat="-37.85817" lon="145.38619">
    <ele>463.22</ele>
   </trkpt>
   <trkpt lat="-37.85821" lon="145.38609000000002">
    <ele>461.24</ele>
   </trkpt>
   <trkpt lat="-37.85821" lon="145.38587">
    <ele>456.62</ele>
   </trkpt>
   <trkpt lat="-37.85815" lon="145.38567">
    <ele>453.70000000000005</ele>
   </trkpt>
   <trkpt lat="-37.858050000000006" lon="145.38551">
    <ele>450.45</ele>
   </trkpt>
   <trkpt lat="-37.85797" lon="145.38532">
    <ele>449.08000000000004</ele>
   </trkpt>
   <trkpt lat="-37.85792" lon="145.38525">
    <ele>449.08000000000004</ele>
   </trkpt>
   <trkpt lat="-37.8575" lon="145.38472000000002">
    <ele>445.94000000000005</ele>
   </trkpt>
   <trkpt lat="-37.85741" lon="145.38446000000002">
    <ele>444.69</ele>
   </trkpt>
   <trkpt lat="-37.85739" lon="145.38424">
    <ele>444.33000000000004</ele>
   </trkpt>
   <trkpt lat="-37.85739" lon="145.38403000000002">
    <ele>443.01</ele>
   </trkpt>
   <trkpt lat="-37.8575" lon="145.38337">
    <ele>441.15000000000003</ele>
   </trkpt>
   <trkpt lat="-37.85752" lon="145.38283">
    <ele>439.99000000000007</ele>
   </trkpt>
   <trkpt lat="-37.8575" lon="145.38250000000002">
    <ele>439.34</ele>
   </trkpt>
   <trkpt lat="-37.857440000000004" lon="145.38230000000001">
    <ele>439.1</ele>
   </trkpt>
   <trkpt lat="-37.85707" lon="145.38234">
    <ele>430.63</ele>
   </trkpt>
   <trkpt lat="-37.85674" lon="145.38225">
    <ele>423.25</ele>
   </trkpt>
   <trkpt lat="-37.85665" lon="145.38232000000002">
    <ele>421.00000000000006</ele>
   </trkpt>
   <trkpt lat="-37.8566" lon="145.38243">
    <ele>418.83000000000004</ele>
   </trkpt>
   <trkpt lat="-37.85667" lon="145.38279">
    <ele>413.67</ele>
   </trkpt>
   <trkpt lat="-37.85663" lon="145.38306">
    <ele>409.79</ele>
   </trkpt>
   <trkpt lat="-37.85654" lon="145.38322000000002">
    <ele>408.4200000000001</ele>
   </trkpt>
   <trkpt lat="-37.85638" lon="145.38374000000002">
    <ele>409.88</ele>
   </trkpt>
   <trkpt lat="-37.85636" lon="145.38406">
    <ele>412.35</ele>
   </trkpt>
   <trkpt lat="-37.85636" lon="145.38443">
    <ele>415.34000000000003</ele>
   </trkpt>
   <trkpt lat="-37.85642" lon="145.38466000000003">
    <ele>416.94</ele>
   </trkpt>
   <trkpt lat="-37.85651" lon="145.38478">
    <ele>419.50000000000006</ele>
   </trkpt>
   <trkpt lat="-37.85705" lon="145.38525">
    <ele>424.45000000000005</ele>
   </trkpt>
   <trkpt lat="-37.85712" lon="145.38534">
    <ele>425.2</ele>
   </trkpt>
   <trkpt lat="-37.85712" lon="145.38546000000002">
    <ele>426.09000000000003</ele>
   </trkpt>
   <trkpt lat="-37.85705" lon="145.38563000000002">
    <ele>426.51000000000005</ele>
   </trkpt>
   <trkpt lat="-37.85705" lon="145.38562000000002">
    <ele>426.57000000000005</ele>
   </trkpt>
   <trkpt lat="-37.85694" lon="145.38588000000001">
    <ele>429.62000000000006</ele>
   </trkpt>
   <trkpt lat="-37.85667" lon="145.38628">
    <ele>432.93</ele>
   </trkpt>
   <trkpt lat="-37.85656" lon="145.38636000000002">
    <ele>432.41</ele>
   </trkpt>
   <trkpt lat="-37.85645" lon="145.38638">
    <ele>431.71000000000004</ele>
   </trkpt>
   <trkpt lat="-37.85618" lon="145.38636000000002">
    <ele>428.39000000000004</ele>
   </trkpt>
   <trkpt lat="-37.85604" lon="145.38625000000002">
    <ele>424.37</ele>
   </trkpt>
   <trkpt lat="-37.856" lon="145.38617000000002">
    <ele>423.58</ele>
   </trkpt>
   <trkpt lat="-37.85586" lon="145.38612">
    <ele>422.18000000000006</ele>
   </trkpt>
   <trkpt lat="-37.85575" lon="145.38613">
    <ele>422.14</ele>
   </trkpt>
   <trkpt lat="-37.855610000000006" lon="145.3861">
    <ele>422.29</ele>
   </trkpt>
   <trkpt lat="-37.85501" lon="145.38577">
    <ele>413.46000000000004</ele>
   </trkpt>
   <trkpt lat="-37.854490000000006" lon="145.38562000000002">
    <ele>403.56</ele>
   </trkpt>
   <trkpt lat="-37.85396" lon="145.38551">
    <ele>389.78000000000003</ele>
   </trkpt>
   <trkpt lat="-37.85309" lon="145.38565">
    <ele>375.67</ele>
   </trkpt>
   <trkpt lat="-37.85275" lon="145.38578">
    <ele>368.74</ele>
   </trkpt>
   <trkpt lat="-37.85233" lon="145.38585">
    <ele>361.19</ele>
   </trkpt>
   <trkpt lat="-37.8519" lon="145.38586">
    <ele>353.13000000000005</ele>
   </trkpt>
   <trkpt lat="-37.85181" lon="145.38583">
    <ele>353.13000000000005</ele>
   </trkpt>
   <trkpt lat="-37.85116" lon="145.38566">
    <ele>343.6</ele>
   </trkpt>
   <trkpt lat="-37.850460000000005" lon="145.38531">
    <ele>331.06</ele>
   </trkpt>
   <trkpt lat="-37.84995" lon="145.38541">
    <ele>325.27</ele>
   </trkpt>
   <trkpt lat="-37.849500000000006" lon="145.38575">
    <ele>319.20000000000005</ele>
   </trkpt>
   <trkpt lat="-37.84904" lon="145.38596">
    <ele>312.24</ele>
   </trkpt>
   <trkpt lat="-37.84854" lon="145.38608000000002">
    <ele>307.32000000000005</ele>
   </trkpt>
   <trkpt lat="-37.84834" lon="145.38619">
    <ele>304.36</ele>
   </trkpt>
   <trkpt lat="-37.84812" lon="145.38636000000002">
    <ele>301.74</ele>
   </trkpt>
   <trkpt lat="-37.84751" lon="145.38669000000002">
    <ele>294.35</ele>
   </trkpt>
   <trkpt lat="-37.84736" lon="145.38680000000002">
    <ele>293.59000000000003</ele>
   </trkpt>
   <trkpt lat="-37.8472" lon="145.38689000000002">
    <ele>292.95000000000005</ele>
   </trkpt>
   <trkpt lat="-37.84691" lon="145.38723000000002">
    <ele>289.04</ele>
   </trkpt>
   <trkpt lat="-37.84671" lon="145.38737">
    <ele>287.25</ele>
   </trkpt>
   <trkpt lat="-37.84651" lon="145.38742000000002">
    <ele>286.72</ele>
   </trkpt>
   <trkpt lat="-37.84628" lon="145.38743000000002">
    <ele>286.5</ele>
   </trkpt>
   <trkpt lat="-37.84613" lon="145.38748">
    <ele>285.90999999999997</ele>
   </trkpt>
   <trkpt lat="-37.84577" lon="145.38776000000001">
    <ele>283.5</ele>
   </trkpt>
   <trkpt lat="-37.84557" lon="145.388">
    <ele>282.40000000000003</ele>
   </trkpt>
   <trkpt lat="-37.84539" lon="145.38825">
    <ele>282.1</ele>
   </trkpt>
   <trkpt lat="-37.84523" lon="145.38868000000002">
    <ele>282.29</ele>
   </trkpt>
   <trkpt lat="-37.84487" lon="145.38931000000002">
    <ele>282.90000000000003</ele>
   </trkpt>
   <trkpt lat="-37.84478" lon="145.38966000000002">
    <ele>283.49</ele>
   </trkpt>
   <trkpt lat="-37.84474" lon="145.39010000000002">
    <ele>286.2</ele>
   </trkpt>
   <trkpt lat="-37.84463000167539" lon="145.39072500079666">
    <ele>288.46999999999997</ele>
   </trkpt>
   <trkpt lat="-37.84452" lon="145.39135000000002">
    <ele>290.24</ele>
   </trkpt>
   <trkpt lat="-37.84416" lon="145.39055000000002">
    <ele>280.05</ele>
   </trkpt>
   <trkpt lat="-37.84416" lon="145.39043">
    <ele>279.51000000000005</ele>
   </trkpt>
   <trkpt lat="-37.844260000000006" lon="145.39003000000002">
    <ele>276.38</ele>
   </trkpt>
   <trkpt lat="-37.8442" lon="145.38957000000002">
    <ele>272.26</ele>
   </trkpt>
   <trkpt lat="-37.84427" lon="145.38918">
    <ele>269.73</ele>
   </trkpt>
   <trkpt lat="-37.84427" lon="145.38917">
    <ele>269.71</ele>
   </trkpt>
   <trkpt lat="-37.84427" lon="145.38897">
    <ele>269.69000000000005</ele>
   </trkpt>
   <trkpt lat="-37.844210000000004" lon="145.38883">
    <ele>271.25000000000006</ele>
   </trkpt>
   <trkpt lat="-37.844100000000005" lon="145.38879">
    <ele>272.85</ele>
   </trkpt>
   <trkpt lat="-37.84393" lon="145.38879">
    <ele>274.99</ele>
   </trkpt>
   <trkpt lat="-37.84375" lon="145.38884000000002">
    <ele>275.38</ele>
   </trkpt>
   <trkpt lat="-37.84351" lon="145.38905000000003">
    <ele>274.27</ele>
   </trkpt>
   <trkpt lat="-37.843320000000006" lon="145.38902000000002">
    <ele>275.67</ele>
   </trkpt>
   <trkpt lat="-37.84315" lon="145.38891">
    <ele>278.09</ele>
   </trkpt>
   <trkpt lat="-37.8431" lon="145.38876000000002">
    <ele>278.83000000000004</ele>
   </trkpt>
   <trkpt lat="-37.84306" lon="145.38855">
    <ele>283.58</ele>
   </trkpt>
   <trkpt lat="-37.842830000000006" lon="145.38816">
    <ele>286.52</ele>
   </trkpt>
   <trkpt lat="-37.84243" lon="145.38848000000002">
    <ele>282.48</ele>
   </trkpt>
   <trkpt lat="-37.84237" lon="145.38848000000002">
    <ele>281.72</ele>
   </trkpt>
   <trkpt lat="-37.84239" lon="145.38859000000002">
    <ele>281.18</ele>
   </trkpt>
   <trkpt lat="-37.84266" lon="145.38896000000003">
    <ele>278.26</ele>
   </trkpt>
   <trkpt lat="-37.8427" lon="145.38916">
    <ele>275.59</ele>
   </trkpt>
   <trkpt lat="-37.84281" lon="145.38988">
    <ele>265.96000000000004</ele>
   </trkpt>
   <trkpt lat="-37.84277" lon="145.39004">
    <ele>263.62</ele>
   </trkpt>
   <trkpt lat="-37.84266" lon="145.39011000000002">
    <ele>261.75000000000006</ele>
   </trkpt>
   <trkpt lat="-37.84257" lon="145.39009000000001">
    <ele>260.93</ele>
   </trkpt>
   <trkpt lat="-37.84234" lon="145.38999">
    <ele>259.32</ele>
   </trkpt>
   <trkpt lat="-37.84225" lon="145.39001000000002">
    <ele>258.55</ele>
   </trkpt>
   <trkpt lat="-37.84212" lon="145.39011000000002">
    <ele>257.26000000000005</ele>
   </trkpt>
   <trkpt lat="-37.84176" lon="145.39027000000002">
    <ele>257.14000000000004</ele>
   </trkpt>
   <trkpt lat="-37.84111" lon="145.39069">
    <ele>260.98</ele>
   </trkpt>
   <trkpt lat="-37.84073" lon="145.39081000000002">
    <ele>259.71</ele>
   </trkpt>
   <trkpt lat="-37.84037" lon="145.39085">
    <ele>258.51</ele>
   </trkpt>
   <trkpt lat="-37.84008" lon="145.39095">
    <ele>257.31000000000006</ele>
   </trkpt>
   <trkpt lat="-37.83997" lon="145.39104">
    <ele>257.31000000000006</ele>
   </trkpt>
   <trkpt lat="-37.83972" lon="145.39134">
    <ele>256.74</ele>
   </trkpt>
   <trkpt lat="-37.83972" lon="145.39133">
    <ele>256.74</ele>
   </trkpt>
   <trkpt lat="-37.83919" lon="145.39188000000001">
    <ele>255.53000000000003</ele>
   </trkpt>
   <trkpt lat="-37.83872" lon="145.39218000000002">
    <ele>254.0</ele>
   </trkpt>
   <trkpt lat="-37.83858" lon="145.39221">
    <ele>253.08</ele>
   </trkpt>
   <trkpt lat="-37.83784" lon="145.3922">
    <ele>252.4</ele>
   </trkpt>
   <trkpt lat="-37.83766" lon="145.39217000000002">
    <ele>251.99000000000004</ele>
   </trkpt>
   <trkpt lat="-37.83737" lon="145.39208000000002">
    <ele>250.97000000000003</ele>
   </trkpt>
   <trkpt lat="-37.83726" lon="145.39164000000002">
    <ele>250.24</ele>
   </trkpt>
   <trkpt lat="-37.837270000000004" lon="145.39118000000002">
    <ele>248.3</ele>
   </trkpt>
   <trkpt lat="-37.8374" lon="145.39013">
    <ele>254.54999999999998</ele>
   </trkpt>
   <trkpt lat="-37.837410000000006" lon="145.38957000000002">
    <ele>254.92000000000004</ele>
   </trkpt>
   <trkpt lat="-37.83751" lon="145.38939000000002">
    <ele>254.98999999999998</ele>
   </trkpt>
   <trkpt lat="-37.83769" lon="145.38928">
    <ele>255.62</ele>
   </trkpt>
   <trkpt lat="-37.83791" lon="145.38927">
    <ele>255.78</ele>
   </trkpt>
   <trkpt lat="-37.83816" lon="145.38933">
    <ele>256.24</ele>
   </trkpt>
   <trkpt lat="-37.83836" lon="145.38944">
    <ele>257.46000000000004</ele>
   </trkpt>
   <trkpt lat="-37.83849" lon="145.38949000000002">
    <ele>257.76000000000005</ele>
   </trkpt>
   <trkpt lat="-37.83865" lon="145.38945">
    <ele>258.0</ele>
   </trkpt>
   <trkpt lat="-37.83885" lon="145.38936">
    <ele>258.67</ele>
   </trkpt>
   <trkpt lat="-37.83908" lon="145.38930000000002">
    <ele>259.14000000000004</ele>
   </trkpt>
   <trkpt lat="-37.83932" lon="145.38919">
    <ele>259.48</ele>
   </trkpt>
   <trkpt lat="-37.83925" lon="145.38882">
    <ele>265.99</ele>
   </trkpt>
   <trkpt lat="-37.839180000000006" lon="145.3887">
    <ele>265.99</ele>
   </trkpt>
   <trkpt lat="-37.83914" lon="145.38853">
    <ele>267.82</ele>
   </trkpt>
   <trkpt lat="-37.83894" lon="145.38829">
    <ele>270.68</ele>
   </trkpt>
   <trkpt lat="-37.83863" lon="145.38783">
    <ele>275.12</ele>
   </trkpt>
   <trkpt lat="-37.838530000000006" lon="145.38786000000002">
    <ele>274.56</ele>
   </trkpt>
   <trkpt lat="-37.83854" lon="145.38786000000002">
    <ele>274.5</ele>
   </trkpt>
   <trkpt lat="-37.83786500022492" lon="145.3880850020553">
    <ele>265.99</ele>
   </trkpt>
   <trkpt lat="-37.83719" lon="145.38831000000002">
    <ele>264.20000000000005</ele>
   </trkpt>
   <trkpt lat="-37.83666" lon="145.38841000000002">
    <ele>267.55</ele>
   </trkpt>
   <trkpt lat="-37.83623" lon="145.38852">
    <ele>267.29</ele>
   </trkpt>
   <trkpt lat="-37.83585" lon="145.38849000000002">
    <ele>267.07000000000005</ele>
   </trkpt>
   <trkpt lat="-37.83531" lon="145.38819">
    <ele>265.75000000000006</ele>
   </trkpt>
   <trkpt lat="-37.83547" lon="145.38808">
    <ele>268.44</ele>
   </trkpt>
   <trkpt lat="-37.83576" lon="145.38764">
    <ele>274.02000000000004</ele>
   </trkpt>
   <trkpt lat="-37.83614" lon="145.3872">
    <ele>281.32</ele>
   </trkpt>
   <trkpt lat="-37.8363" lon="145.38699000000003">
    <ele>282.56</ele>
   </trkpt>
   <trkpt lat="-37.83637" lon="145.38684">
    <ele>283.69</ele>
   </trkpt>
   <trkpt lat="-37.8365" lon="145.38641">
    <ele>286.66</ele>
   </trkpt>
   <trkpt lat="-37.83681" lon="145.38593">
    <ele>288.8</ele>
   </trkpt>
   <trkpt lat="-37.83711" lon="145.38571000000002">
    <ele>291.87</ele>
   </trkpt>
   <trkpt lat="-37.83722" lon="145.38565">
    <ele>292.08</ele>
   </trkpt>
   <trkpt lat="-37.83744" lon="145.38557">
    <ele>291.79</ele>
   </trkpt>
   <trkpt lat="-37.837450000000004" lon="145.38557">
    <ele>291.78000000000003</ele>
   </trkpt>
   <trkpt lat="-37.83805" lon="145.38537000000002">
    <ele>292.39000000000004</ele>
   </trkpt>
   <trkpt lat="-37.83885" lon="145.38514">
    <ele>298.02</ele>
   </trkpt>
   <trkpt lat="-37.8395" lon="145.38522">
    <ele>295.36</ele>
   </trkpt>
   <trkpt lat="-37.83975" lon="145.38520000000003">
    <ele>294.47</ele>
   </trkpt>
   <trkpt lat="-37.83997" lon="145.38510000000002">
    <ele>294.58</ele>
   </trkpt>
   <trkpt lat="-37.84022" lon="145.38496">
    <ele>296.01000000000005</ele>
   </trkpt>
   <trkpt lat="-37.84073" lon="145.38456000000002">
    <ele>297.3</ele>
   </trkpt>
   <trkpt lat="-37.84089" lon="145.38447000000002">
    <ele>297.2</ele>
   </trkpt>
   <trkpt lat="-37.841" lon="145.38444">
    <ele>296.48</ele>
   </trkpt>
   <trkpt lat="-37.84129" lon="145.38446000000002">
    <ele>293.96</ele>
   </trkpt>
   <trkpt lat="-37.841440000000006" lon="145.38451">
    <ele>292.28000000000003</ele>
   </trkpt>
   <trkpt lat="-37.84154" lon="145.38462">
    <ele>290.90000000000003</ele>
   </trkpt>
   <trkpt lat="-37.84165" lon="145.38485">
    <ele>285.71000000000004</ele>
   </trkpt>
   <trkpt lat="-37.84178" lon="145.38521">
    <ele>279.92</ele>
   </trkpt>
   <trkpt lat="-37.84196" lon="145.38561">
    <ele>275.05</ele>
   </trkpt>
   <trkpt lat="-37.84205" lon="145.38577">
    <ele>273.97</ele>
   </trkpt>
   <trkpt lat="-37.84216" lon="145.38590000000002">
    <ele>273.81</ele>
   </trkpt>
   <trkpt lat="-37.84223" lon="145.38594">
    <ele>273.93</ele>
   </trkpt>
   <trkpt lat="-37.84237" lon="145.38589000000002">
    <ele>274.28000000000003</ele>
   </trkpt>
   <trkpt lat="-37.842470000000006" lon="145.38578">
    <ele>274.98</ele>
   </trkpt>
   <trkpt lat="-37.84254" lon="145.38564000000002">
    <ele>275.57000000000005</ele>
   </trkpt>
   <trkpt lat="-37.84266" lon="145.38509000000002">
    <ele>279.49</ele>
   </trkpt>
   <trkpt lat="-37.84272" lon="145.38490000000002">
    <ele>280.5</ele>
   </trkpt>
   <trkpt lat="-37.84281" lon="145.38477">
    <ele>281.25</ele>
   </trkpt>
   <trkpt lat="-37.84288" lon="145.38473000000002">
    <ele>281.66</ele>
   </trkpt>
   <trkpt lat="-37.84292000000001" lon="145.38473000000002">
    <ele>281.66</ele>
   </trkpt>
   <trkpt lat="-37.84297" lon="145.38451">
    <ele>283.33000000000004</ele>
   </trkpt>
   <trkpt lat="-37.84295" lon="145.38430000000002">
    <ele>286.75</ele>
   </trkpt>
   <trkpt lat="-37.84286" lon="145.38411000000002">
    <ele>287.83000000000004</ele>
   </trkpt>
   <trkpt lat="-37.84281" lon="145.38376000000002">
    <ele>291.64</ele>
   </trkpt>
   <trkpt lat="-37.84281" lon="145.38296000000003">
    <ele>296.97</ele>
   </trkpt>
   <trkpt lat="-37.84279" lon="145.38266000000002">
    <ele>300.12</ele>
   </trkpt>
   <trkpt lat="-37.84272" lon="145.38237">
    <ele>303.94000000000005</ele>
   </trkpt>
   <trkpt lat="-37.84263" lon="145.38217">
    <ele>305.76000000000005</ele>
   </trkpt>
   <trkpt lat="-37.84248" lon="145.38167">
    <ele>311.88000000000005</ele>
   </trkpt>
   <trkpt lat="-37.84248" lon="145.38133000000002">
    <ele>313.97</ele>
   </trkpt>
   <trkpt lat="-37.84243" lon="145.38109">
    <ele>316.01</ele>
   </trkpt>
   <trkpt lat="-37.8423" lon="145.38066">
    <ele>320.6</ele>
   </trkpt>
   <trkpt lat="-37.84205" lon="145.38012">
    <ele>324.61</ele>
   </trkpt>
   <trkpt lat="-37.84201" lon="145.38002">
    <ele>324.66</ele>
   </trkpt>
   <trkpt lat="-37.84185" lon="145.37971000000002">
    <ele>326.17</ele>
   </trkpt>
   <trkpt lat="-37.84154" lon="145.37922">
    <ele>328.13000000000005</ele>
   </trkpt>
   <trkpt lat="-37.84122" lon="145.37847000000002">
    <ele>329.99</ele>
   </trkpt>
   <trkpt lat="-37.84103" lon="145.37786">
    <ele>332.87000000000006</ele>
   </trkpt>
   <trkpt lat="-37.840990000000005" lon="145.37779">
    <ele>332.90000000000003</ele>
   </trkpt>
   <trkpt lat="-37.840970000000006" lon="145.37764">
    <ele>333.90000000000003</ele>
   </trkpt>
   <trkpt lat="-37.84089" lon="145.37754">
    <ele>334.76</ele>
   </trkpt>
   <trkpt lat="-37.84046" lon="145.37711000000002">
    <ele>343.08000000000004</ele>
   </trkpt>
   <trkpt lat="-37.84024" lon="145.37681">
    <ele>350.09000000000003</ele>
   </trkpt>
   <trkpt lat="-37.83999500117897" lon="145.37628499828548">
    <ele>355.06000000000006</ele>
   </trkpt>
   <trkpt lat="-37.83975" lon="145.37576">
    <ele>361.3</ele>
   </trkpt>
   <trkpt lat="-37.83950000241456" lon="145.3750049974551">
    <ele>370.59000000000003</ele>
   </trkpt>
   <trkpt lat="-37.83925" lon="145.37425000000002">
    <ele>377.91</ele>
   </trkpt>
   <trkpt lat="-37.83921" lon="145.37414">
    <ele>378.61000000000007</ele>
   </trkpt>
   <trkpt lat="-37.8391" lon="145.37398000000002">
    <ele>379.39</ele>
   </trkpt>
   <trkpt lat="-37.83883" lon="145.37376">
    <ele>380.14000000000004</ele>
   </trkpt>
   <trkpt lat="-37.83858" lon="145.37359">
    <ele>380.31</ele>
   </trkpt>
   <trkpt lat="-37.83847" lon="145.37354000000002">
    <ele>381.15000000000003</ele>
   </trkpt>
   <trkpt lat="-37.83822" lon="145.37348">
    <ele>384.21999999999997</ele>
   </trkpt>
   <trkpt lat="-37.83805" lon="145.37351">
    <ele>390.24</ele>
   </trkpt>
   <trkpt lat="-37.83791" lon="145.37358">
    <ele>393.45</ele>
   </trkpt>
   <trkpt lat="-37.83784" lon="145.37368">
    <ele>395.62</ele>
   </trkpt>
   <trkpt lat="-37.83764" lon="145.37427000000002">
    <ele>404.47</ele>
   </trkpt>
   <trkpt lat="-37.83746" lon="145.37449">
    <ele>406.52000000000004</ele>
   </trkpt>
   <trkpt lat="-37.83735" lon="145.37466">
    <ele>406.87</ele>
   </trkpt>
   <trkpt lat="-37.83738" lon="145.37475">
    <ele>406.78000000000003</ele>
   </trkpt>
   <trkpt lat="-37.83731" lon="145.37496000000002">
    <ele>406.32</ele>
   </trkpt>
   <trkpt lat="-37.83728" lon="145.37513">
    <ele>406.15</ele>
   </trkpt>
   <trkpt lat="-37.83724" lon="145.37557">
    <ele>407.95000000000005</ele>
   </trkpt>
   <trkpt lat="-37.83724" lon="145.3762">
    <ele>413.18000000000006</ele>
   </trkpt>
   <trkpt lat="-37.83722" lon="145.37645">
    <ele>414.01000000000005</ele>
   </trkpt>
   <trkpt lat="-37.83731" lon="145.37681">
    <ele>417.95000000000005</ele>
   </trkpt>
   <trkpt lat="-37.83731" lon="145.37695000000002">
    <ele>418.50000000000006</ele>
   </trkpt>
   <trkpt lat="-37.83722" lon="145.37716">
    <ele>422.24000000000007</ele>
   </trkpt>
   <trkpt lat="-37.83713" lon="145.37725">
    <ele>422.83000000000004</ele>
   </trkpt>
   <trkpt lat="-37.836720000409166" lon="145.3775850019153">
    <ele>427.45000000000005</ele>
   </trkpt>
   <trkpt lat="-37.836310000000005" lon="145.37792000000002">
    <ele>432.66</ele>
   </trkpt>
   <trkpt lat="-37.83619" lon="145.37801000000002">
    <ele>431.82000000000005</ele>
   </trkpt>
   <trkpt lat="-37.8361" lon="145.37802000000002">
    <ele>430.67</ele>
   </trkpt>
   <trkpt lat="-37.83592" lon="145.37798">
    <ele>427.24</ele>
   </trkpt>
   <trkpt lat="-37.83565" lon="145.37799">
    <ele>424.44000000000005</ele>
   </trkpt>
   <trkpt lat="-37.83556" lon="145.37798">
    <ele>423.31</ele>
   </trkpt>
   <trkpt lat="-37.83545" lon="145.37794000000002">
    <ele>422.01000000000005</ele>
   </trkpt>
   <trkpt lat="-37.83518" lon="145.37775000000002">
    <ele>417.80000000000007</ele>
   </trkpt>
   <trkpt lat="-37.83498" lon="145.3775">
    <ele>412.23</ele>
   </trkpt>
   <trkpt lat="-37.83475" lon="145.37727">
    <ele>407.96000000000004</ele>
   </trkpt>
   <trkpt lat="-37.83446" lon="145.37709">
    <ele>404.32</ele>
   </trkpt>
   <trkpt lat="-37.83408" lon="145.37692">
    <ele>396.17</ele>
   </trkpt>
   <trkpt lat="-37.83388" lon="145.37678000000002">
    <ele>393.05</ele>
   </trkpt>
   <trkpt lat="-37.83343" lon="145.37654">
    <ele>389.84000000000003</ele>
   </trkpt>
   <trkpt lat="-37.83314" lon="145.37650000000002">
    <ele>387.15000000000003</ele>
   </trkpt>
   <trkpt lat="-37.8329" lon="145.37657000000002">
    <ele>386.15000000000003</ele>
   </trkpt>
   <trkpt lat="-37.83274" lon="145.37673">
    <ele>385.25000000000006</ele>
   </trkpt>
   <trkpt lat="-37.8324" lon="145.37684000000002">
    <ele>381.37000000000006</ele>
   </trkpt>
   <trkpt lat="-37.83211" lon="145.37687000000003">
    <ele>376.1</ele>
   </trkpt>
   <trkpt lat="-37.83202" lon="145.37691">
    <ele>374.97</ele>
   </trkpt>
   <trkpt lat="-37.83187" lon="145.37702000000002">
    <ele>373.82000000000005</ele>
   </trkpt>
   <trkpt lat="-37.83164" lon="145.37725">
    <ele>370.95000000000005</ele>
   </trkpt>
   <trkpt lat="-37.83131" lon="145.37743">
    <ele>365.96</ele>
   </trkpt>
   <trkpt lat="-37.83106" lon="145.37746">
    <ele>357.88000000000005</ele>
   </trkpt>
   <trkpt lat="-37.83088" lon="145.37755">
    <ele>350.49</ele>
   </trkpt>
   <trkpt lat="-37.83032" lon="145.37802000000002">
    <ele>332.77</ele>
   </trkpt>
   <trkpt lat="-37.8301" lon="145.37836000000001">
    <ele>324.15000000000003</ele>
   </trkpt>
   <trkpt lat="-37.8299" lon="145.37852">
    <ele>320.97</ele>
   </trkpt>
   <trkpt lat="-37.82981" lon="145.37858">
    <ele>314.75</ele>
   </trkpt>
   <trkpt lat="-37.82954" lon="145.37861">
    <ele>309.44000000000005</ele>
   </trkpt>
   <trkpt lat="-37.82907" lon="145.3786">
    <ele>300.14</ele>
   </trkpt>
   <trkpt lat="-37.82882" lon="145.37863000000002">
    <ele>294.13</ele>
   </trkpt>
   <trkpt lat="-37.82833" lon="145.37879">
    <ele>283.79</ele>
   </trkpt>
   <trkpt lat="-37.8282" lon="145.37878">
    <ele>280.95000000000005</ele>
   </trkpt>
   <trkpt lat="-37.828120000000006" lon="145.37881000000002">
    <ele>280.21000000000004</ele>
   </trkpt>
   <trkpt lat="-37.82797" lon="145.37874000000002">
    <ele>275.57000000000005</ele>
   </trkpt>
   <trkpt lat="-37.8279" lon="145.3785">
    <ele>274.21</ele>
   </trkpt>
   <trkpt lat="-37.82793" lon="145.37837000000002">
    <ele>273.23</ele>
   </trkpt>
   <trkpt lat="-37.82799" lon="145.37820000000002">
    <ele>272.36</ele>
   </trkpt>
   <trkpt lat="-37.82799" lon="145.37812000000002">
    <ele>272.0</ele>
   </trkpt>
   <trkpt lat="-37.827920000000006" lon="145.37805">
    <ele>271.72</ele>
   </trkpt>
   <trkpt lat="-37.82824" lon="145.37775000000002">
    <ele>275.57000000000005</ele>
   </trkpt>
   <trkpt lat="-37.8286" lon="145.37732000000003">
    <ele>280.55</ele>
   </trkpt>
   <trkpt lat="-37.82873" lon="145.37709">
    <ele>281.68000000000006</ele>
   </trkpt>
   <trkpt lat="-37.82873" lon="145.37708">
    <ele>281.76</ele>
   </trkpt>
   <trkpt lat="-37.82887" lon="145.37672">
    <ele>283.04</ele>
   </trkpt>
   <trkpt lat="-37.82893" lon="145.37641000000002">
    <ele>283.87</ele>
   </trkpt>
   <trkpt lat="-37.82893" lon="145.37623000000002">
    <ele>284.23</ele>
   </trkpt>
   <trkpt lat="-37.828880000000005" lon="145.37612000000001">
    <ele>284.68000000000006</ele>
   </trkpt>
   <trkpt lat="-37.82876" lon="145.37608">
    <ele>284.82</ele>
   </trkpt>
   <trkpt lat="-37.82884" lon="145.37587000000002">
    <ele>290.2</ele>
   </trkpt>
   <trkpt lat="-37.82898" lon="145.37562">
    <ele>297.27000000000004</ele>
   </trkpt>
   <trkpt lat="-37.82903" lon="145.37557">
    <ele>297.28000000000003</ele>
   </trkpt>
   <trkpt lat="-37.82934" lon="145.37553">
    <ele>300.00000000000006</ele>
   </trkpt>
   <trkpt lat="-37.82947" lon="145.37548">
    <ele>300.81</ele>
   </trkpt>
   <trkpt lat="-37.8297" lon="145.37526000000003">
    <ele>303.47</ele>
   </trkpt>
   <trkpt lat="-37.8299" lon="145.37518">
    <ele>306.43</ele>
   </trkpt>
   <trkpt lat="-37.83019" lon="145.37534000000002">
    <ele>308.15000000000003</ele>
   </trkpt>
   <trkpt lat="-37.8305" lon="145.3753">
    <ele>311.70000000000005</ele>
   </trkpt>
   <trkpt lat="-37.83099" lon="145.37507000000002">
    <ele>318.5</ele>
   </trkpt>
   <trkpt lat="-37.83142" lon="145.37479000000002">
    <ele>324.69000000000005</ele>
   </trkpt>
   <trkpt lat="-37.8316" lon="145.37477">
    <ele>325.48</ele>
   </trkpt>
   <trkpt lat="-37.83209" lon="145.37465">
    <ele>326.64000000000004</ele>
   </trkpt>
   <trkpt lat="-37.83238" lon="145.37460000000002">
    <ele>328.13000000000005</ele>
   </trkpt>
   <trkpt lat="-37.83261" lon="145.37459">
    <ele>331.33</ele>
   </trkpt>
   <trkpt lat="-37.83283" lon="145.37455">
    <ele>336.55</ele>
   </trkpt>
   <trkpt lat="-37.83328" lon="145.37453000000002">
    <ele>341.89000000000004</ele>
   </trkpt>
   <trkpt lat="-37.83357" lon="145.37456">
    <ele>346.18000000000006</ele>
   </trkpt>
   <trkpt lat="-37.8337" lon="145.37454000000002">
    <ele>348.98</ele>
   </trkpt>
   <trkpt lat="-37.83379" lon="145.3745">
    <ele>350.2</ele>
   </trkpt>
   <trkpt lat="-37.83413" lon="145.37428">
    <ele>361.62000000000006</ele>
   </trkpt>
   <trkpt lat="-37.834360000000004" lon="145.37419">
    <ele>371.27000000000004</ele>
   </trkpt>
   <trkpt lat="-37.83437" lon="145.37419">
    <ele>371.59000000000003</ele>
   </trkpt>
   <trkpt lat="-37.83442" lon="145.37417000000002">
    <ele>373.69</ele>
   </trkpt>
   <trkpt lat="-37.83478" lon="145.37412">
    <ele>382.11</ele>
   </trkpt>
   <trkpt lat="-37.835060000000006" lon="145.37404">
    <ele>384.95</ele>
   </trkpt>
   <trkpt lat="-37.83516" lon="145.37397">
    <ele>387.1</ele>
   </trkpt>
   <trkpt lat="-37.8352" lon="145.37391000000002">
    <ele>387.84000000000003</ele>
   </trkpt>
   <trkpt lat="-37.83534" lon="145.37347000000003">
    <ele>397.33</ele>
   </trkpt>
   <trkpt lat="-37.83534" lon="145.37307">
    <ele>401.87000000000006</ele>
   </trkpt>
   <trkpt lat="-37.83529" lon="145.37287">
    <ele>402.25000000000006</ele>
   </trkpt>
   <trkpt lat="-37.83525" lon="145.37281000000002">
    <ele>402.79</ele>
   </trkpt>
   <trkpt lat="-37.835" lon="145.37262">
    <ele>406.6</ele>
   </trkpt>
   <trkpt lat="-37.83491" lon="145.37251">
    <ele>406.83000000000004</ele>
   </trkpt>
   <trkpt lat="-37.83491" lon="145.37243">
    <ele>406.48</ele>
   </trkpt>
   <trkpt lat="-37.835" lon="145.37205">
    <ele>405.07000000000005</ele>
   </trkpt>
   <trkpt lat="-37.83537000155393" lon="145.3714100035173">
    <ele>404.87</ele>
   </trkpt>
   <trkpt lat="-37.83574" lon="145.37077000000002">
    <ele>408.56</ele>
   </trkpt>
   <trkpt lat="-37.83576" lon="145.37064">
    <ele>410.0</ele>
   </trkpt>
   <trkpt lat="-37.83578" lon="145.37018">
    <ele>416.30000000000007</ele>
   </trkpt>
   <trkpt lat="-37.83583" lon="145.36973">
    <ele>418.16</ele>
   </trkpt>
   <trkpt lat="-37.83583" lon="145.36949">
    <ele>419.2</ele>
   </trkpt>
   <trkpt lat="-37.83572" lon="145.36931">
    <ele>421.99</ele>
   </trkpt>
   <trkpt lat="-37.83558" lon="145.36916000000002">
    <ele>424.26</ele>
   </trkpt>
   <trkpt lat="-37.83547" lon="145.36883">
    <ele>425.00000000000006</ele>
   </trkpt>
   <trkpt lat="-37.83536" lon="145.3684">
    <ele>426.05</ele>
   </trkpt>
   <trkpt lat="-37.83527" lon="145.36759">
    <ele>425.03000000000003</ele>
   </trkpt>
   <trkpt lat="-37.835190000000004" lon="145.36743">
    <ele>425.92</ele>
   </trkpt>
   <trkpt lat="-37.83527" lon="145.36734">
    <ele>425.39000000000004</ele>
   </trkpt>
   <trkpt lat="-37.83536" lon="145.36729000000003">
    <ele>425.39000000000004</ele>
   </trkpt>
   <trkpt lat="-37.83545" lon="145.36728000000002">
    <ele>425.62000000000006</ele>
   </trkpt>
   <trkpt lat="-37.83554" lon="145.36737000000002">
    <ele>425.98</ele>
   </trkpt>
   <trkpt lat="-37.83583" lon="145.36804">
    <ele>430.93</ele>
   </trkpt>
   <trkpt lat="-37.835930000000005" lon="145.36817000000002">
    <ele>430.93</ele>
   </trkpt>
   <trkpt lat="-37.83628" lon="145.36864">
    <ele>434.50000000000006</ele>
   </trkpt>
   <trkpt lat="-37.8367" lon="145.36918">
    <ele>440.33000000000004</ele>
   </trkpt>
   <trkpt lat="-37.8369" lon="145.36938">
    <ele>442.47</ele>
   </trkpt>
   <trkpt lat="-37.83708" lon="145.36950000000002">
    <ele>444.01</ele>
   </trkpt>
   <trkpt lat="-37.83719" lon="145.36952000000002">
    <ele>444.46000000000004</ele>
   </trkpt>
   <trkpt lat="-37.83719" lon="145.36971">
    <ele>442.90000000000003</ele>
   </trkpt>
   <trkpt lat="-37.83706" lon="145.3701">
    <ele>437.64000000000004</ele>
   </trkpt>
   <trkpt lat="-37.83701000000001" lon="145.37063">
    <ele>434.16</ele>
   </trkpt>
   <trkpt lat="-37.83737" lon="145.37053">
    <ele>433.81</ele>
   </trkpt>
   <trkpt lat="-37.83769" lon="145.37040000000002">
    <ele>430.11</ele>
   </trkpt>
   <trkpt lat="-37.83798" lon="145.37023000000002">
    <ele>430.34000000000003</ele>
   </trkpt>
   <trkpt lat="-37.838420000000006" lon="145.37">
    <ele>435.56000000000006</ele>
   </trkpt>
   <trkpt lat="-37.83843" lon="145.37">
    <ele>435.68</ele>
   </trkpt>
   <trkpt lat="-37.83849" lon="145.36997000000002">
    <ele>436.55000000000007</ele>
   </trkpt>
   <trkpt lat="-37.83869" lon="145.36991">
    <ele>440.36</ele>
   </trkpt>
   <trkpt lat="-37.83885" lon="145.3698">
    <ele>442.32000000000005</ele>
   </trkpt>
   <trkpt lat="-37.8391" lon="145.36968000000002">
    <ele>445.22</ele>
   </trkpt>
   <trkpt lat="-37.839560000000006" lon="145.36941000000002">
    <ele>453.56</ele>
   </trkpt>
   <trkpt lat="-37.83975" lon="145.36926000000003">
    <ele>455.79</ele>
   </trkpt>
   <trkpt lat="-37.839940000000006" lon="145.36906000000002">
    <ele>460.53000000000003</ele>
   </trkpt>
   <trkpt lat="-37.83999" lon="145.36903">
    <ele>461.02000000000004</ele>
   </trkpt>
   <trkpt lat="-37.84022" lon="145.36902">
    <ele>463.16</ele>
   </trkpt>
   <trkpt lat="-37.84057" lon="145.36894">
    <ele>468.32</ele>
   </trkpt>
   <trkpt lat="-37.84087" lon="145.36892">
    <ele>472.17</ele>
   </trkpt>
   <trkpt lat="-37.840970000000006" lon="145.36842000000001">
    <ele>474.70000000000005</ele>
   </trkpt>
   <trkpt lat="-37.84096" lon="145.36811">
    <ele>476.1</ele>
   </trkpt>
   <trkpt lat="-37.84169" lon="145.36817000000002">
    <ele>485.29</ele>
   </trkpt>
   <trkpt lat="-37.84181" lon="145.36819">
    <ele>486.45000000000005</ele>
   </trkpt>
   <trkpt lat="-37.84223" lon="145.36838">
    <ele>492.04</ele>
   </trkpt>
   <trkpt lat="-37.84237" lon="145.36848">
    <ele>493.42</ele>
   </trkpt>
   <trkpt lat="-37.84299500170934" lon="145.3690999948293">
    <ele>501.4700000000001</ele>
   </trkpt>
   <trkpt lat="-37.84362" lon="145.36972">
    <ele>512.72</ele>
   </trkpt>
   <trkpt lat="-37.8438" lon="145.37016">
    <ele>516.51</ele>
   </trkpt>
   <trkpt lat="-37.84429" lon="145.37084000000002">
    <ele>520.83</ele>
   </trkpt>
   <trkpt lat="-37.84436" lon="145.37089">
    <ele>521.02</ele>
   </trkpt>
   <trkpt lat="-37.84447" lon="145.37095000000002">
    <ele>521.15</ele>
   </trkpt>
   <trkpt lat="-37.84518500013734" lon="145.37115499800083">
    <ele>521.71</ele>
   </trkpt>
   <trkpt lat="-37.8459" lon="145.37136">
    <ele>522.8000000000001</ele>
   </trkpt>
   <trkpt lat="-37.84639000034853" lon="145.37145499942892">
    <ele>523.25</ele>
   </trkpt>
   <trkpt lat="-37.846880000000006" lon="145.37155">
    <ele>524.15</ele>
   </trkpt>
   <trkpt lat="-37.84756000008286" lon="145.37166666450938">
    <ele>526.4000000000001</ele>
   </trkpt>
   <trkpt lat="-37.84824000005061" lon="145.3717833311705">
    <ele>531.1400000000001</ele>
   </trkpt>
   <trkpt lat="-37.84892" lon="145.3719">
    <ele>539.35</ele>
   </trkpt>
   <trkpt lat="-37.84904" lon="145.37184000000002">
    <ele>540.18</ele>
   </trkpt>
   <trkpt lat="-37.84915" lon="145.37173">
    <ele>540.97</ele>
   </trkpt>
   <trkpt lat="-37.849430001263556" lon="145.37117500218451">
    <ele>541.5000000000001</ele>
   </trkpt>
   <trkpt lat="-37.84971" lon="145.37062">
    <ele>542.72</ele>
   </trkpt>
   <trkpt lat="-37.84984" lon="145.37028">
    <ele>544.1100000000001</ele>
   </trkpt>
   <trkpt lat="-37.85004" lon="145.37006000000002">
    <ele>545.97</ele>
   </trkpt>
   <trkpt lat="-37.85038" lon="145.37003">
    <ele>549.44</ele>
   </trkpt>
   <trkpt lat="-37.850640000000006" lon="145.36993">
    <ele>551.95</ele>
   </trkpt>
   <trkpt lat="-37.85083" lon="145.3698">
    <ele>554.18</ele>
   </trkpt>
   <trkpt lat="-37.850840000000005" lon="145.36979000000002">
    <ele>554.18</ele>
   </trkpt>
   <trkpt lat="-37.85107" lon="145.36952000000002">
    <ele>556.3800000000001</ele>
   </trkpt>
   <trkpt lat="-37.85141500104047" lon="145.36905500200578">
    <ele>562.74</ele>
   </trkpt>
   <trkpt lat="-37.851760000000006" lon="145.36859">
    <ele>565.8700000000001</ele>
   </trkpt>
   <trkpt lat="-37.852070000000005" lon="145.36833000000001">
    <ele>569.49</ele>
   </trkpt>
  </trkseg>
 </trk>
</gpx>
