<?xml version="1.0" encoding="UTF-8"?>
<gpx creator="StravaGPX" version="1.1" xmlns="http://www.topografix.com/GPX/1/1" xmlns:xsi="http://www.w3.org/2001/XMLSchema-instance" xsi:schemaLocation="http://www.topografix.com/GPX/1/1 http://www.topografix.com/GPX/1/1/gpx.xsd">
 <metadata>
  <name>DTR Sunday 2 Aug 2026 - 14k</name>
  <author>
   <name>Majid Nazem 🇦🇺</name>
   <link href="https://www.strava.com/athletes/5612969"/>
  </author>
  <copyright author="OpenStreetMap contributors">
   <year>2020</year>
   <license>https://www.openstreetmap.org/copyright</license>
  </copyright>
  <link href="https://www.strava.com/routes/3518109371430331710"/>
 </metadata>
 <trk>
  <name>DTR Sunday 2 Aug 2026 - 14k</name>
  <link href="https://www.strava.com/routes/3518109371430331710"/>
  <type>running</type>
  <trkseg>
   <trkpt lat="-37.862860000000005" lon="145.35357000000002">
    <ele>480.68000000000006</ele>
   </trkpt>
   <trkpt lat="-37.862820000000006" lon="145.3536">
    <ele>480.86000000000007</ele>
   </trkpt>
   <trkpt lat="-37.862860000000005" lon="145.35369">
    <ele>480.95000000000005</ele>
   </trkpt>
   <trkpt lat="-37.862840000000006" lon="145.35371">
    <ele>481.04</ele>
   </trkpt>
   <trkpt lat="-37.86298" lon="145.35408">
    <ele>481.84000000000003</ele>
   </trkpt>
   <trkpt lat="-37.86316" lon="145.35444">
    <ele>485.97</ele>
   </trkpt>
   <trkpt lat="-37.86334" lon="145.35477">
    <ele>476.69000000000005</ele>
   </trkpt>
   <trkpt lat="-37.86345" lon="145.35489">
    <ele>474.93</ele>
   </trkpt>
   <trkpt lat="-37.863600000000005" lon="145.35494">
    <ele>473.07000000000005</ele>
   </trkpt>
   <trkpt lat="-37.86415" lon="145.35496">
    <ele>464.37000000000006</ele>
   </trkpt>
   <trkpt lat="-37.86435" lon="145.35499000000002">
    <ele>461.46000000000004</ele>
   </trkpt>
   <trkpt lat="-37.8645" lon="145.35506">
    <ele>456.03000000000003</ele>
   </trkpt>
   <trkpt lat="-37.864850000000004" lon="145.35513">
    <ele>448.66</ele>
   </trkpt>
   <trkpt lat="-37.86502" lon="145.35512">
    <ele>446.65000000000003</ele>
   </trkpt>
   <trkpt lat="-37.8652" lon="145.35519000000002">
    <ele>444.83000000000004</ele>
   </trkpt>
   <trkpt lat="-37.86547" lon="145.35535000000002">
    <ele>440.15000000000003</ele>
   </trkpt>
   <trkpt lat="-37.86591000000001" lon="145.35539">
    <ele>435.78000000000003</ele>
   </trkpt>
   <trkpt lat="-37.86598" lon="145.35542">
    <ele>435.62000000000006</ele>
   </trkpt>
   <trkpt lat="-37.865990000000004" lon="145.35551">
    <ele>435.62000000000006</ele>
   </trkpt>
   <trkpt lat="-37.866" lon="145.35554000000002">
    <ele>435.62000000000006</ele>
   </trkpt>
   <trkpt lat="-37.86596" lon="145.35572000000002">
    <ele>435.46</ele>
   </trkpt>
   <trkpt lat="-37.865860000000005" lon="145.35572000000002">
    <ele>414.72</ele>
   </trkpt>
   <trkpt lat="-37.86589" lon="145.35592000000003">
    <ele>431.87</ele>
   </trkpt>
   <trkpt lat="-37.86585" lon="145.35607000000002">
    <ele>431.44000000000005</ele>
   </trkpt>
   <trkpt lat="-37.866" lon="145.35656">
    <ele>428.50000000000006</ele>
   </trkpt>
   <trkpt lat="-37.86623" lon="145.35682">
    <ele>426.13</ele>
   </trkpt>
   <trkpt lat="-37.86632" lon="145.35688000000002">
    <ele>425.54</ele>
   </trkpt>
   <trkpt lat="-37.86654" lon="145.35708000000002">
    <ele>422.56000000000006</ele>
   </trkpt>
   <trkpt lat="-37.86672" lon="145.35738">
    <ele>420.7</ele>
   </trkpt>
   <trkpt lat="-37.86675" lon="145.35739">
    <ele>420.7</ele>
   </trkpt>
   <trkpt lat="-37.86688" lon="145.35736">
    <ele>420.47</ele>
   </trkpt>
   <trkpt lat="-37.86715" lon="145.35776">
    <ele>420.93</ele>
   </trkpt>
   <trkpt lat="-37.86728" lon="145.35787000000002">
    <ele>419.83000000000004</ele>
   </trkpt>
   <trkpt lat="-37.86737" lon="145.35797000000002">
    <ele>419.6</ele>
   </trkpt>
   <trkpt lat="-37.86748" lon="145.35804000000002">
    <ele>419.62000000000006</ele>
   </trkpt>
   <trkpt lat="-37.86755" lon="145.35812">
    <ele>419.46000000000004</ele>
   </trkpt>
   <trkpt lat="-37.86766" lon="145.35817">
    <ele>419.44000000000005</ele>
   </trkpt>
   <trkpt lat="-37.86771" lon="145.35824000000002">
    <ele>419.48</ele>
   </trkpt>
   <trkpt lat="-37.86768" lon="145.35852">
    <ele>418.90000000000003</ele>
   </trkpt>
   <trkpt lat="-37.86773" lon="145.35860000000002">
    <ele>419.12000000000006</ele>
   </trkpt>
   <trkpt lat="-37.86793" lon="145.35878000000002">
    <ele>420.21000000000004</ele>
   </trkpt>
   <trkpt lat="-37.86806" lon="145.35901">
    <ele>419.6</ele>
   </trkpt>
   <trkpt lat="-37.8682" lon="145.35908">
    <ele>419.32</ele>
   </trkpt>
   <trkpt lat="-37.86871" lon="145.35917">
    <ele>419.64</ele>
   </trkpt>
   <trkpt lat="-37.86887" lon="145.35943">
    <ele>417.59000000000003</ele>
   </trkpt>
   <trkpt lat="-37.869220000000006" lon="145.35977000000003">
    <ele>416.11</ele>
   </trkpt>
   <trkpt lat="-37.8695" lon="145.36015">
    <ele>415.40000000000003</ele>
   </trkpt>
   <trkpt lat="-37.86963" lon="145.36053">
    <ele>413.59000000000003</ele>
   </trkpt>
   <trkpt lat="-37.86972" lon="145.36065000000002">
    <ele>412.77000000000004</ele>
   </trkpt>
   <trkpt lat="-37.86999" lon="145.36083000000002">
    <ele>412.83000000000004</ele>
   </trkpt>
   <trkpt lat="-37.87071" lon="145.36105">
    <ele>411.37</ele>
   </trkpt>
   <trkpt lat="-37.87089" lon="145.36112">
    <ele>410.62</ele>
   </trkpt>
   <trkpt lat="-37.87113" lon="145.36123">
    <ele>410.16</ele>
   </trkpt>
   <trkpt lat="-37.87182" lon="145.36126000000002">
    <ele>410.11</ele>
   </trkpt>
   <trkpt lat="-37.87205" lon="145.36114">
    <ele>410.18000000000006</ele>
   </trkpt>
   <trkpt lat="-37.87221" lon="145.36118000000002">
    <ele>409.25000000000006</ele>
   </trkpt>
   <trkpt lat="-37.87234" lon="145.36127000000002">
    <ele>408.76</ele>
   </trkpt>
   <trkpt lat="-37.87243" lon="145.36129000000003">
    <ele>408.21000000000004</ele>
   </trkpt>
   <trkpt lat="-37.87292" lon="145.36119000000002">
    <ele>406.26</ele>
   </trkpt>
   <trkpt lat="-37.873360000000005" lon="145.36122">
    <ele>402.04</ele>
   </trkpt>
   <trkpt lat="-37.873400000000004" lon="145.36126000000002">
    <ele>401.41</ele>
   </trkpt>
   <trkpt lat="-37.873490000000004" lon="145.36143">
    <ele>400.70000000000005</ele>
   </trkpt>
   <trkpt lat="-37.873540000000006" lon="145.3614">
    <ele>400.52000000000004</ele>
   </trkpt>
   <trkpt lat="-37.873560000000005" lon="145.36141">
    <ele>400.52000000000004</ele>
   </trkpt>
   <trkpt lat="-37.87357" lon="145.36146000000002">
    <ele>400.22</ele>
   </trkpt>
   <trkpt lat="-37.87355" lon="145.36154000000002">
    <ele>400.05</ele>
   </trkpt>
   <trkpt lat="-37.87368" lon="145.36174000000003">
    <ele>397.27</ele>
   </trkpt>
   <trkpt lat="-37.87377" lon="145.36196">
    <ele>393.01</ele>
   </trkpt>
   <trkpt lat="-37.87377" lon="145.36206">
    <ele>392.42</ele>
   </trkpt>
   <trkpt lat="-37.873740000000005" lon="145.36213">
    <ele>377.59000000000003</ele>
   </trkpt>
   <trkpt lat="-37.87373" lon="145.36223">
    <ele>378.02000000000004</ele>
   </trkpt>
   <trkpt lat="-37.87382" lon="145.36244000000002">
    <ele>379.5</ele>
   </trkpt>
   <trkpt lat="-37.87402" lon="145.36301">
    <ele>382.12</ele>
   </trkpt>
   <trkpt lat="-37.87404" lon="145.36343000000002">
    <ele>385.28000000000003</ele>
   </trkpt>
   <trkpt lat="-37.87426" lon="145.36375">
    <ele>385.45</ele>
   </trkpt>
   <trkpt lat="-37.87438" lon="145.36402">
    <ele>384.92</ele>
   </trkpt>
   <trkpt lat="-37.87438" lon="145.3642">
    <ele>385.27000000000004</ele>
   </trkpt>
   <trkpt lat="-37.87435" lon="145.36442000000002">
    <ele>386.56</ele>
   </trkpt>
   <trkpt lat="-37.87435" lon="145.36469000000002">
    <ele>387.48</ele>
   </trkpt>
   <trkpt lat="-37.874660000000006" lon="145.36564">
    <ele>384.87000000000006</ele>
   </trkpt>
   <trkpt lat="-37.8748" lon="145.366">
    <ele>383.75</ele>
   </trkpt>
   <trkpt lat="-37.87482" lon="145.36644">
    <ele>385.92</ele>
   </trkpt>
   <trkpt lat="-37.87489" lon="145.36658">
    <ele>384.71000000000004</ele>
   </trkpt>
   <trkpt lat="-37.87514" lon="145.36678">
    <ele>381.61</ele>
   </trkpt>
   <trkpt lat="-37.87523" lon="145.36692000000002">
    <ele>381.46000000000004</ele>
   </trkpt>
   <trkpt lat="-37.87559" lon="145.36734">
    <ele>378.76000000000005</ele>
   </trkpt>
   <trkpt lat="-37.8757" lon="145.3675">
    <ele>376.6</ele>
   </trkpt>
   <trkpt lat="-37.875690000000006" lon="145.36763000000002">
    <ele>375.66</ele>
   </trkpt>
   <trkpt lat="-37.87561" lon="145.36791000000002">
    <ele>374.05000000000007</ele>
   </trkpt>
   <trkpt lat="-37.875510000000006" lon="145.36811">
    <ele>373.71000000000004</ele>
   </trkpt>
   <trkpt lat="-37.87545" lon="145.3683">
    <ele>373.51</ele>
   </trkpt>
   <trkpt lat="-37.87554" lon="145.36892">
    <ele>369.71000000000004</ele>
   </trkpt>
   <trkpt lat="-37.87554" lon="145.36915000000002">
    <ele>370.29</ele>
   </trkpt>
   <trkpt lat="-37.87545" lon="145.36945">
    <ele>372.48</ele>
   </trkpt>
   <trkpt lat="-37.87541" lon="145.36953000000003">
    <ele>373.54</ele>
   </trkpt>
   <trkpt lat="-37.87536" lon="145.36978000000002">
    <ele>374.8</ele>
   </trkpt>
   <trkpt lat="-37.87541" lon="145.37033000000002">
    <ele>368.83000000000004</ele>
   </trkpt>
   <trkpt lat="-37.8755" lon="145.37059000000002">
    <ele>365.08</ele>
   </trkpt>
   <trkpt lat="-37.875600000000006" lon="145.37072">
    <ele>363.39000000000004</ele>
   </trkpt>
   <trkpt lat="-37.87608" lon="145.37106">
    <ele>358.92</ele>
   </trkpt>
   <trkpt lat="-37.87614000000001" lon="145.37109">
    <ele>358.89000000000004</ele>
   </trkpt>
   <trkpt lat="-37.87635" lon="145.37115">
    <ele>335.41</ele>
   </trkpt>
   <trkpt lat="-37.8765" lon="145.37138000000002">
    <ele>335.41</ele>
   </trkpt>
   <trkpt lat="-37.87637" lon="145.37132000000003">
    <ele>336.08000000000004</ele>
   </trkpt>
   <trkpt lat="-37.87628" lon="145.37130000000002">
    <ele>336.61</ele>
   </trkpt>
   <trkpt lat="-37.87597" lon="145.37137">
    <ele>338.95000000000005</ele>
   </trkpt>
   <trkpt lat="-37.87579" lon="145.37137">
    <ele>339.91</ele>
   </trkpt>
   <trkpt lat="-37.875220000000006" lon="145.37127">
    <ele>344.22</ele>
   </trkpt>
   <trkpt lat="-37.875040000000006" lon="145.37126">
    <ele>344.78000000000003</ele>
   </trkpt>
   <trkpt lat="-37.874700000000004" lon="145.37130000000002">
    <ele>348.48</ele>
   </trkpt>
   <trkpt lat="-37.874660000000006" lon="145.3718">
    <ele>357.16</ele>
   </trkpt>
   <trkpt lat="-37.874495001515065" lon="145.37240000137075">
    <ele>385.70000000000005</ele>
   </trkpt>
   <trkpt lat="-37.87433" lon="145.37300000000002">
    <ele>396.76000000000005</ele>
   </trkpt>
   <trkpt lat="-37.87424" lon="145.37365">
    <ele>410.09</ele>
   </trkpt>
   <trkpt lat="-37.87408500140171" lon="145.37422500119692">
    <ele>413.86000000000007</ele>
   </trkpt>
   <trkpt lat="-37.87393" lon="145.37480000000002">
    <ele>424.49</ele>
   </trkpt>
   <trkpt lat="-37.87393" lon="145.37478000000002">
    <ele>424.34000000000003</ele>
   </trkpt>
   <trkpt lat="-37.87386" lon="145.37503">
    <ele>429.71000000000004</ele>
   </trkpt>
   <trkpt lat="-37.87373" lon="145.37591">
    <ele>440.50000000000006</ele>
   </trkpt>
   <trkpt lat="-37.87356000976839" lon="145.37678750607844">
    <ele>460.59000000000003</ele>
   </trkpt>
   <trkpt lat="-37.87339001302399" lon="145.3776650081072">
    <ele>471.64000000000004</ele>
   </trkpt>
   <trkpt lat="-37.873220009766854" lon="145.37854250608615">
    <ele>477.15000000000003</ele>
   </trkpt>
   <trkpt lat="-37.873050000000006" lon="145.37942">
    <ele>488.23</ele>
   </trkpt>
   <trkpt lat="-37.8729" lon="145.37994">
    <ele>493.39000000000004</ele>
   </trkpt>
   <trkpt lat="-37.87279" lon="145.38043000000002">
    <ele>492.66</ele>
   </trkpt>
   <trkpt lat="-37.872690000000006" lon="145.38075">
    <ele>491.44000000000005</ele>
   </trkpt>
   <trkpt lat="-37.87283" lon="145.38095">
    <ele>490.32000000000005</ele>
   </trkpt>
   <trkpt lat="-37.873070000000006" lon="145.38148">
    <ele>489.09000000000003</ele>
   </trkpt>
   <trkpt lat="-37.873090000000005" lon="145.38162">
    <ele>488.67</ele>
   </trkpt>
   <trkpt lat="-37.87367500219305" lon="145.38233499436026">
    <ele>495.48</ele>
   </trkpt>
   <trkpt lat="-37.87426" lon="145.38305000000003">
    <ele>504.5200000000001</ele>
   </trkpt>
   <trkpt lat="-37.87433" lon="145.38328">
    <ele>505.65000000000003</ele>
   </trkpt>
   <trkpt lat="-37.874190000000006" lon="145.38435">
    <ele>508.71</ele>
   </trkpt>
   <trkpt lat="-37.87411" lon="145.38505">
    <ele>511.17</ele>
   </trkpt>
   <trkpt lat="-37.87398" lon="145.38603">
    <ele>507.65000000000003</ele>
   </trkpt>
   <trkpt lat="-37.873920000000005" lon="145.38667">
    <ele>499.95000000000005</ele>
   </trkpt>
   <trkpt lat="-37.87382" lon="145.3874">
    <ele>489.39000000000004</ele>
   </trkpt>
   <trkpt lat="-37.873760000000004" lon="145.38772">
    <ele>486.00000000000006</ele>
   </trkpt>
   <trkpt lat="-37.87375" lon="145.38798">
    <ele>482.73</ele>
   </trkpt>
   <trkpt lat="-37.87393" lon="145.38854">
    <ele>475.03000000000003</ele>
   </trkpt>
   <trkpt lat="-37.87428500302352" lon="145.38938999582737">
    <ele>466.55</ele>
   </trkpt>
   <trkpt lat="-37.87464000000001" lon="145.39024">
    <ele>453.81000000000006</ele>
   </trkpt>
   <trkpt lat="-37.87499500389469" lon="145.3911949954992">
    <ele>437.22</ele>
   </trkpt>
   <trkpt lat="-37.875350000000005" lon="145.39215000000002">
    <ele>422.18000000000006</ele>
   </trkpt>
   <trkpt lat="-37.87538" lon="145.39227000000002">
    <ele>420.15000000000003</ele>
   </trkpt>
   <trkpt lat="-37.87520000000001" lon="145.39285">
    <ele>405.0</ele>
   </trkpt>
   <trkpt lat="-37.87523" lon="145.39307000000002">
    <ele>399.06</ele>
   </trkpt>
   <trkpt lat="-37.87491" lon="145.39403000000001">
    <ele>377.85</ele>
   </trkpt>
   <trkpt lat="-37.87476" lon="145.39414000000002">
    <ele>370.34000000000003</ele>
   </trkpt>
   <trkpt lat="-37.87476" lon="145.39427">
    <ele>369.20000000000005</ele>
   </trkpt>
   <trkpt lat="-37.8748" lon="145.39439000000002">
    <ele>366.01000000000005</ele>
   </trkpt>
   <trkpt lat="-37.87471" lon="145.39434">
    <ele>365.93</ele>
   </trkpt>
   <trkpt lat="-37.874460000000006" lon="145.39537">
    <ele>346.0</ele>
   </trkpt>
   <trkpt lat="-37.87426" lon="145.39608">
    <ele>324.0</ele>
   </trkpt>
   <trkpt lat="-37.874190000000006" lon="145.39654000000002">
    <ele>311.99000000000007</ele>
   </trkpt>
   <trkpt lat="-37.87415" lon="145.39628000000002">
    <ele>317.29</ele>
   </trkpt>
   <trkpt lat="-37.87411" lon="145.39618000000002">
    <ele>319.02000000000004</ele>
   </trkpt>
   <trkpt lat="-37.87374500138501" lon="145.39559999706654">
    <ele>331.48</ele>
   </trkpt>
   <trkpt lat="-37.873380000000004" lon="145.39502000000002">
    <ele>342.27000000000004</ele>
   </trkpt>
   <trkpt lat="-37.873160000000006" lon="145.39468000000002">
    <ele>351.84000000000003</ele>
   </trkpt>
   <trkpt lat="-37.87303" lon="145.39444">
    <ele>353.69</ele>
   </trkpt>
   <trkpt lat="-37.87277" lon="145.39412000000002">
    <ele>361.13</ele>
   </trkpt>
   <trkpt lat="-37.8725" lon="145.394">
    <ele>367.00000000000006</ele>
   </trkpt>
   <trkpt lat="-37.871896666675205" lon="145.39391666529488">
    <ele>378.44000000000005</ele>
   </trkpt>
   <trkpt lat="-37.87129333329165" lon="145.39383333195462">
    <ele>384.75</ele>
   </trkpt>
   <trkpt lat="-37.87069" lon="145.39375">
    <ele>392.99</ele>
   </trkpt>
   <trkpt lat="-37.870470000000005" lon="145.39366">
    <ele>383.70000000000005</ele>
   </trkpt>
   <trkpt lat="-37.8703" lon="145.39411">
    <ele>377.76000000000005</ele>
   </trkpt>
   <trkpt lat="-37.87021" lon="145.39427">
    <ele>376.08000000000004</ele>
   </trkpt>
   <trkpt lat="-37.87003000145458" lon="145.3948500013139">
    <ele>371.79</ele>
   </trkpt>
   <trkpt lat="-37.86985" lon="145.39543">
    <ele>370.26000000000005</ele>
   </trkpt>
   <trkpt lat="-37.86985" lon="145.39542">
    <ele>370.28000000000003</ele>
   </trkpt>
   <trkpt lat="-37.869553340189114" lon="145.39632000723228">
    <ele>366.14</ele>
   </trkpt>
   <trkpt lat="-37.869256673527424" lon="145.3972200072171">
    <ele>354.22</ele>
   </trkpt>
   <trkpt lat="-37.86896" lon="145.39812">
    <ele>337.44</ele>
   </trkpt>
   <trkpt lat="-37.86861000877523" lon="145.39914000976043">
    <ele>313.69</ele>
   </trkpt>
   <trkpt lat="-37.86826000875104" lon="145.40016000983076">
    <ele>299.74</ele>
   </trkpt>
   <trkpt lat="-37.86791" lon="145.40118">
    <ele>288.88</ele>
   </trkpt>
   <trkpt lat="-37.867830000000005" lon="145.40156000000002">
    <ele>287.35</ele>
   </trkpt>
   <trkpt lat="-37.86780333944349" lon="145.40241000062989">
    <ele>287.64</ele>
   </trkpt>
   <trkpt lat="-37.86777667277636" lon="145.4032600006446">
    <ele>288.61</ele>
   </trkpt>
   <trkpt lat="-37.86775" lon="145.40411">
    <ele>286.34000000000003</ele>
   </trkpt>
   <trkpt lat="-37.86774000980378" lon="145.4051866669971">
    <ele>279.02000000000004</ele>
   </trkpt>
   <trkpt lat="-37.867730009803424" lon="145.4062633337021">
    <ele>267.1</ele>
   </trkpt>
   <trkpt lat="-37.867720000000006" lon="145.40734">
    <ele>253.43000000000004</ele>
   </trkpt>
   <trkpt lat="-37.86762" lon="145.40775000000002">
    <ele>247.53000000000003</ele>
   </trkpt>
   <trkpt lat="-37.86712" lon="145.40844">
    <ele>241.13</ele>
   </trkpt>
   <trkpt lat="-37.8671" lon="145.4085">
    <ele>241.18000000000004</ele>
   </trkpt>
   <trkpt lat="-37.86715" lon="145.40863000000002">
    <ele>241.53000000000003</ele>
   </trkpt>
   <trkpt lat="-37.86724" lon="145.40865000000002">
    <ele>242.14000000000001</ele>
   </trkpt>
   <trkpt lat="-37.86759" lon="145.40845000000002">
    <ele>245.34000000000003</ele>
   </trkpt>
   <trkpt lat="-37.86773" lon="145.40844">
    <ele>245.94000000000003</ele>
   </trkpt>
   <trkpt lat="-37.867760000000004" lon="145.40846000000002">
    <ele>245.94000000000003</ele>
   </trkpt>
   <trkpt lat="-37.867650000000005" lon="145.40855000000002">
    <ele>245.93</ele>
   </trkpt>
   <trkpt lat="-37.867650000000005" lon="145.40866000000003">
    <ele>249.81000000000003</ele>
   </trkpt>
   <trkpt lat="-37.86773" lon="145.40872000000002">
    <ele>249.61</ele>
   </trkpt>
   <trkpt lat="-37.867700000000006" lon="145.40977">
    <ele>254.76000000000005</ele>
   </trkpt>
   <trkpt lat="-37.867700000000006" lon="145.40976">
    <ele>254.81000000000003</ele>
   </trkpt>
   <trkpt lat="-37.86768" lon="145.41033000000002">
    <ele>258.89</ele>
   </trkpt>
   <trkpt lat="-37.86762" lon="145.41032">
    <ele>258.95</ele>
   </trkpt>
   <trkpt lat="-37.86692" lon="145.41028">
    <ele>254.54000000000005</ele>
   </trkpt>
   <trkpt lat="-37.86681" lon="145.41032">
    <ele>254.02</ele>
   </trkpt>
   <trkpt lat="-37.8667" lon="145.41039">
    <ele>253.82999999999998</ele>
   </trkpt>
   <trkpt lat="-37.866283336833334" lon="145.41103334060918">
    <ele>253.52</ele>
   </trkpt>
   <trkpt lat="-37.86586667016627" lon="145.41167667394305">
    <ele>252.0</ele>
   </trkpt>
   <trkpt lat="-37.86545" lon="145.41232000000002">
    <ele>245.93</ele>
   </trkpt>
   <trkpt lat="-37.86495500013366" lon="145.41227999974163">
    <ele>236.96000000000004</ele>
   </trkpt>
   <trkpt lat="-37.86446" lon="145.41224000000003">
    <ele>235.55</ele>
   </trkpt>
   <trkpt lat="-37.863624999999395" lon="145.41221999977336">
    <ele>244.3</ele>
   </trkpt>
   <trkpt lat="-37.862790000000004" lon="145.4122">
    <ele>248.71</ele>
   </trkpt>
   <trkpt lat="-37.86258" lon="145.41225">
    <ele>249.36</ele>
   </trkpt>
   <trkpt lat="-37.86245" lon="145.41232000000002">
    <ele>249.49</ele>
   </trkpt>
   <trkpt lat="-37.86233" lon="145.41233000000003">
    <ele>249.99</ele>
   </trkpt>
   <trkpt lat="-37.86227" lon="145.41221000000002">
    <ele>249.98</ele>
   </trkpt>
   <trkpt lat="-37.86222" lon="145.41205000000002">
    <ele>250.02</ele>
   </trkpt>
   <trkpt lat="-37.86222" lon="145.41188000000002">
    <ele>250.26000000000002</ele>
   </trkpt>
   <trkpt lat="-37.86224" lon="145.41172">
    <ele>250.54000000000005</ele>
   </trkpt>
   <trkpt lat="-37.862370000000006" lon="145.41137">
    <ele>252.26000000000005</ele>
   </trkpt>
   <trkpt lat="-37.86250000639474" lon="145.41050000311282">
    <ele>256.76000000000005</ele>
   </trkpt>
   <trkpt lat="-37.862630006388244" lon="145.40963000315634">
    <ele>266.17</ele>
   </trkpt>
   <trkpt lat="-37.86276" lon="145.40876">
    <ele>273.2</ele>
   </trkpt>
   <trkpt lat="-37.86276" lon="145.40875">
    <ele>273.09</ele>
   </trkpt>
   <trkpt lat="-37.86289500971399" lon="145.40787500479942">
    <ele>279.69000000000005</ele>
   </trkpt>
   <trkpt lat="-37.86303001295297" lon="145.40700000639305">
    <ele>285.89000000000004</ele>
   </trkpt>
   <trkpt lat="-37.86316500971688" lon="145.406125004781">
    <ele>294.78000000000003</ele>
   </trkpt>
   <trkpt lat="-37.8633" lon="145.40525000000002">
    <ele>301.44000000000005</ele>
   </trkpt>
   <trkpt lat="-37.863260000000004" lon="145.40518">
    <ele>301.45000000000005</ele>
   </trkpt>
   <trkpt lat="-37.86261500330524" lon="145.4046699866143">
    <ele>300.26000000000005</ele>
   </trkpt>
   <trkpt lat="-37.86197000441066" lon="145.40415998215556">
    <ele>297.50000000000006</ele>
   </trkpt>
   <trkpt lat="-37.86132500331638" lon="145.40364998662352">
    <ele>297.74</ele>
   </trkpt>
   <trkpt lat="-37.86068" lon="145.40314">
    <ele>298.78000000000003</ele>
   </trkpt>
   <trkpt lat="-37.86061" lon="145.40297">
    <ele>299.17</ele>
   </trkpt>
   <trkpt lat="-37.86059" lon="145.40279">
    <ele>299.71000000000004</ele>
   </trkpt>
   <trkpt lat="-37.86051333939656" lon="145.40194333158126">
    <ele>304.54</ele>
   </trkpt>
   <trkpt lat="-37.86043667273073" lon="145.40109666492378">
    <ele>314.01</ele>
   </trkpt>
   <trkpt lat="-37.86036" lon="145.40025">
    <ele>322.72</ele>
   </trkpt>
   <trkpt lat="-37.86034" lon="145.39987000000002">
    <ele>324.93000000000006</ele>
   </trkpt>
   <trkpt lat="-37.86036" lon="145.39951000000002">
    <ele>328.52000000000004</ele>
   </trkpt>
   <trkpt lat="-37.86041" lon="145.39913">
    <ele>333.92</ele>
   </trkpt>
   <trkpt lat="-37.860555001496394" lon="145.39854000106126">
    <ele>345.44</ele>
   </trkpt>
   <trkpt lat="-37.8607" lon="145.39795">
    <ele>352.04</ele>
   </trkpt>
   <trkpt lat="-37.86068" lon="145.39766">
    <ele>357.99</ele>
   </trkpt>
   <trkpt lat="-37.86061" lon="145.39764000000002">
    <ele>357.99</ele>
   </trkpt>
   <trkpt lat="-37.860870018583" lon="145.3965920147632">
    <ele>378.81</ele>
   </trkpt>
   <trkpt lat="-37.86113002787776" lon="145.39554402213213">
    <ele>407.2</ele>
   </trkpt>
   <trkpt lat="-37.861390027884134" lon="145.39449602210695">
    <ele>435.38000000000005</ele>
   </trkpt>
   <trkpt lat="-37.861650018601956" lon="145.39344801468772">
    <ele>460.39</ele>
   </trkpt>
   <trkpt lat="-37.86191" lon="145.3924">
    <ele>480.03000000000003</ele>
   </trkpt>
   <trkpt lat="-37.861580000000004" lon="145.3914">
    <ele>493.58</ele>
   </trkpt>
   <trkpt lat="-37.8613900020214" lon="145.39070499813116">
    <ele>501.02000000000004</ele>
   </trkpt>
   <trkpt lat="-37.861200000000004" lon="145.39001000000002">
    <ele>506.63</ele>
   </trkpt>
   <trkpt lat="-37.861085001847904" lon="145.3893449988348">
    <ele>513.6200000000001</ele>
   </trkpt>
   <trkpt lat="-37.86097" lon="145.38868000000002">
    <ele>518.51</ele>
   </trkpt>
   <trkpt lat="-37.86086" lon="145.38804000000002">
    <ele>521.5500000000001</ele>
   </trkpt>
   <trkpt lat="-37.860870000000006" lon="145.3879">
    <ele>520.97</ele>
   </trkpt>
   <trkpt lat="-37.86086" lon="145.38764">
    <ele>520.22</ele>
   </trkpt>
   <trkpt lat="-37.860825005262754" lon="145.38652499965318">
    <ele>511.37</ele>
   </trkpt>
   <trkpt lat="-37.86079" lon="145.38541">
    <ele>504.84000000000003</ele>
   </trkpt>
   <trkpt lat="-37.860580000000006" lon="145.38432">
    <ele>503.95</ele>
   </trkpt>
   <trkpt lat="-37.860460001716454" lon="145.38367999887507">
    <ele>507.97</ele>
   </trkpt>
   <trkpt lat="-37.86034" lon="145.38304000000002">
    <ele>512.34</ele>
   </trkpt>
   <trkpt lat="-37.86027" lon="145.38273">
    <ele>514.6200000000001</ele>
   </trkpt>
   <trkpt lat="-37.86023" lon="145.38234">
    <ele>515.93</ele>
   </trkpt>
   <trkpt lat="-37.86023" lon="145.38201">
    <ele>516.11</ele>
   </trkpt>
   <trkpt lat="-37.86027" lon="145.38124000000002">
    <ele>517.36</ele>
   </trkpt>
   <trkpt lat="-37.86032" lon="145.38089000000002">
    <ele>518.14</ele>
   </trkpt>
   <trkpt lat="-37.860330000000005" lon="145.38064">
    <ele>518.95</ele>
   </trkpt>
   <trkpt lat="-37.85992" lon="145.38004">
    <ele>523.07</ele>
   </trkpt>
   <trkpt lat="-37.85957000073842" lon="145.37964999825422">
    <ele>526.7</ele>
   </trkpt>
   <trkpt lat="-37.85922" lon="145.37926000000002">
    <ele>528.51</ele>
   </trkpt>
   <trkpt lat="-37.859" lon="145.37889">
    <ele>530.9200000000001</ele>
   </trkpt>
   <trkpt lat="-37.85886" lon="145.37858">
    <ele>535.1400000000001</ele>
   </trkpt>
   <trkpt lat="-37.85852667035379" lon="145.37791666059948">
    <ele>542.64</ele>
   </trkpt>
   <trkpt lat="-37.858193336986425" lon="145.3772533271985">
    <ele>548.5699999999999</ele>
   </trkpt>
   <trkpt lat="-37.85786" lon="145.37659000000002">
    <ele>555.4</ele>
   </trkpt>
   <trkpt lat="-37.85766" lon="145.37623000000002">
    <ele>558.2900000000001</ele>
   </trkpt>
   <trkpt lat="-37.8575" lon="145.37597000000002">
    <ele>560.69</ele>
   </trkpt>
   <trkpt lat="-37.85714" lon="145.37555">
    <ele>565.44</ele>
   </trkpt>
   <trkpt lat="-37.85683" lon="145.37527">
    <ele>567.3600000000001</ele>
   </trkpt>
   <trkpt lat="-37.85622" lon="145.37490000000003">
    <ele>574.3100000000001</ele>
   </trkpt>
   <trkpt lat="-37.856260000000006" lon="145.37480000000002">
    <ele>574.26</ele>
   </trkpt>
   <trkpt lat="-37.856" lon="145.37456">
    <ele>577.01</ele>
   </trkpt>
   <trkpt lat="-37.8556750005453" lon="145.37416499811948">
    <ele>578.8000000000001</ele>
   </trkpt>
   <trkpt lat="-37.85535" lon="145.37377">
    <ele>578.22</ele>
   </trkpt>
   <trkpt lat="-37.85531" lon="145.37379">
    <ele>578.2700000000001</ele>
   </trkpt>
   <trkpt lat="-37.85521" lon="145.37367">
    <ele>578.19</ele>
   </trkpt>
   <trkpt lat="-37.854845000635606" lon="145.37326999797466">
    <ele>578.44</ele>
   </trkpt>
   <trkpt lat="-37.85448" lon="145.37287">
    <ele>579.2</ele>
   </trkpt>
   <trkpt lat="-37.8543" lon="145.37263000000002">
    <ele>579.37</ele>
   </trkpt>
   <trkpt lat="-37.85414" lon="145.37239000000002">
    <ele>579.76</ele>
   </trkpt>
   <trkpt lat="-37.85405" lon="145.37220000000002">
    <ele>579.84</ele>
   </trkpt>
   <trkpt lat="-37.854020000000006" lon="145.37182">
    <ele>579.4</ele>
   </trkpt>
   <trkpt lat="-37.854040000000005" lon="145.37130000000002">
    <ele>578.9200000000001</ele>
   </trkpt>
   <trkpt lat="-37.85412500394389" lon="145.37033500103993">
    <ele>575.79</ele>
   </trkpt>
   <trkpt lat="-37.85421" lon="145.36937">
    <ele>573.16</ele>
   </trkpt>
   <trkpt lat="-37.85445" lon="145.36905000000002">
    <ele>572.5100000000001</ele>
   </trkpt>
   <trkpt lat="-37.854580000000006" lon="145.36896000000002">
    <ele>572.32</ele>
   </trkpt>
   <trkpt lat="-37.85499" lon="145.36845000000002">
    <ele>572.46</ele>
   </trkpt>
   <trkpt lat="-37.85519" lon="145.36803">
    <ele>573.1</ele>
   </trkpt>
   <trkpt lat="-37.85536751067608" lon="145.36711250663902">
    <ele>573.59</ele>
   </trkpt>
   <trkpt lat="-37.855545014233364" lon="145.36619500885953">
    <ele>572.89</ele>
   </trkpt>
   <trkpt lat="-37.85572251067177" lon="145.36527750666164">
    <ele>571.03</ele>
   </trkpt>
   <trkpt lat="-37.855900000000005" lon="145.36436">
    <ele>571.46</ele>
   </trkpt>
   <trkpt lat="-37.85596" lon="145.36437">
    <ele>571.2700000000001</ele>
   </trkpt>
   <trkpt lat="-37.855940000000004" lon="145.36425">
    <ele>571.1800000000001</ele>
   </trkpt>
   <trkpt lat="-37.856010000000005" lon="145.36421">
    <ele>573.44</ele>
   </trkpt>
   <trkpt lat="-37.85605" lon="145.36415000000002">
    <ele>573.6800000000001</ele>
   </trkpt>
   <trkpt lat="-37.85606000000001" lon="145.36398">
    <ele>573.86</ele>
   </trkpt>
   <trkpt lat="-37.85619500226087" lon="145.36324500147347">
    <ele>576.9200000000001</ele>
   </trkpt>
   <trkpt lat="-37.85633" lon="145.36251000000001">
    <ele>581.1800000000001</ele>
   </trkpt>
   <trkpt lat="-37.85651000645703" lon="145.36163667089792">
    <ele>589.13</ele>
   </trkpt>
   <trkpt lat="-37.856690006464035" lon="145.3607633375307">
    <ele>599.1700000000001</ele>
   </trkpt>
   <trkpt lat="-37.85687" lon="145.35989">
    <ele>599.6100000000001</ele>
   </trkpt>
   <trkpt lat="-37.856980002032564" lon="145.35919500109938">
    <ele>591.8100000000001</ele>
   </trkpt>
   <trkpt lat="-37.85709000000001" lon="145.35850000000002">
    <ele>583.46</ele>
   </trkpt>
   <trkpt lat="-37.85709000000001" lon="145.35849000000002">
    <ele>583.33</ele>
   </trkpt>
   <trkpt lat="-37.85714" lon="145.35814000000002">
    <ele>579.46</ele>
   </trkpt>
   <trkpt lat="-37.85727" lon="145.35755">
    <ele>575.6300000000001</ele>
   </trkpt>
   <trkpt lat="-37.857490000000006" lon="145.35684">
    <ele>575.47</ele>
   </trkpt>
   <trkpt lat="-37.85757" lon="145.35637">
    <ele>575.0200000000001</ele>
   </trkpt>
   <trkpt lat="-37.857420000000005" lon="145.35594">
    <ele>574.61</ele>
   </trkpt>
   <trkpt lat="-37.85745" lon="145.35580000000002">
    <ele>576.0600000000001</ele>
   </trkpt>
   <trkpt lat="-37.85774" lon="145.3557">
    <ele>574.5600000000001</ele>
   </trkpt>
   <trkpt lat="-37.85792" lon="145.35547000000003">
    <ele>569.5100000000001</ele>
   </trkpt>
   <trkpt lat="-37.85826" lon="145.35524">
    <ele>562.57</ele>
   </trkpt>
   <trkpt lat="-37.85846" lon="145.35508000000002">
    <ele>555.9200000000001</ele>
   </trkpt>
   <trkpt lat="-37.858610000000006" lon="145.35500000000002">
    <ele>552.06</ele>
   </trkpt>
   <trkpt lat="-37.858630000000005" lon="145.35499000000002">
    <ele>551.7700000000001</ele>
   </trkpt>
   <trkpt lat="-37.85866" lon="145.35498">
    <ele>551.7700000000001</ele>
   </trkpt>
   <trkpt lat="-37.85877" lon="145.35487">
    <ele>547.51</ele>
   </trkpt>
   <trkpt lat="-37.85891" lon="145.35462">
    <ele>537.0200000000001</ele>
   </trkpt>
   <trkpt lat="-37.85938" lon="145.35420000000002">
    <ele>522.8900000000001</ele>
   </trkpt>
   <trkpt lat="-37.85956" lon="145.35410000000002">
    <ele>518.21</ele>
   </trkpt>
   <trkpt lat="-37.85969" lon="145.35413">
    <ele>515.75</ele>
   </trkpt>
   <trkpt lat="-37.859930000000006" lon="145.35424">
    <ele>513.5300000000001</ele>
   </trkpt>
   <trkpt lat="-37.86016" lon="145.35452">
    <ele>513.49</ele>
   </trkpt>
   <trkpt lat="-37.860600000000005" lon="145.35546000000002">
    <ele>507.36</ele>
   </trkpt>
   <trkpt lat="-37.86061" lon="145.35558">
    <ele>504.95</ele>
   </trkpt>
   <trkpt lat="-37.86059" lon="145.35571000000002">
    <ele>504.95</ele>
   </trkpt>
   <trkpt lat="-37.86059" lon="145.35592000000003">
    <ele>498.72</ele>
   </trkpt>
   <trkpt lat="-37.860640000000004" lon="145.35598000000002">
    <ele>495.13</ele>
   </trkpt>
   <trkpt lat="-37.860760000000006" lon="145.35601">
    <ele>494.40000000000003</ele>
   </trkpt>
   <trkpt lat="-37.86079" lon="145.35572000000002">
    <ele>493.62000000000006</ele>
   </trkpt>
   <trkpt lat="-37.86108" lon="145.35531">
    <ele>492.01000000000005</ele>
   </trkpt>
   <trkpt lat="-37.86164" lon="145.3547">
    <ele>488.01000000000005</ele>
   </trkpt>
   <trkpt lat="-37.86198" lon="145.35437000000002">
    <ele>484.34000000000003</ele>
   </trkpt>
   <trkpt lat="-37.86229" lon="145.35409">
    <ele>482.64</ele>
   </trkpt>
   <trkpt lat="-37.862640000000006" lon="145.35385000000002">
    <ele>481.43</ele>
   </trkpt>
  </trkseg>
 </trk>
</gpx>
