<?xml version="1.0" encoding="UTF-8"?>
<gpx creator="StravaGPX" version="1.1" xmlns="http://www.topografix.com/GPX/1/1" xmlns:xsi="http://www.w3.org/2001/XMLSchema-instance" xsi:schemaLocation="http://www.topografix.com/GPX/1/1 http://www.topografix.com/GPX/1/1/gpx.xsd">
 <metadata>
  <name>DTR Sunday 2 Aug 2026 - 20k</name>
  <author>
   <name>Majid Nazem 🇦🇺</name>
   <link href="https://www.strava.com/athletes/5612969"/>
  </author>
  <copyright author="OpenStreetMap contributors">
   <year>2020</year>
   <license>https://www.openstreetmap.org/copyright</license>
  </copyright>
  <link href="https://www.strava.com/routes/3518110951485005118"/>
 </metadata>
 <trk>
  <name>DTR Sunday 2 Aug 2026 - 20k</name>
  <link href="https://www.strava.com/routes/3518110951485005118"/>
  <type>running</type>
  <trkseg>
   <trkpt lat="-37.862860000000005" lon="145.35357000000002">
    <ele>480.68000000000006</ele>
   </trkpt>
   <trkpt lat="-37.862820000000006" lon="145.3536">
    <ele>480.86000000000007</ele>
   </trkpt>
   <trkpt lat="-37.862860000000005" lon="145.35369">
    <ele>480.95000000000005</ele>
   </trkpt>
   <trkpt lat="-37.862840000000006" lon="145.35371">
    <ele>481.04</ele>
   </trkpt>
   <trkpt lat="-37.86298" lon="145.35408">
    <ele>481.84000000000003</ele>
   </trkpt>
   <trkpt lat="-37.86316" lon="145.35444">
    <ele>485.97</ele>
   </trkpt>
   <trkpt lat="-37.86334" lon="145.35477">
    <ele>476.69000000000005</ele>
   </trkpt>
   <trkpt lat="-37.86345" lon="145.35489">
    <ele>474.93</ele>
   </trkpt>
   <trkpt lat="-37.863600000000005" lon="145.35494">
    <ele>473.07000000000005</ele>
   </trkpt>
   <trkpt lat="-37.86415" lon="145.35496">
    <ele>464.37000000000006</ele>
   </trkpt>
   <trkpt lat="-37.86435" lon="145.35499000000002">
    <ele>461.46000000000004</ele>
   </trkpt>
   <trkpt lat="-37.8645" lon="145.35506">
    <ele>456.03000000000003</ele>
   </trkpt>
   <trkpt lat="-37.864850000000004" lon="145.35513">
    <ele>448.66</ele>
   </trkpt>
   <trkpt lat="-37.86502" lon="145.35512">
    <ele>446.65000000000003</ele>
   </trkpt>
   <trkpt lat="-37.8652" lon="145.35519000000002">
    <ele>444.83000000000004</ele>
   </trkpt>
   <trkpt lat="-37.86547" lon="145.35535000000002">
    <ele>440.15000000000003</ele>
   </trkpt>
   <trkpt lat="-37.86591000000001" lon="145.35539">
    <ele>435.78000000000003</ele>
   </trkpt>
   <trkpt lat="-37.86598" lon="145.35542">
    <ele>435.62000000000006</ele>
   </trkpt>
   <trkpt lat="-37.865990000000004" lon="145.35551">
    <ele>435.62000000000006</ele>
   </trkpt>
   <trkpt lat="-37.866" lon="145.35554000000002">
    <ele>435.62000000000006</ele>
   </trkpt>
   <trkpt lat="-37.86596" lon="145.35572000000002">
    <ele>435.46</ele>
   </trkpt>
   <trkpt lat="-37.865860000000005" lon="145.35572000000002">
    <ele>414.72</ele>
   </trkpt>
   <trkpt lat="-37.86589" lon="145.35592000000003">
    <ele>431.87</ele>
   </trkpt>
   <trkpt lat="-37.86585" lon="145.35607000000002">
    <ele>431.44000000000005</ele>
   </trkpt>
   <trkpt lat="-37.866" lon="145.35656">
    <ele>428.50000000000006</ele>
   </trkpt>
   <trkpt lat="-37.86623" lon="145.35682">
    <ele>426.13</ele>
   </trkpt>
   <trkpt lat="-37.86632" lon="145.35688000000002">
    <ele>425.54</ele>
   </trkpt>
   <trkpt lat="-37.86654" lon="145.35708000000002">
    <ele>422.56000000000006</ele>
   </trkpt>
   <trkpt lat="-37.86672" lon="145.35738">
    <ele>420.7</ele>
   </trkpt>
   <trkpt lat="-37.86675" lon="145.35739">
    <ele>420.7</ele>
   </trkpt>
   <trkpt lat="-37.86688" lon="145.35736">
    <ele>420.47</ele>
   </trkpt>
   <trkpt lat="-37.86715" lon="145.35776">
    <ele>420.93</ele>
   </trkpt>
   <trkpt lat="-37.86728" lon="145.35787000000002">
    <ele>419.83000000000004</ele>
   </trkpt>
   <trkpt lat="-37.86737" lon="145.35797000000002">
    <ele>419.6</ele>
   </trkpt>
   <trkpt lat="-37.86748" lon="145.35804000000002">
    <ele>419.62000000000006</ele>
   </trkpt>
   <trkpt lat="-37.86755" lon="145.35812">
    <ele>419.46000000000004</ele>
   </trkpt>
   <trkpt lat="-37.86766" lon="145.35817">
    <ele>419.44000000000005</ele>
   </trkpt>
   <trkpt lat="-37.86771" lon="145.35824000000002">
    <ele>419.48</ele>
   </trkpt>
   <trkpt lat="-37.86768" lon="145.35852">
    <ele>418.90000000000003</ele>
   </trkpt>
   <trkpt lat="-37.86773" lon="145.35860000000002">
    <ele>419.12000000000006</ele>
   </trkpt>
   <trkpt lat="-37.86793" lon="145.35878000000002">
    <ele>420.21000000000004</ele>
   </trkpt>
   <trkpt lat="-37.86806" lon="145.35901">
    <ele>419.6</ele>
   </trkpt>
   <trkpt lat="-37.8682" lon="145.35908">
    <ele>419.32</ele>
   </trkpt>
   <trkpt lat="-37.86871" lon="145.35917">
    <ele>419.64</ele>
   </trkpt>
   <trkpt lat="-37.86887" lon="145.35943">
    <ele>417.59000000000003</ele>
   </trkpt>
   <trkpt lat="-37.869220000000006" lon="145.35977000000003">
    <ele>416.11</ele>
   </trkpt>
   <trkpt lat="-37.8695" lon="145.36015">
    <ele>415.40000000000003</ele>
   </trkpt>
   <trkpt lat="-37.86963" lon="145.36053">
    <ele>413.59000000000003</ele>
   </trkpt>
   <trkpt lat="-37.86972" lon="145.36065000000002">
    <ele>412.77000000000004</ele>
   </trkpt>
   <trkpt lat="-37.86999" lon="145.36083000000002">
    <ele>412.83000000000004</ele>
   </trkpt>
   <trkpt lat="-37.87071" lon="145.36105">
    <ele>411.37</ele>
   </trkpt>
   <trkpt lat="-37.87089" lon="145.36112">
    <ele>410.62</ele>
   </trkpt>
   <trkpt lat="-37.87113" lon="145.36123">
    <ele>410.16</ele>
   </trkpt>
   <trkpt lat="-37.87182" lon="145.36126000000002">
    <ele>410.11</ele>
   </trkpt>
   <trkpt lat="-37.87205" lon="145.36114">
    <ele>410.18000000000006</ele>
   </trkpt>
   <trkpt lat="-37.87221" lon="145.36118000000002">
    <ele>409.25000000000006</ele>
   </trkpt>
   <trkpt lat="-37.87234" lon="145.36127000000002">
    <ele>408.76</ele>
   </trkpt>
   <trkpt lat="-37.87243" lon="145.36129000000003">
    <ele>408.21000000000004</ele>
   </trkpt>
   <trkpt lat="-37.87292" lon="145.36119000000002">
    <ele>406.26</ele>
   </trkpt>
   <trkpt lat="-37.873360000000005" lon="145.36122">
    <ele>402.04</ele>
   </trkpt>
   <trkpt lat="-37.873400000000004" lon="145.36126000000002">
    <ele>401.41</ele>
   </trkpt>
   <trkpt lat="-37.873490000000004" lon="145.36143">
    <ele>400.70000000000005</ele>
   </trkpt>
   <trkpt lat="-37.873540000000006" lon="145.3614">
    <ele>400.52000000000004</ele>
   </trkpt>
   <trkpt lat="-37.873560000000005" lon="145.36141">
    <ele>400.52000000000004</ele>
   </trkpt>
   <trkpt lat="-37.87357" lon="145.36146000000002">
    <ele>400.22</ele>
   </trkpt>
   <trkpt lat="-37.87355" lon="145.36154000000002">
    <ele>400.05</ele>
   </trkpt>
   <trkpt lat="-37.87368" lon="145.36174000000003">
    <ele>397.27</ele>
   </trkpt>
   <trkpt lat="-37.87377" lon="145.36196">
    <ele>393.01</ele>
   </trkpt>
   <trkpt lat="-37.87377" lon="145.36206">
    <ele>392.42</ele>
   </trkpt>
   <trkpt lat="-37.873740000000005" lon="145.36213">
    <ele>377.59000000000003</ele>
   </trkpt>
   <trkpt lat="-37.87373" lon="145.36223">
    <ele>378.02000000000004</ele>
   </trkpt>
   <trkpt lat="-37.87382" lon="145.36244000000002">
    <ele>379.5</ele>
   </trkpt>
   <trkpt lat="-37.87402" lon="145.36301">
    <ele>382.12</ele>
   </trkpt>
   <trkpt lat="-37.87404" lon="145.36343000000002">
    <ele>385.28000000000003</ele>
   </trkpt>
   <trkpt lat="-37.87426" lon="145.36375">
    <ele>385.45</ele>
   </trkpt>
   <trkpt lat="-37.87438" lon="145.36402">
    <ele>384.92</ele>
   </trkpt>
   <trkpt lat="-37.87438" lon="145.3642">
    <ele>385.27000000000004</ele>
   </trkpt>
   <trkpt lat="-37.87435" lon="145.36442000000002">
    <ele>386.56</ele>
   </trkpt>
   <trkpt lat="-37.87435" lon="145.36469000000002">
    <ele>387.48</ele>
   </trkpt>
   <trkpt lat="-37.874660000000006" lon="145.36564">
    <ele>384.87000000000006</ele>
   </trkpt>
   <trkpt lat="-37.8748" lon="145.366">
    <ele>383.75</ele>
   </trkpt>
   <trkpt lat="-37.87482" lon="145.36644">
    <ele>385.92</ele>
   </trkpt>
   <trkpt lat="-37.87489" lon="145.36658">
    <ele>384.71000000000004</ele>
   </trkpt>
   <trkpt lat="-37.87514" lon="145.36678">
    <ele>381.61</ele>
   </trkpt>
   <trkpt lat="-37.87523" lon="145.36692000000002">
    <ele>381.46000000000004</ele>
   </trkpt>
   <trkpt lat="-37.87559" lon="145.36734">
    <ele>378.76000000000005</ele>
   </trkpt>
   <trkpt lat="-37.8757" lon="145.3675">
    <ele>376.6</ele>
   </trkpt>
   <trkpt lat="-37.875690000000006" lon="145.36763000000002">
    <ele>375.66</ele>
   </trkpt>
   <trkpt lat="-37.87561" lon="145.36791000000002">
    <ele>374.05000000000007</ele>
   </trkpt>
   <trkpt lat="-37.875510000000006" lon="145.36811">
    <ele>373.71000000000004</ele>
   </trkpt>
   <trkpt lat="-37.87545" lon="145.3683">
    <ele>373.51</ele>
   </trkpt>
   <trkpt lat="-37.87554" lon="145.36892">
    <ele>369.71000000000004</ele>
   </trkpt>
   <trkpt lat="-37.87554" lon="145.36915000000002">
    <ele>370.29</ele>
   </trkpt>
   <trkpt lat="-37.87545" lon="145.36945">
    <ele>372.48</ele>
   </trkpt>
   <trkpt lat="-37.87541" lon="145.36953000000003">
    <ele>373.54</ele>
   </trkpt>
   <trkpt lat="-37.87536" lon="145.36978000000002">
    <ele>374.8</ele>
   </trkpt>
   <trkpt lat="-37.87541" lon="145.37033000000002">
    <ele>368.83000000000004</ele>
   </trkpt>
   <trkpt lat="-37.8755" lon="145.37059000000002">
    <ele>365.08</ele>
   </trkpt>
   <trkpt lat="-37.875600000000006" lon="145.37072">
    <ele>363.39000000000004</ele>
   </trkpt>
   <trkpt lat="-37.87608" lon="145.37106">
    <ele>358.92</ele>
   </trkpt>
   <trkpt lat="-37.87614000000001" lon="145.37109">
    <ele>358.89000000000004</ele>
   </trkpt>
   <trkpt lat="-37.87635" lon="145.37115">
    <ele>335.41</ele>
   </trkpt>
   <trkpt lat="-37.8765" lon="145.37138000000002">
    <ele>335.41</ele>
   </trkpt>
   <trkpt lat="-37.87637" lon="145.37132000000003">
    <ele>336.08000000000004</ele>
   </trkpt>
   <trkpt lat="-37.87628" lon="145.37130000000002">
    <ele>336.61</ele>
   </trkpt>
   <trkpt lat="-37.87597" lon="145.37137">
    <ele>338.95000000000005</ele>
   </trkpt>
   <trkpt lat="-37.87579" lon="145.37137">
    <ele>339.91</ele>
   </trkpt>
   <trkpt lat="-37.875220000000006" lon="145.37127">
    <ele>344.22</ele>
   </trkpt>
   <trkpt lat="-37.875040000000006" lon="145.37126">
    <ele>344.78000000000003</ele>
   </trkpt>
   <trkpt lat="-37.874700000000004" lon="145.37130000000002">
    <ele>348.48</ele>
   </trkpt>
   <trkpt lat="-37.874660000000006" lon="145.3718">
    <ele>357.16</ele>
   </trkpt>
   <trkpt lat="-37.874495001515065" lon="145.37240000137075">
    <ele>385.70000000000005</ele>
   </trkpt>
   <trkpt lat="-37.87433" lon="145.37300000000002">
    <ele>396.76000000000005</ele>
   </trkpt>
   <trkpt lat="-37.87424" lon="145.37365">
    <ele>410.09</ele>
   </trkpt>
   <trkpt lat="-37.87408500140171" lon="145.37422500119692">
    <ele>413.86000000000007</ele>
   </trkpt>
   <trkpt lat="-37.87393" lon="145.37480000000002">
    <ele>424.49</ele>
   </trkpt>
   <trkpt lat="-37.87393" lon="145.37478000000002">
    <ele>424.34000000000003</ele>
   </trkpt>
   <trkpt lat="-37.87386" lon="145.37503">
    <ele>429.71000000000004</ele>
   </trkpt>
   <trkpt lat="-37.87373" lon="145.37591">
    <ele>440.50000000000006</ele>
   </trkpt>
   <trkpt lat="-37.87356000976839" lon="145.37678750607844">
    <ele>460.59000000000003</ele>
   </trkpt>
   <trkpt lat="-37.87339001302399" lon="145.3776650081072">
    <ele>471.64000000000004</ele>
   </trkpt>
   <trkpt lat="-37.873220009766854" lon="145.37854250608615">
    <ele>477.15000000000003</ele>
   </trkpt>
   <trkpt lat="-37.873050000000006" lon="145.37942">
    <ele>488.23</ele>
   </trkpt>
   <trkpt lat="-37.8729" lon="145.37994">
    <ele>493.39000000000004</ele>
   </trkpt>
   <trkpt lat="-37.87279" lon="145.38043000000002">
    <ele>492.66</ele>
   </trkpt>
   <trkpt lat="-37.872690000000006" lon="145.38075">
    <ele>491.44000000000005</ele>
   </trkpt>
   <trkpt lat="-37.87283" lon="145.38095">
    <ele>490.32000000000005</ele>
   </trkpt>
   <trkpt lat="-37.873070000000006" lon="145.38148">
    <ele>489.09000000000003</ele>
   </trkpt>
   <trkpt lat="-37.873090000000005" lon="145.38162">
    <ele>488.67</ele>
   </trkpt>
   <trkpt lat="-37.87367500219305" lon="145.38233499436026">
    <ele>495.48</ele>
   </trkpt>
   <trkpt lat="-37.87426" lon="145.38305000000003">
    <ele>504.5200000000001</ele>
   </trkpt>
   <trkpt lat="-37.87433" lon="145.38328">
    <ele>505.65000000000003</ele>
   </trkpt>
   <trkpt lat="-37.874190000000006" lon="145.38435">
    <ele>508.71</ele>
   </trkpt>
   <trkpt lat="-37.87411" lon="145.38505">
    <ele>511.17</ele>
   </trkpt>
   <trkpt lat="-37.87398" lon="145.38603">
    <ele>507.65000000000003</ele>
   </trkpt>
   <trkpt lat="-37.873920000000005" lon="145.38667">
    <ele>499.95000000000005</ele>
   </trkpt>
   <trkpt lat="-37.87382" lon="145.3874">
    <ele>489.39000000000004</ele>
   </trkpt>
   <trkpt lat="-37.873760000000004" lon="145.38772">
    <ele>486.00000000000006</ele>
   </trkpt>
   <trkpt lat="-37.87375" lon="145.38798">
    <ele>482.73</ele>
   </trkpt>
   <trkpt lat="-37.87393" lon="145.38854">
    <ele>475.03000000000003</ele>
   </trkpt>
   <trkpt lat="-37.87428500302352" lon="145.38938999582737">
    <ele>466.55</ele>
   </trkpt>
   <trkpt lat="-37.87464000000001" lon="145.39024">
    <ele>453.81000000000006</ele>
   </trkpt>
   <trkpt lat="-37.87499500389469" lon="145.3911949954992">
    <ele>437.22</ele>
   </trkpt>
   <trkpt lat="-37.875350000000005" lon="145.39215000000002">
    <ele>422.18000000000006</ele>
   </trkpt>
   <trkpt lat="-37.87538" lon="145.39227000000002">
    <ele>420.15000000000003</ele>
   </trkpt>
   <trkpt lat="-37.87520000000001" lon="145.39285">
    <ele>405.0</ele>
   </trkpt>
   <trkpt lat="-37.87523" lon="145.39307000000002">
    <ele>399.06</ele>
   </trkpt>
   <trkpt lat="-37.87491" lon="145.39403000000001">
    <ele>377.85</ele>
   </trkpt>
   <trkpt lat="-37.87476" lon="145.39414000000002">
    <ele>370.34000000000003</ele>
   </trkpt>
   <trkpt lat="-37.87476" lon="145.39427">
    <ele>369.20000000000005</ele>
   </trkpt>
   <trkpt lat="-37.8748" lon="145.39439000000002">
    <ele>366.01000000000005</ele>
   </trkpt>
   <trkpt lat="-37.87471" lon="145.39434">
    <ele>365.93</ele>
   </trkpt>
   <trkpt lat="-37.874460000000006" lon="145.39537">
    <ele>346.0</ele>
   </trkpt>
   <trkpt lat="-37.87426" lon="145.39608">
    <ele>324.0</ele>
   </trkpt>
   <trkpt lat="-37.874190000000006" lon="145.39654000000002">
    <ele>311.99000000000007</ele>
   </trkpt>
   <trkpt lat="-37.87415" lon="145.39628000000002">
    <ele>317.29</ele>
   </trkpt>
   <trkpt lat="-37.87411" lon="145.39618000000002">
    <ele>319.02000000000004</ele>
   </trkpt>
   <trkpt lat="-37.87374500138501" lon="145.39559999706654">
    <ele>331.48</ele>
   </trkpt>
   <trkpt lat="-37.873380000000004" lon="145.39502000000002">
    <ele>342.27000000000004</ele>
   </trkpt>
   <trkpt lat="-37.873160000000006" lon="145.39468000000002">
    <ele>351.84000000000003</ele>
   </trkpt>
   <trkpt lat="-37.87303" lon="145.39444">
    <ele>353.69</ele>
   </trkpt>
   <trkpt lat="-37.87277" lon="145.39412000000002">
    <ele>361.13</ele>
   </trkpt>
   <trkpt lat="-37.8725" lon="145.394">
    <ele>367.00000000000006</ele>
   </trkpt>
   <trkpt lat="-37.871896666675205" lon="145.39391666529488">
    <ele>378.44000000000005</ele>
   </trkpt>
   <trkpt lat="-37.87129333329165" lon="145.39383333195462">
    <ele>384.75</ele>
   </trkpt>
   <trkpt lat="-37.87069" lon="145.39375">
    <ele>392.99</ele>
   </trkpt>
   <trkpt lat="-37.870470000000005" lon="145.39366">
    <ele>383.70000000000005</ele>
   </trkpt>
   <trkpt lat="-37.8703" lon="145.39411">
    <ele>377.76000000000005</ele>
   </trkpt>
   <trkpt lat="-37.87021" lon="145.39427">
    <ele>376.08000000000004</ele>
   </trkpt>
   <trkpt lat="-37.87003000145458" lon="145.3948500013139">
    <ele>371.79</ele>
   </trkpt>
   <trkpt lat="-37.86985" lon="145.39543">
    <ele>370.26000000000005</ele>
   </trkpt>
   <trkpt lat="-37.86985" lon="145.39542">
    <ele>370.28000000000003</ele>
   </trkpt>
   <trkpt lat="-37.869553340189114" lon="145.39632000723228">
    <ele>366.14</ele>
   </trkpt>
   <trkpt lat="-37.869256673527424" lon="145.3972200072171">
    <ele>354.22</ele>
   </trkpt>
   <trkpt lat="-37.86896" lon="145.39812">
    <ele>337.44</ele>
   </trkpt>
   <trkpt lat="-37.86861000877523" lon="145.39914000976043">
    <ele>313.69</ele>
   </trkpt>
   <trkpt lat="-37.86826000875104" lon="145.40016000983076">
    <ele>299.74</ele>
   </trkpt>
   <trkpt lat="-37.86791" lon="145.40118">
    <ele>288.88</ele>
   </trkpt>
   <trkpt lat="-37.867830000000005" lon="145.40156000000002">
    <ele>287.35</ele>
   </trkpt>
   <trkpt lat="-37.86780333944349" lon="145.40241000062989">
    <ele>287.64</ele>
   </trkpt>
   <trkpt lat="-37.86777667277636" lon="145.4032600006446">
    <ele>288.61</ele>
   </trkpt>
   <trkpt lat="-37.86775" lon="145.40411">
    <ele>286.34000000000003</ele>
   </trkpt>
   <trkpt lat="-37.86774000980378" lon="145.4051866669971">
    <ele>279.02000000000004</ele>
   </trkpt>
   <trkpt lat="-37.867730009803424" lon="145.4062633337021">
    <ele>267.1</ele>
   </trkpt>
   <trkpt lat="-37.867720000000006" lon="145.40734">
    <ele>253.43000000000004</ele>
   </trkpt>
   <trkpt lat="-37.86762" lon="145.40775000000002">
    <ele>247.53000000000003</ele>
   </trkpt>
   <trkpt lat="-37.86712" lon="145.40844">
    <ele>241.13</ele>
   </trkpt>
   <trkpt lat="-37.8671" lon="145.4085">
    <ele>241.18000000000004</ele>
   </trkpt>
   <trkpt lat="-37.86715" lon="145.40863000000002">
    <ele>241.53000000000003</ele>
   </trkpt>
   <trkpt lat="-37.86724" lon="145.40865000000002">
    <ele>242.14000000000001</ele>
   </trkpt>
   <trkpt lat="-37.86759" lon="145.40845000000002">
    <ele>245.34000000000003</ele>
   </trkpt>
   <trkpt lat="-37.86773" lon="145.40844">
    <ele>245.94000000000003</ele>
   </trkpt>
   <trkpt lat="-37.867760000000004" lon="145.40846000000002">
    <ele>245.94000000000003</ele>
   </trkpt>
   <trkpt lat="-37.867650000000005" lon="145.40855000000002">
    <ele>245.93</ele>
   </trkpt>
   <trkpt lat="-37.867650000000005" lon="145.40866000000003">
    <ele>249.81000000000003</ele>
   </trkpt>
   <trkpt lat="-37.86773" lon="145.40872000000002">
    <ele>249.61</ele>
   </trkpt>
   <trkpt lat="-37.867700000000006" lon="145.40977">
    <ele>254.76000000000005</ele>
   </trkpt>
   <trkpt lat="-37.867700000000006" lon="145.40976">
    <ele>254.81000000000003</ele>
   </trkpt>
   <trkpt lat="-37.86768" lon="145.41033000000002">
    <ele>258.89</ele>
   </trkpt>
   <trkpt lat="-37.86762" lon="145.41032">
    <ele>258.95</ele>
   </trkpt>
   <trkpt lat="-37.86692" lon="145.41028">
    <ele>254.54000000000005</ele>
   </trkpt>
   <trkpt lat="-37.86681" lon="145.41032">
    <ele>254.02</ele>
   </trkpt>
   <trkpt lat="-37.8667" lon="145.41039">
    <ele>253.82999999999998</ele>
   </trkpt>
   <trkpt lat="-37.866283336833334" lon="145.41103334060918">
    <ele>253.52</ele>
   </trkpt>
   <trkpt lat="-37.86586667016627" lon="145.41167667394305">
    <ele>252.0</ele>
   </trkpt>
   <trkpt lat="-37.86545" lon="145.41232000000002">
    <ele>245.93</ele>
   </trkpt>
   <trkpt lat="-37.86495500013366" lon="145.41227999974163">
    <ele>236.96000000000004</ele>
   </trkpt>
   <trkpt lat="-37.86446" lon="145.41224000000003">
    <ele>235.55</ele>
   </trkpt>
   <trkpt lat="-37.863624999999395" lon="145.41221999977336">
    <ele>244.3</ele>
   </trkpt>
   <trkpt lat="-37.862790000000004" lon="145.4122">
    <ele>248.71</ele>
   </trkpt>
   <trkpt lat="-37.86258" lon="145.41225">
    <ele>249.36</ele>
   </trkpt>
   <trkpt lat="-37.86245" lon="145.41232000000002">
    <ele>249.49</ele>
   </trkpt>
   <trkpt lat="-37.86233" lon="145.41233000000003">
    <ele>249.99</ele>
   </trkpt>
   <trkpt lat="-37.86227" lon="145.41221000000002">
    <ele>249.98</ele>
   </trkpt>
   <trkpt lat="-37.86222" lon="145.41205000000002">
    <ele>250.02</ele>
   </trkpt>
   <trkpt lat="-37.86222" lon="145.41188000000002">
    <ele>250.26000000000002</ele>
   </trkpt>
   <trkpt lat="-37.86224" lon="145.41172">
    <ele>250.54000000000005</ele>
   </trkpt>
   <trkpt lat="-37.862370000000006" lon="145.41137">
    <ele>252.26000000000005</ele>
   </trkpt>
   <trkpt lat="-37.86250000639474" lon="145.41050000311282">
    <ele>256.76000000000005</ele>
   </trkpt>
   <trkpt lat="-37.862630006388244" lon="145.40963000315634">
    <ele>266.17</ele>
   </trkpt>
   <trkpt lat="-37.86276" lon="145.40876">
    <ele>273.2</ele>
   </trkpt>
   <trkpt lat="-37.86276" lon="145.40875">
    <ele>273.09</ele>
   </trkpt>
   <trkpt lat="-37.86289500971399" lon="145.40787500479942">
    <ele>279.69000000000005</ele>
   </trkpt>
   <trkpt lat="-37.86303001295297" lon="145.40700000639305">
    <ele>285.89000000000004</ele>
   </trkpt>
   <trkpt lat="-37.86316500971688" lon="145.406125004781">
    <ele>294.78000000000003</ele>
   </trkpt>
   <trkpt lat="-37.8633" lon="145.40525000000002">
    <ele>301.44000000000005</ele>
   </trkpt>
   <trkpt lat="-37.863260000000004" lon="145.40518">
    <ele>301.45000000000005</ele>
   </trkpt>
   <trkpt lat="-37.86261500330524" lon="145.4046699866143">
    <ele>300.26000000000005</ele>
   </trkpt>
   <trkpt lat="-37.86197000441066" lon="145.40415998215556">
    <ele>297.50000000000006</ele>
   </trkpt>
   <trkpt lat="-37.86132500331638" lon="145.40364998662352">
    <ele>297.74</ele>
   </trkpt>
   <trkpt lat="-37.86068" lon="145.40314">
    <ele>298.78000000000003</ele>
   </trkpt>
   <trkpt lat="-37.86061" lon="145.40297">
    <ele>299.17</ele>
   </trkpt>
   <trkpt lat="-37.86059" lon="145.40279">
    <ele>299.71000000000004</ele>
   </trkpt>
   <trkpt lat="-37.86051333939656" lon="145.40194333158126">
    <ele>304.54</ele>
   </trkpt>
   <trkpt lat="-37.86043667273073" lon="145.40109666492378">
    <ele>314.01</ele>
   </trkpt>
   <trkpt lat="-37.86036" lon="145.40025">
    <ele>322.72</ele>
   </trkpt>
   <trkpt lat="-37.86034" lon="145.39987000000002">
    <ele>324.93000000000006</ele>
   </trkpt>
   <trkpt lat="-37.86036" lon="145.39951000000002">
    <ele>328.52000000000004</ele>
   </trkpt>
   <trkpt lat="-37.86041" lon="145.39913">
    <ele>333.92</ele>
   </trkpt>
   <trkpt lat="-37.860555001496394" lon="145.39854000106126">
    <ele>345.44</ele>
   </trkpt>
   <trkpt lat="-37.8607" lon="145.39795">
    <ele>352.04</ele>
   </trkpt>
   <trkpt lat="-37.86068" lon="145.39766">
    <ele>357.99</ele>
   </trkpt>
   <trkpt lat="-37.86061" lon="145.39764000000002">
    <ele>357.99</ele>
   </trkpt>
   <trkpt lat="-37.860870018583" lon="145.3965920147632">
    <ele>378.81</ele>
   </trkpt>
   <trkpt lat="-37.86113002787776" lon="145.39554402213213">
    <ele>407.2</ele>
   </trkpt>
   <trkpt lat="-37.861390027884134" lon="145.39449602210695">
    <ele>435.38000000000005</ele>
   </trkpt>
   <trkpt lat="-37.861650018601956" lon="145.39344801468772">
    <ele>460.39</ele>
   </trkpt>
   <trkpt lat="-37.86191" lon="145.3924">
    <ele>480.03000000000003</ele>
   </trkpt>
   <trkpt lat="-37.861580000000004" lon="145.3914">
    <ele>493.58</ele>
   </trkpt>
   <trkpt lat="-37.8613900020214" lon="145.39070499813116">
    <ele>501.02000000000004</ele>
   </trkpt>
   <trkpt lat="-37.861200000000004" lon="145.39001000000002">
    <ele>506.63</ele>
   </trkpt>
   <trkpt lat="-37.861085001847904" lon="145.3893449988348">
    <ele>513.6200000000001</ele>
   </trkpt>
   <trkpt lat="-37.86097" lon="145.38868000000002">
    <ele>518.51</ele>
   </trkpt>
   <trkpt lat="-37.86086" lon="145.38804000000002">
    <ele>521.5500000000001</ele>
   </trkpt>
   <trkpt lat="-37.860870000000006" lon="145.3879">
    <ele>520.97</ele>
   </trkpt>
   <trkpt lat="-37.86086" lon="145.38764">
    <ele>520.22</ele>
   </trkpt>
   <trkpt lat="-37.860825005262754" lon="145.38652499965318">
    <ele>511.37</ele>
   </trkpt>
   <trkpt lat="-37.86079" lon="145.38541">
    <ele>504.84000000000003</ele>
   </trkpt>
   <trkpt lat="-37.860580000000006" lon="145.38432">
    <ele>503.95</ele>
   </trkpt>
   <trkpt lat="-37.860460001716454" lon="145.38367999887507">
    <ele>506.82000000000005</ele>
   </trkpt>
   <trkpt lat="-37.86034" lon="145.38304000000002">
    <ele>512.34</ele>
   </trkpt>
   <trkpt lat="-37.86027" lon="145.38273">
    <ele>514.6200000000001</ele>
   </trkpt>
   <trkpt lat="-37.86023" lon="145.38234">
    <ele>515.93</ele>
   </trkpt>
   <trkpt lat="-37.86023" lon="145.38201">
    <ele>516.11</ele>
   </trkpt>
   <trkpt lat="-37.86027" lon="145.38124000000002">
    <ele>517.36</ele>
   </trkpt>
   <trkpt lat="-37.86021" lon="145.38127">
    <ele>517.3000000000001</ele>
   </trkpt>
   <trkpt lat="-37.86007" lon="145.38119">
    <ele>519.45</ele>
   </trkpt>
   <trkpt lat="-37.859550000000006" lon="145.38082">
    <ele>515.5300000000001</ele>
   </trkpt>
   <trkpt lat="-37.85895" lon="145.38031">
    <ele>505.50000000000006</ele>
   </trkpt>
   <trkpt lat="-37.85862" lon="145.37993">
    <ele>501.96000000000004</ele>
   </trkpt>
   <trkpt lat="-37.8583" lon="145.3796">
    <ele>498.44000000000005</ele>
   </trkpt>
   <trkpt lat="-37.85815" lon="145.37953000000002">
    <ele>497.90000000000003</ele>
   </trkpt>
   <trkpt lat="-37.85792" lon="145.37946000000002">
    <ele>497.72</ele>
   </trkpt>
   <trkpt lat="-37.85761" lon="145.3793">
    <ele>496.58</ele>
   </trkpt>
   <trkpt lat="-37.85734" lon="145.37910000000002">
    <ele>495.51000000000005</ele>
   </trkpt>
   <trkpt lat="-37.857110000000006" lon="145.37887">
    <ele>492.88000000000005</ele>
   </trkpt>
   <trkpt lat="-37.85687" lon="145.37876">
    <ele>489.86</ele>
   </trkpt>
   <trkpt lat="-37.8568" lon="145.37876">
    <ele>488.64</ele>
   </trkpt>
   <trkpt lat="-37.85656" lon="145.37885">
    <ele>486.79</ele>
   </trkpt>
   <trkpt lat="-37.85647" lon="145.37894">
    <ele>486.15000000000003</ele>
   </trkpt>
   <trkpt lat="-37.85642" lon="145.37909000000002">
    <ele>485.55</ele>
   </trkpt>
   <trkpt lat="-37.85642" lon="145.3796">
    <ele>482.49</ele>
   </trkpt>
   <trkpt lat="-37.85636" lon="145.37995">
    <ele>476.84000000000003</ele>
   </trkpt>
   <trkpt lat="-37.85609" lon="145.38024000000001">
    <ele>474.08000000000004</ele>
   </trkpt>
   <trkpt lat="-37.85575" lon="145.38047">
    <ele>470.86000000000007</ele>
   </trkpt>
   <trkpt lat="-37.85564" lon="145.38064">
    <ele>468.58000000000004</ele>
   </trkpt>
   <trkpt lat="-37.85521500025335" lon="145.38042999882236">
    <ele>474.03000000000003</ele>
   </trkpt>
   <trkpt lat="-37.85479" lon="145.38022">
    <ele>479.78000000000003</ele>
   </trkpt>
   <trkpt lat="-37.85434" lon="145.38005">
    <ele>487.6</ele>
   </trkpt>
   <trkpt lat="-37.85412" lon="145.37995">
    <ele>491.78000000000003</ele>
   </trkpt>
   <trkpt lat="-37.85383" lon="145.37978">
    <ele>498.00000000000006</ele>
   </trkpt>
   <trkpt lat="-37.85349" lon="145.3795">
    <ele>508.72</ele>
   </trkpt>
   <trkpt lat="-37.853350000000006" lon="145.37931">
    <ele>511.9100000000001</ele>
   </trkpt>
   <trkpt lat="-37.853080000000006" lon="145.37959">
    <ele>511.62000000000006</ele>
   </trkpt>
   <trkpt lat="-37.85293" lon="145.37962000000002">
    <ele>510.8</ele>
   </trkpt>
   <trkpt lat="-37.85282" lon="145.3796">
    <ele>510.13000000000005</ele>
   </trkpt>
   <trkpt lat="-37.85251" lon="145.37935000000002">
    <ele>507.61</ele>
   </trkpt>
   <trkpt lat="-37.85228" lon="145.37909000000002">
    <ele>506.51</ele>
   </trkpt>
   <trkpt lat="-37.85201" lon="145.37857000000002">
    <ele>504.34</ele>
   </trkpt>
   <trkpt lat="-37.85188" lon="145.37808">
    <ele>506.8</ele>
   </trkpt>
   <trkpt lat="-37.85172" lon="145.37773">
    <ele>509.38000000000005</ele>
   </trkpt>
   <trkpt lat="-37.85157" lon="145.3776">
    <ele>509.9600000000001</ele>
   </trkpt>
   <trkpt lat="-37.85121" lon="145.37741000000003">
    <ele>512.75</ele>
   </trkpt>
   <trkpt lat="-37.85085" lon="145.37730000000002">
    <ele>511.25000000000006</ele>
   </trkpt>
   <trkpt lat="-37.85047" lon="145.37738000000002">
    <ele>509.11000000000007</ele>
   </trkpt>
   <trkpt lat="-37.85029" lon="145.3775">
    <ele>507.87000000000006</ele>
   </trkpt>
   <trkpt lat="-37.84964" lon="145.37782">
    <ele>500.29</ele>
   </trkpt>
   <trkpt lat="-37.84951" lon="145.37792000000002">
    <ele>497.3</ele>
   </trkpt>
   <trkpt lat="-37.8491" lon="145.37814">
    <ele>492.83000000000004</ele>
   </trkpt>
   <trkpt lat="-37.84848" lon="145.3784">
    <ele>487.86</ele>
   </trkpt>
   <trkpt lat="-37.84825" lon="145.37846000000002">
    <ele>486.90000000000003</ele>
   </trkpt>
   <trkpt lat="-37.84794" lon="145.37849">
    <ele>485.30000000000007</ele>
   </trkpt>
   <trkpt lat="-37.84774" lon="145.37846000000002">
    <ele>484.56000000000006</ele>
   </trkpt>
   <trkpt lat="-37.847730000000006" lon="145.37844">
    <ele>484.56000000000006</ele>
   </trkpt>
   <trkpt lat="-37.8476" lon="145.37832">
    <ele>484.59000000000003</ele>
   </trkpt>
   <trkpt lat="-37.84747" lon="145.37811000000002">
    <ele>485.13000000000005</ele>
   </trkpt>
   <trkpt lat="-37.84742" lon="145.3778">
    <ele>485.25</ele>
   </trkpt>
   <trkpt lat="-37.84729" lon="145.37757000000002">
    <ele>483.71000000000004</ele>
   </trkpt>
   <trkpt lat="-37.84751" lon="145.37740000000002">
    <ele>484.7</ele>
   </trkpt>
   <trkpt lat="-37.84787" lon="145.37705000000003">
    <ele>488.98</ele>
   </trkpt>
   <trkpt lat="-37.8481" lon="145.3767">
    <ele>490.3500000000001</ele>
   </trkpt>
   <trkpt lat="-37.84814" lon="145.37654">
    <ele>490.24000000000007</ele>
   </trkpt>
   <trkpt lat="-37.84816" lon="145.37637">
    <ele>489.76</ele>
   </trkpt>
   <trkpt lat="-37.8481" lon="145.37556">
    <ele>485.56000000000006</ele>
   </trkpt>
   <trkpt lat="-37.84816" lon="145.37506000000002">
    <ele>480.93</ele>
   </trkpt>
   <trkpt lat="-37.84834" lon="145.37458">
    <ele>479.32</ele>
   </trkpt>
   <trkpt lat="-37.84832" lon="145.37447">
    <ele>479.27000000000004</ele>
   </trkpt>
   <trkpt lat="-37.848200000000006" lon="145.37433000000001">
    <ele>479.36000000000007</ele>
   </trkpt>
   <trkpt lat="-37.84794" lon="145.37421">
    <ele>479.65000000000003</ele>
   </trkpt>
   <trkpt lat="-37.84765" lon="145.37413">
    <ele>480.57000000000005</ele>
   </trkpt>
   <trkpt lat="-37.84745" lon="145.37404">
    <ele>481.11</ele>
   </trkpt>
   <trkpt lat="-37.846700000000006" lon="145.37385">
    <ele>483.73</ele>
   </trkpt>
   <trkpt lat="-37.84595" lon="145.37358">
    <ele>488.1</ele>
   </trkpt>
   <trkpt lat="-37.8457" lon="145.37356000000003">
    <ele>488.39000000000004</ele>
   </trkpt>
   <trkpt lat="-37.84534" lon="145.3736">
    <ele>487.13000000000005</ele>
   </trkpt>
   <trkpt lat="-37.844895000037866" lon="145.37369500057332">
    <ele>484.99</ele>
   </trkpt>
   <trkpt lat="-37.84445" lon="145.37379">
    <ele>482.96000000000004</ele>
   </trkpt>
   <trkpt lat="-37.8442" lon="145.37382000000002">
    <ele>482.29</ele>
   </trkpt>
   <trkpt lat="-37.843770000000006" lon="145.37383">
    <ele>479.25000000000006</ele>
   </trkpt>
   <trkpt lat="-37.84378" lon="145.37383">
    <ele>479.35</ele>
   </trkpt>
   <trkpt lat="-37.843410000000006" lon="145.37382000000002">
    <ele>477.76</ele>
   </trkpt>
   <trkpt lat="-37.84313" lon="145.37378">
    <ele>475.52000000000004</ele>
   </trkpt>
   <trkpt lat="-37.84261" lon="145.37362000000002">
    <ele>470.09000000000003</ele>
   </trkpt>
   <trkpt lat="-37.84232" lon="145.37346000000002">
    <ele>468.55</ele>
   </trkpt>
   <trkpt lat="-37.84205" lon="145.37321">
    <ele>467.81000000000006</ele>
   </trkpt>
   <trkpt lat="-37.84183" lon="145.37294">
    <ele>467.69000000000005</ele>
   </trkpt>
   <trkpt lat="-37.8416" lon="145.37259">
    <ele>467.68</ele>
   </trkpt>
   <trkpt lat="-37.84124500209939" lon="145.3718899966855">
    <ele>466.06</ele>
   </trkpt>
   <trkpt lat="-37.84089" lon="145.37119">
    <ele>465.12</ele>
   </trkpt>
   <trkpt lat="-37.84075" lon="145.37084000000002">
    <ele>465.05</ele>
   </trkpt>
   <trkpt lat="-37.84073" lon="145.37071">
    <ele>465.15000000000003</ele>
   </trkpt>
   <trkpt lat="-37.84073" lon="145.37049000000002">
    <ele>465.38</ele>
   </trkpt>
   <trkpt lat="-37.84080500173234" lon="145.3698500006453">
    <ele>466.71</ele>
   </trkpt>
   <trkpt lat="-37.840880000000006" lon="145.36921">
    <ele>470.4800000000001</ele>
   </trkpt>
   <trkpt lat="-37.84087" lon="145.36892">
    <ele>472.17</ele>
   </trkpt>
   <trkpt lat="-37.84096" lon="145.3684">
    <ele>474.88</ele>
   </trkpt>
   <trkpt lat="-37.84096" lon="145.36811">
    <ele>476.1</ele>
   </trkpt>
   <trkpt lat="-37.84169" lon="145.36817000000002">
    <ele>485.29</ele>
   </trkpt>
   <trkpt lat="-37.84181" lon="145.36819">
    <ele>486.45000000000005</ele>
   </trkpt>
   <trkpt lat="-37.84219" lon="145.36729000000003">
    <ele>477.83000000000004</ele>
   </trkpt>
   <trkpt lat="-37.842290000000006" lon="145.36720000000003">
    <ele>477.83000000000004</ele>
   </trkpt>
   <trkpt lat="-37.842470000000006" lon="145.36715">
    <ele>475.64000000000004</ele>
   </trkpt>
   <trkpt lat="-37.8425" lon="145.36701000000002">
    <ele>475.06</ele>
   </trkpt>
   <trkpt lat="-37.8425" lon="145.36689">
    <ele>475.2</ele>
   </trkpt>
   <trkpt lat="-37.84234" lon="145.36639000000002">
    <ele>478.66</ele>
   </trkpt>
   <trkpt lat="-37.84192" lon="145.36546">
    <ele>476.55</ele>
   </trkpt>
   <trkpt lat="-37.841910000000006" lon="145.36531000000002">
    <ele>476.55</ele>
   </trkpt>
   <trkpt lat="-37.84199" lon="145.36499">
    <ele>474.69000000000005</ele>
   </trkpt>
   <trkpt lat="-37.8421" lon="145.36476000000002">
    <ele>472.52000000000004</ele>
   </trkpt>
   <trkpt lat="-37.842420000000004" lon="145.36438">
    <ele>468.19000000000005</ele>
   </trkpt>
   <trkpt lat="-37.84243" lon="145.36438">
    <ele>468.06</ele>
   </trkpt>
   <trkpt lat="-37.84281" lon="145.36392">
    <ele>459.91</ele>
   </trkpt>
   <trkpt lat="-37.84286" lon="145.36383">
    <ele>458.94</ele>
   </trkpt>
   <trkpt lat="-37.84288" lon="145.36368000000002">
    <ele>458.05</ele>
   </trkpt>
   <trkpt lat="-37.84281" lon="145.36349">
    <ele>457.92</ele>
   </trkpt>
   <trkpt lat="-37.84223" lon="145.36280000000002">
    <ele>466.18</ele>
   </trkpt>
   <trkpt lat="-37.8421" lon="145.36245000000002">
    <ele>472.25000000000006</ele>
   </trkpt>
   <trkpt lat="-37.842130000000004" lon="145.36174000000003">
    <ele>477.47</ele>
   </trkpt>
   <trkpt lat="-37.84297000031649" lon="145.36151000259423">
    <ele>484.6</ele>
   </trkpt>
   <trkpt lat="-37.843810000000005" lon="145.36128000000002">
    <ele>500.09000000000003</ele>
   </trkpt>
   <trkpt lat="-37.84384" lon="145.36127000000002">
    <ele>500.6</ele>
   </trkpt>
   <trkpt lat="-37.84439500017915" lon="145.36112000110614">
    <ele>508.28000000000003</ele>
   </trkpt>
   <trkpt lat="-37.844950000000004" lon="145.36097">
    <ele>513.09</ele>
   </trkpt>
   <trkpt lat="-37.84501" lon="145.36099000000002">
    <ele>513.09</ele>
   </trkpt>
   <trkpt lat="-37.84560500000557" lon="145.36085000114778">
    <ele>513.6400000000001</ele>
   </trkpt>
   <trkpt lat="-37.8462" lon="145.36071">
    <ele>512.51</ele>
   </trkpt>
   <trkpt lat="-37.84684" lon="145.3606">
    <ele>512.09</ele>
   </trkpt>
   <trkpt lat="-37.84736" lon="145.36087">
    <ele>511.16</ele>
   </trkpt>
   <trkpt lat="-37.847710000000006" lon="145.36112">
    <ele>511.02000000000004</ele>
   </trkpt>
   <trkpt lat="-37.84776" lon="145.36103">
    <ele>509.7900000000001</ele>
   </trkpt>
   <trkpt lat="-37.84761" lon="145.36091000000002">
    <ele>510.12</ele>
   </trkpt>
   <trkpt lat="-37.8474" lon="145.36077">
    <ele>510.57000000000005</ele>
   </trkpt>
   <trkpt lat="-37.84745" lon="145.36067">
    <ele>510.9600000000001</ele>
   </trkpt>
   <trkpt lat="-37.84745" lon="145.36059">
    <ele>511.30000000000007</ele>
   </trkpt>
   <trkpt lat="-37.8474" lon="145.36039000000002">
    <ele>511.7900000000001</ele>
   </trkpt>
   <trkpt lat="-37.84716" lon="145.35931000000002">
    <ele>516.15</ele>
   </trkpt>
   <trkpt lat="-37.84704" lon="145.35884000000001">
    <ele>517.4100000000001</ele>
   </trkpt>
   <trkpt lat="-37.84709" lon="145.35882">
    <ele>518.4300000000001</ele>
   </trkpt>
   <trkpt lat="-37.84695" lon="145.35840000000002">
    <ele>516.71</ele>
   </trkpt>
   <trkpt lat="-37.84664" lon="145.35795000000002">
    <ele>512.7700000000001</ele>
   </trkpt>
   <trkpt lat="-37.846540000000005" lon="145.35771000000003">
    <ele>510.46000000000004</ele>
   </trkpt>
   <trkpt lat="-37.84644" lon="145.35760000000002">
    <ele>510.12</ele>
   </trkpt>
   <trkpt lat="-37.846360000000004" lon="145.35734000000002">
    <ele>509.2000000000001</ele>
   </trkpt>
   <trkpt lat="-37.846006670389734" lon="145.35667666031446">
    <ele>509.26000000000005</ele>
   </trkpt>
   <trkpt lat="-37.84565333705871" lon="145.35601332698553">
    <ele>510.70000000000005</ele>
   </trkpt>
   <trkpt lat="-37.8453" lon="145.35535000000002">
    <ele>511.18000000000006</ele>
   </trkpt>
   <trkpt lat="-37.845220000000005" lon="145.35527000000002">
    <ele>511.71</ele>
   </trkpt>
   <trkpt lat="-37.845695000614164" lon="145.35490000235572">
    <ele>511.01000000000005</ele>
   </trkpt>
   <trkpt lat="-37.84617" lon="145.35453">
    <ele>509.82000000000005</ele>
   </trkpt>
   <trkpt lat="-37.8468" lon="145.35404">
    <ele>506.84000000000003</ele>
   </trkpt>
   <trkpt lat="-37.846830000000004" lon="145.35398">
    <ele>506.84000000000003</ele>
   </trkpt>
   <trkpt lat="-37.846900000000005" lon="145.35394000000002">
    <ele>506.84000000000003</ele>
   </trkpt>
   <trkpt lat="-37.84734" lon="145.35397">
    <ele>495.21000000000004</ele>
   </trkpt>
   <trkpt lat="-37.84781" lon="145.35397">
    <ele>475.96000000000004</ele>
   </trkpt>
   <trkpt lat="-37.84798" lon="145.35389">
    <ele>475.96000000000004</ele>
   </trkpt>
   <trkpt lat="-37.84828" lon="145.35382">
    <ele>459.40000000000003</ele>
   </trkpt>
   <trkpt lat="-37.84857" lon="145.35368000000003">
    <ele>452.29</ele>
   </trkpt>
   <trkpt lat="-37.84868" lon="145.35357000000002">
    <ele>444.71000000000004</ele>
   </trkpt>
   <trkpt lat="-37.84881" lon="145.35356000000002">
    <ele>445.55000000000007</ele>
   </trkpt>
   <trkpt lat="-37.84884" lon="145.35374000000002">
    <ele>447.39</ele>
   </trkpt>
   <trkpt lat="-37.84881" lon="145.35385000000002">
    <ele>447.98</ele>
   </trkpt>
   <trkpt lat="-37.84863" lon="145.35433">
    <ele>452.82000000000005</ele>
   </trkpt>
   <trkpt lat="-37.84852" lon="145.35456000000002">
    <ele>453.16</ele>
   </trkpt>
   <trkpt lat="-37.848440000000004" lon="145.35497">
    <ele>450.48</ele>
   </trkpt>
   <trkpt lat="-37.848440000000004" lon="145.35498">
    <ele>450.48</ele>
   </trkpt>
   <trkpt lat="-37.84839" lon="145.35525">
    <ele>447.87000000000006</ele>
   </trkpt>
   <trkpt lat="-37.84814" lon="145.3557">
    <ele>445.49000000000007</ele>
   </trkpt>
   <trkpt lat="-37.84812" lon="145.35582000000002">
    <ele>446.14000000000004</ele>
   </trkpt>
   <trkpt lat="-37.84814" lon="145.35590000000002">
    <ele>447.11000000000007</ele>
   </trkpt>
   <trkpt lat="-37.84821" lon="145.35601">
    <ele>447.74</ele>
   </trkpt>
   <trkpt lat="-37.84859" lon="145.35638">
    <ele>444.23</ele>
   </trkpt>
   <trkpt lat="-37.84866" lon="145.35649">
    <ele>444.23</ele>
   </trkpt>
   <trkpt lat="-37.8487" lon="145.35663000000002">
    <ele>443.26000000000005</ele>
   </trkpt>
   <trkpt lat="-37.84872" lon="145.35680000000002">
    <ele>442.71000000000004</ele>
   </trkpt>
   <trkpt lat="-37.84877" lon="145.35692">
    <ele>441.95</ele>
   </trkpt>
   <trkpt lat="-37.84886" lon="145.35699000000002">
    <ele>439.6700000000001</ele>
   </trkpt>
   <trkpt lat="-37.84895" lon="145.35702">
    <ele>436.87</ele>
   </trkpt>
   <trkpt lat="-37.84951" lon="145.35711">
    <ele>427.36</ele>
   </trkpt>
   <trkpt lat="-37.849700000000006" lon="145.35709">
    <ele>423.17</ele>
   </trkpt>
   <trkpt lat="-37.84998" lon="145.35682">
    <ele>417.08000000000004</ele>
   </trkpt>
   <trkpt lat="-37.85009" lon="145.35676">
    <ele>416.30000000000007</ele>
   </trkpt>
   <trkpt lat="-37.85054" lon="145.35639">
    <ele>420.28000000000003</ele>
   </trkpt>
   <trkpt lat="-37.85083" lon="145.35617000000002">
    <ele>420.18000000000006</ele>
   </trkpt>
   <trkpt lat="-37.85101" lon="145.35612">
    <ele>419.49</ele>
   </trkpt>
   <trkpt lat="-37.851480000049214" lon="145.35608500021982">
    <ele>418.88</ele>
   </trkpt>
   <trkpt lat="-37.85195" lon="145.35605">
    <ele>425.66</ele>
   </trkpt>
   <trkpt lat="-37.8526" lon="145.35617000000002">
    <ele>442.78000000000003</ele>
   </trkpt>
   <trkpt lat="-37.85284" lon="145.3561">
    <ele>446.33000000000004</ele>
   </trkpt>
   <trkpt lat="-37.85289" lon="145.35602">
    <ele>446.49000000000007</ele>
   </trkpt>
   <trkpt lat="-37.85298" lon="145.3556">
    <ele>445.77000000000004</ele>
   </trkpt>
   <trkpt lat="-37.853" lon="145.35505">
    <ele>443.19</ele>
   </trkpt>
   <trkpt lat="-37.85331" lon="145.35443">
    <ele>444.41</ele>
   </trkpt>
   <trkpt lat="-37.85342" lon="145.35415">
    <ele>448.13</ele>
   </trkpt>
   <trkpt lat="-37.85396" lon="145.35339000000002">
    <ele>454.17</ele>
   </trkpt>
   <trkpt lat="-37.854110000000006" lon="145.35328">
    <ele>458.02000000000004</ele>
   </trkpt>
   <trkpt lat="-37.854350000000004" lon="145.35299">
    <ele>460.44</ele>
   </trkpt>
   <trkpt lat="-37.85439" lon="145.35299">
    <ele>460.44</ele>
   </trkpt>
   <trkpt lat="-37.85452" lon="145.35320000000002">
    <ele>463.62</ele>
   </trkpt>
   <trkpt lat="-37.854580000000006" lon="145.35319">
    <ele>465.84000000000003</ele>
   </trkpt>
   <trkpt lat="-37.85461" lon="145.35309">
    <ele>465.84000000000003</ele>
   </trkpt>
   <trkpt lat="-37.85461" lon="145.35294000000002">
    <ele>467.70000000000005</ele>
   </trkpt>
   <trkpt lat="-37.85466" lon="145.35276000000002">
    <ele>469.19000000000005</ele>
   </trkpt>
   <trkpt lat="-37.85472" lon="145.3527">
    <ele>472.32</ele>
   </trkpt>
   <trkpt lat="-37.85486" lon="145.3523">
    <ele>477.29</ele>
   </trkpt>
   <trkpt lat="-37.855140000000006" lon="145.35198000000003">
    <ele>485.06000000000006</ele>
   </trkpt>
   <trkpt lat="-37.85521" lon="145.35193">
    <ele>486.53000000000003</ele>
   </trkpt>
   <trkpt lat="-37.85526" lon="145.35179000000002">
    <ele>487.52000000000004</ele>
   </trkpt>
   <trkpt lat="-37.85528" lon="145.35168000000002">
    <ele>488.53000000000003</ele>
   </trkpt>
   <trkpt lat="-37.855470000000004" lon="145.35148">
    <ele>490.95000000000005</ele>
   </trkpt>
   <trkpt lat="-37.85580500087528" lon="145.35193999788288">
    <ele>498.11000000000007</ele>
   </trkpt>
   <trkpt lat="-37.85614" lon="145.35240000000002">
    <ele>507.5200000000001</ele>
   </trkpt>
   <trkpt lat="-37.85622" lon="145.35247">
    <ele>508.69000000000005</ele>
   </trkpt>
   <trkpt lat="-37.85636" lon="145.35252">
    <ele>510.0</ele>
   </trkpt>
   <trkpt lat="-37.85683" lon="145.35260000000002">
    <ele>508.3500000000001</ele>
   </trkpt>
   <trkpt lat="-37.85701" lon="145.35266000000001">
    <ele>506.32</ele>
   </trkpt>
   <trkpt lat="-37.85712" lon="145.35268000000002">
    <ele>504.5200000000001</ele>
   </trkpt>
   <trkpt lat="-37.85793" lon="145.35271">
    <ele>496.7900000000001</ele>
   </trkpt>
   <trkpt lat="-37.85815" lon="145.35273">
    <ele>495.85</ele>
   </trkpt>
   <trkpt lat="-37.85851" lon="145.35268000000002">
    <ele>488.00000000000006</ele>
   </trkpt>
   <trkpt lat="-37.8592" lon="145.35248">
    <ele>479.53000000000003</ele>
   </trkpt>
   <trkpt lat="-37.85945" lon="145.35244">
    <ele>475.61</ele>
   </trkpt>
   <trkpt lat="-37.8596" lon="145.35241000000002">
    <ele>473.79</ele>
   </trkpt>
   <trkpt lat="-37.85994" lon="145.35221">
    <ele>469.09000000000003</ele>
   </trkpt>
   <trkpt lat="-37.86023" lon="145.35196000000002">
    <ele>464.77</ele>
   </trkpt>
   <trkpt lat="-37.860490000000006" lon="145.35181">
    <ele>459.25000000000006</ele>
   </trkpt>
   <trkpt lat="-37.860960000000006" lon="145.35146">
    <ele>450.68</ele>
   </trkpt>
   <trkpt lat="-37.861050000000006" lon="145.35133000000002">
    <ele>447.85</ele>
   </trkpt>
   <trkpt lat="-37.86115" lon="145.3511">
    <ele>446.57</ele>
   </trkpt>
   <trkpt lat="-37.86135" lon="145.35045000000002">
    <ele>439.1700000000001</ele>
   </trkpt>
   <trkpt lat="-37.86166" lon="145.34982000000002">
    <ele>429.34000000000003</ele>
   </trkpt>
   <trkpt lat="-37.86182" lon="145.34959">
    <ele>426.75</ele>
   </trkpt>
   <trkpt lat="-37.86224" lon="145.34912">
    <ele>418.61</ele>
   </trkpt>
   <trkpt lat="-37.86236" lon="145.34893000000002">
    <ele>415.04</ele>
   </trkpt>
   <trkpt lat="-37.86238" lon="145.34883000000002">
    <ele>413.93</ele>
   </trkpt>
   <trkpt lat="-37.862370000000006" lon="145.34855000000002">
    <ele>411.44</ele>
   </trkpt>
   <trkpt lat="-37.86211500119145" lon="145.3480099980435">
    <ele>407.15</ele>
   </trkpt>
   <trkpt lat="-37.86186" lon="145.34747000000002">
    <ele>408.04</ele>
   </trkpt>
   <trkpt lat="-37.861790000000006" lon="145.34698">
    <ele>407.86000000000007</ele>
   </trkpt>
   <trkpt lat="-37.86186" lon="145.34658000000002">
    <ele>406.69000000000005</ele>
   </trkpt>
   <trkpt lat="-37.86193" lon="145.34642000000002">
    <ele>406.44</ele>
   </trkpt>
   <trkpt lat="-37.86202" lon="145.34712000000002">
    <ele>415.59000000000003</ele>
   </trkpt>
   <trkpt lat="-37.86206" lon="145.34726">
    <ele>415.59000000000003</ele>
   </trkpt>
   <trkpt lat="-37.8622" lon="145.34749000000002">
    <ele>419.80000000000007</ele>
   </trkpt>
   <trkpt lat="-37.86245" lon="145.34777000000003">
    <ele>423.94000000000005</ele>
   </trkpt>
   <trkpt lat="-37.86256" lon="145.34787">
    <ele>424.90000000000003</ele>
   </trkpt>
   <trkpt lat="-37.86296" lon="145.34810000000002">
    <ele>429.31</ele>
   </trkpt>
   <trkpt lat="-37.86312" lon="145.34826">
    <ele>430.76000000000005</ele>
   </trkpt>
   <trkpt lat="-37.86316" lon="145.34836">
    <ele>431.37</ele>
   </trkpt>
   <trkpt lat="-37.863170000000004" lon="145.34843">
    <ele>431.37</ele>
   </trkpt>
   <trkpt lat="-37.86318" lon="145.34895">
    <ele>436.95000000000005</ele>
   </trkpt>
   <trkpt lat="-37.86323" lon="145.3494">
    <ele>443.52000000000004</ele>
   </trkpt>
   <trkpt lat="-37.86321" lon="145.3496">
    <ele>444.75</ele>
   </trkpt>
   <trkpt lat="-37.863130000000005" lon="145.34997">
    <ele>448.26000000000005</ele>
   </trkpt>
   <trkpt lat="-37.86285" lon="145.35058">
    <ele>455.26000000000005</ele>
   </trkpt>
   <trkpt lat="-37.86274" lon="145.35069000000001">
    <ele>458.53000000000003</ele>
   </trkpt>
   <trkpt lat="-37.86222" lon="145.3514">
    <ele>466.44</ele>
   </trkpt>
   <trkpt lat="-37.86215" lon="145.35175">
    <ele>468.84000000000003</ele>
   </trkpt>
   <trkpt lat="-37.86216" lon="145.35208">
    <ele>470.59000000000003</ele>
   </trkpt>
   <trkpt lat="-37.86222" lon="145.35236">
    <ele>474.02000000000004</ele>
   </trkpt>
   <trkpt lat="-37.86242" lon="145.35278000000002">
    <ele>478.93</ele>
   </trkpt>
   <trkpt lat="-37.86253" lon="145.35285000000002">
    <ele>477.64000000000004</ele>
   </trkpt>
   <trkpt lat="-37.86253" lon="145.35292">
    <ele>477.63000000000005</ele>
   </trkpt>
   <trkpt lat="-37.86256" lon="145.35293000000001">
    <ele>477.76</ele>
   </trkpt>
   <trkpt lat="-37.86269" lon="145.35319">
    <ele>479.13000000000005</ele>
   </trkpt>
   <trkpt lat="-37.86278" lon="145.35319">
    <ele>479.46000000000004</ele>
   </trkpt>
   <trkpt lat="-37.86287" lon="145.35322000000002">
    <ele>479.7</ele>
   </trkpt>
   <trkpt lat="-37.86298" lon="145.35333">
    <ele>479.99</ele>
   </trkpt>
  </trkseg>
 </trk>
</gpx>
