<?xml version="1.0" encoding="UTF-8"?>
<gpx creator="StravaGPX" version="1.1" xmlns="http://www.topografix.com/GPX/1/1" xmlns:xsi="http://www.w3.org/2001/XMLSchema-instance" xsi:schemaLocation="http://www.topografix.com/GPX/1/1 http://www.topografix.com/GPX/1/1/gpx.xsd">
 <metadata>
  <name>DTR Sunday 2 Aug 2026 - 8k</name>
  <author>
   <name>Majid Nazem 🇦🇺</name>
   <link href="https://www.strava.com/athletes/5612969"/>
  </author>
  <copyright author="OpenStreetMap contributors">
   <year>2020</year>
   <license>https://www.openstreetmap.org/copyright</license>
  </copyright>
  <link href="https://www.strava.com/routes/3518092544167145792"/>
 </metadata>
 <trk>
  <name>DTR Sunday 2 Aug 2026 - 8k</name>
  <link href="https://www.strava.com/routes/3518092544167145792"/>
  <type>running</type>
  <trkseg>
   <trkpt lat="-37.862860000000005" lon="145.35357000000002">
    <ele>480.68000000000006</ele>
   </trkpt>
   <trkpt lat="-37.862820000000006" lon="145.3536">
    <ele>480.86000000000007</ele>
   </trkpt>
   <trkpt lat="-37.862860000000005" lon="145.35369">
    <ele>480.95000000000005</ele>
   </trkpt>
   <trkpt lat="-37.862840000000006" lon="145.35371">
    <ele>481.04</ele>
   </trkpt>
   <trkpt lat="-37.86298" lon="145.35408">
    <ele>481.84000000000003</ele>
   </trkpt>
   <trkpt lat="-37.86316" lon="145.35444">
    <ele>485.97</ele>
   </trkpt>
   <trkpt lat="-37.86334" lon="145.35477">
    <ele>476.69000000000005</ele>
   </trkpt>
   <trkpt lat="-37.86345" lon="145.35489">
    <ele>474.93</ele>
   </trkpt>
   <trkpt lat="-37.863600000000005" lon="145.35494">
    <ele>473.07000000000005</ele>
   </trkpt>
   <trkpt lat="-37.86415" lon="145.35496">
    <ele>464.37000000000006</ele>
   </trkpt>
   <trkpt lat="-37.86435" lon="145.35499000000002">
    <ele>461.46000000000004</ele>
   </trkpt>
   <trkpt lat="-37.8645" lon="145.35506">
    <ele>456.03000000000003</ele>
   </trkpt>
   <trkpt lat="-37.864850000000004" lon="145.35513">
    <ele>448.66</ele>
   </trkpt>
   <trkpt lat="-37.86502" lon="145.35512">
    <ele>446.65000000000003</ele>
   </trkpt>
   <trkpt lat="-37.8652" lon="145.35519000000002">
    <ele>444.83000000000004</ele>
   </trkpt>
   <trkpt lat="-37.86547" lon="145.35535000000002">
    <ele>440.15000000000003</ele>
   </trkpt>
   <trkpt lat="-37.86591000000001" lon="145.35539">
    <ele>435.78000000000003</ele>
   </trkpt>
   <trkpt lat="-37.86598" lon="145.35542">
    <ele>435.62000000000006</ele>
   </trkpt>
   <trkpt lat="-37.865990000000004" lon="145.35551">
    <ele>435.62000000000006</ele>
   </trkpt>
   <trkpt lat="-37.866" lon="145.35554000000002">
    <ele>435.62000000000006</ele>
   </trkpt>
   <trkpt lat="-37.86596" lon="145.35572000000002">
    <ele>435.46</ele>
   </trkpt>
   <trkpt lat="-37.865860000000005" lon="145.35572000000002">
    <ele>414.72</ele>
   </trkpt>
   <trkpt lat="-37.86589" lon="145.35592000000003">
    <ele>431.87</ele>
   </trkpt>
   <trkpt lat="-37.86585" lon="145.35607000000002">
    <ele>431.44000000000005</ele>
   </trkpt>
   <trkpt lat="-37.866" lon="145.35656">
    <ele>428.50000000000006</ele>
   </trkpt>
   <trkpt lat="-37.86623" lon="145.35682">
    <ele>426.13</ele>
   </trkpt>
   <trkpt lat="-37.86632" lon="145.35688000000002">
    <ele>425.54</ele>
   </trkpt>
   <trkpt lat="-37.86654" lon="145.35708000000002">
    <ele>422.56000000000006</ele>
   </trkpt>
   <trkpt lat="-37.86672" lon="145.35738">
    <ele>420.7</ele>
   </trkpt>
   <trkpt lat="-37.86675" lon="145.35739">
    <ele>420.7</ele>
   </trkpt>
   <trkpt lat="-37.86688" lon="145.35736">
    <ele>420.47</ele>
   </trkpt>
   <trkpt lat="-37.86715" lon="145.35776">
    <ele>420.93</ele>
   </trkpt>
   <trkpt lat="-37.86728" lon="145.35787000000002">
    <ele>419.83000000000004</ele>
   </trkpt>
   <trkpt lat="-37.86737" lon="145.35797000000002">
    <ele>419.6</ele>
   </trkpt>
   <trkpt lat="-37.86748" lon="145.35804000000002">
    <ele>419.62000000000006</ele>
   </trkpt>
   <trkpt lat="-37.86755" lon="145.35812">
    <ele>419.46000000000004</ele>
   </trkpt>
   <trkpt lat="-37.86766" lon="145.35817">
    <ele>419.44000000000005</ele>
   </trkpt>
   <trkpt lat="-37.86771" lon="145.35824000000002">
    <ele>419.48</ele>
   </trkpt>
   <trkpt lat="-37.86768" lon="145.35852">
    <ele>418.90000000000003</ele>
   </trkpt>
   <trkpt lat="-37.86773" lon="145.35860000000002">
    <ele>419.12000000000006</ele>
   </trkpt>
   <trkpt lat="-37.86793" lon="145.35878000000002">
    <ele>420.21000000000004</ele>
   </trkpt>
   <trkpt lat="-37.86806" lon="145.35901">
    <ele>419.6</ele>
   </trkpt>
   <trkpt lat="-37.8682" lon="145.35908">
    <ele>419.32</ele>
   </trkpt>
   <trkpt lat="-37.86871" lon="145.35917">
    <ele>419.64</ele>
   </trkpt>
   <trkpt lat="-37.86887" lon="145.35943">
    <ele>417.59000000000003</ele>
   </trkpt>
   <trkpt lat="-37.869220000000006" lon="145.35977000000003">
    <ele>416.11</ele>
   </trkpt>
   <trkpt lat="-37.8695" lon="145.36015">
    <ele>415.40000000000003</ele>
   </trkpt>
   <trkpt lat="-37.86963" lon="145.36053">
    <ele>413.59000000000003</ele>
   </trkpt>
   <trkpt lat="-37.86972" lon="145.36065000000002">
    <ele>412.77000000000004</ele>
   </trkpt>
   <trkpt lat="-37.86999" lon="145.36083000000002">
    <ele>412.83000000000004</ele>
   </trkpt>
   <trkpt lat="-37.87071" lon="145.36105">
    <ele>411.37</ele>
   </trkpt>
   <trkpt lat="-37.87089" lon="145.36112">
    <ele>410.62</ele>
   </trkpt>
   <trkpt lat="-37.87113" lon="145.36123">
    <ele>410.16</ele>
   </trkpt>
   <trkpt lat="-37.87182" lon="145.36126000000002">
    <ele>410.11</ele>
   </trkpt>
   <trkpt lat="-37.87205" lon="145.36114">
    <ele>410.18000000000006</ele>
   </trkpt>
   <trkpt lat="-37.87221" lon="145.36118000000002">
    <ele>409.25000000000006</ele>
   </trkpt>
   <trkpt lat="-37.87234" lon="145.36127000000002">
    <ele>408.76</ele>
   </trkpt>
   <trkpt lat="-37.87243" lon="145.36129000000003">
    <ele>408.21000000000004</ele>
   </trkpt>
   <trkpt lat="-37.87292" lon="145.36119000000002">
    <ele>406.26</ele>
   </trkpt>
   <trkpt lat="-37.873360000000005" lon="145.36122">
    <ele>402.04</ele>
   </trkpt>
   <trkpt lat="-37.873400000000004" lon="145.36126000000002">
    <ele>401.41</ele>
   </trkpt>
   <trkpt lat="-37.873490000000004" lon="145.36143">
    <ele>400.70000000000005</ele>
   </trkpt>
   <trkpt lat="-37.873540000000006" lon="145.3614">
    <ele>400.52000000000004</ele>
   </trkpt>
   <trkpt lat="-37.873560000000005" lon="145.36141">
    <ele>400.52000000000004</ele>
   </trkpt>
   <trkpt lat="-37.87357" lon="145.36146000000002">
    <ele>400.22</ele>
   </trkpt>
   <trkpt lat="-37.87355" lon="145.36154000000002">
    <ele>400.05</ele>
   </trkpt>
   <trkpt lat="-37.87368" lon="145.36174000000003">
    <ele>397.27</ele>
   </trkpt>
   <trkpt lat="-37.87377" lon="145.36196">
    <ele>393.01</ele>
   </trkpt>
   <trkpt lat="-37.87377" lon="145.36206">
    <ele>392.42</ele>
   </trkpt>
   <trkpt lat="-37.873740000000005" lon="145.36213">
    <ele>377.59000000000003</ele>
   </trkpt>
   <trkpt lat="-37.87373" lon="145.36223">
    <ele>378.02000000000004</ele>
   </trkpt>
   <trkpt lat="-37.87382" lon="145.36244000000002">
    <ele>379.5</ele>
   </trkpt>
   <trkpt lat="-37.87402" lon="145.36301">
    <ele>382.12</ele>
   </trkpt>
   <trkpt lat="-37.87404" lon="145.36343000000002">
    <ele>385.28000000000003</ele>
   </trkpt>
   <trkpt lat="-37.87426" lon="145.36375">
    <ele>385.45</ele>
   </trkpt>
   <trkpt lat="-37.87438" lon="145.36402">
    <ele>384.92</ele>
   </trkpt>
   <trkpt lat="-37.87438" lon="145.3642">
    <ele>385.27000000000004</ele>
   </trkpt>
   <trkpt lat="-37.87435" lon="145.36442000000002">
    <ele>386.56</ele>
   </trkpt>
   <trkpt lat="-37.87435" lon="145.36469000000002">
    <ele>387.48</ele>
   </trkpt>
   <trkpt lat="-37.874660000000006" lon="145.36564">
    <ele>384.87000000000006</ele>
   </trkpt>
   <trkpt lat="-37.8748" lon="145.366">
    <ele>383.75</ele>
   </trkpt>
   <trkpt lat="-37.87482" lon="145.36644">
    <ele>385.92</ele>
   </trkpt>
   <trkpt lat="-37.87489" lon="145.36658">
    <ele>384.71000000000004</ele>
   </trkpt>
   <trkpt lat="-37.87514" lon="145.36678">
    <ele>381.61</ele>
   </trkpt>
   <trkpt lat="-37.87523" lon="145.36692000000002">
    <ele>381.46000000000004</ele>
   </trkpt>
   <trkpt lat="-37.87559" lon="145.36734">
    <ele>378.76000000000005</ele>
   </trkpt>
   <trkpt lat="-37.8757" lon="145.3675">
    <ele>376.6</ele>
   </trkpt>
   <trkpt lat="-37.875690000000006" lon="145.36763000000002">
    <ele>375.66</ele>
   </trkpt>
   <trkpt lat="-37.87561" lon="145.36791000000002">
    <ele>374.05000000000007</ele>
   </trkpt>
   <trkpt lat="-37.875510000000006" lon="145.36811">
    <ele>373.71000000000004</ele>
   </trkpt>
   <trkpt lat="-37.87545" lon="145.3683">
    <ele>373.51</ele>
   </trkpt>
   <trkpt lat="-37.87554" lon="145.36892">
    <ele>369.71000000000004</ele>
   </trkpt>
   <trkpt lat="-37.87554" lon="145.36915000000002">
    <ele>370.29</ele>
   </trkpt>
   <trkpt lat="-37.87545" lon="145.36945">
    <ele>372.48</ele>
   </trkpt>
   <trkpt lat="-37.87541" lon="145.36953000000003">
    <ele>373.54</ele>
   </trkpt>
   <trkpt lat="-37.87536" lon="145.36978000000002">
    <ele>374.8</ele>
   </trkpt>
   <trkpt lat="-37.87541" lon="145.37033000000002">
    <ele>368.83000000000004</ele>
   </trkpt>
   <trkpt lat="-37.8755" lon="145.37059000000002">
    <ele>365.08</ele>
   </trkpt>
   <trkpt lat="-37.875600000000006" lon="145.37072">
    <ele>363.39000000000004</ele>
   </trkpt>
   <trkpt lat="-37.87608" lon="145.37106">
    <ele>358.92</ele>
   </trkpt>
   <trkpt lat="-37.87614000000001" lon="145.37109">
    <ele>358.89000000000004</ele>
   </trkpt>
   <trkpt lat="-37.87635" lon="145.37115">
    <ele>335.41</ele>
   </trkpt>
   <trkpt lat="-37.8765" lon="145.37138000000002">
    <ele>335.41</ele>
   </trkpt>
   <trkpt lat="-37.87637" lon="145.37132000000003">
    <ele>336.08000000000004</ele>
   </trkpt>
   <trkpt lat="-37.87628" lon="145.37130000000002">
    <ele>336.61</ele>
   </trkpt>
   <trkpt lat="-37.87597" lon="145.37137">
    <ele>338.95000000000005</ele>
   </trkpt>
   <trkpt lat="-37.87579" lon="145.37137">
    <ele>339.91</ele>
   </trkpt>
   <trkpt lat="-37.875220000000006" lon="145.37127">
    <ele>344.22</ele>
   </trkpt>
   <trkpt lat="-37.875040000000006" lon="145.37126">
    <ele>344.78000000000003</ele>
   </trkpt>
   <trkpt lat="-37.874700000000004" lon="145.37130000000002">
    <ele>348.48</ele>
   </trkpt>
   <trkpt lat="-37.874660000000006" lon="145.3718">
    <ele>357.16</ele>
   </trkpt>
   <trkpt lat="-37.874495001515065" lon="145.37240000137075">
    <ele>385.70000000000005</ele>
   </trkpt>
   <trkpt lat="-37.87433" lon="145.37300000000002">
    <ele>396.76000000000005</ele>
   </trkpt>
   <trkpt lat="-37.87424" lon="145.37365">
    <ele>410.09</ele>
   </trkpt>
   <trkpt lat="-37.87408500140171" lon="145.37422500119692">
    <ele>413.86000000000007</ele>
   </trkpt>
   <trkpt lat="-37.87393" lon="145.37480000000002">
    <ele>424.49</ele>
   </trkpt>
   <trkpt lat="-37.873940000000005" lon="145.37474">
    <ele>423.69</ele>
   </trkpt>
   <trkpt lat="-37.87386" lon="145.37503">
    <ele>429.71000000000004</ele>
   </trkpt>
   <trkpt lat="-37.87373" lon="145.37591">
    <ele>440.50000000000006</ele>
   </trkpt>
   <trkpt lat="-37.87356000976839" lon="145.37678750607844">
    <ele>460.59000000000003</ele>
   </trkpt>
   <trkpt lat="-37.87339001302399" lon="145.3776650081072">
    <ele>471.64000000000004</ele>
   </trkpt>
   <trkpt lat="-37.873220009766854" lon="145.37854250608615">
    <ele>477.15000000000003</ele>
   </trkpt>
   <trkpt lat="-37.873050000000006" lon="145.37942">
    <ele>488.23</ele>
   </trkpt>
   <trkpt lat="-37.8729" lon="145.37994">
    <ele>493.39000000000004</ele>
   </trkpt>
   <trkpt lat="-37.87279" lon="145.38043000000002">
    <ele>492.66</ele>
   </trkpt>
   <trkpt lat="-37.872690000000006" lon="145.38075">
    <ele>491.44000000000005</ele>
   </trkpt>
   <trkpt lat="-37.87261" lon="145.38073">
    <ele>492.6</ele>
   </trkpt>
   <trkpt lat="-37.87221" lon="145.38052000000002">
    <ele>495.09000000000003</ele>
   </trkpt>
   <trkpt lat="-37.87172500002051" lon="145.38032499865992">
    <ele>497.62000000000006</ele>
   </trkpt>
   <trkpt lat="-37.87124" lon="145.38013">
    <ele>499.81</ele>
   </trkpt>
   <trkpt lat="-37.87077" lon="145.37989000000002">
    <ele>504.41</ele>
   </trkpt>
   <trkpt lat="-37.87059" lon="145.37978">
    <ele>507.0</ele>
   </trkpt>
   <trkpt lat="-37.87039" lon="145.37975">
    <ele>510.58000000000004</ele>
   </trkpt>
   <trkpt lat="-37.87024" lon="145.37967">
    <ele>513.3199999999999</ele>
   </trkpt>
   <trkpt lat="-37.87006" lon="145.37962000000002">
    <ele>517.03</ele>
   </trkpt>
   <trkpt lat="-37.86988" lon="145.37951">
    <ele>519.03</ele>
   </trkpt>
   <trkpt lat="-37.86914" lon="145.37900000000002">
    <ele>528.6800000000001</ele>
   </trkpt>
   <trkpt lat="-37.86849" lon="145.37853">
    <ele>533.72</ele>
   </trkpt>
   <trkpt lat="-37.86802" lon="145.37826">
    <ele>535.58</ele>
   </trkpt>
   <trkpt lat="-37.86764" lon="145.37802000000002">
    <ele>536.64</ele>
   </trkpt>
   <trkpt lat="-37.867360000000005" lon="145.3778">
    <ele>538.25</ele>
   </trkpt>
   <trkpt lat="-37.86731" lon="145.37782">
    <ele>537.8900000000001</ele>
   </trkpt>
   <trkpt lat="-37.86694" lon="145.37748000000002">
    <ele>543.97</ele>
   </trkpt>
   <trkpt lat="-37.86663" lon="145.37732000000003">
    <ele>550.09</ele>
   </trkpt>
   <trkpt lat="-37.86632" lon="145.37727">
    <ele>553.86</ele>
   </trkpt>
   <trkpt lat="-37.86558" lon="145.3771">
    <ele>564.6600000000001</ele>
   </trkpt>
   <trkpt lat="-37.86547" lon="145.3771">
    <ele>566.11</ele>
   </trkpt>
   <trkpt lat="-37.86527" lon="145.37714000000003">
    <ele>567.69</ele>
   </trkpt>
   <trkpt lat="-37.86462" lon="145.37698">
    <ele>572.4200000000001</ele>
   </trkpt>
   <trkpt lat="-37.86428" lon="145.37687000000003">
    <ele>572.7500000000001</ele>
   </trkpt>
   <trkpt lat="-37.86352" lon="145.37678000000002">
    <ele>567.9200000000001</ele>
   </trkpt>
   <trkpt lat="-37.863350000000004" lon="145.3768">
    <ele>566.3100000000001</ele>
   </trkpt>
   <trkpt lat="-37.86325" lon="145.37676000000002">
    <ele>566.5300000000001</ele>
   </trkpt>
   <trkpt lat="-37.86263000012048" lon="145.37667999933907">
    <ele>565.4200000000001</ele>
   </trkpt>
   <trkpt lat="-37.862010000000005" lon="145.37660000000002">
    <ele>562.7</ele>
   </trkpt>
   <trkpt lat="-37.862" lon="145.37666000000002">
    <ele>562.7</ele>
   </trkpt>
   <trkpt lat="-37.86119499997655" lon="145.3765199984524">
    <ele>560.77</ele>
   </trkpt>
   <trkpt lat="-37.86039" lon="145.37638">
    <ele>560.73</ele>
   </trkpt>
   <trkpt lat="-37.860020000000006" lon="145.37626">
    <ele>563.98</ele>
   </trkpt>
   <trkpt lat="-37.85952000018638" lon="145.37600999826518">
    <ele>567.98</ele>
   </trkpt>
   <trkpt lat="-37.85902" lon="145.37576">
    <ele>569.96</ele>
   </trkpt>
   <trkpt lat="-37.85819" lon="145.37541000000002">
    <ele>571.6600000000001</ele>
   </trkpt>
   <trkpt lat="-37.857890000000005" lon="145.37507000000002">
    <ele>574.59</ele>
   </trkpt>
   <trkpt lat="-37.85741" lon="145.37456">
    <ele>580.6800000000001</ele>
   </trkpt>
   <trkpt lat="-37.85736" lon="145.37444000000002">
    <ele>581.4100000000001</ele>
   </trkpt>
   <trkpt lat="-37.85712" lon="145.37422">
    <ele>582.45</ele>
   </trkpt>
   <trkpt lat="-37.85687" lon="145.37393">
    <ele>582.28</ele>
   </trkpt>
   <trkpt lat="-37.85674" lon="145.37383">
    <ele>581.62</ele>
   </trkpt>
   <trkpt lat="-37.85636" lon="145.37366">
    <ele>579.5600000000001</ele>
   </trkpt>
   <trkpt lat="-37.85618" lon="145.37363000000002">
    <ele>578.76</ele>
   </trkpt>
   <trkpt lat="-37.85609" lon="145.37363000000002">
    <ele>578.76</ele>
   </trkpt>
   <trkpt lat="-37.8554" lon="145.37376">
    <ele>578.0000000000001</ele>
   </trkpt>
   <trkpt lat="-37.85531" lon="145.37379">
    <ele>578.2700000000001</ele>
   </trkpt>
   <trkpt lat="-37.85521" lon="145.37367">
    <ele>578.19</ele>
   </trkpt>
   <trkpt lat="-37.854845000635606" lon="145.37326999797466">
    <ele>578.44</ele>
   </trkpt>
   <trkpt lat="-37.85448" lon="145.37287">
    <ele>579.2</ele>
   </trkpt>
   <trkpt lat="-37.8543" lon="145.37263000000002">
    <ele>579.37</ele>
   </trkpt>
   <trkpt lat="-37.85414" lon="145.37239000000002">
    <ele>579.76</ele>
   </trkpt>
   <trkpt lat="-37.85405" lon="145.37220000000002">
    <ele>579.84</ele>
   </trkpt>
   <trkpt lat="-37.854020000000006" lon="145.37182">
    <ele>579.4</ele>
   </trkpt>
   <trkpt lat="-37.854040000000005" lon="145.37130000000002">
    <ele>578.9200000000001</ele>
   </trkpt>
   <trkpt lat="-37.85412500394389" lon="145.37033500103993">
    <ele>575.79</ele>
   </trkpt>
   <trkpt lat="-37.85421" lon="145.36937">
    <ele>573.16</ele>
   </trkpt>
   <trkpt lat="-37.85445" lon="145.36905000000002">
    <ele>572.5100000000001</ele>
   </trkpt>
   <trkpt lat="-37.854580000000006" lon="145.36896000000002">
    <ele>572.32</ele>
   </trkpt>
   <trkpt lat="-37.85499" lon="145.36845000000002">
    <ele>572.46</ele>
   </trkpt>
   <trkpt lat="-37.85519" lon="145.36803">
    <ele>573.1</ele>
   </trkpt>
   <trkpt lat="-37.85536751067608" lon="145.36711250663902">
    <ele>573.59</ele>
   </trkpt>
   <trkpt lat="-37.855545014233364" lon="145.36619500885953">
    <ele>572.89</ele>
   </trkpt>
   <trkpt lat="-37.85572251067177" lon="145.36527750666164">
    <ele>571.03</ele>
   </trkpt>
   <trkpt lat="-37.855900000000005" lon="145.36436">
    <ele>571.46</ele>
   </trkpt>
   <trkpt lat="-37.85596" lon="145.36437">
    <ele>571.2700000000001</ele>
   </trkpt>
   <trkpt lat="-37.855940000000004" lon="145.36425">
    <ele>571.1800000000001</ele>
   </trkpt>
   <trkpt lat="-37.856010000000005" lon="145.36421">
    <ele>573.44</ele>
   </trkpt>
   <trkpt lat="-37.85605" lon="145.36415000000002">
    <ele>573.6800000000001</ele>
   </trkpt>
   <trkpt lat="-37.85606000000001" lon="145.36398">
    <ele>573.86</ele>
   </trkpt>
   <trkpt lat="-37.85619500226087" lon="145.36324500147347">
    <ele>576.9200000000001</ele>
   </trkpt>
   <trkpt lat="-37.85633" lon="145.36251000000001">
    <ele>581.1800000000001</ele>
   </trkpt>
   <trkpt lat="-37.85651000645703" lon="145.36163667089792">
    <ele>589.13</ele>
   </trkpt>
   <trkpt lat="-37.856690006464035" lon="145.3607633375307">
    <ele>599.1700000000001</ele>
   </trkpt>
   <trkpt lat="-37.85687" lon="145.35989">
    <ele>599.6100000000001</ele>
   </trkpt>
   <trkpt lat="-37.856980002114554" lon="145.35918500096912">
    <ele>591.8100000000001</ele>
   </trkpt>
   <trkpt lat="-37.85709000000001" lon="145.35848000000001">
    <ele>583.2</ele>
   </trkpt>
   <trkpt lat="-37.85709000000001" lon="145.35849000000002">
    <ele>583.33</ele>
   </trkpt>
   <trkpt lat="-37.85714" lon="145.35814000000002">
    <ele>579.46</ele>
   </trkpt>
   <trkpt lat="-37.85727" lon="145.35755">
    <ele>575.6300000000001</ele>
   </trkpt>
   <trkpt lat="-37.857490000000006" lon="145.35684">
    <ele>575.47</ele>
   </trkpt>
   <trkpt lat="-37.85757" lon="145.35637">
    <ele>575.0200000000001</ele>
   </trkpt>
   <trkpt lat="-37.857420000000005" lon="145.35594">
    <ele>574.61</ele>
   </trkpt>
   <trkpt lat="-37.85745" lon="145.35580000000002">
    <ele>576.0600000000001</ele>
   </trkpt>
   <trkpt lat="-37.85774" lon="145.3557">
    <ele>574.5600000000001</ele>
   </trkpt>
   <trkpt lat="-37.85792" lon="145.35547000000003">
    <ele>569.5100000000001</ele>
   </trkpt>
   <trkpt lat="-37.85826" lon="145.35524">
    <ele>562.57</ele>
   </trkpt>
   <trkpt lat="-37.85846" lon="145.35508000000002">
    <ele>555.9200000000001</ele>
   </trkpt>
   <trkpt lat="-37.858610000000006" lon="145.35500000000002">
    <ele>552.06</ele>
   </trkpt>
   <trkpt lat="-37.858630000000005" lon="145.35499000000002">
    <ele>551.7700000000001</ele>
   </trkpt>
   <trkpt lat="-37.85866" lon="145.35498">
    <ele>551.7700000000001</ele>
   </trkpt>
   <trkpt lat="-37.85877" lon="145.35487">
    <ele>547.51</ele>
   </trkpt>
   <trkpt lat="-37.85891" lon="145.35462">
    <ele>537.0200000000001</ele>
   </trkpt>
   <trkpt lat="-37.85938" lon="145.35420000000002">
    <ele>522.8900000000001</ele>
   </trkpt>
   <trkpt lat="-37.85956" lon="145.35410000000002">
    <ele>518.21</ele>
   </trkpt>
   <trkpt lat="-37.85969" lon="145.35413">
    <ele>515.75</ele>
   </trkpt>
   <trkpt lat="-37.859930000000006" lon="145.35424">
    <ele>513.5300000000001</ele>
   </trkpt>
   <trkpt lat="-37.86016" lon="145.35452">
    <ele>513.49</ele>
   </trkpt>
   <trkpt lat="-37.860600000000005" lon="145.35546000000002">
    <ele>507.36</ele>
   </trkpt>
   <trkpt lat="-37.86061" lon="145.35558">
    <ele>504.95</ele>
   </trkpt>
   <trkpt lat="-37.86059" lon="145.35571000000002">
    <ele>504.95</ele>
   </trkpt>
   <trkpt lat="-37.86059" lon="145.35592000000003">
    <ele>498.72</ele>
   </trkpt>
   <trkpt lat="-37.860640000000004" lon="145.35598000000002">
    <ele>495.13</ele>
   </trkpt>
   <trkpt lat="-37.860760000000006" lon="145.35601">
    <ele>494.40000000000003</ele>
   </trkpt>
   <trkpt lat="-37.86079" lon="145.35572000000002">
    <ele>493.62000000000006</ele>
   </trkpt>
   <trkpt lat="-37.86108" lon="145.35531">
    <ele>492.01000000000005</ele>
   </trkpt>
   <trkpt lat="-37.86164" lon="145.3547">
    <ele>488.01000000000005</ele>
   </trkpt>
   <trkpt lat="-37.86198" lon="145.35437000000002">
    <ele>484.34000000000003</ele>
   </trkpt>
   <trkpt lat="-37.86229" lon="145.35409">
    <ele>482.64</ele>
   </trkpt>
   <trkpt lat="-37.862640000000006" lon="145.35385000000002">
    <ele>481.43</ele>
   </trkpt>
  </trkseg>
 </trk>
</gpx>
