<?xml version="1.0" encoding="UTF-8"?>
<gpx creator="StravaGPX" version="1.1" xmlns="http://www.topografix.com/GPX/1/1" xmlns:xsi="http://www.w3.org/2001/XMLSchema-instance" xsi:schemaLocation="http://www.topografix.com/GPX/1/1 http://www.topografix.com/GPX/1/1/gpx.xsd">
 <metadata>
  <name>DTR Sunday - 2 Aug 2026 - 20k Special</name>
  <author>
   <name>Majid Nazem 🇦🇺</name>
   <link href="https://www.strava.com/athletes/5612969"/>
  </author>
  <copyright author="OpenStreetMap contributors">
   <year>2020</year>
   <license>https://www.openstreetmap.org/copyright</license>
  </copyright>
  <link href="https://www.strava.com/routes/3518092544171388224"/>
 </metadata>
 <trk>
  <name>DTR Sunday - 2 Aug 2026 - 20k Special</name>
  <link href="https://www.strava.com/routes/3518092544171388224"/>
  <type>running</type>
  <trkseg>
   <trkpt lat="-37.862820000000006" lon="145.3536">
    <ele>480.86000000000007</ele>
   </trkpt>
   <trkpt lat="-37.862860000000005" lon="145.35369">
    <ele>480.95000000000005</ele>
   </trkpt>
   <trkpt lat="-37.862840000000006" lon="145.35371">
    <ele>481.04</ele>
   </trkpt>
   <trkpt lat="-37.86287" lon="145.3538">
    <ele>481.13000000000005</ele>
   </trkpt>
   <trkpt lat="-37.86316" lon="145.35444">
    <ele>485.97</ele>
   </trkpt>
   <trkpt lat="-37.86334" lon="145.35477">
    <ele>476.69000000000005</ele>
   </trkpt>
   <trkpt lat="-37.86345" lon="145.35489">
    <ele>474.93</ele>
   </trkpt>
   <trkpt lat="-37.863600000000005" lon="145.35494">
    <ele>473.07000000000005</ele>
   </trkpt>
   <trkpt lat="-37.86415" lon="145.35496">
    <ele>464.37000000000006</ele>
   </trkpt>
   <trkpt lat="-37.86435" lon="145.35499000000002">
    <ele>461.46000000000004</ele>
   </trkpt>
   <trkpt lat="-37.8645" lon="145.35506">
    <ele>456.03000000000003</ele>
   </trkpt>
   <trkpt lat="-37.864850000000004" lon="145.35513">
    <ele>448.66</ele>
   </trkpt>
   <trkpt lat="-37.86502" lon="145.35512">
    <ele>446.65000000000003</ele>
   </trkpt>
   <trkpt lat="-37.8652" lon="145.35519000000002">
    <ele>444.83000000000004</ele>
   </trkpt>
   <trkpt lat="-37.86547" lon="145.35535000000002">
    <ele>440.15000000000003</ele>
   </trkpt>
   <trkpt lat="-37.86591000000001" lon="145.35539">
    <ele>435.78000000000003</ele>
   </trkpt>
   <trkpt lat="-37.86598" lon="145.35542">
    <ele>435.62000000000006</ele>
   </trkpt>
   <trkpt lat="-37.865990000000004" lon="145.35551">
    <ele>435.62000000000006</ele>
   </trkpt>
   <trkpt lat="-37.866" lon="145.35554000000002">
    <ele>435.62000000000006</ele>
   </trkpt>
   <trkpt lat="-37.86596" lon="145.35572000000002">
    <ele>435.46</ele>
   </trkpt>
   <trkpt lat="-37.865860000000005" lon="145.35572000000002">
    <ele>414.72</ele>
   </trkpt>
   <trkpt lat="-37.86589" lon="145.35592000000003">
    <ele>431.87</ele>
   </trkpt>
   <trkpt lat="-37.86585" lon="145.35607000000002">
    <ele>431.44000000000005</ele>
   </trkpt>
   <trkpt lat="-37.866" lon="145.35656">
    <ele>428.50000000000006</ele>
   </trkpt>
   <trkpt lat="-37.86623" lon="145.35682">
    <ele>426.13</ele>
   </trkpt>
   <trkpt lat="-37.86632" lon="145.35688000000002">
    <ele>425.54</ele>
   </trkpt>
   <trkpt lat="-37.86654" lon="145.35708000000002">
    <ele>422.56000000000006</ele>
   </trkpt>
   <trkpt lat="-37.86672" lon="145.35738">
    <ele>420.7</ele>
   </trkpt>
   <trkpt lat="-37.86675" lon="145.35739">
    <ele>420.7</ele>
   </trkpt>
   <trkpt lat="-37.86688" lon="145.35736">
    <ele>420.47</ele>
   </trkpt>
   <trkpt lat="-37.86715" lon="145.35776">
    <ele>420.7</ele>
   </trkpt>
   <trkpt lat="-37.86728" lon="145.35787000000002">
    <ele>419.83000000000004</ele>
   </trkpt>
   <trkpt lat="-37.86737" lon="145.35797000000002">
    <ele>419.6</ele>
   </trkpt>
   <trkpt lat="-37.86748" lon="145.35804000000002">
    <ele>419.62000000000006</ele>
   </trkpt>
   <trkpt lat="-37.86755" lon="145.35812">
    <ele>419.46000000000004</ele>
   </trkpt>
   <trkpt lat="-37.86766" lon="145.35817">
    <ele>419.44000000000005</ele>
   </trkpt>
   <trkpt lat="-37.86771" lon="145.35824000000002">
    <ele>419.48</ele>
   </trkpt>
   <trkpt lat="-37.86768" lon="145.35852">
    <ele>418.90000000000003</ele>
   </trkpt>
   <trkpt lat="-37.86773" lon="145.35860000000002">
    <ele>419.12000000000006</ele>
   </trkpt>
   <trkpt lat="-37.86793" lon="145.35878000000002">
    <ele>420.21000000000004</ele>
   </trkpt>
   <trkpt lat="-37.86806" lon="145.35901">
    <ele>419.6</ele>
   </trkpt>
   <trkpt lat="-37.8682" lon="145.35908">
    <ele>419.32</ele>
   </trkpt>
   <trkpt lat="-37.86871" lon="145.35917">
    <ele>419.64</ele>
   </trkpt>
   <trkpt lat="-37.86887" lon="145.35943">
    <ele>417.59000000000003</ele>
   </trkpt>
   <trkpt lat="-37.869220000000006" lon="145.35977000000003">
    <ele>416.11</ele>
   </trkpt>
   <trkpt lat="-37.8695" lon="145.36015">
    <ele>415.40000000000003</ele>
   </trkpt>
   <trkpt lat="-37.86963" lon="145.36053">
    <ele>413.59000000000003</ele>
   </trkpt>
   <trkpt lat="-37.86972" lon="145.36065000000002">
    <ele>412.6</ele>
   </trkpt>
   <trkpt lat="-37.86999" lon="145.36083000000002">
    <ele>412.83000000000004</ele>
   </trkpt>
   <trkpt lat="-37.87071" lon="145.36105">
    <ele>411.02000000000004</ele>
   </trkpt>
   <trkpt lat="-37.87113" lon="145.36123">
    <ele>410.12</ele>
   </trkpt>
   <trkpt lat="-37.87182" lon="145.36126000000002">
    <ele>410.11</ele>
   </trkpt>
   <trkpt lat="-37.87205" lon="145.36114">
    <ele>410.08000000000004</ele>
   </trkpt>
   <trkpt lat="-37.87221" lon="145.36118000000002">
    <ele>409.25000000000006</ele>
   </trkpt>
   <trkpt lat="-37.87234" lon="145.36126000000002">
    <ele>408.7</ele>
   </trkpt>
   <trkpt lat="-37.87243" lon="145.36129000000003">
    <ele>408.21000000000004</ele>
   </trkpt>
   <trkpt lat="-37.87292" lon="145.36119000000002">
    <ele>406.26</ele>
   </trkpt>
   <trkpt lat="-37.873360000000005" lon="145.36122">
    <ele>402.04</ele>
   </trkpt>
   <trkpt lat="-37.873400000000004" lon="145.36126000000002">
    <ele>401.41</ele>
   </trkpt>
   <trkpt lat="-37.873490000000004" lon="145.36143">
    <ele>400.70000000000005</ele>
   </trkpt>
   <trkpt lat="-37.873540000000006" lon="145.3614">
    <ele>400.52000000000004</ele>
   </trkpt>
   <trkpt lat="-37.873560000000005" lon="145.36141">
    <ele>400.52000000000004</ele>
   </trkpt>
   <trkpt lat="-37.87357" lon="145.36146000000002">
    <ele>400.22</ele>
   </trkpt>
   <trkpt lat="-37.87355" lon="145.36154000000002">
    <ele>400.05</ele>
   </trkpt>
   <trkpt lat="-37.87368" lon="145.36174000000003">
    <ele>397.27</ele>
   </trkpt>
   <trkpt lat="-37.87377" lon="145.36196">
    <ele>393.01</ele>
   </trkpt>
   <trkpt lat="-37.87377" lon="145.36206">
    <ele>392.42</ele>
   </trkpt>
   <trkpt lat="-37.873740000000005" lon="145.36213">
    <ele>377.59000000000003</ele>
   </trkpt>
   <trkpt lat="-37.87373" lon="145.36223">
    <ele>378.02000000000004</ele>
   </trkpt>
   <trkpt lat="-37.87382" lon="145.36244000000002">
    <ele>379.5</ele>
   </trkpt>
   <trkpt lat="-37.87402" lon="145.36301">
    <ele>382.12</ele>
   </trkpt>
   <trkpt lat="-37.87404" lon="145.36343000000002">
    <ele>385.28000000000003</ele>
   </trkpt>
   <trkpt lat="-37.87426" lon="145.36375">
    <ele>385.45</ele>
   </trkpt>
   <trkpt lat="-37.87438" lon="145.36402">
    <ele>384.92</ele>
   </trkpt>
   <trkpt lat="-37.87438" lon="145.3642">
    <ele>385.27000000000004</ele>
   </trkpt>
   <trkpt lat="-37.87435" lon="145.36442000000002">
    <ele>386.56</ele>
   </trkpt>
   <trkpt lat="-37.87435" lon="145.36469000000002">
    <ele>387.48</ele>
   </trkpt>
   <trkpt lat="-37.874660000000006" lon="145.36564">
    <ele>384.87000000000006</ele>
   </trkpt>
   <trkpt lat="-37.8748" lon="145.366">
    <ele>383.75</ele>
   </trkpt>
   <trkpt lat="-37.87482" lon="145.36644">
    <ele>385.92</ele>
   </trkpt>
   <trkpt lat="-37.87489" lon="145.36658">
    <ele>384.71000000000004</ele>
   </trkpt>
   <trkpt lat="-37.87514" lon="145.36678">
    <ele>381.61</ele>
   </trkpt>
   <trkpt lat="-37.87523" lon="145.36692000000002">
    <ele>381.46000000000004</ele>
   </trkpt>
   <trkpt lat="-37.87559" lon="145.36734">
    <ele>378.76000000000005</ele>
   </trkpt>
   <trkpt lat="-37.8757" lon="145.3675">
    <ele>376.6</ele>
   </trkpt>
   <trkpt lat="-37.875690000000006" lon="145.36763000000002">
    <ele>375.66</ele>
   </trkpt>
   <trkpt lat="-37.87561" lon="145.36791000000002">
    <ele>374.05000000000007</ele>
   </trkpt>
   <trkpt lat="-37.875510000000006" lon="145.36811">
    <ele>373.71000000000004</ele>
   </trkpt>
   <trkpt lat="-37.87545" lon="145.3683">
    <ele>373.51</ele>
   </trkpt>
   <trkpt lat="-37.87554" lon="145.36892">
    <ele>369.71000000000004</ele>
   </trkpt>
   <trkpt lat="-37.87554" lon="145.36915000000002">
    <ele>370.29</ele>
   </trkpt>
   <trkpt lat="-37.87545" lon="145.36945">
    <ele>372.48</ele>
   </trkpt>
   <trkpt lat="-37.87541" lon="145.36953000000003">
    <ele>373.54</ele>
   </trkpt>
   <trkpt lat="-37.87536" lon="145.36978000000002">
    <ele>374.8</ele>
   </trkpt>
   <trkpt lat="-37.87541" lon="145.37033000000002">
    <ele>368.83000000000004</ele>
   </trkpt>
   <trkpt lat="-37.8755" lon="145.37059000000002">
    <ele>365.08</ele>
   </trkpt>
   <trkpt lat="-37.875600000000006" lon="145.37072">
    <ele>363.39000000000004</ele>
   </trkpt>
   <trkpt lat="-37.87608" lon="145.37106">
    <ele>358.92</ele>
   </trkpt>
   <trkpt lat="-37.87614000000001" lon="145.37109">
    <ele>358.89000000000004</ele>
   </trkpt>
   <trkpt lat="-37.87635" lon="145.37115">
    <ele>335.41</ele>
   </trkpt>
   <trkpt lat="-37.8765" lon="145.37138000000002">
    <ele>335.41</ele>
   </trkpt>
   <trkpt lat="-37.87637" lon="145.37132000000003">
    <ele>336.08000000000004</ele>
   </trkpt>
   <trkpt lat="-37.87628" lon="145.37130000000002">
    <ele>336.61</ele>
   </trkpt>
   <trkpt lat="-37.87597" lon="145.37137">
    <ele>338.95000000000005</ele>
   </trkpt>
   <trkpt lat="-37.87579" lon="145.37137">
    <ele>339.91</ele>
   </trkpt>
   <trkpt lat="-37.875220000000006" lon="145.37127">
    <ele>344.22</ele>
   </trkpt>
   <trkpt lat="-37.875040000000006" lon="145.37126">
    <ele>344.78000000000003</ele>
   </trkpt>
   <trkpt lat="-37.874700000000004" lon="145.37130000000002">
    <ele>348.48</ele>
   </trkpt>
   <trkpt lat="-37.874660000000006" lon="145.3718">
    <ele>357.16</ele>
   </trkpt>
   <trkpt lat="-37.874495001515065" lon="145.37240000137075">
    <ele>385.70000000000005</ele>
   </trkpt>
   <trkpt lat="-37.87433" lon="145.37300000000002">
    <ele>396.76000000000005</ele>
   </trkpt>
   <trkpt lat="-37.87424" lon="145.37365">
    <ele>410.09</ele>
   </trkpt>
   <trkpt lat="-37.87405000200656" lon="145.37434000180457">
    <ele>421.87</ele>
   </trkpt>
   <trkpt lat="-37.87386" lon="145.37503">
    <ele>429.71000000000004</ele>
   </trkpt>
   <trkpt lat="-37.87373" lon="145.37591">
    <ele>448.53000000000003</ele>
   </trkpt>
   <trkpt lat="-37.873563339210754" lon="145.376743337085">
    <ele>460.59000000000003</ele>
   </trkpt>
   <trkpt lat="-37.87339667254785" lon="145.3775766703995">
    <ele>468.95000000000005</ele>
   </trkpt>
   <trkpt lat="-37.87323000000001" lon="145.37841">
    <ele>477.15000000000003</ele>
   </trkpt>
   <trkpt lat="-37.873050000000006" lon="145.37942">
    <ele>488.23</ele>
   </trkpt>
   <trkpt lat="-37.8729" lon="145.37994">
    <ele>493.39000000000004</ele>
   </trkpt>
   <trkpt lat="-37.87279" lon="145.38043000000002">
    <ele>492.66</ele>
   </trkpt>
   <trkpt lat="-37.872690000000006" lon="145.38075">
    <ele>491.44000000000005</ele>
   </trkpt>
   <trkpt lat="-37.87283" lon="145.38095">
    <ele>490.32000000000005</ele>
   </trkpt>
   <trkpt lat="-37.873070000000006" lon="145.38148">
    <ele>489.09000000000003</ele>
   </trkpt>
   <trkpt lat="-37.873090000000005" lon="145.38162">
    <ele>488.67</ele>
   </trkpt>
   <trkpt lat="-37.87367500219305" lon="145.38233499436026">
    <ele>495.48</ele>
   </trkpt>
   <trkpt lat="-37.87426" lon="145.38305000000003">
    <ele>504.5200000000001</ele>
   </trkpt>
   <trkpt lat="-37.87433" lon="145.38328">
    <ele>505.65000000000003</ele>
   </trkpt>
   <trkpt lat="-37.874190000000006" lon="145.38435">
    <ele>508.71</ele>
   </trkpt>
   <trkpt lat="-37.87411" lon="145.38505">
    <ele>511.17</ele>
   </trkpt>
   <trkpt lat="-37.87398" lon="145.38603">
    <ele>507.65000000000003</ele>
   </trkpt>
   <trkpt lat="-37.873920000000005" lon="145.38667">
    <ele>499.95000000000005</ele>
   </trkpt>
   <trkpt lat="-37.87382" lon="145.3874">
    <ele>489.39000000000004</ele>
   </trkpt>
   <trkpt lat="-37.873760000000004" lon="145.38772">
    <ele>486.00000000000006</ele>
   </trkpt>
   <trkpt lat="-37.87375" lon="145.38798">
    <ele>482.73</ele>
   </trkpt>
   <trkpt lat="-37.87393" lon="145.38854">
    <ele>475.03000000000003</ele>
   </trkpt>
   <trkpt lat="-37.87428500302352" lon="145.38938999582737">
    <ele>464.15000000000003</ele>
   </trkpt>
   <trkpt lat="-37.87464000000001" lon="145.39024">
    <ele>453.81000000000006</ele>
   </trkpt>
   <trkpt lat="-37.87499500389469" lon="145.3911949954992">
    <ele>437.22</ele>
   </trkpt>
   <trkpt lat="-37.875350000000005" lon="145.39215000000002">
    <ele>422.18000000000006</ele>
   </trkpt>
   <trkpt lat="-37.87538" lon="145.39227000000002">
    <ele>420.15000000000003</ele>
   </trkpt>
   <trkpt lat="-37.87520000000001" lon="145.39285">
    <ele>405.0</ele>
   </trkpt>
   <trkpt lat="-37.87523" lon="145.39307000000002">
    <ele>399.06</ele>
   </trkpt>
   <trkpt lat="-37.87491" lon="145.39403000000001">
    <ele>377.85</ele>
   </trkpt>
   <trkpt lat="-37.87476" lon="145.39414000000002">
    <ele>370.34000000000003</ele>
   </trkpt>
   <trkpt lat="-37.87476" lon="145.39427">
    <ele>368.1</ele>
   </trkpt>
   <trkpt lat="-37.8748" lon="145.39439000000002">
    <ele>366.01000000000005</ele>
   </trkpt>
   <trkpt lat="-37.87471" lon="145.39434">
    <ele>365.93</ele>
   </trkpt>
   <trkpt lat="-37.874460000000006" lon="145.39537">
    <ele>346.0</ele>
   </trkpt>
   <trkpt lat="-37.87426" lon="145.39608">
    <ele>324.0</ele>
   </trkpt>
   <trkpt lat="-37.874190000000006" lon="145.39654000000002">
    <ele>311.99000000000007</ele>
   </trkpt>
   <trkpt lat="-37.87415" lon="145.39628000000002">
    <ele>317.29</ele>
   </trkpt>
   <trkpt lat="-37.87411" lon="145.39618000000002">
    <ele>319.02000000000004</ele>
   </trkpt>
   <trkpt lat="-37.873900000000006" lon="145.39584000000002">
    <ele>325.0</ele>
   </trkpt>
   <trkpt lat="-37.87353000131434" lon="145.39525999691722">
    <ele>337.06</ele>
   </trkpt>
   <trkpt lat="-37.873160000000006" lon="145.39468000000002">
    <ele>351.84000000000003</ele>
   </trkpt>
   <trkpt lat="-37.87303" lon="145.39444">
    <ele>353.69</ele>
   </trkpt>
   <trkpt lat="-37.87277" lon="145.39412000000002">
    <ele>361.13</ele>
   </trkpt>
   <trkpt lat="-37.8725" lon="145.394">
    <ele>367.00000000000006</ele>
   </trkpt>
   <trkpt lat="-37.871896666675205" lon="145.39391666529488">
    <ele>378.44000000000005</ele>
   </trkpt>
   <trkpt lat="-37.87129333329165" lon="145.39383333195462">
    <ele>384.75</ele>
   </trkpt>
   <trkpt lat="-37.87069" lon="145.39375">
    <ele>392.99</ele>
   </trkpt>
   <trkpt lat="-37.870470000000005" lon="145.39366">
    <ele>383.70000000000005</ele>
   </trkpt>
   <trkpt lat="-37.8703" lon="145.39411">
    <ele>377.76000000000005</ele>
   </trkpt>
   <trkpt lat="-37.87021" lon="145.39427">
    <ele>376.08000000000004</ele>
   </trkpt>
   <trkpt lat="-37.869890000000005" lon="145.39530000000002">
    <ele>370.55</ele>
   </trkpt>
   <trkpt lat="-37.8699" lon="145.39530000000002">
    <ele>370.58000000000004</ele>
   </trkpt>
   <trkpt lat="-37.86958667413194" lon="145.39624000801882">
    <ele>366.99</ele>
   </trkpt>
   <trkpt lat="-37.86927334079056" lon="145.39718000804282">
    <ele>354.22</ele>
   </trkpt>
   <trkpt lat="-37.86896" lon="145.39812">
    <ele>337.44</ele>
   </trkpt>
   <trkpt lat="-37.86861000877523" lon="145.39914000976043">
    <ele>313.69</ele>
   </trkpt>
   <trkpt lat="-37.86826000875104" lon="145.40016000983076">
    <ele>299.74</ele>
   </trkpt>
   <trkpt lat="-37.86791" lon="145.40118">
    <ele>288.88</ele>
   </trkpt>
   <trkpt lat="-37.867830000000005" lon="145.40156000000002">
    <ele>287.35</ele>
   </trkpt>
   <trkpt lat="-37.86780333944349" lon="145.40241000062989">
    <ele>287.64</ele>
   </trkpt>
   <trkpt lat="-37.86777667277636" lon="145.4032600006446">
    <ele>288.61</ele>
   </trkpt>
   <trkpt lat="-37.86775" lon="145.40411">
    <ele>286.34000000000003</ele>
   </trkpt>
   <trkpt lat="-37.86774000980378" lon="145.4051866669971">
    <ele>279.02000000000004</ele>
   </trkpt>
   <trkpt lat="-37.867730009803424" lon="145.4062633337021">
    <ele>267.1</ele>
   </trkpt>
   <trkpt lat="-37.867720000000006" lon="145.40734">
    <ele>253.43000000000004</ele>
   </trkpt>
   <trkpt lat="-37.86762" lon="145.40775000000002">
    <ele>247.53000000000003</ele>
   </trkpt>
   <trkpt lat="-37.86712" lon="145.40844">
    <ele>241.16</ele>
   </trkpt>
   <trkpt lat="-37.8671" lon="145.4085">
    <ele>241.18000000000004</ele>
   </trkpt>
   <trkpt lat="-37.86715" lon="145.40863000000002">
    <ele>241.53000000000003</ele>
   </trkpt>
   <trkpt lat="-37.86724" lon="145.40865000000002">
    <ele>242.14000000000001</ele>
   </trkpt>
   <trkpt lat="-37.86759" lon="145.40845000000002">
    <ele>245.34000000000003</ele>
   </trkpt>
   <trkpt lat="-37.86773" lon="145.40844">
    <ele>245.94000000000003</ele>
   </trkpt>
   <trkpt lat="-37.867760000000004" lon="145.40846000000002">
    <ele>245.94000000000003</ele>
   </trkpt>
   <trkpt lat="-37.867650000000005" lon="145.40855000000002">
    <ele>245.93</ele>
   </trkpt>
   <trkpt lat="-37.867650000000005" lon="145.40866000000003">
    <ele>249.81000000000003</ele>
   </trkpt>
   <trkpt lat="-37.86773" lon="145.40872000000002">
    <ele>249.61</ele>
   </trkpt>
   <trkpt lat="-37.867705002740735" lon="145.4095250002615">
    <ele>253.54999999999998</ele>
   </trkpt>
   <trkpt lat="-37.86768" lon="145.41033000000002">
    <ele>258.89</ele>
   </trkpt>
   <trkpt lat="-37.86762" lon="145.41032">
    <ele>258.95</ele>
   </trkpt>
   <trkpt lat="-37.86692" lon="145.41028">
    <ele>254.54000000000005</ele>
   </trkpt>
   <trkpt lat="-37.86681" lon="145.41032">
    <ele>254.16</ele>
   </trkpt>
   <trkpt lat="-37.8667" lon="145.41039">
    <ele>253.82999999999998</ele>
   </trkpt>
   <trkpt lat="-37.866283336833334" lon="145.41103334060918">
    <ele>253.60999999999999</ele>
   </trkpt>
   <trkpt lat="-37.86586667016627" lon="145.41167667394305">
    <ele>252.20000000000002</ele>
   </trkpt>
   <trkpt lat="-37.86545" lon="145.41232000000002">
    <ele>245.93</ele>
   </trkpt>
   <trkpt lat="-37.86495500013366" lon="145.41227999974163">
    <ele>236.96000000000004</ele>
   </trkpt>
   <trkpt lat="-37.86446" lon="145.41224000000003">
    <ele>235.55</ele>
   </trkpt>
   <trkpt lat="-37.863624999999395" lon="145.41221999977336">
    <ele>241.82</ele>
   </trkpt>
   <trkpt lat="-37.862790000000004" lon="145.4122">
    <ele>248.71</ele>
   </trkpt>
   <trkpt lat="-37.86258" lon="145.41225">
    <ele>249.36</ele>
   </trkpt>
   <trkpt lat="-37.86245" lon="145.41232000000002">
    <ele>249.49</ele>
   </trkpt>
   <trkpt lat="-37.86233" lon="145.41233000000003">
    <ele>249.99</ele>
   </trkpt>
   <trkpt lat="-37.86227" lon="145.41221000000002">
    <ele>249.98</ele>
   </trkpt>
   <trkpt lat="-37.86222" lon="145.41205000000002">
    <ele>250.02</ele>
   </trkpt>
   <trkpt lat="-37.86222" lon="145.41188000000002">
    <ele>250.26000000000002</ele>
   </trkpt>
   <trkpt lat="-37.86224" lon="145.41172">
    <ele>250.54000000000005</ele>
   </trkpt>
   <trkpt lat="-37.862370000000006" lon="145.41137">
    <ele>252.26000000000005</ele>
   </trkpt>
   <trkpt lat="-37.862500006348334" lon="145.4105033364172">
    <ele>256.76000000000005</ele>
   </trkpt>
   <trkpt lat="-37.862630006344396" lon="145.4096366697769">
    <ele>266.17</ele>
   </trkpt>
   <trkpt lat="-37.86276" lon="145.40877">
    <ele>273.13000000000005</ele>
   </trkpt>
   <trkpt lat="-37.86276" lon="145.40876">
    <ele>273.01000000000005</ele>
   </trkpt>
   <trkpt lat="-37.86289500977095" lon="145.40788250480415">
    <ele>279.69000000000005</ele>
   </trkpt>
   <trkpt lat="-37.86303001302984" lon="145.40700500639332">
    <ele>285.89000000000004</ele>
   </trkpt>
   <trkpt lat="-37.863165009776594" lon="145.4061275047677">
    <ele>294.78000000000003</ele>
   </trkpt>
   <trkpt lat="-37.8633" lon="145.40525000000002">
    <ele>301.44000000000005</ele>
   </trkpt>
   <trkpt lat="-37.863260000000004" lon="145.40518">
    <ele>301.45000000000005</ele>
   </trkpt>
   <trkpt lat="-37.86261500330524" lon="145.4046699866143">
    <ele>300.26000000000005</ele>
   </trkpt>
   <trkpt lat="-37.86197000441066" lon="145.40415998215556">
    <ele>297.50000000000006</ele>
   </trkpt>
   <trkpt lat="-37.86132500331638" lon="145.40364998662352">
    <ele>297.74</ele>
   </trkpt>
   <trkpt lat="-37.86068" lon="145.40314">
    <ele>298.78000000000003</ele>
   </trkpt>
   <trkpt lat="-37.86061" lon="145.40297">
    <ele>299.17</ele>
   </trkpt>
   <trkpt lat="-37.86059" lon="145.40279">
    <ele>299.71000000000004</ele>
   </trkpt>
   <trkpt lat="-37.86051333939656" lon="145.40194333158126">
    <ele>304.54</ele>
   </trkpt>
   <trkpt lat="-37.86043667273073" lon="145.40109666492378">
    <ele>314.01</ele>
   </trkpt>
   <trkpt lat="-37.86036" lon="145.40025">
    <ele>322.72</ele>
   </trkpt>
   <trkpt lat="-37.86034" lon="145.39987000000002">
    <ele>324.93000000000006</ele>
   </trkpt>
   <trkpt lat="-37.86036" lon="145.39951000000002">
    <ele>328.52000000000004</ele>
   </trkpt>
   <trkpt lat="-37.86041" lon="145.39913">
    <ele>333.92</ele>
   </trkpt>
   <trkpt lat="-37.860555001496394" lon="145.39854000106126">
    <ele>345.44</ele>
   </trkpt>
   <trkpt lat="-37.8607" lon="145.39795">
    <ele>354.00000000000006</ele>
   </trkpt>
   <trkpt lat="-37.86068" lon="145.39766">
    <ele>356.69</ele>
   </trkpt>
   <trkpt lat="-37.86061" lon="145.39764000000002">
    <ele>357.99</ele>
   </trkpt>
   <trkpt lat="-37.860870018583" lon="145.3965920147632">
    <ele>378.81</ele>
   </trkpt>
   <trkpt lat="-37.86113002787776" lon="145.39554402213213">
    <ele>407.2</ele>
   </trkpt>
   <trkpt lat="-37.861390027884134" lon="145.39449602210695">
    <ele>435.38000000000005</ele>
   </trkpt>
   <trkpt lat="-37.861650018601956" lon="145.39344801468772">
    <ele>460.39</ele>
   </trkpt>
   <trkpt lat="-37.86191" lon="145.3924">
    <ele>480.03000000000003</ele>
   </trkpt>
   <trkpt lat="-37.861580000000004" lon="145.3914">
    <ele>493.58</ele>
   </trkpt>
   <trkpt lat="-37.8613900020214" lon="145.39070499813116">
    <ele>501.02000000000004</ele>
   </trkpt>
   <trkpt lat="-37.861200000000004" lon="145.39001000000002">
    <ele>506.63</ele>
   </trkpt>
   <trkpt lat="-37.861090001624156" lon="145.38939499922077">
    <ele>513.6200000000001</ele>
   </trkpt>
   <trkpt lat="-37.860980000000005" lon="145.38878000000003">
    <ele>517.86</ele>
   </trkpt>
   <trkpt lat="-37.86086" lon="145.38804000000002">
    <ele>521.5500000000001</ele>
   </trkpt>
   <trkpt lat="-37.860870000000006" lon="145.3879">
    <ele>520.97</ele>
   </trkpt>
   <trkpt lat="-37.860843339159715" lon="145.38706999940868">
    <ele>516.75</ele>
   </trkpt>
   <trkpt lat="-37.86081667249333" lon="145.38623999941788">
    <ele>509.9600000000001</ele>
   </trkpt>
   <trkpt lat="-37.86079" lon="145.38541">
    <ele>504.84000000000003</ele>
   </trkpt>
   <trkpt lat="-37.860580000000006" lon="145.38432">
    <ele>503.95</ele>
   </trkpt>
   <trkpt lat="-37.860460001716454" lon="145.38367999887507">
    <ele>507.97</ele>
   </trkpt>
   <trkpt lat="-37.86034" lon="145.38304000000002">
    <ele>512.34</ele>
   </trkpt>
   <trkpt lat="-37.86027" lon="145.38273">
    <ele>514.6200000000001</ele>
   </trkpt>
   <trkpt lat="-37.86023" lon="145.38234">
    <ele>515.93</ele>
   </trkpt>
   <trkpt lat="-37.86023" lon="145.38201">
    <ele>516.11</ele>
   </trkpt>
   <trkpt lat="-37.86027" lon="145.38124000000002">
    <ele>517.36</ele>
   </trkpt>
   <trkpt lat="-37.86032" lon="145.38089000000002">
    <ele>518.14</ele>
   </trkpt>
   <trkpt lat="-37.860330000000005" lon="145.38052000000002">
    <ele>519.11</ele>
   </trkpt>
   <trkpt lat="-37.86027" lon="145.38038">
    <ele>520.0600000000001</ele>
   </trkpt>
   <trkpt lat="-37.859935000757986" lon="145.37999499840095">
    <ele>523.76</ele>
   </trkpt>
   <trkpt lat="-37.8596" lon="145.37961">
    <ele>526.11</ele>
   </trkpt>
   <trkpt lat="-37.85918" lon="145.37899000000002">
    <ele>530.86</ele>
   </trkpt>
   <trkpt lat="-37.85884333708155" lon="145.37832666066046">
    <ele>538.76</ele>
   </trkpt>
   <trkpt lat="-37.858506670441926" lon="145.37766332738047">
    <ele>543.84</ele>
   </trkpt>
   <trkpt lat="-37.85817" lon="145.377">
    <ele>549.9300000000001</ele>
   </trkpt>
   <trkpt lat="-37.8579" lon="145.37639000000001">
    <ele>555.82</ele>
   </trkpt>
   <trkpt lat="-37.85743" lon="145.37563">
    <ele>563.71</ele>
   </trkpt>
   <trkpt lat="-37.85714" lon="145.37533000000002">
    <ele>566.5100000000001</ele>
   </trkpt>
   <trkpt lat="-37.85669" lon="145.37504">
    <ele>571.4</ele>
   </trkpt>
   <trkpt lat="-37.856260000000006" lon="145.37480000000002">
    <ele>574.26</ele>
   </trkpt>
   <trkpt lat="-37.856" lon="145.37456">
    <ele>577.01</ele>
   </trkpt>
   <trkpt lat="-37.8556750005453" lon="145.37416499811948">
    <ele>578.8000000000001</ele>
   </trkpt>
   <trkpt lat="-37.85535" lon="145.37377">
    <ele>578.2700000000001</ele>
   </trkpt>
   <trkpt lat="-37.85531" lon="145.37379">
    <ele>578.2700000000001</ele>
   </trkpt>
   <trkpt lat="-37.85521" lon="145.37367">
    <ele>578.19</ele>
   </trkpt>
   <trkpt lat="-37.854845000635606" lon="145.37326999797466">
    <ele>578.44</ele>
   </trkpt>
   <trkpt lat="-37.85448" lon="145.37287">
    <ele>579.2</ele>
   </trkpt>
   <trkpt lat="-37.8543" lon="145.37263000000002">
    <ele>579.37</ele>
   </trkpt>
   <trkpt lat="-37.85414" lon="145.37239000000002">
    <ele>579.76</ele>
   </trkpt>
   <trkpt lat="-37.85405" lon="145.37220000000002">
    <ele>579.84</ele>
   </trkpt>
   <trkpt lat="-37.854020000000006" lon="145.37182">
    <ele>579.4</ele>
   </trkpt>
   <trkpt lat="-37.854020000000006" lon="145.3717">
    <ele>579.22</ele>
   </trkpt>
   <trkpt lat="-37.8541050050113" lon="145.3706100014149">
    <ele>576.6300000000001</ele>
   </trkpt>
   <trkpt lat="-37.85419" lon="145.36952000000002">
    <ele>573.16</ele>
   </trkpt>
   <trkpt lat="-37.85421" lon="145.36937">
    <ele>572.74</ele>
   </trkpt>
   <trkpt lat="-37.85445" lon="145.36905000000002">
    <ele>572.5100000000001</ele>
   </trkpt>
   <trkpt lat="-37.854580000000006" lon="145.36896000000002">
    <ele>572.32</ele>
   </trkpt>
   <trkpt lat="-37.85499" lon="145.36845000000002">
    <ele>572.46</ele>
   </trkpt>
   <trkpt lat="-37.85519" lon="145.36803">
    <ele>573.7500000000001</ele>
   </trkpt>
   <trkpt lat="-37.85536751067608" lon="145.36711250663902">
    <ele>573.59</ele>
   </trkpt>
   <trkpt lat="-37.855545014233364" lon="145.36619500885953">
    <ele>572.76</ele>
   </trkpt>
   <trkpt lat="-37.85572251067177" lon="145.36527750666164">
    <ele>571.03</ele>
   </trkpt>
   <trkpt lat="-37.855900000000005" lon="145.36436">
    <ele>571.2700000000001</ele>
   </trkpt>
   <trkpt lat="-37.85596" lon="145.36437">
    <ele>571.2700000000001</ele>
   </trkpt>
   <trkpt lat="-37.855940000000004" lon="145.36425">
    <ele>571.1800000000001</ele>
   </trkpt>
   <trkpt lat="-37.856010000000005" lon="145.36421">
    <ele>573.44</ele>
   </trkpt>
   <trkpt lat="-37.85596" lon="145.36408">
    <ele>574.4800000000001</ele>
   </trkpt>
   <trkpt lat="-37.856170000000006" lon="145.36298000000002">
    <ele>578.58</ele>
   </trkpt>
   <trkpt lat="-37.85618" lon="145.36296000000002">
    <ele>578.6300000000001</ele>
   </trkpt>
   <trkpt lat="-37.85627" lon="145.36247">
    <ele>581.86</ele>
   </trkpt>
   <trkpt lat="-37.856460000000006" lon="145.36180000000002">
    <ele>587.92</ele>
   </trkpt>
   <trkpt lat="-37.856550000000006" lon="145.36110000000002">
    <ele>596.5100000000001</ele>
   </trkpt>
   <trkpt lat="-37.85663" lon="145.36082000000002">
    <ele>599.14</ele>
   </trkpt>
   <trkpt lat="-37.85665" lon="145.36064000000002">
    <ele>601.1800000000001</ele>
   </trkpt>
   <trkpt lat="-37.85678" lon="145.3599">
    <ele>600.4200000000001</ele>
   </trkpt>
   <trkpt lat="-37.85683" lon="145.35981">
    <ele>599.4</ele>
   </trkpt>
   <trkpt lat="-37.856880000000004" lon="145.35981">
    <ele>599.41</ele>
   </trkpt>
   <trkpt lat="-37.857010002950865" lon="145.35897500145515">
    <ele>589.89</ele>
   </trkpt>
   <trkpt lat="-37.85714" lon="145.35814000000002">
    <ele>579.46</ele>
   </trkpt>
   <trkpt lat="-37.85727" lon="145.35755">
    <ele>575.6300000000001</ele>
   </trkpt>
   <trkpt lat="-37.857490000000006" lon="145.35684">
    <ele>575.47</ele>
   </trkpt>
   <trkpt lat="-37.85757" lon="145.35637">
    <ele>575.0200000000001</ele>
   </trkpt>
   <trkpt lat="-37.857420000000005" lon="145.35594">
    <ele>574.61</ele>
   </trkpt>
   <trkpt lat="-37.85732" lon="145.35585">
    <ele>574.99</ele>
   </trkpt>
   <trkpt lat="-37.85732" lon="145.35579">
    <ele>574.99</ele>
   </trkpt>
   <trkpt lat="-37.85736" lon="145.35574000000003">
    <ele>575.2</ele>
   </trkpt>
   <trkpt lat="-37.8573" lon="145.35565000000003">
    <ele>574.9000000000001</ele>
   </trkpt>
   <trkpt lat="-37.85718" lon="145.35543">
    <ele>571.46</ele>
   </trkpt>
   <trkpt lat="-37.85683" lon="145.35502000000002">
    <ele>562.35</ele>
   </trkpt>
   <trkpt lat="-37.85681" lon="145.35496">
    <ele>560.46</ele>
   </trkpt>
   <trkpt lat="-37.8568" lon="145.35479">
    <ele>557.9000000000001</ele>
   </trkpt>
   <trkpt lat="-37.85685" lon="145.35449">
    <ele>551.06</ele>
   </trkpt>
   <trkpt lat="-37.85703" lon="145.35401000000002">
    <ele>542.32</ele>
   </trkpt>
   <trkpt lat="-37.85703" lon="145.35389">
    <ele>537.2800000000001</ele>
   </trkpt>
   <trkpt lat="-37.85674" lon="145.35330000000002">
    <ele>525.63</ele>
   </trkpt>
   <trkpt lat="-37.856440000884106" lon="145.35284999821042">
    <ele>516.72</ele>
   </trkpt>
   <trkpt lat="-37.85614" lon="145.35240000000002">
    <ele>507.5200000000001</ele>
   </trkpt>
   <trkpt lat="-37.85580500091417" lon="145.35193999793628">
    <ele>498.11000000000007</ele>
   </trkpt>
   <trkpt lat="-37.855470000000004" lon="145.35148">
    <ele>490.95000000000005</ele>
   </trkpt>
   <trkpt lat="-37.85507500121872" lon="145.3509249969086">
    <ele>482.85</ele>
   </trkpt>
   <trkpt lat="-37.85468" lon="145.35037">
    <ele>473.68000000000006</ele>
   </trkpt>
   <trkpt lat="-37.85419" lon="145.34983000000003">
    <ele>459.97</ele>
   </trkpt>
   <trkpt lat="-37.85378" lon="145.34931">
    <ele>451.3</ele>
   </trkpt>
   <trkpt lat="-37.85351" lon="145.34869">
    <ele>442.69</ele>
   </trkpt>
   <trkpt lat="-37.85347" lon="145.34849">
    <ele>441.42</ele>
   </trkpt>
   <trkpt lat="-37.85349" lon="145.34832">
    <ele>441.02000000000004</ele>
   </trkpt>
   <trkpt lat="-37.85329" lon="145.34838000000002">
    <ele>438.09000000000003</ele>
   </trkpt>
   <trkpt lat="-37.85298" lon="145.34869">
    <ele>430.33000000000004</ele>
   </trkpt>
   <trkpt lat="-37.85284" lon="145.34871">
    <ele>425.17</ele>
   </trkpt>
   <trkpt lat="-37.85262" lon="145.34889">
    <ele>420.1</ele>
   </trkpt>
   <trkpt lat="-37.85246" lon="145.34893000000002">
    <ele>411.58000000000004</ele>
   </trkpt>
   <trkpt lat="-37.85195" lon="145.34931">
    <ele>394.75000000000006</ele>
   </trkpt>
   <trkpt lat="-37.85116" lon="145.34979">
    <ele>360.95000000000005</ele>
   </trkpt>
   <trkpt lat="-37.85105" lon="145.34977">
    <ele>360.95000000000005</ele>
   </trkpt>
   <trkpt lat="-37.85098" lon="145.34968">
    <ele>353.84000000000003</ele>
   </trkpt>
   <trkpt lat="-37.8508" lon="145.34936000000002">
    <ele>344.1</ele>
   </trkpt>
   <trkpt lat="-37.8506" lon="145.34881000000001">
    <ele>338.09</ele>
   </trkpt>
   <trkpt lat="-37.85033500134351" lon="145.34822999774286">
    <ele>330.71</ele>
   </trkpt>
   <trkpt lat="-37.85007" lon="145.34765000000002">
    <ele>320.18</ele>
   </trkpt>
   <trkpt lat="-37.84975" lon="145.34712000000002">
    <ele>314.3</ele>
   </trkpt>
   <trkpt lat="-37.84964" lon="145.34674">
    <ele>310.20000000000005</ele>
   </trkpt>
   <trkpt lat="-37.84937" lon="145.34567">
    <ele>302.89000000000004</ele>
   </trkpt>
   <trkpt lat="-37.8491" lon="145.34499000000002">
    <ele>291.27000000000004</ele>
   </trkpt>
   <trkpt lat="-37.84895" lon="145.34452000000002">
    <ele>282.87</ele>
   </trkpt>
   <trkpt lat="-37.84875" lon="145.34361">
    <ele>273.28000000000003</ele>
   </trkpt>
   <trkpt lat="-37.84886" lon="145.34281000000001">
    <ele>271.5</ele>
   </trkpt>
   <trkpt lat="-37.84888" lon="145.34230000000002">
    <ele>269.29</ele>
   </trkpt>
   <trkpt lat="-37.84886" lon="145.34191">
    <ele>267.33</ele>
   </trkpt>
   <trkpt lat="-37.84870000387963" lon="145.3409549980681">
    <ele>264.40000000000003</ele>
   </trkpt>
   <trkpt lat="-37.84854" lon="145.34">
    <ele>262.38</ele>
   </trkpt>
   <trkpt lat="-37.84848" lon="145.33938">
    <ele>261.53000000000003</ele>
   </trkpt>
   <trkpt lat="-37.84832" lon="145.33889000000002">
    <ele>261.08000000000004</ele>
   </trkpt>
   <trkpt lat="-37.8483" lon="145.33871000000002">
    <ele>260.90000000000003</ele>
   </trkpt>
   <trkpt lat="-37.8483" lon="145.33857">
    <ele>260.59000000000003</ele>
   </trkpt>
   <trkpt lat="-37.84839" lon="145.33828000000003">
    <ele>259.72</ele>
   </trkpt>
   <trkpt lat="-37.84843" lon="145.33804">
    <ele>259.49</ele>
   </trkpt>
   <trkpt lat="-37.84839" lon="145.33696">
    <ele>258.01</ele>
   </trkpt>
   <trkpt lat="-37.84841" lon="145.33623">
    <ele>256.67</ele>
   </trkpt>
   <trkpt lat="-37.84836" lon="145.33582">
    <ele>255.82000000000005</ele>
   </trkpt>
   <trkpt lat="-37.84839" lon="145.33564">
    <ele>255.82000000000005</ele>
   </trkpt>
   <trkpt lat="-37.8485" lon="145.33511000000001">
    <ele>254.01000000000002</ele>
   </trkpt>
   <trkpt lat="-37.84852" lon="145.33491">
    <ele>253.43000000000004</ele>
   </trkpt>
   <trkpt lat="-37.84852" lon="145.33427">
    <ele>251.02</ele>
   </trkpt>
   <trkpt lat="-37.84857" lon="145.3339">
    <ele>248.93</ele>
   </trkpt>
   <trkpt lat="-37.84863" lon="145.33362000000002">
    <ele>248.48000000000002</ele>
   </trkpt>
   <trkpt lat="-37.84872" lon="145.33342000000002">
    <ele>247.43</ele>
   </trkpt>
   <trkpt lat="-37.848800000000004" lon="145.33329">
    <ele>247.43</ele>
   </trkpt>
   <trkpt lat="-37.84899" lon="145.33313">
    <ele>245.02</ele>
   </trkpt>
   <trkpt lat="-37.849140000000006" lon="145.33307000000002">
    <ele>245.02</ele>
   </trkpt>
   <trkpt lat="-37.84926" lon="145.33305000000001">
    <ele>243.46</ele>
   </trkpt>
   <trkpt lat="-37.84975" lon="145.33316000000002">
    <ele>241.40000000000003</ele>
   </trkpt>
   <trkpt lat="-37.84989" lon="145.33313">
    <ele>240.25</ele>
   </trkpt>
   <trkpt lat="-37.85004" lon="145.333">
    <ele>238.98000000000002</ele>
   </trkpt>
   <trkpt lat="-37.8502" lon="145.33283">
    <ele>238.1</ele>
   </trkpt>
   <trkpt lat="-37.85036" lon="145.33271000000002">
    <ele>235.86</ele>
   </trkpt>
   <trkpt lat="-37.850860000000004" lon="145.33241">
    <ele>238.75</ele>
   </trkpt>
   <trkpt lat="-37.85085" lon="145.33266">
    <ele>242.32</ele>
   </trkpt>
   <trkpt lat="-37.85076" lon="145.33294">
    <ele>248.85000000000002</ele>
   </trkpt>
   <trkpt lat="-37.8508" lon="145.33325000000002">
    <ele>254.01000000000002</ele>
   </trkpt>
   <trkpt lat="-37.85078" lon="145.33346">
    <ele>258.38</ele>
   </trkpt>
   <trkpt lat="-37.85064500158185" lon="145.33407000107826">
    <ele>269.03000000000003</ele>
   </trkpt>
   <trkpt lat="-37.85051" lon="145.33468000000002">
    <ele>280.39000000000004</ele>
   </trkpt>
   <trkpt lat="-37.85051" lon="145.33530000000002">
    <ele>293.97</ele>
   </trkpt>
   <trkpt lat="-37.85063" lon="145.33599">
    <ele>308.96</ele>
   </trkpt>
   <trkpt lat="-37.85067" lon="145.33617">
    <ele>311.14000000000004</ele>
   </trkpt>
   <trkpt lat="-37.85074" lon="145.33634">
    <ele>312.71999999999997</ele>
   </trkpt>
   <trkpt lat="-37.85103" lon="145.33685">
    <ele>317.41</ele>
   </trkpt>
   <trkpt lat="-37.851110000000006" lon="145.33723">
    <ele>320.93000000000006</ele>
   </trkpt>
   <trkpt lat="-37.85105" lon="145.33794">
    <ele>333.56</ele>
   </trkpt>
   <trkpt lat="-37.85112" lon="145.33867">
    <ele>344.47</ele>
   </trkpt>
   <trkpt lat="-37.85112" lon="145.33899000000002">
    <ele>349.17</ele>
   </trkpt>
   <trkpt lat="-37.85121" lon="145.33961000000002">
    <ele>354.15000000000003</ele>
   </trkpt>
   <trkpt lat="-37.851290000000006" lon="145.34002">
    <ele>361.54</ele>
   </trkpt>
   <trkpt lat="-37.8513" lon="145.34011">
    <ele>363.27000000000004</ele>
   </trkpt>
   <trkpt lat="-37.85132" lon="145.34087000000002">
    <ele>369.83000000000004</ele>
   </trkpt>
   <trkpt lat="-37.85143" lon="145.34191">
    <ele>379.61000000000007</ele>
   </trkpt>
   <trkpt lat="-37.85143" lon="145.34219000000002">
    <ele>383.3</ele>
   </trkpt>
   <trkpt lat="-37.8515" lon="145.34263">
    <ele>389.16</ele>
   </trkpt>
   <trkpt lat="-37.85154" lon="145.34304">
    <ele>396.01000000000005</ele>
   </trkpt>
   <trkpt lat="-37.8519" lon="145.34376">
    <ele>414.28000000000003</ele>
   </trkpt>
   <trkpt lat="-37.8519" lon="145.34390000000002">
    <ele>414.36000000000007</ele>
   </trkpt>
   <trkpt lat="-37.85204" lon="145.34384">
    <ele>412.73</ele>
   </trkpt>
   <trkpt lat="-37.85222" lon="145.34380000000002">
    <ele>412.73</ele>
   </trkpt>
   <trkpt lat="-37.85298" lon="145.34393">
    <ele>406.41</ele>
   </trkpt>
   <trkpt lat="-37.85327" lon="145.34393">
    <ele>404.96000000000004</ele>
   </trkpt>
   <trkpt lat="-37.85351" lon="145.34397">
    <ele>403.15</ele>
   </trkpt>
   <trkpt lat="-37.85385" lon="145.34415">
    <ele>401.06</ele>
   </trkpt>
   <trkpt lat="-37.85398" lon="145.34425000000002">
    <ele>400.27</ele>
   </trkpt>
   <trkpt lat="-37.85427" lon="145.34456">
    <ele>397.33</ele>
   </trkpt>
   <trkpt lat="-37.85477" lon="145.34543000000002">
    <ele>391.19000000000005</ele>
   </trkpt>
   <trkpt lat="-37.85506" lon="145.34585">
    <ele>387.88000000000005</ele>
   </trkpt>
   <trkpt lat="-37.85515" lon="145.34602">
    <ele>387.88000000000005</ele>
   </trkpt>
   <trkpt lat="-37.85533" lon="145.34641000000002">
    <ele>384.70000000000005</ele>
   </trkpt>
   <trkpt lat="-37.85553" lon="145.34717">
    <ele>381.22</ele>
   </trkpt>
   <trkpt lat="-37.855610000000006" lon="145.34733">
    <ele>380.26000000000005</ele>
   </trkpt>
   <trkpt lat="-37.85573" lon="145.34750000000003">
    <ele>379.36</ele>
   </trkpt>
   <trkpt lat="-37.85593" lon="145.34765000000002">
    <ele>376.52000000000004</ele>
   </trkpt>
   <trkpt lat="-37.85624" lon="145.34786000000003">
    <ele>374.34</ele>
   </trkpt>
   <trkpt lat="-37.8566" lon="145.34804000000003">
    <ele>370.79</ele>
   </trkpt>
   <trkpt lat="-37.85689" lon="145.34812000000002">
    <ele>370.79</ele>
   </trkpt>
   <trkpt lat="-37.85718" lon="145.34816">
    <ele>369.37</ele>
   </trkpt>
   <trkpt lat="-37.85734" lon="145.34816">
    <ele>367.47</ele>
   </trkpt>
   <trkpt lat="-37.85741" lon="145.34814">
    <ele>367.47</ele>
   </trkpt>
   <trkpt lat="-37.85788" lon="145.34788">
    <ele>364.01000000000005</ele>
   </trkpt>
   <trkpt lat="-37.8586" lon="145.34761">
    <ele>358.55</ele>
   </trkpt>
   <trkpt lat="-37.85918" lon="145.3476">
    <ele>353.83000000000004</ele>
   </trkpt>
   <trkpt lat="-37.85931" lon="145.34758000000002">
    <ele>352.3</ele>
   </trkpt>
   <trkpt lat="-37.859370000000006" lon="145.34754">
    <ele>352.3</ele>
   </trkpt>
   <trkpt lat="-37.85942" lon="145.34772">
    <ele>356.66</ele>
   </trkpt>
   <trkpt lat="-37.859500000000004" lon="145.34782">
    <ele>365.61</ele>
   </trkpt>
   <trkpt lat="-37.86027" lon="145.34776000000002">
    <ele>373.31</ele>
   </trkpt>
   <trkpt lat="-37.86032" lon="145.34775000000002">
    <ele>375.01</ele>
   </trkpt>
   <trkpt lat="-37.86068" lon="145.34759000000003">
    <ele>379.48</ele>
   </trkpt>
   <trkpt lat="-37.86097" lon="145.34757000000002">
    <ele>385.69</ele>
   </trkpt>
   <trkpt lat="-37.86101" lon="145.34763">
    <ele>386.33</ele>
   </trkpt>
   <trkpt lat="-37.86101" lon="145.34771">
    <ele>387.38000000000005</ele>
   </trkpt>
   <trkpt lat="-37.86097" lon="145.34788">
    <ele>388.23</ele>
   </trkpt>
   <trkpt lat="-37.86097" lon="145.34804000000003">
    <ele>389.85</ele>
   </trkpt>
   <trkpt lat="-37.86104" lon="145.34814">
    <ele>390.94</ele>
   </trkpt>
   <trkpt lat="-37.86112" lon="145.34822">
    <ele>392.32000000000005</ele>
   </trkpt>
   <trkpt lat="-37.86121" lon="145.34824">
    <ele>394.71</ele>
   </trkpt>
   <trkpt lat="-37.86128" lon="145.34822">
    <ele>395.48</ele>
   </trkpt>
   <trkpt lat="-37.86159" lon="145.34802000000002">
    <ele>399.0</ele>
   </trkpt>
   <trkpt lat="-37.86164" lon="145.34794000000002">
    <ele>399.22</ele>
   </trkpt>
   <trkpt lat="-37.86168" lon="145.34779">
    <ele>400.14000000000004</ele>
   </trkpt>
   <trkpt lat="-37.86162" lon="145.34753">
    <ele>401.90000000000003</ele>
   </trkpt>
   <trkpt lat="-37.86162" lon="145.34737">
    <ele>403.0</ele>
   </trkpt>
   <trkpt lat="-37.861790000000006" lon="145.34698">
    <ele>407.86000000000007</ele>
   </trkpt>
   <trkpt lat="-37.86186" lon="145.34747000000002">
    <ele>407.84000000000003</ele>
   </trkpt>
   <trkpt lat="-37.862115001274674" lon="145.34800999821977">
    <ele>407.30000000000007</ele>
   </trkpt>
   <trkpt lat="-37.862370000000006" lon="145.34855000000002">
    <ele>411.96000000000004</ele>
   </trkpt>
   <trkpt lat="-37.86238" lon="145.34883000000002">
    <ele>414.46000000000004</ele>
   </trkpt>
   <trkpt lat="-37.86236" lon="145.34893000000002">
    <ele>415.67</ele>
   </trkpt>
   <trkpt lat="-37.86224" lon="145.34912">
    <ele>418.61</ele>
   </trkpt>
   <trkpt lat="-37.861790000000006" lon="145.34964000000002">
    <ele>428.13</ele>
   </trkpt>
   <trkpt lat="-37.86178" lon="145.34966">
    <ele>428.54</ele>
   </trkpt>
   <trkpt lat="-37.86166" lon="145.34982000000002">
    <ele>431.57</ele>
   </trkpt>
   <trkpt lat="-37.86135" lon="145.35045000000002">
    <ele>439.1700000000001</ele>
   </trkpt>
   <trkpt lat="-37.86115" lon="145.3511">
    <ele>446.57</ele>
   </trkpt>
   <trkpt lat="-37.861050000000006" lon="145.35133000000002">
    <ele>449.22</ele>
   </trkpt>
   <trkpt lat="-37.860960000000006" lon="145.35146">
    <ele>450.68</ele>
   </trkpt>
   <trkpt lat="-37.860490000000006" lon="145.35181">
    <ele>460.70000000000005</ele>
   </trkpt>
   <trkpt lat="-37.86023" lon="145.35196000000002">
    <ele>464.77</ele>
   </trkpt>
   <trkpt lat="-37.85994" lon="145.35221">
    <ele>469.62</ele>
   </trkpt>
   <trkpt lat="-37.8596" lon="145.35241000000002">
    <ele>473.79</ele>
   </trkpt>
   <trkpt lat="-37.85945" lon="145.35244">
    <ele>477.07000000000005</ele>
   </trkpt>
   <trkpt lat="-37.85938" lon="145.35266000000001">
    <ele>486.80000000000007</ele>
   </trkpt>
   <trkpt lat="-37.85929" lon="145.35279">
    <ele>486.80000000000007</ele>
   </trkpt>
   <trkpt lat="-37.85927" lon="145.35287000000002">
    <ele>489.94000000000005</ele>
   </trkpt>
   <trkpt lat="-37.85931" lon="145.35311000000002">
    <ele>496.58</ele>
   </trkpt>
   <trkpt lat="-37.85938" lon="145.35323000000002">
    <ele>498.46</ele>
   </trkpt>
   <trkpt lat="-37.85956" lon="145.35346">
    <ele>502.6400000000001</ele>
   </trkpt>
   <trkpt lat="-37.859930000000006" lon="145.35424">
    <ele>513.5300000000001</ele>
   </trkpt>
   <trkpt lat="-37.86016" lon="145.35452">
    <ele>513.49</ele>
   </trkpt>
   <trkpt lat="-37.86043" lon="145.35510000000002">
    <ele>512.11</ele>
   </trkpt>
   <trkpt lat="-37.860600000000005" lon="145.35546000000002">
    <ele>507.36</ele>
   </trkpt>
   <trkpt lat="-37.86061" lon="145.35558">
    <ele>504.95</ele>
   </trkpt>
   <trkpt lat="-37.86059" lon="145.35571000000002">
    <ele>498.72</ele>
   </trkpt>
   <trkpt lat="-37.86059" lon="145.35592000000003">
    <ele>495.13</ele>
   </trkpt>
   <trkpt lat="-37.860640000000004" lon="145.35598000000002">
    <ele>495.13</ele>
   </trkpt>
   <trkpt lat="-37.860760000000006" lon="145.35601">
    <ele>494.40000000000003</ele>
   </trkpt>
   <trkpt lat="-37.86079" lon="145.35572000000002">
    <ele>493.62000000000006</ele>
   </trkpt>
   <trkpt lat="-37.86086" lon="145.35562000000002">
    <ele>493.62000000000006</ele>
   </trkpt>
   <trkpt lat="-37.86108" lon="145.35531">
    <ele>492.01000000000005</ele>
   </trkpt>
   <trkpt lat="-37.86164" lon="145.3547">
    <ele>488.01000000000005</ele>
   </trkpt>
   <trkpt lat="-37.861940000000004" lon="145.3544">
    <ele>485.51000000000005</ele>
   </trkpt>
   <trkpt lat="-37.86195" lon="145.3544">
    <ele>485.40000000000003</ele>
   </trkpt>
   <trkpt lat="-37.86229" lon="145.35409">
    <ele>482.64</ele>
   </trkpt>
   <trkpt lat="-37.862860000000005" lon="145.35369">
    <ele>480.95000000000005</ele>
   </trkpt>
   <trkpt lat="-37.862820000000006" lon="145.3536">
    <ele>480.86000000000007</ele>
   </trkpt>
   <trkpt lat="-37.862350000000006" lon="145.35395000000003">
    <ele>482.73</ele>
   </trkpt>
  </trkseg>
 </trk>
</gpx>
