<?xml version="1.0" encoding="UTF-8"?>
<gpx creator="StravaGPX" version="1.1" xmlns="http://www.topografix.com/GPX/1/1" xmlns:xsi="http://www.w3.org/2001/XMLSchema-instance" xsi:schemaLocation="http://www.topografix.com/GPX/1/1 http://www.topografix.com/GPX/1/1/gpx.xsd">
 <metadata>
  <name>DTR Aug 16 20k</name>
  <author>
   <name>Richard Jones</name>
   <link href="https://www.strava.com/athletes/38085969"/>
  </author>
  <copyright author="OpenStreetMap contributors">
   <year>2020</year>
   <license>https://www.openstreetmap.org/copyright</license>
  </copyright>
  <link href="https://www.strava.com/routes/3523227882293594822"/>
 </metadata>
 <trk>
  <name>DTR Aug 16 20k</name>
  <link href="https://www.strava.com/routes/3523227882293594822"/>
  <type>running</type>
  <trkseg>
   <trkpt lat="-37.852120000000006" lon="145.36813">
    <ele>577.91</ele>
   </trkpt>
   <trkpt lat="-37.85215" lon="145.3683">
    <ele>569.9300000000001</ele>
   </trkpt>
   <trkpt lat="-37.85228" lon="145.36824000000001">
    <ele>570.76</ele>
   </trkpt>
   <trkpt lat="-37.85264" lon="145.36819">
    <ele>574.3900000000001</ele>
   </trkpt>
   <trkpt lat="-37.85295" lon="145.36823">
    <ele>577.37</ele>
   </trkpt>
   <trkpt lat="-37.85314" lon="145.36833000000001">
    <ele>578.2900000000001</ele>
   </trkpt>
   <trkpt lat="-37.853660000000005" lon="145.36857">
    <ele>579.0000000000001</ele>
   </trkpt>
   <trkpt lat="-37.85409000000001" lon="145.36882">
    <ele>576.23</ele>
   </trkpt>
   <trkpt lat="-37.85441" lon="145.36911">
    <ele>572.5100000000001</ele>
   </trkpt>
   <trkpt lat="-37.85421" lon="145.36937">
    <ele>573.16</ele>
   </trkpt>
   <trkpt lat="-37.85412500393108" lon="145.37033500118534">
    <ele>575.79</ele>
   </trkpt>
   <trkpt lat="-37.854040000000005" lon="145.37130000000002">
    <ele>578.9200000000001</ele>
   </trkpt>
   <trkpt lat="-37.854020000000006" lon="145.37182">
    <ele>579.4</ele>
   </trkpt>
   <trkpt lat="-37.85405" lon="145.37220000000002">
    <ele>579.84</ele>
   </trkpt>
   <trkpt lat="-37.85414" lon="145.37239000000002">
    <ele>579.48</ele>
   </trkpt>
   <trkpt lat="-37.8543" lon="145.37263000000002">
    <ele>579.37</ele>
   </trkpt>
   <trkpt lat="-37.85448" lon="145.37287">
    <ele>579.0500000000001</ele>
   </trkpt>
   <trkpt lat="-37.85484500071746" lon="145.3732699980644">
    <ele>578.44</ele>
   </trkpt>
   <trkpt lat="-37.85521" lon="145.37367">
    <ele>578.19</ele>
   </trkpt>
   <trkpt lat="-37.85531" lon="145.37379">
    <ele>578.2700000000001</ele>
   </trkpt>
   <trkpt lat="-37.85535" lon="145.37377">
    <ele>578.22</ele>
   </trkpt>
   <trkpt lat="-37.85567500077416" lon="145.37416499839765">
    <ele>578.76</ele>
   </trkpt>
   <trkpt lat="-37.856" lon="145.37456">
    <ele>577.01</ele>
   </trkpt>
   <trkpt lat="-37.856260000000006" lon="145.37480000000002">
    <ele>574.26</ele>
   </trkpt>
   <trkpt lat="-37.85669" lon="145.37504">
    <ele>569.84</ele>
   </trkpt>
   <trkpt lat="-37.85714" lon="145.37533000000002">
    <ele>566.5100000000001</ele>
   </trkpt>
   <trkpt lat="-37.85743" lon="145.37563">
    <ele>563.71</ele>
   </trkpt>
   <trkpt lat="-37.8579" lon="145.37639000000001">
    <ele>555.82</ele>
   </trkpt>
   <trkpt lat="-37.85817" lon="145.377">
    <ele>548.96</ele>
   </trkpt>
   <trkpt lat="-37.858506670360725" lon="145.3776633272205">
    <ele>543.84</ele>
   </trkpt>
   <trkpt lat="-37.85884333700035" lon="145.37832666050045">
    <ele>537.6899999999999</ele>
   </trkpt>
   <trkpt lat="-37.85918" lon="145.37899000000002">
    <ele>530.86</ele>
   </trkpt>
   <trkpt lat="-37.8596" lon="145.37961">
    <ele>526.11</ele>
   </trkpt>
   <trkpt lat="-37.859935000495554" lon="145.3799949980994">
    <ele>523.11</ele>
   </trkpt>
   <trkpt lat="-37.86027" lon="145.38038">
    <ele>520.0600000000001</ele>
   </trkpt>
   <trkpt lat="-37.860330000000005" lon="145.38052000000002">
    <ele>519.11</ele>
   </trkpt>
   <trkpt lat="-37.86032" lon="145.38089000000002">
    <ele>517.98</ele>
   </trkpt>
   <trkpt lat="-37.86027" lon="145.38124000000002">
    <ele>517.3000000000001</ele>
   </trkpt>
   <trkpt lat="-37.86021" lon="145.38127">
    <ele>517.3000000000001</ele>
   </trkpt>
   <trkpt lat="-37.86007" lon="145.38119">
    <ele>519.6700000000001</ele>
   </trkpt>
   <trkpt lat="-37.860020000000006" lon="145.38135000000003">
    <ele>519.93</ele>
   </trkpt>
   <trkpt lat="-37.85998" lon="145.38159000000002">
    <ele>519.5600000000001</ele>
   </trkpt>
   <trkpt lat="-37.859930000000006" lon="145.38259000000002">
    <ele>518.14</ele>
   </trkpt>
   <trkpt lat="-37.85983" lon="145.38273">
    <ele>515.23</ele>
   </trkpt>
   <trkpt lat="-37.859770000000005" lon="145.38287000000003">
    <ele>513.94</ele>
   </trkpt>
   <trkpt lat="-37.8598" lon="145.38292">
    <ele>512.8600000000001</ele>
   </trkpt>
   <trkpt lat="-37.85987" lon="145.38334">
    <ele>510.2</ele>
   </trkpt>
   <trkpt lat="-37.859790000000004" lon="145.38394000000002">
    <ele>506.26000000000005</ele>
   </trkpt>
   <trkpt lat="-37.859790000000004" lon="145.38392000000002">
    <ele>506.3500000000001</ele>
   </trkpt>
   <trkpt lat="-37.85974" lon="145.38416">
    <ele>504.94000000000005</ele>
   </trkpt>
   <trkpt lat="-37.85974" lon="145.38429000000002">
    <ele>503.49</ele>
   </trkpt>
   <trkpt lat="-37.85971" lon="145.38439000000002">
    <ele>502.92</ele>
   </trkpt>
   <trkpt lat="-37.85965" lon="145.38445000000002">
    <ele>501.65000000000003</ele>
   </trkpt>
   <trkpt lat="-37.8594" lon="145.38458">
    <ele>496.3</ele>
   </trkpt>
   <trkpt lat="-37.85927" lon="145.38478">
    <ele>492.71000000000004</ele>
   </trkpt>
   <trkpt lat="-37.85924" lon="145.38524">
    <ele>487.65000000000003</ele>
   </trkpt>
   <trkpt lat="-37.8592" lon="145.3854">
    <ele>484.4700000000001</ele>
   </trkpt>
   <trkpt lat="-37.85891" lon="145.38586">
    <ele>476.15000000000003</ele>
   </trkpt>
   <trkpt lat="-37.85871" lon="145.38611">
    <ele>472.99</ele>
   </trkpt>
   <trkpt lat="-37.8586" lon="145.3862">
    <ele>472.03000000000003</ele>
   </trkpt>
   <trkpt lat="-37.85839" lon="145.38625000000002">
    <ele>468.44</ele>
   </trkpt>
   <trkpt lat="-37.85821" lon="145.38625000000002">
    <ele>463.22</ele>
   </trkpt>
   <trkpt lat="-37.85817" lon="145.38619">
    <ele>463.22</ele>
   </trkpt>
   <trkpt lat="-37.85821" lon="145.38609000000002">
    <ele>461.24</ele>
   </trkpt>
   <trkpt lat="-37.85821" lon="145.38587">
    <ele>456.62</ele>
   </trkpt>
   <trkpt lat="-37.85815" lon="145.38567">
    <ele>453.70000000000005</ele>
   </trkpt>
   <trkpt lat="-37.858050000000006" lon="145.38551">
    <ele>450.45</ele>
   </trkpt>
   <trkpt lat="-37.85797" lon="145.38532">
    <ele>449.0</ele>
   </trkpt>
   <trkpt lat="-37.8575" lon="145.38472000000002">
    <ele>445.94000000000005</ele>
   </trkpt>
   <trkpt lat="-37.85741" lon="145.38446000000002">
    <ele>444.69</ele>
   </trkpt>
   <trkpt lat="-37.85739" lon="145.38424">
    <ele>444.33000000000004</ele>
   </trkpt>
   <trkpt lat="-37.85739" lon="145.38403000000002">
    <ele>443.01</ele>
   </trkpt>
   <trkpt lat="-37.8575" lon="145.38337">
    <ele>441.15000000000003</ele>
   </trkpt>
   <trkpt lat="-37.85752" lon="145.38283">
    <ele>439.99000000000007</ele>
   </trkpt>
   <trkpt lat="-37.85752" lon="145.38266000000002">
    <ele>439.73</ele>
   </trkpt>
   <trkpt lat="-37.857510000000005" lon="145.38266000000002">
    <ele>439.74</ele>
   </trkpt>
   <trkpt lat="-37.8575" lon="145.38250000000002">
    <ele>439.34</ele>
   </trkpt>
   <trkpt lat="-37.857440000000004" lon="145.38230000000001">
    <ele>439.1</ele>
   </trkpt>
   <trkpt lat="-37.857060000000004" lon="145.38233000000002">
    <ele>430.43</ele>
   </trkpt>
   <trkpt lat="-37.85674" lon="145.38225">
    <ele>423.25</ele>
   </trkpt>
   <trkpt lat="-37.85665" lon="145.38232000000002">
    <ele>421.00000000000006</ele>
   </trkpt>
   <trkpt lat="-37.8566" lon="145.38243">
    <ele>418.83000000000004</ele>
   </trkpt>
   <trkpt lat="-37.85667" lon="145.38279">
    <ele>413.67</ele>
   </trkpt>
   <trkpt lat="-37.85663" lon="145.38306">
    <ele>409.79</ele>
   </trkpt>
   <trkpt lat="-37.85654" lon="145.38322000000002">
    <ele>408.4200000000001</ele>
   </trkpt>
   <trkpt lat="-37.85638" lon="145.38374000000002">
    <ele>409.88</ele>
   </trkpt>
   <trkpt lat="-37.85636" lon="145.38406">
    <ele>412.82</ele>
   </trkpt>
   <trkpt lat="-37.85636" lon="145.38443">
    <ele>415.34000000000003</ele>
   </trkpt>
   <trkpt lat="-37.85642" lon="145.38466000000003">
    <ele>416.94</ele>
   </trkpt>
   <trkpt lat="-37.85651" lon="145.38478">
    <ele>419.50000000000006</ele>
   </trkpt>
   <trkpt lat="-37.85705" lon="145.38525">
    <ele>424.45000000000005</ele>
   </trkpt>
   <trkpt lat="-37.85712" lon="145.38534">
    <ele>425.2</ele>
   </trkpt>
   <trkpt lat="-37.85712" lon="145.38546000000002">
    <ele>426.09000000000003</ele>
   </trkpt>
   <trkpt lat="-37.85694" lon="145.38588000000001">
    <ele>429.62000000000006</ele>
   </trkpt>
   <trkpt lat="-37.85667" lon="145.38628">
    <ele>432.93</ele>
   </trkpt>
   <trkpt lat="-37.85656" lon="145.38636000000002">
    <ele>432.41</ele>
   </trkpt>
   <trkpt lat="-37.85645" lon="145.38638">
    <ele>431.71000000000004</ele>
   </trkpt>
   <trkpt lat="-37.85618" lon="145.38636000000002">
    <ele>428.39000000000004</ele>
   </trkpt>
   <trkpt lat="-37.85604" lon="145.38625000000002">
    <ele>424.37</ele>
   </trkpt>
   <trkpt lat="-37.856" lon="145.38617000000002">
    <ele>423.58</ele>
   </trkpt>
   <trkpt lat="-37.85587" lon="145.38612">
    <ele>422.38000000000005</ele>
   </trkpt>
   <trkpt lat="-37.855700000000006" lon="145.38612">
    <ele>422.26</ele>
   </trkpt>
   <trkpt lat="-37.855610000000006" lon="145.3861">
    <ele>422.65000000000003</ele>
   </trkpt>
   <trkpt lat="-37.85546" lon="145.38602">
    <ele>421.14</ele>
   </trkpt>
   <trkpt lat="-37.85501" lon="145.38577">
    <ele>414.35</ele>
   </trkpt>
   <trkpt lat="-37.854490000000006" lon="145.38562000000002">
    <ele>403.56</ele>
   </trkpt>
   <trkpt lat="-37.85396" lon="145.38551">
    <ele>389.78000000000003</ele>
   </trkpt>
   <trkpt lat="-37.85309" lon="145.38565">
    <ele>375.67</ele>
   </trkpt>
   <trkpt lat="-37.85275" lon="145.38578">
    <ele>368.74</ele>
   </trkpt>
   <trkpt lat="-37.85233" lon="145.38585">
    <ele>361.19</ele>
   </trkpt>
   <trkpt lat="-37.8519" lon="145.38586">
    <ele>356.69</ele>
   </trkpt>
   <trkpt lat="-37.85128" lon="145.38569">
    <ele>345.30000000000007</ele>
   </trkpt>
   <trkpt lat="-37.85116" lon="145.38566">
    <ele>343.6</ele>
   </trkpt>
   <trkpt lat="-37.85101" lon="145.38559">
    <ele>341.71</ele>
   </trkpt>
   <trkpt lat="-37.850460000000005" lon="145.38531">
    <ele>331.06</ele>
   </trkpt>
   <trkpt lat="-37.84995" lon="145.38541">
    <ele>325.27</ele>
   </trkpt>
   <trkpt lat="-37.849500000000006" lon="145.38575">
    <ele>319.20000000000005</ele>
   </trkpt>
   <trkpt lat="-37.8498" lon="145.38495">
    <ele>315.61</ele>
   </trkpt>
   <trkpt lat="-37.84962" lon="145.38474000000002">
    <ele>314.05000000000007</ele>
   </trkpt>
   <trkpt lat="-37.84946" lon="145.38481000000002">
    <ele>312.9</ele>
   </trkpt>
   <trkpt lat="-37.84924" lon="145.38505">
    <ele>310.95</ele>
   </trkpt>
   <trkpt lat="-37.84908" lon="145.38527000000002">
    <ele>307.32000000000005</ele>
   </trkpt>
   <trkpt lat="-37.84886" lon="145.3855">
    <ele>306.13</ele>
   </trkpt>
   <trkpt lat="-37.84841" lon="145.38582000000002">
    <ele>301.64</ele>
   </trkpt>
   <trkpt lat="-37.84821" lon="145.38600000000002">
    <ele>298.17</ele>
   </trkpt>
   <trkpt lat="-37.84803" lon="145.38611">
    <ele>297.02</ele>
   </trkpt>
   <trkpt lat="-37.84774" lon="145.38622">
    <ele>295.73</ele>
   </trkpt>
   <trkpt lat="-37.84749" lon="145.38625000000002">
    <ele>295.01000000000005</ele>
   </trkpt>
   <trkpt lat="-37.84727" lon="145.38623">
    <ele>295.24</ele>
   </trkpt>
   <trkpt lat="-37.84655" lon="145.38557">
    <ele>302.31</ele>
   </trkpt>
   <trkpt lat="-37.84628" lon="145.3854">
    <ele>305.88000000000005</ele>
   </trkpt>
   <trkpt lat="-37.84601" lon="145.38532">
    <ele>309.70000000000005</ele>
   </trkpt>
   <trkpt lat="-37.84568" lon="145.38528000000002">
    <ele>315.31</ele>
   </trkpt>
   <trkpt lat="-37.84521" lon="145.38525">
    <ele>320.32000000000005</ele>
   </trkpt>
   <trkpt lat="-37.8451" lon="145.38520000000003">
    <ele>321.01</ele>
   </trkpt>
   <trkpt lat="-37.84512" lon="145.38515">
    <ele>321.01</ele>
   </trkpt>
   <trkpt lat="-37.845040000000004" lon="145.38504">
    <ele>321.32000000000005</ele>
   </trkpt>
   <trkpt lat="-37.84528" lon="145.38482000000002">
    <ele>323.05</ele>
   </trkpt>
   <trkpt lat="-37.84557" lon="145.38465000000002">
    <ele>323.94</ele>
   </trkpt>
   <trkpt lat="-37.84566" lon="145.38462">
    <ele>323.81000000000006</ele>
   </trkpt>
   <trkpt lat="-37.84608" lon="145.38455000000002">
    <ele>321.86</ele>
   </trkpt>
   <trkpt lat="-37.84637" lon="145.38448000000002">
    <ele>319.11</ele>
   </trkpt>
   <trkpt lat="-37.84684" lon="145.38444">
    <ele>317.68</ele>
   </trkpt>
   <trkpt lat="-37.847060000000006" lon="145.3844">
    <ele>318.5</ele>
   </trkpt>
   <trkpt lat="-37.847170000000006" lon="145.38441">
    <ele>319.40000000000003</ele>
   </trkpt>
   <trkpt lat="-37.84758" lon="145.38437000000002">
    <ele>323.54</ele>
   </trkpt>
   <trkpt lat="-37.84796" lon="145.38426">
    <ele>328.24</ele>
   </trkpt>
   <trkpt lat="-37.84836" lon="145.38422">
    <ele>333.25000000000006</ele>
   </trkpt>
   <trkpt lat="-37.84848" lon="145.38417">
    <ele>334.33</ele>
   </trkpt>
   <trkpt lat="-37.8487" lon="145.38395">
    <ele>337.89000000000004</ele>
   </trkpt>
   <trkpt lat="-37.84877" lon="145.38364">
    <ele>341.78000000000003</ele>
   </trkpt>
   <trkpt lat="-37.84879" lon="145.38334">
    <ele>343.76</ele>
   </trkpt>
   <trkpt lat="-37.848730001359534" lon="145.38276999940166">
    <ele>351.32</ele>
   </trkpt>
   <trkpt lat="-37.848670000000006" lon="145.3822">
    <ele>362.67</ele>
   </trkpt>
   <trkpt lat="-37.84861" lon="145.38208">
    <ele>363.55</ele>
   </trkpt>
   <trkpt lat="-37.84852" lon="145.38196000000002">
    <ele>365.76000000000005</ele>
   </trkpt>
   <trkpt lat="-37.848290000000006" lon="145.38188000000002">
    <ele>368.16</ele>
   </trkpt>
   <trkpt lat="-37.84807" lon="145.38186000000002">
    <ele>370.22</ele>
   </trkpt>
   <trkpt lat="-37.84776" lon="145.3819">
    <ele>372.65000000000003</ele>
   </trkpt>
   <trkpt lat="-37.8476" lon="145.38195000000002">
    <ele>373.66</ele>
   </trkpt>
   <trkpt lat="-37.8474" lon="145.38206000000002">
    <ele>376.91</ele>
   </trkpt>
   <trkpt lat="-37.84707" lon="145.38217">
    <ele>380.94000000000005</ele>
   </trkpt>
   <trkpt lat="-37.847080000000005" lon="145.38217">
    <ele>380.82000000000005</ele>
   </trkpt>
   <trkpt lat="-37.84702" lon="145.38219">
    <ele>381.78</ele>
   </trkpt>
   <trkpt lat="-37.8468" lon="145.38217">
    <ele>384.17</ele>
   </trkpt>
   <trkpt lat="-37.846700000000006" lon="145.38214000000002">
    <ele>386.45</ele>
   </trkpt>
   <trkpt lat="-37.84642" lon="145.3819">
    <ele>390.95</ele>
   </trkpt>
   <trkpt lat="-37.84619" lon="145.38119">
    <ele>404.38</ele>
   </trkpt>
   <trkpt lat="-37.84611000555022" lon="145.38037999826554">
    <ele>420.31</ele>
   </trkpt>
   <trkpt lat="-37.8460300055525" lon="145.3795699982885">
    <ele>431.45000000000005</ele>
   </trkpt>
   <trkpt lat="-37.84595" lon="145.37876">
    <ele>440.15000000000003</ele>
   </trkpt>
   <trkpt lat="-37.84575" lon="145.37785000000002">
    <ele>449.36</ele>
   </trkpt>
   <trkpt lat="-37.84575" lon="145.37768">
    <ele>451.31000000000006</ele>
   </trkpt>
   <trkpt lat="-37.84582" lon="145.37730000000002">
    <ele>455.76000000000005</ele>
   </trkpt>
   <trkpt lat="-37.84523" lon="145.37737">
    <ele>441.90000000000003</ele>
   </trkpt>
   <trkpt lat="-37.844930000000005" lon="145.37729000000002">
    <ele>436.35</ele>
   </trkpt>
   <trkpt lat="-37.84431" lon="145.37730000000002">
    <ele>426.47</ele>
   </trkpt>
   <trkpt lat="-37.84384" lon="145.37723000000003">
    <ele>415.64</ele>
   </trkpt>
   <trkpt lat="-37.8436" lon="145.37728">
    <ele>407.65</ele>
   </trkpt>
   <trkpt lat="-37.84346" lon="145.37734">
    <ele>407.65</ele>
   </trkpt>
   <trkpt lat="-37.84333" lon="145.37742">
    <ele>404.87</ele>
   </trkpt>
   <trkpt lat="-37.84326" lon="145.37756000000002">
    <ele>402.63000000000005</ele>
   </trkpt>
   <trkpt lat="-37.84324" lon="145.37767000000002">
    <ele>400.88</ele>
   </trkpt>
   <trkpt lat="-37.84326" lon="145.3778">
    <ele>399.93</ele>
   </trkpt>
   <trkpt lat="-37.84333" lon="145.37800000000001">
    <ele>398.17</ele>
   </trkpt>
   <trkpt lat="-37.84375" lon="145.37878">
    <ele>388.04</ele>
   </trkpt>
   <trkpt lat="-37.84411" lon="145.37913">
    <ele>383.66</ele>
   </trkpt>
   <trkpt lat="-37.84427" lon="145.37936000000002">
    <ele>378.82000000000005</ele>
   </trkpt>
   <trkpt lat="-37.8444" lon="145.37967">
    <ele>376.20000000000005</ele>
   </trkpt>
   <trkpt lat="-37.84451" lon="145.38000000000002">
    <ele>370.71000000000004</ele>
   </trkpt>
   <trkpt lat="-37.84451" lon="145.3802">
    <ele>369.35</ele>
   </trkpt>
   <trkpt lat="-37.84449" lon="145.38033000000001">
    <ele>367.85</ele>
   </trkpt>
   <trkpt lat="-37.844440000000006" lon="145.3804">
    <ele>365.50000000000006</ele>
   </trkpt>
   <trkpt lat="-37.84431" lon="145.38042000000002">
    <ele>362.57</ele>
   </trkpt>
   <trkpt lat="-37.84396" lon="145.38022">
    <ele>357.05</ele>
   </trkpt>
   <trkpt lat="-37.84315" lon="145.37983">
    <ele>345.67</ele>
   </trkpt>
   <trkpt lat="-37.84297" lon="145.37982000000002">
    <ele>342.21</ele>
   </trkpt>
   <trkpt lat="-37.84277" lon="145.37985">
    <ele>339.05</ele>
   </trkpt>
   <trkpt lat="-37.84257" lon="145.37998000000002">
    <ele>333.79</ele>
   </trkpt>
   <trkpt lat="-37.8425" lon="145.38008000000002">
    <ele>333.79</ele>
   </trkpt>
   <trkpt lat="-37.842380000000006" lon="145.38016000000002">
    <ele>330.04</ele>
   </trkpt>
   <trkpt lat="-37.84223" lon="145.38017000000002">
    <ele>327.52000000000004</ele>
   </trkpt>
   <trkpt lat="-37.84205" lon="145.38012">
    <ele>324.61</ele>
   </trkpt>
   <trkpt lat="-37.84201" lon="145.38002">
    <ele>324.66</ele>
   </trkpt>
   <trkpt lat="-37.84185" lon="145.37971000000002">
    <ele>326.17</ele>
   </trkpt>
   <trkpt lat="-37.84165" lon="145.37939">
    <ele>327.11</ele>
   </trkpt>
   <trkpt lat="-37.84154" lon="145.37922">
    <ele>328.13000000000005</ele>
   </trkpt>
   <trkpt lat="-37.84122" lon="145.37847000000002">
    <ele>329.99</ele>
   </trkpt>
   <trkpt lat="-37.84103" lon="145.37786">
    <ele>332.87000000000006</ele>
   </trkpt>
   <trkpt lat="-37.840990000000005" lon="145.37779">
    <ele>332.90000000000003</ele>
   </trkpt>
   <trkpt lat="-37.840970000000006" lon="145.37764">
    <ele>333.90000000000003</ele>
   </trkpt>
   <trkpt lat="-37.84089" lon="145.37754">
    <ele>334.76</ele>
   </trkpt>
   <trkpt lat="-37.84046" lon="145.37711000000002">
    <ele>343.08000000000004</ele>
   </trkpt>
   <trkpt lat="-37.84024" lon="145.37681">
    <ele>350.09000000000003</ele>
   </trkpt>
   <trkpt lat="-37.83999500117897" lon="145.37628499828548">
    <ele>355.06000000000006</ele>
   </trkpt>
   <trkpt lat="-37.83975" lon="145.37576">
    <ele>361.3</ele>
   </trkpt>
   <trkpt lat="-37.83948000276182" lon="145.37494999699896">
    <ele>370.59000000000003</ele>
   </trkpt>
   <trkpt lat="-37.83921" lon="145.37414">
    <ele>378.61000000000007</ele>
   </trkpt>
   <trkpt lat="-37.8391" lon="145.37399000000002">
    <ele>379.26000000000005</ele>
   </trkpt>
   <trkpt lat="-37.83883" lon="145.37376">
    <ele>380.14000000000004</ele>
   </trkpt>
   <trkpt lat="-37.83858" lon="145.37359">
    <ele>380.47</ele>
   </trkpt>
   <trkpt lat="-37.83847" lon="145.37354000000002">
    <ele>381.15000000000003</ele>
   </trkpt>
   <trkpt lat="-37.83822" lon="145.37348">
    <ele>384.21999999999997</ele>
   </trkpt>
   <trkpt lat="-37.83805" lon="145.37351">
    <ele>390.24</ele>
   </trkpt>
   <trkpt lat="-37.83791" lon="145.37358">
    <ele>393.45</ele>
   </trkpt>
   <trkpt lat="-37.83784" lon="145.37368">
    <ele>395.62</ele>
   </trkpt>
   <trkpt lat="-37.83764" lon="145.37427000000002">
    <ele>404.47</ele>
   </trkpt>
   <trkpt lat="-37.83746" lon="145.37449">
    <ele>406.52000000000004</ele>
   </trkpt>
   <trkpt lat="-37.83735" lon="145.37466">
    <ele>406.87</ele>
   </trkpt>
   <trkpt lat="-37.83738" lon="145.37475">
    <ele>406.78000000000003</ele>
   </trkpt>
   <trkpt lat="-37.83731" lon="145.37496000000002">
    <ele>406.32</ele>
   </trkpt>
   <trkpt lat="-37.83728" lon="145.37513">
    <ele>406.15</ele>
   </trkpt>
   <trkpt lat="-37.83724" lon="145.37557">
    <ele>407.95000000000005</ele>
   </trkpt>
   <trkpt lat="-37.83724" lon="145.3762">
    <ele>413.18000000000006</ele>
   </trkpt>
   <trkpt lat="-37.83722" lon="145.37645">
    <ele>414.01000000000005</ele>
   </trkpt>
   <trkpt lat="-37.83731" lon="145.37681">
    <ele>417.95000000000005</ele>
   </trkpt>
   <trkpt lat="-37.83731" lon="145.37695000000002">
    <ele>418.50000000000006</ele>
   </trkpt>
   <trkpt lat="-37.83722" lon="145.37716">
    <ele>422.24000000000007</ele>
   </trkpt>
   <trkpt lat="-37.83713" lon="145.37725">
    <ele>423.36</ele>
   </trkpt>
   <trkpt lat="-37.836720000409166" lon="145.3775850019153">
    <ele>427.45000000000005</ele>
   </trkpt>
   <trkpt lat="-37.836310000000005" lon="145.37792000000002">
    <ele>432.66</ele>
   </trkpt>
   <trkpt lat="-37.83619" lon="145.37801000000002">
    <ele>431.2900000000001</ele>
   </trkpt>
   <trkpt lat="-37.8361" lon="145.37802000000002">
    <ele>429.98</ele>
   </trkpt>
   <trkpt lat="-37.83592" lon="145.37798">
    <ele>427.24</ele>
   </trkpt>
   <trkpt lat="-37.83565" lon="145.37799">
    <ele>424.44000000000005</ele>
   </trkpt>
   <trkpt lat="-37.83556" lon="145.37798">
    <ele>423.31</ele>
   </trkpt>
   <trkpt lat="-37.83545" lon="145.37794000000002">
    <ele>422.01000000000005</ele>
   </trkpt>
   <trkpt lat="-37.83518" lon="145.37775000000002">
    <ele>417.80000000000007</ele>
   </trkpt>
   <trkpt lat="-37.83505" lon="145.37757000000002">
    <ele>414.11</ele>
   </trkpt>
   <trkpt lat="-37.83475" lon="145.37727">
    <ele>409.27000000000004</ele>
   </trkpt>
   <trkpt lat="-37.83446" lon="145.37709">
    <ele>404.32</ele>
   </trkpt>
   <trkpt lat="-37.83413" lon="145.37695000000002">
    <ele>396.17</ele>
   </trkpt>
   <trkpt lat="-37.83388" lon="145.37678000000002">
    <ele>393.05</ele>
   </trkpt>
   <trkpt lat="-37.83343" lon="145.37654">
    <ele>389.84000000000003</ele>
   </trkpt>
   <trkpt lat="-37.83314" lon="145.37650000000002">
    <ele>387.15000000000003</ele>
   </trkpt>
   <trkpt lat="-37.8329" lon="145.37657000000002">
    <ele>386.15000000000003</ele>
   </trkpt>
   <trkpt lat="-37.83274" lon="145.37673">
    <ele>385.25000000000006</ele>
   </trkpt>
   <trkpt lat="-37.8324" lon="145.37684000000002">
    <ele>381.37000000000006</ele>
   </trkpt>
   <trkpt lat="-37.83211" lon="145.37687000000003">
    <ele>376.1</ele>
   </trkpt>
   <trkpt lat="-37.83202" lon="145.37691">
    <ele>374.97</ele>
   </trkpt>
   <trkpt lat="-37.83187" lon="145.37702000000002">
    <ele>373.82000000000005</ele>
   </trkpt>
   <trkpt lat="-37.83164" lon="145.37725">
    <ele>370.95000000000005</ele>
   </trkpt>
   <trkpt lat="-37.83131" lon="145.37743">
    <ele>365.96</ele>
   </trkpt>
   <trkpt lat="-37.83106" lon="145.37746">
    <ele>357.88000000000005</ele>
   </trkpt>
   <trkpt lat="-37.83088" lon="145.37755">
    <ele>350.49</ele>
   </trkpt>
   <trkpt lat="-37.83032" lon="145.37802000000002">
    <ele>332.77</ele>
   </trkpt>
   <trkpt lat="-37.8301" lon="145.37836000000001">
    <ele>324.15000000000003</ele>
   </trkpt>
   <trkpt lat="-37.8299" lon="145.37852">
    <ele>320.97</ele>
   </trkpt>
   <trkpt lat="-37.82981" lon="145.37858">
    <ele>314.75</ele>
   </trkpt>
   <trkpt lat="-37.82954" lon="145.37861">
    <ele>309.44000000000005</ele>
   </trkpt>
   <trkpt lat="-37.82907" lon="145.3786">
    <ele>300.14</ele>
   </trkpt>
   <trkpt lat="-37.82882" lon="145.37863000000002">
    <ele>294.13</ele>
   </trkpt>
   <trkpt lat="-37.82833" lon="145.37879">
    <ele>283.79</ele>
   </trkpt>
   <trkpt lat="-37.8282" lon="145.37878">
    <ele>280.95000000000005</ele>
   </trkpt>
   <trkpt lat="-37.828120000000006" lon="145.37881000000002">
    <ele>280.21000000000004</ele>
   </trkpt>
   <trkpt lat="-37.82797" lon="145.37874000000002">
    <ele>275.57000000000005</ele>
   </trkpt>
   <trkpt lat="-37.8279" lon="145.3785">
    <ele>274.21</ele>
   </trkpt>
   <trkpt lat="-37.82793" lon="145.37837000000002">
    <ele>273.23</ele>
   </trkpt>
   <trkpt lat="-37.82799" lon="145.37820000000002">
    <ele>272.36</ele>
   </trkpt>
   <trkpt lat="-37.82799" lon="145.37812000000002">
    <ele>272.0</ele>
   </trkpt>
   <trkpt lat="-37.827920000000006" lon="145.37805">
    <ele>271.72</ele>
   </trkpt>
   <trkpt lat="-37.82824" lon="145.37775000000002">
    <ele>275.57000000000005</ele>
   </trkpt>
   <trkpt lat="-37.8286" lon="145.37732000000003">
    <ele>280.55</ele>
   </trkpt>
   <trkpt lat="-37.82873" lon="145.37708">
    <ele>281.74000000000007</ele>
   </trkpt>
   <trkpt lat="-37.82887" lon="145.37672">
    <ele>283.04</ele>
   </trkpt>
   <trkpt lat="-37.82893" lon="145.37641000000002">
    <ele>283.87</ele>
   </trkpt>
   <trkpt lat="-37.82893" lon="145.37623000000002">
    <ele>284.23</ele>
   </trkpt>
   <trkpt lat="-37.828880000000005" lon="145.37612000000001">
    <ele>284.68000000000006</ele>
   </trkpt>
   <trkpt lat="-37.82876" lon="145.37608">
    <ele>284.82</ele>
   </trkpt>
   <trkpt lat="-37.82884" lon="145.37587000000002">
    <ele>290.2</ele>
   </trkpt>
   <trkpt lat="-37.82898" lon="145.37562">
    <ele>297.27000000000004</ele>
   </trkpt>
   <trkpt lat="-37.82903" lon="145.37557">
    <ele>297.28000000000003</ele>
   </trkpt>
   <trkpt lat="-37.829280000000004" lon="145.37554">
    <ele>299.50000000000006</ele>
   </trkpt>
   <trkpt lat="-37.829280000000004" lon="145.37553">
    <ele>299.55</ele>
   </trkpt>
   <trkpt lat="-37.82947" lon="145.37548">
    <ele>300.49</ele>
   </trkpt>
   <trkpt lat="-37.8297" lon="145.37526000000003">
    <ele>303.47</ele>
   </trkpt>
   <trkpt lat="-37.8299" lon="145.37518">
    <ele>305.93</ele>
   </trkpt>
   <trkpt lat="-37.83019" lon="145.37534000000002">
    <ele>308.15000000000003</ele>
   </trkpt>
   <trkpt lat="-37.8305" lon="145.3753">
    <ele>311.4</ele>
   </trkpt>
   <trkpt lat="-37.83099" lon="145.37507000000002">
    <ele>318.5</ele>
   </trkpt>
   <trkpt lat="-37.83142" lon="145.37479000000002">
    <ele>324.69000000000005</ele>
   </trkpt>
   <trkpt lat="-37.8316" lon="145.37477">
    <ele>325.48</ele>
   </trkpt>
   <trkpt lat="-37.83209" lon="145.37465">
    <ele>326.64000000000004</ele>
   </trkpt>
   <trkpt lat="-37.83238" lon="145.37460000000002">
    <ele>328.13000000000005</ele>
   </trkpt>
   <trkpt lat="-37.83261" lon="145.37459">
    <ele>331.33</ele>
   </trkpt>
   <trkpt lat="-37.83283" lon="145.37455">
    <ele>336.55</ele>
   </trkpt>
   <trkpt lat="-37.83328" lon="145.37453000000002">
    <ele>341.89000000000004</ele>
   </trkpt>
   <trkpt lat="-37.83357" lon="145.37456">
    <ele>345.49</ele>
   </trkpt>
   <trkpt lat="-37.8337" lon="145.37454000000002">
    <ele>347.90000000000003</ele>
   </trkpt>
   <trkpt lat="-37.83379" lon="145.3745">
    <ele>350.2</ele>
   </trkpt>
   <trkpt lat="-37.83413" lon="145.37428">
    <ele>361.62000000000006</ele>
   </trkpt>
   <trkpt lat="-37.83442" lon="145.37417000000002">
    <ele>373.69</ele>
   </trkpt>
   <trkpt lat="-37.83478" lon="145.37412">
    <ele>382.11</ele>
   </trkpt>
   <trkpt lat="-37.835060000000006" lon="145.37404">
    <ele>384.95</ele>
   </trkpt>
   <trkpt lat="-37.83516" lon="145.37397">
    <ele>387.1</ele>
   </trkpt>
   <trkpt lat="-37.8352" lon="145.37391000000002">
    <ele>387.84000000000003</ele>
   </trkpt>
   <trkpt lat="-37.83534" lon="145.37347000000003">
    <ele>398.49</ele>
   </trkpt>
   <trkpt lat="-37.83534" lon="145.37307">
    <ele>401.87000000000006</ele>
   </trkpt>
   <trkpt lat="-37.83529" lon="145.37287">
    <ele>402.25000000000006</ele>
   </trkpt>
   <trkpt lat="-37.83525" lon="145.37281000000002">
    <ele>402.79</ele>
   </trkpt>
   <trkpt lat="-37.835" lon="145.37262">
    <ele>406.6</ele>
   </trkpt>
   <trkpt lat="-37.83491" lon="145.37251">
    <ele>406.83000000000004</ele>
   </trkpt>
   <trkpt lat="-37.83491" lon="145.37243">
    <ele>406.48</ele>
   </trkpt>
   <trkpt lat="-37.835" lon="145.37205">
    <ele>405.07000000000005</ele>
   </trkpt>
   <trkpt lat="-37.83537000155393" lon="145.3714100035173">
    <ele>405.01000000000005</ele>
   </trkpt>
   <trkpt lat="-37.83574" lon="145.37077000000002">
    <ele>408.98</ele>
   </trkpt>
   <trkpt lat="-37.83576" lon="145.37064">
    <ele>410.0</ele>
   </trkpt>
   <trkpt lat="-37.83578" lon="145.37018">
    <ele>416.30000000000007</ele>
   </trkpt>
   <trkpt lat="-37.83583" lon="145.36973">
    <ele>418.16</ele>
   </trkpt>
   <trkpt lat="-37.83583" lon="145.36949">
    <ele>419.2</ele>
   </trkpt>
   <trkpt lat="-37.83572" lon="145.36931">
    <ele>421.99</ele>
   </trkpt>
   <trkpt lat="-37.83558" lon="145.36916000000002">
    <ele>424.26</ele>
   </trkpt>
   <trkpt lat="-37.83547" lon="145.36883">
    <ele>425.00000000000006</ele>
   </trkpt>
   <trkpt lat="-37.83536" lon="145.3684">
    <ele>426.06000000000006</ele>
   </trkpt>
   <trkpt lat="-37.83527" lon="145.36759">
    <ele>425.45000000000005</ele>
   </trkpt>
   <trkpt lat="-37.835190000000004" lon="145.36743">
    <ele>426.25</ele>
   </trkpt>
   <trkpt lat="-37.83509" lon="145.3673">
    <ele>427.75</ele>
   </trkpt>
   <trkpt lat="-37.83482" lon="145.36722">
    <ele>432.39000000000004</ele>
   </trkpt>
   <trkpt lat="-37.83469" lon="145.36711000000003">
    <ele>434.21000000000004</ele>
   </trkpt>
   <trkpt lat="-37.8344" lon="145.36679">
    <ele>440.13</ele>
   </trkpt>
   <trkpt lat="-37.83428" lon="145.3666">
    <ele>444.06</ele>
   </trkpt>
   <trkpt lat="-37.83371" lon="145.36614">
    <ele>452.79</ele>
   </trkpt>
   <trkpt lat="-37.83346" lon="145.36599">
    <ele>456.26000000000005</ele>
   </trkpt>
   <trkpt lat="-37.833020000000005" lon="145.36566000000002">
    <ele>463.09000000000003</ele>
   </trkpt>
   <trkpt lat="-37.833000000000006" lon="145.36563">
    <ele>463.09000000000003</ele>
   </trkpt>
   <trkpt lat="-37.83272" lon="145.36565000000002">
    <ele>469.27000000000004</ele>
   </trkpt>
   <trkpt lat="-37.83269000000001" lon="145.36567000000002">
    <ele>469.27000000000004</ele>
   </trkpt>
   <trkpt lat="-37.83268" lon="145.36575000000002">
    <ele>470.63000000000005</ele>
   </trkpt>
   <trkpt lat="-37.83263" lon="145.36575000000002">
    <ele>470.69000000000005</ele>
   </trkpt>
   <trkpt lat="-37.83252" lon="145.36566000000002">
    <ele>471.67</ele>
   </trkpt>
   <trkpt lat="-37.83234" lon="145.36567000000002">
    <ele>473.57000000000005</ele>
   </trkpt>
   <trkpt lat="-37.83229" lon="145.3656">
    <ele>475.80000000000007</ele>
   </trkpt>
   <trkpt lat="-37.8322" lon="145.36557000000002">
    <ele>477.24000000000007</ele>
   </trkpt>
   <trkpt lat="-37.832240000000006" lon="145.36546">
    <ele>477.32</ele>
   </trkpt>
   <trkpt lat="-37.8322" lon="145.36537">
    <ele>478.74000000000007</ele>
   </trkpt>
   <trkpt lat="-37.83209" lon="145.36526">
    <ele>480.7</ele>
   </trkpt>
   <trkpt lat="-37.83207" lon="145.36518">
    <ele>482.51000000000005</ele>
   </trkpt>
   <trkpt lat="-37.83196" lon="145.36511000000002">
    <ele>484.84000000000003</ele>
   </trkpt>
   <trkpt lat="-37.83164" lon="145.365">
    <ele>488.58</ele>
   </trkpt>
   <trkpt lat="-37.831480000000006" lon="145.365">
    <ele>489.17</ele>
   </trkpt>
   <trkpt lat="-37.83124" lon="145.36485000000002">
    <ele>492.66</ele>
   </trkpt>
   <trkpt lat="-37.83113" lon="145.36483">
    <ele>493.42</ele>
   </trkpt>
   <trkpt lat="-37.83062" lon="145.36463">
    <ele>493.64</ele>
   </trkpt>
   <trkpt lat="-37.8305" lon="145.36457000000001">
    <ele>493.70000000000005</ele>
   </trkpt>
   <trkpt lat="-37.83032" lon="145.36453">
    <ele>493.59000000000003</ele>
   </trkpt>
   <trkpt lat="-37.83028" lon="145.36444">
    <ele>493.53000000000003</ele>
   </trkpt>
   <trkpt lat="-37.83028" lon="145.36438">
    <ele>493.81</ele>
   </trkpt>
   <trkpt lat="-37.82967" lon="145.3639">
    <ele>496.52</ele>
   </trkpt>
   <trkpt lat="-37.82938" lon="145.36354">
    <ele>498.47</ele>
   </trkpt>
   <trkpt lat="-37.82943" lon="145.36349">
    <ele>498.65000000000003</ele>
   </trkpt>
   <trkpt lat="-37.82938" lon="145.36346">
    <ele>498.31</ele>
   </trkpt>
   <trkpt lat="-37.82932" lon="145.36349">
    <ele>498.11000000000007</ele>
   </trkpt>
   <trkpt lat="-37.82925" lon="145.36343000000002">
    <ele>498.07000000000005</ele>
   </trkpt>
   <trkpt lat="-37.82916" lon="145.36327">
    <ele>497.86</ele>
   </trkpt>
   <trkpt lat="-37.82894" lon="145.36309">
    <ele>498.59000000000003</ele>
   </trkpt>
   <trkpt lat="-37.8286" lon="145.36275">
    <ele>494.7900000000001</ele>
   </trkpt>
   <trkpt lat="-37.82842" lon="145.36245000000002">
    <ele>497.24</ele>
   </trkpt>
   <trkpt lat="-37.82835" lon="145.36207000000002">
    <ele>498.7300000000001</ele>
   </trkpt>
   <trkpt lat="-37.82837" lon="145.36183000000003">
    <ele>498.83000000000004</ele>
   </trkpt>
   <trkpt lat="-37.82826" lon="145.36181000000002">
    <ele>498.87</ele>
   </trkpt>
   <trkpt lat="-37.828210000000006" lon="145.3615">
    <ele>499.27000000000004</ele>
   </trkpt>
   <trkpt lat="-37.82826" lon="145.36134">
    <ele>500.50000000000006</ele>
   </trkpt>
   <trkpt lat="-37.82824" lon="145.36102000000002">
    <ele>503.9800000000001</ele>
   </trkpt>
   <trkpt lat="-37.82831" lon="145.36064000000002">
    <ele>507.82000000000005</ele>
   </trkpt>
   <trkpt lat="-37.82831" lon="145.36051">
    <ele>510.11000000000007</ele>
   </trkpt>
   <trkpt lat="-37.828300000000006" lon="145.36042">
    <ele>510.11000000000007</ele>
   </trkpt>
   <trkpt lat="-37.828210000000006" lon="145.36031">
    <ele>513.63</ele>
   </trkpt>
   <trkpt lat="-37.82804" lon="145.36018">
    <ele>516.81</ele>
   </trkpt>
   <trkpt lat="-37.82788" lon="145.35998">
    <ele>510.30000000000007</ele>
   </trkpt>
   <trkpt lat="-37.828030000000005" lon="145.35981">
    <ele>511.70000000000005</ele>
   </trkpt>
   <trkpt lat="-37.82802" lon="145.35974000000002">
    <ele>513.3199999999999</ele>
   </trkpt>
   <trkpt lat="-37.82797" lon="145.35967000000002">
    <ele>517.1300000000001</ele>
   </trkpt>
   <trkpt lat="-37.82786" lon="145.3596">
    <ele>523.45</ele>
   </trkpt>
   <trkpt lat="-37.82772000000001" lon="145.35955">
    <ele>527.5000000000001</ele>
   </trkpt>
   <trkpt lat="-37.82762" lon="145.35949000000002">
    <ele>529.48</ele>
   </trkpt>
   <trkpt lat="-37.82728" lon="145.35929000000002">
    <ele>534.19</ele>
   </trkpt>
   <trkpt lat="-37.827180000000006" lon="145.35917">
    <ele>535.59</ele>
   </trkpt>
   <trkpt lat="-37.82705" lon="145.35911000000002">
    <ele>537.09</ele>
   </trkpt>
   <trkpt lat="-37.82694" lon="145.35909">
    <ele>537.49</ele>
   </trkpt>
   <trkpt lat="-37.82687" lon="145.35904000000002">
    <ele>538.5000000000001</ele>
   </trkpt>
   <trkpt lat="-37.82681" lon="145.35894000000002">
    <ele>540.6800000000001</ele>
   </trkpt>
   <trkpt lat="-37.82678000000001" lon="145.35874">
    <ele>543.22</ele>
   </trkpt>
   <trkpt lat="-37.82667" lon="145.35872">
    <ele>544.64</ele>
   </trkpt>
   <trkpt lat="-37.82645" lon="145.35860000000002">
    <ele>546.25</ele>
   </trkpt>
   <trkpt lat="-37.82614" lon="145.35836">
    <ele>549.83</ele>
   </trkpt>
   <trkpt lat="-37.82587" lon="145.35828">
    <ele>551.49</ele>
   </trkpt>
   <trkpt lat="-37.82567" lon="145.35817">
    <ele>553.59</ele>
   </trkpt>
   <trkpt lat="-37.82555" lon="145.35802">
    <ele>556.34</ele>
   </trkpt>
   <trkpt lat="-37.82549" lon="145.35781">
    <ele>559.55</ele>
   </trkpt>
   <trkpt lat="-37.82531" lon="145.35758">
    <ele>552.57</ele>
   </trkpt>
   <trkpt lat="-37.825250000000004" lon="145.35765">
    <ele>555.79</ele>
   </trkpt>
   <trkpt lat="-37.82524" lon="145.35717000000002">
    <ele>564.16</ele>
   </trkpt>
   <trkpt lat="-37.82526" lon="145.35688000000002">
    <ele>564.82</ele>
   </trkpt>
   <trkpt lat="-37.82536" lon="145.35629">
    <ele>570.16</ele>
   </trkpt>
   <trkpt lat="-37.825320000000005" lon="145.35603">
    <ele>570.85</ele>
   </trkpt>
   <trkpt lat="-37.82529" lon="145.35569">
    <ele>572.59</ele>
   </trkpt>
   <trkpt lat="-37.82529" lon="145.35529000000002">
    <ele>573.2</ele>
   </trkpt>
   <trkpt lat="-37.82531" lon="145.35505">
    <ele>573.9399999999999</ele>
   </trkpt>
   <trkpt lat="-37.82535" lon="145.35486">
    <ele>574.8000000000001</ele>
   </trkpt>
   <trkpt lat="-37.82544" lon="145.35431">
    <ele>579.5</ele>
   </trkpt>
   <trkpt lat="-37.82555" lon="145.35337">
    <ele>586.09</ele>
   </trkpt>
   <trkpt lat="-37.82547" lon="145.35287000000002">
    <ele>585.86</ele>
   </trkpt>
   <trkpt lat="-37.82551" lon="145.35260000000002">
    <ele>585.61</ele>
   </trkpt>
   <trkpt lat="-37.82558" lon="145.35231000000002">
    <ele>584.82</ele>
   </trkpt>
   <trkpt lat="-37.82596" lon="145.35162000000003">
    <ele>582.11</ele>
   </trkpt>
   <trkpt lat="-37.82625" lon="145.35123000000002">
    <ele>579.09</ele>
   </trkpt>
   <trkpt lat="-37.82658" lon="145.35101">
    <ele>577.1400000000001</ele>
   </trkpt>
   <trkpt lat="-37.82701" lon="145.35084">
    <ele>578.09</ele>
   </trkpt>
   <trkpt lat="-37.82766" lon="145.35071000000002">
    <ele>575.8199999999999</ele>
   </trkpt>
   <trkpt lat="-37.827670000000005" lon="145.35070000000002">
    <ele>575.79</ele>
   </trkpt>
   <trkpt lat="-37.82815" lon="145.35061000000002">
    <ele>575.0600000000001</ele>
   </trkpt>
   <trkpt lat="-37.8286300000965" lon="145.35060500003155">
    <ele>577.95</ele>
   </trkpt>
   <trkpt lat="-37.82911" lon="145.35060000000001">
    <ele>576.1800000000001</ele>
   </trkpt>
   <trkpt lat="-37.82943" lon="145.35047">
    <ele>569.52</ele>
   </trkpt>
   <trkpt lat="-37.82963" lon="145.35047">
    <ele>567.59</ele>
   </trkpt>
   <trkpt lat="-37.82999" lon="145.35055">
    <ele>564.52</ele>
   </trkpt>
   <trkpt lat="-37.83032" lon="145.35069000000001">
    <ele>561.4800000000001</ele>
   </trkpt>
   <trkpt lat="-37.83066" lon="145.35092">
    <ele>559.4800000000001</ele>
   </trkpt>
   <trkpt lat="-37.83093" lon="145.35097000000002">
    <ele>557.32</ele>
   </trkpt>
   <trkpt lat="-37.83122" lon="145.35091">
    <ele>556.9300000000001</ele>
   </trkpt>
   <trkpt lat="-37.83162" lon="145.35071000000002">
    <ele>561.57</ele>
   </trkpt>
   <trkpt lat="-37.83196" lon="145.35046">
    <ele>570.71</ele>
   </trkpt>
   <trkpt lat="-37.83231" lon="145.35010000000003">
    <ele>578.6600000000001</ele>
   </trkpt>
   <trkpt lat="-37.83267" lon="145.34969">
    <ele>586.4</ele>
   </trkpt>
   <trkpt lat="-37.83274" lon="145.34954000000002">
    <ele>587.22</ele>
   </trkpt>
   <trkpt lat="-37.83316000000001" lon="145.34919000000002">
    <ele>592.48</ele>
   </trkpt>
   <trkpt lat="-37.83321" lon="145.34907">
    <ele>592.48</ele>
   </trkpt>
   <trkpt lat="-37.83328" lon="145.3487">
    <ele>594.86</ele>
   </trkpt>
   <trkpt lat="-37.83339" lon="145.34822">
    <ele>594.8500000000001</ele>
   </trkpt>
   <trkpt lat="-37.83346" lon="145.34808">
    <ele>594.6400000000001</ele>
   </trkpt>
   <trkpt lat="-37.83379500052499" lon="145.34767500204265">
    <ele>596.75</ele>
   </trkpt>
   <trkpt lat="-37.83413" lon="145.34727">
    <ele>596.32</ele>
   </trkpt>
   <trkpt lat="-37.8344" lon="145.34703000000002">
    <ele>596.1700000000001</ele>
   </trkpt>
   <trkpt lat="-37.83491" lon="145.3468">
    <ele>596.28</ele>
   </trkpt>
   <trkpt lat="-37.835150000000006" lon="145.34676000000002">
    <ele>597.28</ele>
   </trkpt>
   <trkpt lat="-37.83574" lon="145.34658000000002">
    <ele>600.1200000000001</ele>
   </trkpt>
   <trkpt lat="-37.83601" lon="145.34655">
    <ele>603.0699999999999</ele>
   </trkpt>
   <trkpt lat="-37.8363" lon="145.34654">
    <ele>606.87</ele>
   </trkpt>
   <trkpt lat="-37.836560000000006" lon="145.34659000000002">
    <ele>609.96</ele>
   </trkpt>
   <trkpt lat="-37.83668" lon="145.34660000000002">
    <ele>610.7</ele>
   </trkpt>
   <trkpt lat="-37.83681" lon="145.34659000000002">
    <ele>610.9300000000001</ele>
   </trkpt>
   <trkpt lat="-37.83693" lon="145.34661">
    <ele>610.11</ele>
   </trkpt>
   <trkpt lat="-37.83726" lon="145.34629">
    <ele>601.07</ele>
   </trkpt>
   <trkpt lat="-37.83733" lon="145.34626">
    <ele>599.09</ele>
   </trkpt>
   <trkpt lat="-37.83766" lon="145.34623000000002">
    <ele>591.72</ele>
   </trkpt>
   <trkpt lat="-37.83791" lon="145.34608">
    <ele>584.4100000000001</ele>
   </trkpt>
   <trkpt lat="-37.83813" lon="145.34605000000002">
    <ele>579.23</ele>
   </trkpt>
   <trkpt lat="-37.83834" lon="145.34596000000002">
    <ele>571.09</ele>
   </trkpt>
   <trkpt lat="-37.83843" lon="145.34587000000002">
    <ele>569.7800000000001</ele>
   </trkpt>
   <trkpt lat="-37.83856" lon="145.34584">
    <ele>566.72</ele>
   </trkpt>
   <trkpt lat="-37.83872" lon="145.34589000000003">
    <ele>565.5</ele>
   </trkpt>
   <trkpt lat="-37.83896" lon="145.34608">
    <ele>566.28</ele>
   </trkpt>
   <trkpt lat="-37.83912" lon="145.34615000000002">
    <ele>564.09</ele>
   </trkpt>
   <trkpt lat="-37.83939" lon="145.3461">
    <ele>558.91</ele>
   </trkpt>
   <trkpt lat="-37.839400000000005" lon="145.3461">
    <ele>558.52</ele>
   </trkpt>
   <trkpt lat="-37.83961" lon="145.34607000000003">
    <ele>556.5400000000001</ele>
   </trkpt>
   <trkpt lat="-37.83979" lon="145.34606000000002">
    <ele>550.86</ele>
   </trkpt>
   <trkpt lat="-37.84004" lon="145.34607000000003">
    <ele>545.01</ele>
   </trkpt>
   <trkpt lat="-37.84013" lon="145.34609">
    <ele>544.25</ele>
   </trkpt>
   <trkpt lat="-37.84024" lon="145.34614000000002">
    <ele>542.86</ele>
   </trkpt>
   <trkpt lat="-37.84035" lon="145.34613000000002">
    <ele>540.44</ele>
   </trkpt>
   <trkpt lat="-37.84035" lon="145.34608">
    <ele>540.44</ele>
   </trkpt>
   <trkpt lat="-37.84004" lon="145.34539">
    <ele>527.85</ele>
   </trkpt>
   <trkpt lat="-37.83977" lon="145.34502">
    <ele>518.42</ele>
   </trkpt>
   <trkpt lat="-37.83977" lon="145.34496000000001">
    <ele>518.42</ele>
   </trkpt>
   <trkpt lat="-37.83979" lon="145.34494">
    <ele>518.42</ele>
   </trkpt>
   <trkpt lat="-37.839850000000006" lon="145.34493">
    <ele>518.42</ele>
   </trkpt>
   <trkpt lat="-37.84055" lon="145.34504">
    <ele>509.2300000000001</ele>
   </trkpt>
   <trkpt lat="-37.84082" lon="145.34512">
    <ele>504.85</ele>
   </trkpt>
   <trkpt lat="-37.84122" lon="145.34528">
    <ele>499.87</ele>
   </trkpt>
   <trkpt lat="-37.84127" lon="145.34528">
    <ele>495.26000000000005</ele>
   </trkpt>
   <trkpt lat="-37.84127" lon="145.34522">
    <ele>495.26000000000005</ele>
   </trkpt>
   <trkpt lat="-37.8412" lon="145.34501">
    <ele>493.8</ele>
   </trkpt>
   <trkpt lat="-37.84109" lon="145.34479000000002">
    <ele>489.3500000000001</ele>
   </trkpt>
   <trkpt lat="-37.84091" lon="145.34454000000002">
    <ele>485.08000000000004</ele>
   </trkpt>
   <trkpt lat="-37.84051" lon="145.34409000000002">
    <ele>473.35</ele>
   </trkpt>
   <trkpt lat="-37.84028" lon="145.34392000000003">
    <ele>470.20000000000005</ele>
   </trkpt>
   <trkpt lat="-37.84024" lon="145.34384">
    <ele>468.73</ele>
   </trkpt>
   <trkpt lat="-37.84057" lon="145.34386">
    <ele>465.72</ele>
   </trkpt>
   <trkpt lat="-37.84091" lon="145.34394">
    <ele>463.99</ele>
   </trkpt>
   <trkpt lat="-37.84149" lon="145.34419000000003">
    <ele>459.36</ele>
   </trkpt>
   <trkpt lat="-37.84163" lon="145.34426000000002">
    <ele>458.48</ele>
   </trkpt>
   <trkpt lat="-37.84183" lon="145.34441">
    <ele>457.83</ele>
   </trkpt>
   <trkpt lat="-37.842040000000004" lon="145.34463000000002">
    <ele>457.27</ele>
   </trkpt>
   <trkpt lat="-37.84221" lon="145.34493">
    <ele>457.0</ele>
   </trkpt>
   <trkpt lat="-37.8423" lon="145.34518">
    <ele>456.41</ele>
   </trkpt>
   <trkpt lat="-37.84239" lon="145.34554">
    <ele>455.3</ele>
   </trkpt>
   <trkpt lat="-37.84241" lon="145.34594">
    <ele>453.86</ele>
   </trkpt>
   <trkpt lat="-37.84239" lon="145.34612">
    <ele>453.04</ele>
   </trkpt>
   <trkpt lat="-37.8423" lon="145.34661">
    <ele>451.65000000000003</ele>
   </trkpt>
   <trkpt lat="-37.84228" lon="145.3468">
    <ele>450.25000000000006</ele>
   </trkpt>
   <trkpt lat="-37.8423" lon="145.34731000000002">
    <ele>448.51</ele>
   </trkpt>
   <trkpt lat="-37.8423" lon="145.34775000000002">
    <ele>446.17</ele>
   </trkpt>
   <trkpt lat="-37.84225" lon="145.34794000000002">
    <ele>445.21000000000004</ele>
   </trkpt>
   <trkpt lat="-37.84219" lon="145.34804000000003">
    <ele>444.42</ele>
   </trkpt>
   <trkpt lat="-37.84201" lon="145.34824">
    <ele>443.43000000000006</ele>
   </trkpt>
   <trkpt lat="-37.84194" lon="145.34835">
    <ele>443.13</ele>
   </trkpt>
   <trkpt lat="-37.84183" lon="145.34872000000001">
    <ele>442.22</ele>
   </trkpt>
   <trkpt lat="-37.84185" lon="145.34889">
    <ele>441.88000000000005</ele>
   </trkpt>
   <trkpt lat="-37.84176" lon="145.34928000000002">
    <ele>448.33000000000004</ele>
   </trkpt>
   <trkpt lat="-37.84179" lon="145.34944000000002">
    <ele>452.97</ele>
   </trkpt>
   <trkpt lat="-37.84196" lon="145.34958">
    <ele>452.23</ele>
   </trkpt>
   <trkpt lat="-37.84219" lon="145.34969">
    <ele>449.76000000000005</ele>
   </trkpt>
   <trkpt lat="-37.84262500025573" lon="145.34986999898746">
    <ele>446.15000000000003</ele>
   </trkpt>
   <trkpt lat="-37.84306" lon="145.35005">
    <ele>442.95</ele>
   </trkpt>
   <trkpt lat="-37.84355" lon="145.35018000000002">
    <ele>440.32000000000005</ele>
   </trkpt>
   <trkpt lat="-37.84409" lon="145.35022">
    <ele>437.16</ele>
   </trkpt>
   <trkpt lat="-37.844440000000006" lon="145.35021">
    <ele>435.29</ele>
   </trkpt>
   <trkpt lat="-37.84493500020032" lon="145.35014000044447">
    <ele>429.67</ele>
   </trkpt>
   <trkpt lat="-37.84543" lon="145.35007000000002">
    <ele>426.13</ele>
   </trkpt>
   <trkpt lat="-37.846230000000006" lon="145.35004">
    <ele>423.32</ele>
   </trkpt>
   <trkpt lat="-37.84653" lon="145.35004">
    <ele>419.24000000000007</ele>
   </trkpt>
   <trkpt lat="-37.84678" lon="145.35007000000002">
    <ele>417.85</ele>
   </trkpt>
   <trkpt lat="-37.84695" lon="145.35014">
    <ele>417.96000000000004</ele>
   </trkpt>
   <trkpt lat="-37.8472" lon="145.35029">
    <ele>419.83000000000004</ele>
   </trkpt>
   <trkpt lat="-37.84767" lon="145.35063000000002">
    <ele>423.51000000000005</ele>
   </trkpt>
   <trkpt lat="-37.84792" lon="145.35087000000001">
    <ele>424.08</ele>
   </trkpt>
   <trkpt lat="-37.84819" lon="145.35123000000002">
    <ele>426.89000000000004</ele>
   </trkpt>
   <trkpt lat="-37.8485" lon="145.35187000000002">
    <ele>432.53000000000003</ele>
   </trkpt>
   <trkpt lat="-37.848670000000006" lon="145.35243">
    <ele>438.75</ele>
   </trkpt>
   <trkpt lat="-37.84877" lon="145.35304000000002">
    <ele>443.39000000000004</ele>
   </trkpt>
   <trkpt lat="-37.84884" lon="145.35374000000002">
    <ele>447.39</ele>
   </trkpt>
   <trkpt lat="-37.84881" lon="145.35385000000002">
    <ele>447.98</ele>
   </trkpt>
   <trkpt lat="-37.84863" lon="145.35433">
    <ele>452.82000000000005</ele>
   </trkpt>
   <trkpt lat="-37.84852" lon="145.35456000000002">
    <ele>453.16</ele>
   </trkpt>
   <trkpt lat="-37.84839" lon="145.35525">
    <ele>447.87000000000006</ele>
   </trkpt>
   <trkpt lat="-37.84814" lon="145.3557">
    <ele>445.49000000000007</ele>
   </trkpt>
   <trkpt lat="-37.84812" lon="145.35582000000002">
    <ele>446.14000000000004</ele>
   </trkpt>
   <trkpt lat="-37.84814" lon="145.35590000000002">
    <ele>447.11000000000007</ele>
   </trkpt>
   <trkpt lat="-37.84821" lon="145.35601">
    <ele>447.74</ele>
   </trkpt>
   <trkpt lat="-37.84859" lon="145.35638">
    <ele>444.23</ele>
   </trkpt>
   <trkpt lat="-37.84866" lon="145.35649">
    <ele>444.23</ele>
   </trkpt>
   <trkpt lat="-37.8487" lon="145.35663000000002">
    <ele>443.26000000000005</ele>
   </trkpt>
   <trkpt lat="-37.84872" lon="145.35680000000002">
    <ele>442.71000000000004</ele>
   </trkpt>
   <trkpt lat="-37.84877" lon="145.35692">
    <ele>441.32000000000005</ele>
   </trkpt>
   <trkpt lat="-37.84886" lon="145.35699000000002">
    <ele>439.6700000000001</ele>
   </trkpt>
   <trkpt lat="-37.84895" lon="145.35702">
    <ele>436.87</ele>
   </trkpt>
   <trkpt lat="-37.84951" lon="145.35711">
    <ele>427.36</ele>
   </trkpt>
   <trkpt lat="-37.849700000000006" lon="145.35709">
    <ele>423.17</ele>
   </trkpt>
   <trkpt lat="-37.84998" lon="145.35682">
    <ele>416.64</ele>
   </trkpt>
   <trkpt lat="-37.85009" lon="145.35676">
    <ele>416.39000000000004</ele>
   </trkpt>
   <trkpt lat="-37.85054" lon="145.35639">
    <ele>420.37</ele>
   </trkpt>
   <trkpt lat="-37.85083" lon="145.35617000000002">
    <ele>420.18000000000006</ele>
   </trkpt>
   <trkpt lat="-37.85101" lon="145.35612">
    <ele>419.49</ele>
   </trkpt>
   <trkpt lat="-37.851480000049214" lon="145.35608500021982">
    <ele>419.01000000000005</ele>
   </trkpt>
   <trkpt lat="-37.85195" lon="145.35605">
    <ele>425.66</ele>
   </trkpt>
   <trkpt lat="-37.8526" lon="145.35617000000002">
    <ele>442.78000000000003</ele>
   </trkpt>
   <trkpt lat="-37.85284" lon="145.3561">
    <ele>446.33000000000004</ele>
   </trkpt>
   <trkpt lat="-37.85289" lon="145.35602">
    <ele>446.53000000000003</ele>
   </trkpt>
   <trkpt lat="-37.85298" lon="145.3556">
    <ele>445.77000000000004</ele>
   </trkpt>
   <trkpt lat="-37.853" lon="145.35505">
    <ele>443.19</ele>
   </trkpt>
   <trkpt lat="-37.85331" lon="145.35443">
    <ele>444.41</ele>
   </trkpt>
   <trkpt lat="-37.85342" lon="145.35415">
    <ele>448.13</ele>
   </trkpt>
   <trkpt lat="-37.85396" lon="145.35339000000002">
    <ele>454.17</ele>
   </trkpt>
   <trkpt lat="-37.854110000000006" lon="145.35328">
    <ele>458.02000000000004</ele>
   </trkpt>
   <trkpt lat="-37.854350000000004" lon="145.35299">
    <ele>460.44</ele>
   </trkpt>
   <trkpt lat="-37.85439" lon="145.35299">
    <ele>462.38</ele>
   </trkpt>
   <trkpt lat="-37.85452" lon="145.35320000000002">
    <ele>463.62</ele>
   </trkpt>
   <trkpt lat="-37.854580000000006" lon="145.35319">
    <ele>465.84000000000003</ele>
   </trkpt>
   <trkpt lat="-37.85461" lon="145.35309">
    <ele>465.84000000000003</ele>
   </trkpt>
   <trkpt lat="-37.85461" lon="145.35294000000002">
    <ele>467.70000000000005</ele>
   </trkpt>
   <trkpt lat="-37.85466" lon="145.35276000000002">
    <ele>471.57000000000005</ele>
   </trkpt>
   <trkpt lat="-37.85472" lon="145.3527">
    <ele>471.57000000000005</ele>
   </trkpt>
   <trkpt lat="-37.85486" lon="145.3523">
    <ele>477.29</ele>
   </trkpt>
   <trkpt lat="-37.855140000000006" lon="145.35198000000003">
    <ele>485.86</ele>
   </trkpt>
   <trkpt lat="-37.85521" lon="145.35193">
    <ele>486.53000000000003</ele>
   </trkpt>
   <trkpt lat="-37.85526" lon="145.35179000000002">
    <ele>487.52000000000004</ele>
   </trkpt>
   <trkpt lat="-37.85528" lon="145.35168000000002">
    <ele>488.53000000000003</ele>
   </trkpt>
   <trkpt lat="-37.855470000000004" lon="145.35148">
    <ele>490.95000000000005</ele>
   </trkpt>
   <trkpt lat="-37.85580500087528" lon="145.35193999788288">
    <ele>498.11000000000007</ele>
   </trkpt>
   <trkpt lat="-37.85614" lon="145.35240000000002">
    <ele>507.5200000000001</ele>
   </trkpt>
   <trkpt lat="-37.85644000082839" lon="145.35284999812686">
    <ele>516.72</ele>
   </trkpt>
   <trkpt lat="-37.85674" lon="145.35330000000002">
    <ele>525.63</ele>
   </trkpt>
   <trkpt lat="-37.85703" lon="145.35389">
    <ele>542.32</ele>
   </trkpt>
   <trkpt lat="-37.85703" lon="145.35401000000002">
    <ele>542.32</ele>
   </trkpt>
   <trkpt lat="-37.85685" lon="145.35449">
    <ele>554.13</ele>
   </trkpt>
   <trkpt lat="-37.8568" lon="145.35479">
    <ele>557.9000000000001</ele>
   </trkpt>
   <trkpt lat="-37.85681" lon="145.35496">
    <ele>560.46</ele>
   </trkpt>
   <trkpt lat="-37.85683" lon="145.35502000000002">
    <ele>562.35</ele>
   </trkpt>
   <trkpt lat="-37.85718" lon="145.35543">
    <ele>571.46</ele>
   </trkpt>
   <trkpt lat="-37.8573" lon="145.35565000000003">
    <ele>574.9000000000001</ele>
   </trkpt>
   <trkpt lat="-37.85736" lon="145.35574000000003">
    <ele>575.2</ele>
   </trkpt>
   <trkpt lat="-37.85732" lon="145.35579">
    <ele>574.99</ele>
   </trkpt>
   <trkpt lat="-37.85732" lon="145.35585">
    <ele>574.99</ele>
   </trkpt>
   <trkpt lat="-37.857420000000005" lon="145.35594">
    <ele>574.61</ele>
   </trkpt>
   <trkpt lat="-37.85757" lon="145.35637">
    <ele>575.0200000000001</ele>
   </trkpt>
   <trkpt lat="-37.857490000000006" lon="145.35684">
    <ele>575.47</ele>
   </trkpt>
   <trkpt lat="-37.85727" lon="145.35755">
    <ele>575.6300000000001</ele>
   </trkpt>
   <trkpt lat="-37.85714" lon="145.35814000000002">
    <ele>579.46</ele>
   </trkpt>
   <trkpt lat="-37.85700500323966" lon="145.35901500158764">
    <ele>589.89</ele>
   </trkpt>
   <trkpt lat="-37.85687" lon="145.35989">
    <ele>599.6100000000001</ele>
   </trkpt>
   <trkpt lat="-37.856690006443095" lon="145.36076333763228">
    <ele>599.1700000000001</ele>
   </trkpt>
   <trkpt lat="-37.856510006436096" lon="145.3616366709995">
    <ele>589.13</ele>
   </trkpt>
   <trkpt lat="-37.85633" lon="145.36251000000001">
    <ele>581.1800000000001</ele>
   </trkpt>
   <trkpt lat="-37.85619500230768" lon="145.36324500121862">
    <ele>576.9200000000001</ele>
   </trkpt>
   <trkpt lat="-37.85606000000001" lon="145.36398">
    <ele>573.86</ele>
   </trkpt>
   <trkpt lat="-37.85605" lon="145.36415000000002">
    <ele>573.44</ele>
   </trkpt>
   <trkpt lat="-37.856010000000005" lon="145.36421">
    <ele>573.44</ele>
   </trkpt>
   <trkpt lat="-37.855940000000004" lon="145.36425">
    <ele>571.1800000000001</ele>
   </trkpt>
   <trkpt lat="-37.85596" lon="145.36437">
    <ele>571.2700000000001</ele>
   </trkpt>
   <trkpt lat="-37.855900000000005" lon="145.36436">
    <ele>571.74</ele>
   </trkpt>
   <trkpt lat="-37.855722510680565" lon="145.36527750661614">
    <ele>571.06</ele>
   </trkpt>
   <trkpt lat="-37.855545014242175" lon="145.366195008814">
    <ele>572.89</ele>
   </trkpt>
   <trkpt lat="-37.855367510684886" lon="145.36711250659351">
    <ele>573.59</ele>
   </trkpt>
   <trkpt lat="-37.85519" lon="145.36803">
    <ele>573.1</ele>
   </trkpt>
   <trkpt lat="-37.85499" lon="145.36845000000002">
    <ele>572.46</ele>
   </trkpt>
   <trkpt lat="-37.854580000000006" lon="145.36896000000002">
    <ele>572.32</ele>
   </trkpt>
   <trkpt lat="-37.85445" lon="145.36905000000002">
    <ele>572.5100000000001</ele>
   </trkpt>
   <trkpt lat="-37.85441" lon="145.36911">
    <ele>572.5100000000001</ele>
   </trkpt>
   <trkpt lat="-37.85409000000001" lon="145.36882">
    <ele>576.99</ele>
   </trkpt>
   <trkpt lat="-37.853660000000005" lon="145.36857">
    <ele>579.07</ele>
   </trkpt>
   <trkpt lat="-37.85314" lon="145.36833000000001">
    <ele>578.2900000000001</ele>
   </trkpt>
   <trkpt lat="-37.85295" lon="145.36823">
    <ele>577.37</ele>
   </trkpt>
   <trkpt lat="-37.85264" lon="145.36819">
    <ele>574.3900000000001</ele>
   </trkpt>
   <trkpt lat="-37.85228" lon="145.36824000000001">
    <ele>570.76</ele>
   </trkpt>
   <trkpt lat="-37.85215" lon="145.3683">
    <ele>569.9300000000001</ele>
   </trkpt>
  </trkseg>
 </trk>
</gpx>
