<?xml version="1.0" encoding="UTF-8"?>
<gpx creator="StravaGPX" version="1.1" xmlns="http://www.topografix.com/GPX/1/1" xmlns:xsi="http://www.w3.org/2001/XMLSchema-instance" xsi:schemaLocation="http://www.topografix.com/GPX/1/1 http://www.topografix.com/GPX/1/1/gpx.xsd">
 <metadata>
  <name>DTR 1000 Steps 30 August 14k </name>
  <author>
   <name>john csorgo</name>
   <link href="https://www.strava.com/athletes/61185584"/>
  </author>
  <copyright author="OpenStreetMap contributors">
   <year>2020</year>
   <license>https://www.openstreetmap.org/copyright</license>
  </copyright>
  <link href="https://www.strava.com/routes/3527566718540530946"/>
 </metadata>
 <trk>
  <name>DTR 1000 Steps 30 August 14k </name>
  <link href="https://www.strava.com/routes/3527566718540530946"/>
  <type>running</type>
  <trkseg>
   <trkpt lat="-37.889810000000004" lon="145.31752">
    <ele>189.61</ele>
   </trkpt>
   <trkpt lat="-37.890280000000004" lon="145.31739000000002">
    <ele>185.8</ele>
   </trkpt>
   <trkpt lat="-37.89049" lon="145.31721000000002">
    <ele>183.71</ele>
   </trkpt>
   <trkpt lat="-37.890730000000005" lon="145.31686000000002">
    <ele>181.8</ele>
   </trkpt>
   <trkpt lat="-37.8909" lon="145.31665">
    <ele>181.32</ele>
   </trkpt>
   <trkpt lat="-37.89099" lon="145.31640000000002">
    <ele>181.58</ele>
   </trkpt>
   <trkpt lat="-37.89099" lon="145.31613000000002">
    <ele>181.70000000000002</ele>
   </trkpt>
   <trkpt lat="-37.89108" lon="145.31604000000002">
    <ele>180.83</ele>
   </trkpt>
   <trkpt lat="-37.89148" lon="145.31548">
    <ele>175.02</ele>
   </trkpt>
   <trkpt lat="-37.89159" lon="145.3153">
    <ele>173.86</ele>
   </trkpt>
   <trkpt lat="-37.89164" lon="145.31531">
    <ele>173.86</ele>
   </trkpt>
   <trkpt lat="-37.89202" lon="145.31486">
    <ele>166.83</ele>
   </trkpt>
   <trkpt lat="-37.892360000000004" lon="145.31427000000002">
    <ele>162.86</ele>
   </trkpt>
   <trkpt lat="-37.892680000000006" lon="145.31344">
    <ele>154.8</ele>
   </trkpt>
   <trkpt lat="-37.8928" lon="145.31317">
    <ele>150.79</ele>
   </trkpt>
   <trkpt lat="-37.89280000165223" lon="145.31254499959536">
    <ele>149.92000000000002</ele>
   </trkpt>
   <trkpt lat="-37.8928" lon="145.31192000000001">
    <ele>147.29</ele>
   </trkpt>
   <trkpt lat="-37.89285" lon="145.31178">
    <ele>146.00000000000003</ele>
   </trkpt>
   <trkpt lat="-37.89289" lon="145.31139000000002">
    <ele>143.51</ele>
   </trkpt>
   <trkpt lat="-37.89289" lon="145.31119">
    <ele>143.13</ele>
   </trkpt>
   <trkpt lat="-37.89273" lon="145.31086000000002">
    <ele>144.27</ele>
   </trkpt>
   <trkpt lat="-37.89264" lon="145.31022000000002">
    <ele>143.51</ele>
   </trkpt>
   <trkpt lat="-37.892565002133075" lon="145.30950999928493">
    <ele>140.84000000000003</ele>
   </trkpt>
   <trkpt lat="-37.89249" lon="145.30880000000002">
    <ele>136.8</ele>
   </trkpt>
   <trkpt lat="-37.89233" lon="145.30793">
    <ele>135.9</ele>
   </trkpt>
   <trkpt lat="-37.89222" lon="145.30681">
    <ele>138.11</ele>
   </trkpt>
   <trkpt lat="-37.89215" lon="145.30661">
    <ele>138.11</ele>
   </trkpt>
   <trkpt lat="-37.892210000000006" lon="145.30593000000002">
    <ele>132.21</ele>
   </trkpt>
   <trkpt lat="-37.89211" lon="145.30587">
    <ele>132.03</ele>
   </trkpt>
   <trkpt lat="-37.89204" lon="145.30581">
    <ele>131.79000000000002</ele>
   </trkpt>
   <trkpt lat="-37.8917200052951" lon="145.30501665969814">
    <ele>130.64000000000001</ele>
   </trkpt>
   <trkpt lat="-37.891400005266" lon="145.30422332629277">
    <ele>131.76000000000002</ele>
   </trkpt>
   <trkpt lat="-37.89108" lon="145.30343000000002">
    <ele>133.22</ele>
   </trkpt>
   <trkpt lat="-37.89076" lon="145.30273000000003">
    <ele>132.56</ele>
   </trkpt>
   <trkpt lat="-37.890270003559564" lon="145.3018149939448">
    <ele>132.01000000000002</ele>
   </trkpt>
   <trkpt lat="-37.88978" lon="145.3009">
    <ele>130.65</ele>
   </trkpt>
   <trkpt lat="-37.88958" lon="145.30058000000002">
    <ele>130.21</ele>
   </trkpt>
   <trkpt lat="-37.88936" lon="145.30029000000002">
    <ele>129.57000000000002</ele>
   </trkpt>
   <trkpt lat="-37.888920000000006" lon="145.29981">
    <ele>129.84</ele>
   </trkpt>
   <trkpt lat="-37.88891" lon="145.2998">
    <ele>129.84</ele>
   </trkpt>
   <trkpt lat="-37.88824" lon="145.29981">
    <ele>130.12</ele>
   </trkpt>
   <trkpt lat="-37.887744999961136" lon="145.2999950013123">
    <ele>130.18</ele>
   </trkpt>
   <trkpt lat="-37.88725" lon="145.30018">
    <ele>129.38000000000002</ele>
   </trkpt>
   <trkpt lat="-37.88707" lon="145.30030000000002">
    <ele>128.76000000000002</ele>
   </trkpt>
   <trkpt lat="-37.886900000000004" lon="145.30075000000002">
    <ele>126.2</ele>
   </trkpt>
   <trkpt lat="-37.8868" lon="145.30116">
    <ele>128.71</ele>
   </trkpt>
   <trkpt lat="-37.88669" lon="145.30125">
    <ele>130.99</ele>
   </trkpt>
   <trkpt lat="-37.88671" lon="145.30129000000002">
    <ele>131.4</ele>
   </trkpt>
   <trkpt lat="-37.88671" lon="145.30143">
    <ele>133.36</ele>
   </trkpt>
   <trkpt lat="-37.88667" lon="145.30145000000002">
    <ele>134.14000000000001</ele>
   </trkpt>
   <trkpt lat="-37.88662" lon="145.30138000000002">
    <ele>134.79000000000002</ele>
   </trkpt>
   <trkpt lat="-37.886570000000006" lon="145.30142">
    <ele>136.16</ele>
   </trkpt>
   <trkpt lat="-37.88653" lon="145.30142">
    <ele>137.19</ele>
   </trkpt>
   <trkpt lat="-37.88649" lon="145.30145000000002">
    <ele>138.21</ele>
   </trkpt>
   <trkpt lat="-37.88646" lon="145.30152">
    <ele>139.97</ele>
   </trkpt>
   <trkpt lat="-37.886410000000005" lon="145.30154000000002">
    <ele>141.02</ele>
   </trkpt>
   <trkpt lat="-37.8864" lon="145.30155000000002">
    <ele>141.36</ele>
   </trkpt>
   <trkpt lat="-37.88642" lon="145.30162">
    <ele>142.11</ele>
   </trkpt>
   <trkpt lat="-37.886390000000006" lon="145.30168">
    <ele>142.91</ele>
   </trkpt>
   <trkpt lat="-37.88633" lon="145.30165000000002">
    <ele>143.43</ele>
   </trkpt>
   <trkpt lat="-37.88626" lon="145.30190000000002">
    <ele>147.33</ele>
   </trkpt>
   <trkpt lat="-37.88622" lon="145.30229">
    <ele>150.53000000000003</ele>
   </trkpt>
   <trkpt lat="-37.88627" lon="145.3023">
    <ele>150.7</ele>
   </trkpt>
   <trkpt lat="-37.8862" lon="145.30255000000002">
    <ele>152.93</ele>
   </trkpt>
   <trkpt lat="-37.8862" lon="145.30261000000002">
    <ele>153.82000000000002</ele>
   </trkpt>
   <trkpt lat="-37.88631" lon="145.30269">
    <ele>155.84</ele>
   </trkpt>
   <trkpt lat="-37.88631" lon="145.30272000000002">
    <ele>156.37</ele>
   </trkpt>
   <trkpt lat="-37.8862" lon="145.30275">
    <ele>156.85000000000002</ele>
   </trkpt>
   <trkpt lat="-37.8862" lon="145.30278">
    <ele>158.14</ele>
   </trkpt>
   <trkpt lat="-37.88626" lon="145.30282000000003">
    <ele>158.14</ele>
   </trkpt>
   <trkpt lat="-37.88626" lon="145.30286">
    <ele>159.03</ele>
   </trkpt>
   <trkpt lat="-37.88617" lon="145.30288000000002">
    <ele>159.94000000000003</ele>
   </trkpt>
   <trkpt lat="-37.88617" lon="145.30290000000002">
    <ele>159.94000000000003</ele>
   </trkpt>
   <trkpt lat="-37.88626" lon="145.30298000000002">
    <ele>160.98000000000002</ele>
   </trkpt>
   <trkpt lat="-37.88617" lon="145.30304">
    <ele>162.23000000000002</ele>
   </trkpt>
   <trkpt lat="-37.886140000000005" lon="145.30308000000002">
    <ele>163.61</ele>
   </trkpt>
   <trkpt lat="-37.88629" lon="145.3032">
    <ele>167.07000000000002</ele>
   </trkpt>
   <trkpt lat="-37.88709" lon="145.30356">
    <ele>177.50000000000003</ele>
   </trkpt>
   <trkpt lat="-37.88741" lon="145.30378000000002">
    <ele>182.86</ele>
   </trkpt>
   <trkpt lat="-37.88763" lon="145.3039">
    <ele>186.4</ele>
   </trkpt>
   <trkpt lat="-37.887800000000006" lon="145.30392">
    <ele>190.94000000000003</ele>
   </trkpt>
   <trkpt lat="-37.8879" lon="145.30389000000002">
    <ele>192.13000000000002</ele>
   </trkpt>
   <trkpt lat="-37.88801" lon="145.30383">
    <ele>192.9</ele>
   </trkpt>
   <trkpt lat="-37.88821" lon="145.30367">
    <ele>191.62</ele>
   </trkpt>
   <trkpt lat="-37.88839" lon="145.30360000000002">
    <ele>191.01000000000002</ele>
   </trkpt>
   <trkpt lat="-37.8885" lon="145.30361000000002">
    <ele>190.84</ele>
   </trkpt>
   <trkpt lat="-37.889070000000004" lon="145.30392">
    <ele>190.95000000000002</ele>
   </trkpt>
   <trkpt lat="-37.88922" lon="145.30404000000001">
    <ele>193.46</ele>
   </trkpt>
   <trkpt lat="-37.88951" lon="145.3042">
    <ele>198.89000000000001</ele>
   </trkpt>
   <trkpt lat="-37.88955" lon="145.30424000000002">
    <ele>198.89000000000001</ele>
   </trkpt>
   <trkpt lat="-37.88955" lon="145.30428">
    <ele>200.67000000000002</ele>
   </trkpt>
   <trkpt lat="-37.88949" lon="145.30435">
    <ele>200.67000000000002</ele>
   </trkpt>
   <trkpt lat="-37.88942" lon="145.30439">
    <ele>203.96000000000004</ele>
   </trkpt>
   <trkpt lat="-37.88942" lon="145.30438">
    <ele>204.24</ele>
   </trkpt>
   <trkpt lat="-37.88915" lon="145.30452000000002">
    <ele>208.15000000000003</ele>
   </trkpt>
   <trkpt lat="-37.88897" lon="145.30455">
    <ele>213.06000000000003</ele>
   </trkpt>
   <trkpt lat="-37.8887" lon="145.30462">
    <ele>212.67000000000002</ele>
   </trkpt>
   <trkpt lat="-37.8885" lon="145.30459000000002">
    <ele>211.14000000000001</ele>
   </trkpt>
   <trkpt lat="-37.88837" lon="145.30448">
    <ele>210.21</ele>
   </trkpt>
   <trkpt lat="-37.88832" lon="145.30445">
    <ele>210.21</ele>
   </trkpt>
   <trkpt lat="-37.88823" lon="145.30448">
    <ele>208.67000000000002</ele>
   </trkpt>
   <trkpt lat="-37.8881" lon="145.30462">
    <ele>207.65000000000003</ele>
   </trkpt>
   <trkpt lat="-37.88803" lon="145.30467000000002">
    <ele>207.59000000000003</ele>
   </trkpt>
   <trkpt lat="-37.88803" lon="145.30472">
    <ele>207.59000000000003</ele>
   </trkpt>
   <trkpt lat="-37.88797" lon="145.30484">
    <ele>209.82</ele>
   </trkpt>
   <trkpt lat="-37.88779" lon="145.30486000000002">
    <ele>212.62000000000003</ele>
   </trkpt>
   <trkpt lat="-37.88743" lon="145.30495000000002">
    <ele>217.89000000000001</ele>
   </trkpt>
   <trkpt lat="-37.88678" lon="145.30505000000002">
    <ele>225.37</ele>
   </trkpt>
   <trkpt lat="-37.88669" lon="145.3051">
    <ele>226.01000000000002</ele>
   </trkpt>
   <trkpt lat="-37.88651" lon="145.30526">
    <ele>231.43</ele>
   </trkpt>
   <trkpt lat="-37.88622" lon="145.30555">
    <ele>235.19</ele>
   </trkpt>
   <trkpt lat="-37.88604" lon="145.30565">
    <ele>237.34000000000003</ele>
   </trkpt>
   <trkpt lat="-37.88552500007154" lon="145.30579000098223">
    <ele>243.55</ele>
   </trkpt>
   <trkpt lat="-37.88501" lon="145.30593000000002">
    <ele>252.21000000000004</ele>
   </trkpt>
   <trkpt lat="-37.88485" lon="145.30595000000002">
    <ele>255.06</ele>
   </trkpt>
   <trkpt lat="-37.8847" lon="145.30594000000002">
    <ele>256.39</ele>
   </trkpt>
   <trkpt lat="-37.88438" lon="145.30587">
    <ele>262.11</ele>
   </trkpt>
   <trkpt lat="-37.884" lon="145.3059">
    <ele>266.54</ele>
   </trkpt>
   <trkpt lat="-37.88364" lon="145.30588">
    <ele>270.86</ele>
   </trkpt>
   <trkpt lat="-37.88353" lon="145.30589">
    <ele>274.06</ele>
   </trkpt>
   <trkpt lat="-37.88331" lon="145.30595000000002">
    <ele>275.82</ele>
   </trkpt>
   <trkpt lat="-37.882815000287366" lon="145.30617000144198">
    <ele>283.98</ele>
   </trkpt>
   <trkpt lat="-37.88232" lon="145.30639000000002">
    <ele>290.3</ele>
   </trkpt>
   <trkpt lat="-37.88183" lon="145.30649000000003">
    <ele>294.82</ele>
   </trkpt>
   <trkpt lat="-37.88105" lon="145.30653">
    <ele>301.86</ele>
   </trkpt>
   <trkpt lat="-37.881" lon="145.30655000000002">
    <ele>302.31</ele>
   </trkpt>
   <trkpt lat="-37.88087" lon="145.30666000000002">
    <ele>303.85</ele>
   </trkpt>
   <trkpt lat="-37.88083" lon="145.30677">
    <ele>305.00000000000006</ele>
   </trkpt>
   <trkpt lat="-37.880860000000006" lon="145.30694000000003">
    <ele>307.69</ele>
   </trkpt>
   <trkpt lat="-37.88089" lon="145.30704">
    <ele>307.69</ele>
   </trkpt>
   <trkpt lat="-37.88109" lon="145.30728000000002">
    <ele>311.17</ele>
   </trkpt>
   <trkpt lat="-37.88156" lon="145.30758">
    <ele>323.13</ele>
   </trkpt>
   <trkpt lat="-37.881640000000004" lon="145.30761">
    <ele>323.13</ele>
   </trkpt>
   <trkpt lat="-37.88208" lon="145.30768">
    <ele>331.07000000000005</ele>
   </trkpt>
   <trkpt lat="-37.88232" lon="145.30774000000002">
    <ele>333.72</ele>
   </trkpt>
   <trkpt lat="-37.88268" lon="145.30786">
    <ele>335.78000000000003</ele>
   </trkpt>
   <trkpt lat="-37.88313" lon="145.30817000000002">
    <ele>341.68</ele>
   </trkpt>
   <trkpt lat="-37.88333" lon="145.30835000000002">
    <ele>344.19000000000005</ele>
   </trkpt>
   <trkpt lat="-37.88353" lon="145.3086">
    <ele>346.21000000000004</ele>
   </trkpt>
   <trkpt lat="-37.883860000000006" lon="145.30907000000002">
    <ele>349.5</ele>
   </trkpt>
   <trkpt lat="-37.883950000000006" lon="145.30926000000002">
    <ele>352.37</ele>
   </trkpt>
   <trkpt lat="-37.88398" lon="145.3095">
    <ele>352.37</ele>
   </trkpt>
   <trkpt lat="-37.88398" lon="145.30967">
    <ele>354.49</ele>
   </trkpt>
   <trkpt lat="-37.88391" lon="145.31067000000002">
    <ele>360.84000000000003</ele>
   </trkpt>
   <trkpt lat="-37.88394" lon="145.31089">
    <ele>363.62000000000006</ele>
   </trkpt>
   <trkpt lat="-37.884" lon="145.31125">
    <ele>366.69</ele>
   </trkpt>
   <trkpt lat="-37.88411" lon="145.31159000000002">
    <ele>369.89000000000004</ele>
   </trkpt>
   <trkpt lat="-37.88436000114402" lon="145.31210499829754">
    <ele>374.89000000000004</ele>
   </trkpt>
   <trkpt lat="-37.88461" lon="145.31262">
    <ele>377.99000000000007</ele>
   </trkpt>
   <trkpt lat="-37.884640000000005" lon="145.31277">
    <ele>378.55000000000007</ele>
   </trkpt>
   <trkpt lat="-37.88429" lon="145.31272">
    <ele>385.83</ele>
   </trkpt>
   <trkpt lat="-37.88414" lon="145.31267000000003">
    <ele>388.8</ele>
   </trkpt>
   <trkpt lat="-37.88369" lon="145.31236">
    <ele>395.51000000000005</ele>
   </trkpt>
   <trkpt lat="-37.8834" lon="145.31222000000002">
    <ele>400.70000000000005</ele>
   </trkpt>
   <trkpt lat="-37.88308" lon="145.31215">
    <ele>405.90000000000003</ele>
   </trkpt>
   <trkpt lat="-37.88289" lon="145.31214">
    <ele>407.78000000000003</ele>
   </trkpt>
   <trkpt lat="-37.882740000000005" lon="145.31214">
    <ele>408.90000000000003</ele>
   </trkpt>
   <trkpt lat="-37.8825" lon="145.31224">
    <ele>409.21000000000004</ele>
   </trkpt>
   <trkpt lat="-37.88199" lon="145.31279">
    <ele>407.9200000000001</ele>
   </trkpt>
   <trkpt lat="-37.88152" lon="145.31319000000002">
    <ele>411.44</ele>
   </trkpt>
   <trkpt lat="-37.88118" lon="145.31343">
    <ele>414.44</ele>
   </trkpt>
   <trkpt lat="-37.88082" lon="145.31362000000001">
    <ele>419.37</ele>
   </trkpt>
   <trkpt lat="-37.88049" lon="145.31388">
    <ele>422.93</ele>
   </trkpt>
   <trkpt lat="-37.88026" lon="145.31401000000002">
    <ele>424.90000000000003</ele>
   </trkpt>
   <trkpt lat="-37.88013" lon="145.31401000000002">
    <ele>425.73</ele>
   </trkpt>
   <trkpt lat="-37.87997" lon="145.31387">
    <ele>425.91</ele>
   </trkpt>
   <trkpt lat="-37.87988" lon="145.31388">
    <ele>425.89000000000004</ele>
   </trkpt>
   <trkpt lat="-37.87975" lon="145.31393">
    <ele>426.14</ele>
   </trkpt>
   <trkpt lat="-37.87953" lon="145.31416000000002">
    <ele>426.22</ele>
   </trkpt>
   <trkpt lat="-37.87941" lon="145.31419000000002">
    <ele>425.28000000000003</ele>
   </trkpt>
   <trkpt lat="-37.87928" lon="145.31419000000002">
    <ele>425.28000000000003</ele>
   </trkpt>
   <trkpt lat="-37.87882999993238" lon="145.31413999968586">
    <ele>421.47</ele>
   </trkpt>
   <trkpt lat="-37.87838" lon="145.31409000000002">
    <ele>416.18000000000006</ele>
   </trkpt>
   <trkpt lat="-37.87796" lon="145.31396">
    <ele>411.54</ele>
   </trkpt>
   <trkpt lat="-37.87753" lon="145.31387">
    <ele>407.52000000000004</ele>
   </trkpt>
   <trkpt lat="-37.87729" lon="145.31387">
    <ele>402.95000000000005</ele>
   </trkpt>
   <trkpt lat="-37.87684" lon="145.31383000000002">
    <ele>397.49</ele>
   </trkpt>
   <trkpt lat="-37.87635" lon="145.31387">
    <ele>391.18</ele>
   </trkpt>
   <trkpt lat="-37.87585" lon="145.31401000000002">
    <ele>385.59000000000003</ele>
   </trkpt>
   <trkpt lat="-37.8757" lon="145.31402">
    <ele>385.59000000000003</ele>
   </trkpt>
   <trkpt lat="-37.87532" lon="145.31391000000002">
    <ele>381.12</ele>
   </trkpt>
   <trkpt lat="-37.87489" lon="145.31387">
    <ele>378.09000000000003</ele>
   </trkpt>
   <trkpt lat="-37.87447" lon="145.31404">
    <ele>374.02000000000004</ele>
   </trkpt>
   <trkpt lat="-37.8742" lon="145.31409000000002">
    <ele>371.9</ele>
   </trkpt>
   <trkpt lat="-37.87366" lon="145.31386">
    <ele>370.35</ele>
   </trkpt>
   <trkpt lat="-37.87344" lon="145.31381000000002">
    <ele>369.45000000000005</ele>
   </trkpt>
   <trkpt lat="-37.87288" lon="145.31377">
    <ele>367.51</ele>
   </trkpt>
   <trkpt lat="-37.872600000000006" lon="145.31367">
    <ele>363.79</ele>
   </trkpt>
   <trkpt lat="-37.87241" lon="145.3135">
    <ele>361.05</ele>
   </trkpt>
   <trkpt lat="-37.87229" lon="145.31326">
    <ele>360.12000000000006</ele>
   </trkpt>
   <trkpt lat="-37.87227" lon="145.31307">
    <ele>357.58</ele>
   </trkpt>
   <trkpt lat="-37.87229" lon="145.31288">
    <ele>355.93</ele>
   </trkpt>
   <trkpt lat="-37.872350000000004" lon="145.31275000000002">
    <ele>354.12000000000006</ele>
   </trkpt>
   <trkpt lat="-37.87236" lon="145.31274000000002">
    <ele>354.09000000000003</ele>
   </trkpt>
   <trkpt lat="-37.87254" lon="145.31233">
    <ele>349.92</ele>
   </trkpt>
   <trkpt lat="-37.87259" lon="145.31212000000002">
    <ele>348.62000000000006</ele>
   </trkpt>
   <trkpt lat="-37.87254" lon="145.31198">
    <ele>348.04</ele>
   </trkpt>
   <trkpt lat="-37.87245" lon="145.31188">
    <ele>348.80000000000007</ele>
   </trkpt>
   <trkpt lat="-37.87236" lon="145.31185000000002">
    <ele>350.0</ele>
   </trkpt>
   <trkpt lat="-37.87227" lon="145.31188">
    <ele>351.89000000000004</ele>
   </trkpt>
   <trkpt lat="-37.87201" lon="145.31204000000002">
    <ele>360.53000000000003</ele>
   </trkpt>
   <trkpt lat="-37.87182" lon="145.31231000000002">
    <ele>370.33000000000004</ele>
   </trkpt>
   <trkpt lat="-37.87174" lon="145.31253">
    <ele>376.65000000000003</ele>
   </trkpt>
   <trkpt lat="-37.87165" lon="145.31262">
    <ele>376.65000000000003</ele>
   </trkpt>
   <trkpt lat="-37.87133" lon="145.3128">
    <ele>387.28000000000003</ele>
   </trkpt>
   <trkpt lat="-37.87127" lon="145.31286">
    <ele>389.11</ele>
   </trkpt>
   <trkpt lat="-37.87106" lon="145.31255000000002">
    <ele>390.0</ele>
   </trkpt>
   <trkpt lat="-37.87046" lon="145.31199">
    <ele>393.70000000000005</ele>
   </trkpt>
   <trkpt lat="-37.8703" lon="145.31188">
    <ele>394.65000000000003</ele>
   </trkpt>
   <trkpt lat="-37.87021" lon="145.31183000000001">
    <ele>395.17</ele>
   </trkpt>
   <trkpt lat="-37.86994" lon="145.31179">
    <ele>398.6</ele>
   </trkpt>
   <trkpt lat="-37.86981" lon="145.31181">
    <ele>399.05</ele>
   </trkpt>
   <trkpt lat="-37.86963" lon="145.31187">
    <ele>400.56</ele>
   </trkpt>
   <trkpt lat="-37.8695" lon="145.31185000000002">
    <ele>401.49</ele>
   </trkpt>
   <trkpt lat="-37.86921" lon="145.31163">
    <ele>405.08000000000004</ele>
   </trkpt>
   <trkpt lat="-37.868840000000006" lon="145.31129">
    <ele>412.76</ele>
   </trkpt>
   <trkpt lat="-37.86871" lon="145.31121000000002">
    <ele>414.86</ele>
   </trkpt>
   <trkpt lat="-37.86847" lon="145.31113000000002">
    <ele>417.36</ele>
   </trkpt>
   <trkpt lat="-37.86836" lon="145.31107">
    <ele>417.66</ele>
   </trkpt>
   <trkpt lat="-37.86822" lon="145.31095000000002">
    <ele>417.16</ele>
   </trkpt>
   <trkpt lat="-37.868" lon="145.31061000000003">
    <ele>412.48</ele>
   </trkpt>
   <trkpt lat="-37.8678" lon="145.31037">
    <ele>406.37</ele>
   </trkpt>
   <trkpt lat="-37.86773" lon="145.31028">
    <ele>405.51000000000005</ele>
   </trkpt>
   <trkpt lat="-37.86748" lon="145.30969000000002">
    <ele>395.88</ele>
   </trkpt>
   <trkpt lat="-37.86726" lon="145.30929">
    <ele>389.28000000000003</ele>
   </trkpt>
   <trkpt lat="-37.86683" lon="145.30834000000002">
    <ele>364.66</ele>
   </trkpt>
   <trkpt lat="-37.86672" lon="145.30775">
    <ele>354.57000000000005</ele>
   </trkpt>
   <trkpt lat="-37.86668" lon="145.30759">
    <ele>352.49</ele>
   </trkpt>
   <trkpt lat="-37.8665" lon="145.30726">
    <ele>349.34000000000003</ele>
   </trkpt>
   <trkpt lat="-37.86641" lon="145.30689">
    <ele>342.21</ele>
   </trkpt>
   <trkpt lat="-37.86641" lon="145.30642">
    <ele>333.25000000000006</ele>
   </trkpt>
   <trkpt lat="-37.86625" lon="145.3059">
    <ele>321.79</ele>
   </trkpt>
   <trkpt lat="-37.86612" lon="145.30566000000002">
    <ele>316.38000000000005</ele>
   </trkpt>
   <trkpt lat="-37.86603" lon="145.30563">
    <ele>314.35</ele>
   </trkpt>
   <trkpt lat="-37.86576" lon="145.30557000000002">
    <ele>310.22</ele>
   </trkpt>
   <trkpt lat="-37.86569" lon="145.30548000000002">
    <ele>308.62</ele>
   </trkpt>
   <trkpt lat="-37.86567" lon="145.30535">
    <ele>306.14000000000004</ele>
   </trkpt>
   <trkpt lat="-37.86567" lon="145.30508">
    <ele>303.58</ele>
   </trkpt>
   <trkpt lat="-37.86558" lon="145.30416000000002">
    <ele>293.04</ele>
   </trkpt>
   <trkpt lat="-37.86547" lon="145.30376">
    <ele>286.27000000000004</ele>
   </trkpt>
   <trkpt lat="-37.86527" lon="145.3035">
    <ele>279.88</ele>
   </trkpt>
   <trkpt lat="-37.86475" lon="145.30303">
    <ele>265.16</ele>
   </trkpt>
   <trkpt lat="-37.8645" lon="145.30270000000002">
    <ele>259.17</ele>
   </trkpt>
   <trkpt lat="-37.86442" lon="145.30261000000002">
    <ele>257.59999999999997</ele>
   </trkpt>
   <trkpt lat="-37.864340000000006" lon="145.30257">
    <ele>255.31000000000003</ele>
   </trkpt>
   <trkpt lat="-37.86421" lon="145.30257">
    <ele>251.36</ele>
   </trkpt>
   <trkpt lat="-37.86406" lon="145.30265">
    <ele>251.36</ele>
   </trkpt>
   <trkpt lat="-37.86399" lon="145.30274">
    <ele>248.89000000000001</ele>
   </trkpt>
   <trkpt lat="-37.86399" lon="145.30273000000003">
    <ele>248.67000000000002</ele>
   </trkpt>
   <trkpt lat="-37.86379" lon="145.30302">
    <ele>243.14000000000001</ele>
   </trkpt>
   <trkpt lat="-37.863710000000005" lon="145.30308000000002">
    <ele>243.07</ele>
   </trkpt>
   <trkpt lat="-37.86379" lon="145.30353000000002">
    <ele>247.3</ele>
   </trkpt>
   <trkpt lat="-37.863870000000006" lon="145.30377000000001">
    <ele>249.22000000000003</ele>
   </trkpt>
   <trkpt lat="-37.86403" lon="145.30415000000002">
    <ele>254.17000000000002</ele>
   </trkpt>
   <trkpt lat="-37.8645" lon="145.30495000000002">
    <ele>261.43</ele>
   </trkpt>
   <trkpt lat="-37.86457" lon="145.30517">
    <ele>264.06</ele>
   </trkpt>
   <trkpt lat="-37.86462" lon="145.30539000000002">
    <ele>267.23</ele>
   </trkpt>
   <trkpt lat="-37.86459" lon="145.30563">
    <ele>268.65</ele>
   </trkpt>
   <trkpt lat="-37.86455" lon="145.30585000000002">
    <ele>266.62</ele>
   </trkpt>
   <trkpt lat="-37.86437" lon="145.30624">
    <ele>261.09000000000003</ele>
   </trkpt>
   <trkpt lat="-37.8643" lon="145.30647000000002">
    <ele>260.24</ele>
   </trkpt>
   <trkpt lat="-37.86417" lon="145.30703000000003">
    <ele>259.27</ele>
   </trkpt>
   <trkpt lat="-37.86415" lon="145.30717">
    <ele>260.39</ele>
   </trkpt>
   <trkpt lat="-37.86419" lon="145.3074">
    <ele>262.13000000000005</ele>
   </trkpt>
   <trkpt lat="-37.86435" lon="145.30793">
    <ele>270.25000000000006</ele>
   </trkpt>
   <trkpt lat="-37.86428" lon="145.30827000000002">
    <ele>270.74</ele>
   </trkpt>
   <trkpt lat="-37.86435" lon="145.30909000000003">
    <ele>269.97</ele>
   </trkpt>
   <trkpt lat="-37.86439" lon="145.30924000000002">
    <ele>271.47</ele>
   </trkpt>
   <trkpt lat="-37.86471" lon="145.30987000000002">
    <ele>284.03</ele>
   </trkpt>
   <trkpt lat="-37.865" lon="145.31022000000002">
    <ele>293.8</ele>
   </trkpt>
   <trkpt lat="-37.86509" lon="145.31053">
    <ele>297.28000000000003</ele>
   </trkpt>
   <trkpt lat="-37.86522" lon="145.31083">
    <ele>299.32000000000005</ele>
   </trkpt>
   <trkpt lat="-37.86533" lon="145.31125">
    <ele>300.72</ele>
   </trkpt>
   <trkpt lat="-37.86536" lon="145.31157000000002">
    <ele>300.24</ele>
   </trkpt>
   <trkpt lat="-37.86533" lon="145.31178">
    <ele>300.4</ele>
   </trkpt>
   <trkpt lat="-37.86547" lon="145.31276000000003">
    <ele>310.70000000000005</ele>
   </trkpt>
   <trkpt lat="-37.86571" lon="145.31355000000002">
    <ele>323.17</ele>
   </trkpt>
   <trkpt lat="-37.866" lon="145.31425000000002">
    <ele>327.22</ele>
   </trkpt>
   <trkpt lat="-37.86603" lon="145.31443000000002">
    <ele>328.93</ele>
   </trkpt>
   <trkpt lat="-37.86603" lon="145.31419000000002">
    <ele>329.68</ele>
   </trkpt>
   <trkpt lat="-37.86603" lon="145.31418000000002">
    <ele>329.76000000000005</ele>
   </trkpt>
   <trkpt lat="-37.86603" lon="145.31349">
    <ele>335.65</ele>
   </trkpt>
   <trkpt lat="-37.86609" lon="145.31339">
    <ele>338.01000000000005</ele>
   </trkpt>
   <trkpt lat="-37.86616" lon="145.31338000000002">
    <ele>339.47</ele>
   </trkpt>
   <trkpt lat="-37.86623" lon="145.31341">
    <ele>340.14000000000004</ele>
   </trkpt>
   <trkpt lat="-37.86634" lon="145.31354000000002">
    <ele>341.86000000000007</ele>
   </trkpt>
   <trkpt lat="-37.86654" lon="145.31367">
    <ele>344.61</ele>
   </trkpt>
   <trkpt lat="-37.8667" lon="145.31372000000002">
    <ele>345.75</ele>
   </trkpt>
   <trkpt lat="-37.86723500004538" lon="145.31378999949501">
    <ele>348.31</ele>
   </trkpt>
   <trkpt lat="-37.86777" lon="145.31386">
    <ele>354.42</ele>
   </trkpt>
   <trkpt lat="-37.86833" lon="145.31385">
    <ele>354.94</ele>
   </trkpt>
   <trkpt lat="-37.86856" lon="145.31388">
    <ele>356.44000000000005</ele>
   </trkpt>
   <trkpt lat="-37.86878" lon="145.31396">
    <ele>359.58</ele>
   </trkpt>
   <trkpt lat="-37.869020000000006" lon="145.31414">
    <ele>361.62000000000006</ele>
   </trkpt>
   <trkpt lat="-37.86972" lon="145.31458">
    <ele>374.79</ele>
   </trkpt>
   <trkpt lat="-37.86988" lon="145.31455000000003">
    <ele>374.79</ele>
   </trkpt>
   <trkpt lat="-37.86997" lon="145.31447">
    <ele>378.91</ele>
   </trkpt>
   <trkpt lat="-37.87017" lon="145.31414">
    <ele>383.33</ele>
   </trkpt>
   <trkpt lat="-37.87026" lon="145.31409000000002">
    <ele>384.73</ele>
   </trkpt>
   <trkpt lat="-37.870340000000006" lon="145.31408000000002">
    <ele>385.97</ele>
   </trkpt>
   <trkpt lat="-37.87041" lon="145.31411">
    <ele>387.52000000000004</ele>
   </trkpt>
   <trkpt lat="-37.87064" lon="145.31427000000002">
    <ele>389.41</ele>
   </trkpt>
   <trkpt lat="-37.871" lon="145.31480000000002">
    <ele>396.74</ele>
   </trkpt>
   <trkpt lat="-37.871190000000006" lon="145.31547">
    <ele>403.91</ele>
   </trkpt>
   <trkpt lat="-37.871" lon="145.31558">
    <ele>402.9800000000001</ele>
   </trkpt>
   <trkpt lat="-37.87059" lon="145.31573">
    <ele>397.85</ele>
   </trkpt>
   <trkpt lat="-37.87041" lon="145.31596000000002">
    <ele>396.75000000000006</ele>
   </trkpt>
   <trkpt lat="-37.87006" lon="145.31660000000002">
    <ele>397.03000000000003</ele>
   </trkpt>
   <trkpt lat="-37.869780000000006" lon="145.31726">
    <ele>407.4200000000001</ele>
   </trkpt>
   <trkpt lat="-37.86954" lon="145.31789">
    <ele>413.02000000000004</ele>
   </trkpt>
   <trkpt lat="-37.86943" lon="145.31849000000003">
    <ele>416.26</ele>
   </trkpt>
   <trkpt lat="-37.86947" lon="145.31873000000002">
    <ele>417.19000000000005</ele>
   </trkpt>
   <trkpt lat="-37.86965" lon="145.31935000000001">
    <ele>421.97</ele>
   </trkpt>
   <trkpt lat="-37.86974" lon="145.3196">
    <ele>424.2</ele>
   </trkpt>
   <trkpt lat="-37.86992" lon="145.31986">
    <ele>430.3</ele>
   </trkpt>
   <trkpt lat="-37.87001" lon="145.32003">
    <ele>433.41</ele>
   </trkpt>
   <trkpt lat="-37.87012" lon="145.32062000000002">
    <ele>438.51</ele>
   </trkpt>
   <trkpt lat="-37.87019" lon="145.32089000000002">
    <ele>443.83000000000004</ele>
   </trkpt>
   <trkpt lat="-37.870250000000006" lon="145.32102">
    <ele>445.46000000000004</ele>
   </trkpt>
   <trkpt lat="-37.87046" lon="145.3213">
    <ele>448.34000000000003</ele>
   </trkpt>
   <trkpt lat="-37.87086" lon="145.32168000000001">
    <ele>452.59000000000003</ele>
   </trkpt>
   <trkpt lat="-37.87127" lon="145.32199">
    <ele>455.38000000000005</ele>
   </trkpt>
   <trkpt lat="-37.87169" lon="145.32248">
    <ele>458.83</ele>
   </trkpt>
   <trkpt lat="-37.87178" lon="145.32256">
    <ele>459.92</ele>
   </trkpt>
   <trkpt lat="-37.871840000000006" lon="145.32255">
    <ele>461.16</ele>
   </trkpt>
   <trkpt lat="-37.87191" lon="145.32233000000002">
    <ele>465.77</ele>
   </trkpt>
   <trkpt lat="-37.87203" lon="145.32209">
    <ele>472.11</ele>
   </trkpt>
   <trkpt lat="-37.87207" lon="145.32187000000002">
    <ele>477.05</ele>
   </trkpt>
   <trkpt lat="-37.872" lon="145.32135000000002">
    <ele>484.26</ele>
   </trkpt>
   <trkpt lat="-37.872" lon="145.32119">
    <ele>486.17</ele>
   </trkpt>
   <trkpt lat="-37.87203" lon="145.32099000000002">
    <ele>490.54</ele>
   </trkpt>
   <trkpt lat="-37.87223" lon="145.32034000000002">
    <ele>505.29</ele>
   </trkpt>
   <trkpt lat="-37.87232" lon="145.31989000000002">
    <ele>512.15</ele>
   </trkpt>
   <trkpt lat="-37.87241" lon="145.31979">
    <ele>514.21</ele>
   </trkpt>
   <trkpt lat="-37.87243" lon="145.31962000000001">
    <ele>515.0400000000001</ele>
   </trkpt>
   <trkpt lat="-37.873090000000005" lon="145.31966">
    <ele>513.14</ele>
   </trkpt>
   <trkpt lat="-37.87328" lon="145.3197">
    <ele>511.58000000000004</ele>
   </trkpt>
   <trkpt lat="-37.87355" lon="145.31979">
    <ele>507.81000000000006</ele>
   </trkpt>
   <trkpt lat="-37.874" lon="145.32000000000002">
    <ele>503.72</ele>
   </trkpt>
   <trkpt lat="-37.87415" lon="145.32003">
    <ele>501.74000000000007</ele>
   </trkpt>
   <trkpt lat="-37.87442" lon="145.32003">
    <ele>497.85</ele>
   </trkpt>
   <trkpt lat="-37.87473" lon="145.32017000000002">
    <ele>494.92</ele>
   </trkpt>
   <trkpt lat="-37.874880000000005" lon="145.3202">
    <ele>493.74000000000007</ele>
   </trkpt>
   <trkpt lat="-37.87501" lon="145.32019000000003">
    <ele>492.98</ele>
   </trkpt>
   <trkpt lat="-37.87521" lon="145.32021">
    <ele>490.8500000000001</ele>
   </trkpt>
   <trkpt lat="-37.87541" lon="145.32018000000002">
    <ele>487.01000000000005</ele>
   </trkpt>
   <trkpt lat="-37.87565" lon="145.32011">
    <ele>484.42</ele>
   </trkpt>
   <trkpt lat="-37.87572" lon="145.32013">
    <ele>483.64</ele>
   </trkpt>
   <trkpt lat="-37.87585" lon="145.32021">
    <ele>479.89000000000004</ele>
   </trkpt>
   <trkpt lat="-37.87613" lon="145.32041">
    <ele>473.01000000000005</ele>
   </trkpt>
   <trkpt lat="-37.87612" lon="145.32047">
    <ele>472.99</ele>
   </trkpt>
   <trkpt lat="-37.87619" lon="145.32080000000002">
    <ele>473.96000000000004</ele>
   </trkpt>
   <trkpt lat="-37.87632" lon="145.32108000000002">
    <ele>475.47</ele>
   </trkpt>
   <trkpt lat="-37.87684" lon="145.32166">
    <ele>480.49</ele>
   </trkpt>
   <trkpt lat="-37.87738" lon="145.32242000000002">
    <ele>484.19000000000005</ele>
   </trkpt>
   <trkpt lat="-37.877410000000005" lon="145.32256">
    <ele>485.62000000000006</ele>
   </trkpt>
   <trkpt lat="-37.87742" lon="145.32267000000002">
    <ele>486.71000000000004</ele>
   </trkpt>
   <trkpt lat="-37.8772" lon="145.32261000000003">
    <ele>488.03000000000003</ele>
   </trkpt>
   <trkpt lat="-37.87675" lon="145.32254">
    <ele>493.66</ele>
   </trkpt>
   <trkpt lat="-37.877" lon="145.32270000000003">
    <ele>495.3500000000001</ele>
   </trkpt>
   <trkpt lat="-37.87783" lon="145.32313000000002">
    <ele>498.09000000000003</ele>
   </trkpt>
   <trkpt lat="-37.8782" lon="145.32342">
    <ele>497.6</ele>
   </trkpt>
   <trkpt lat="-37.87863" lon="145.32396">
    <ele>498.03000000000003</ele>
   </trkpt>
   <trkpt lat="-37.87892" lon="145.32431000000003">
    <ele>499.37</ele>
   </trkpt>
   <trkpt lat="-37.87932" lon="145.32488">
    <ele>498.37</ele>
   </trkpt>
   <trkpt lat="-37.87993" lon="145.32551">
    <ele>493.02</ele>
   </trkpt>
   <trkpt lat="-37.88067" lon="145.32611">
    <ele>485.61</ele>
   </trkpt>
   <trkpt lat="-37.88132" lon="145.32653000000002">
    <ele>478.71000000000004</ele>
   </trkpt>
   <trkpt lat="-37.88172" lon="145.32688000000002">
    <ele>474.05</ele>
   </trkpt>
   <trkpt lat="-37.88181" lon="145.32698000000002">
    <ele>473.64000000000004</ele>
   </trkpt>
   <trkpt lat="-37.88201" lon="145.32736">
    <ele>471.54</ele>
   </trkpt>
   <trkpt lat="-37.88223" lon="145.32806000000002">
    <ele>465.51000000000005</ele>
   </trkpt>
   <trkpt lat="-37.88241" lon="145.32832000000002">
    <ele>461.85</ele>
   </trkpt>
   <trkpt lat="-37.88264" lon="145.32853">
    <ele>455.94</ele>
   </trkpt>
   <trkpt lat="-37.88284" lon="145.32863">
    <ele>451.94000000000005</ele>
   </trkpt>
   <trkpt lat="-37.88311" lon="145.32864">
    <ele>446.75</ele>
   </trkpt>
   <trkpt lat="-37.88342" lon="145.32859000000002">
    <ele>442.64000000000004</ele>
   </trkpt>
   <trkpt lat="-37.88378" lon="145.32857">
    <ele>436.86</ele>
   </trkpt>
   <trkpt lat="-37.88407" lon="145.32862">
    <ele>431.17</ele>
   </trkpt>
   <trkpt lat="-37.88447" lon="145.32879">
    <ele>424.71000000000004</ele>
   </trkpt>
   <trkpt lat="-37.88499" lon="145.32899">
    <ele>412.7</ele>
   </trkpt>
   <trkpt lat="-37.88555" lon="145.32899">
    <ele>402.14000000000004</ele>
   </trkpt>
   <trkpt lat="-37.88584" lon="145.32891">
    <ele>396.20000000000005</ele>
   </trkpt>
   <trkpt lat="-37.88604" lon="145.32873">
    <ele>387.87000000000006</ele>
   </trkpt>
   <trkpt lat="-37.88624" lon="145.32841000000002">
    <ele>382.14000000000004</ele>
   </trkpt>
   <trkpt lat="-37.886390000000006" lon="145.32833000000002">
    <ele>380.93000000000006</ele>
   </trkpt>
   <trkpt lat="-37.88638" lon="145.32786000000002">
    <ele>378.22</ele>
   </trkpt>
   <trkpt lat="-37.88624" lon="145.32771000000002">
    <ele>377.73</ele>
   </trkpt>
   <trkpt lat="-37.8862" lon="145.3274">
    <ele>376.56</ele>
   </trkpt>
   <trkpt lat="-37.886190000000006" lon="145.32696">
    <ele>376.55000000000007</ele>
   </trkpt>
   <trkpt lat="-37.88608" lon="145.32707000000002">
    <ele>374.89000000000004</ele>
   </trkpt>
   <trkpt lat="-37.8857" lon="145.3273">
    <ele>370.83000000000004</ele>
   </trkpt>
   <trkpt lat="-37.88559" lon="145.32723000000001">
    <ele>369.29</ele>
   </trkpt>
   <trkpt lat="-37.88555" lon="145.32716000000002">
    <ele>368.81</ele>
   </trkpt>
   <trkpt lat="-37.88546" lon="145.32689000000002">
    <ele>365.91</ele>
   </trkpt>
   <trkpt lat="-37.88539" lon="145.32682">
    <ele>364.89000000000004</ele>
   </trkpt>
   <trkpt lat="-37.88532" lon="145.32677">
    <ele>363.51000000000005</ele>
   </trkpt>
   <trkpt lat="-37.88517" lon="145.32679000000002">
    <ele>361.52</ele>
   </trkpt>
   <trkpt lat="-37.8851" lon="145.32674">
    <ele>361.52</ele>
   </trkpt>
   <trkpt lat="-37.88503" lon="145.32657">
    <ele>359.6</ele>
   </trkpt>
   <trkpt lat="-37.88501" lon="145.32641">
    <ele>357.22</ele>
   </trkpt>
   <trkpt lat="-37.88481" lon="145.32615">
    <ele>355.29</ele>
   </trkpt>
   <trkpt lat="-37.88472" lon="145.32611">
    <ele>353.72</ele>
   </trkpt>
   <trkpt lat="-37.8847" lon="145.32606">
    <ele>353.72</ele>
   </trkpt>
   <trkpt lat="-37.88467" lon="145.32594">
    <ele>352.7</ele>
   </trkpt>
   <trkpt lat="-37.88472" lon="145.32581000000002">
    <ele>351.82</ele>
   </trkpt>
   <trkpt lat="-37.88483" lon="145.32566">
    <ele>349.78000000000003</ele>
   </trkpt>
   <trkpt lat="-37.884910000000005" lon="145.3253">
    <ele>344.52000000000004</ele>
   </trkpt>
   <trkpt lat="-37.884910000000005" lon="145.32529000000002">
    <ele>344.57000000000005</ele>
   </trkpt>
   <trkpt lat="-37.88494" lon="145.32504">
    <ele>341.40000000000003</ele>
   </trkpt>
   <trkpt lat="-37.88494" lon="145.32475000000002">
    <ele>337.78000000000003</ele>
   </trkpt>
   <trkpt lat="-37.8849" lon="145.32459">
    <ele>335.87</ele>
   </trkpt>
   <trkpt lat="-37.88481" lon="145.32436">
    <ele>333.70000000000005</ele>
   </trkpt>
   <trkpt lat="-37.88481" lon="145.32417">
    <ele>331.46000000000004</ele>
   </trkpt>
   <trkpt lat="-37.88483" lon="145.32404000000002">
    <ele>329.28000000000003</ele>
   </trkpt>
   <trkpt lat="-37.88481" lon="145.32355">
    <ele>317.98</ele>
   </trkpt>
   <trkpt lat="-37.8849" lon="145.32336">
    <ele>315.21000000000004</ele>
   </trkpt>
   <trkpt lat="-37.88488" lon="145.32315">
    <ele>313.76000000000005</ele>
   </trkpt>
   <trkpt lat="-37.88479" lon="145.32282">
    <ele>309.07</ele>
   </trkpt>
   <trkpt lat="-37.88465" lon="145.32261000000003">
    <ele>304.73</ele>
   </trkpt>
   <trkpt lat="-37.884570000000004" lon="145.32260000000002">
    <ele>304.72</ele>
   </trkpt>
   <trkpt lat="-37.88447" lon="145.32227">
    <ele>302.57</ele>
   </trkpt>
   <trkpt lat="-37.88443" lon="145.32186000000002">
    <ele>296.71000000000004</ele>
   </trkpt>
   <trkpt lat="-37.88432" lon="145.32141000000001">
    <ele>291.96</ele>
   </trkpt>
   <trkpt lat="-37.88423" lon="145.32127">
    <ele>290.78000000000003</ele>
   </trkpt>
   <trkpt lat="-37.88416" lon="145.3211">
    <ele>288.93</ele>
   </trkpt>
   <trkpt lat="-37.88416" lon="145.32099000000002">
    <ele>286.40000000000003</ele>
   </trkpt>
   <trkpt lat="-37.88425" lon="145.32069">
    <ele>284.63000000000005</ele>
   </trkpt>
   <trkpt lat="-37.88429" lon="145.32048">
    <ele>282.46999999999997</ele>
   </trkpt>
   <trkpt lat="-37.88425" lon="145.3202">
    <ele>279.1</ele>
   </trkpt>
   <trkpt lat="-37.88416" lon="145.31998000000002">
    <ele>277.5</ele>
   </trkpt>
   <trkpt lat="-37.88416" lon="145.31972000000002">
    <ele>276.01000000000005</ele>
   </trkpt>
   <trkpt lat="-37.88409" lon="145.31915">
    <ele>268.65</ele>
   </trkpt>
   <trkpt lat="-37.884" lon="145.31884000000002">
    <ele>266.11</ele>
   </trkpt>
   <trkpt lat="-37.88378" lon="145.31852">
    <ele>263.49</ele>
   </trkpt>
   <trkpt lat="-37.88373" lon="145.31835">
    <ele>261.53999999999996</ele>
   </trkpt>
   <trkpt lat="-37.88396" lon="145.31833">
    <ele>257.54</ele>
   </trkpt>
   <trkpt lat="-37.88429" lon="145.31839000000002">
    <ele>254.17000000000002</ele>
   </trkpt>
   <trkpt lat="-37.88479" lon="145.31835">
    <ele>244.69000000000003</ele>
   </trkpt>
   <trkpt lat="-37.88528" lon="145.31820000000002">
    <ele>237.0</ele>
   </trkpt>
   <trkpt lat="-37.88534000000001" lon="145.31814">
    <ele>236.40000000000003</ele>
   </trkpt>
   <trkpt lat="-37.88528" lon="145.31820000000002">
    <ele>237.0</ele>
   </trkpt>
   <trkpt lat="-37.88537" lon="145.31811000000002">
    <ele>236.15000000000003</ele>
   </trkpt>
   <trkpt lat="-37.88546" lon="145.31806">
    <ele>235.48000000000002</ele>
   </trkpt>
   <trkpt lat="-37.88553" lon="145.31806">
    <ele>235.32000000000002</ele>
   </trkpt>
   <trkpt lat="-37.885740000000006" lon="145.31805">
    <ele>232.68</ele>
   </trkpt>
   <trkpt lat="-37.885830000000006" lon="145.31797">
    <ele>231.49000000000004</ele>
   </trkpt>
   <trkpt lat="-37.88611" lon="145.31784000000002">
    <ele>229.59</ele>
   </trkpt>
   <trkpt lat="-37.88667" lon="145.31742">
    <ele>227.94000000000003</ele>
   </trkpt>
   <trkpt lat="-37.886880000000005" lon="145.31755">
    <ele>225.07000000000002</ele>
   </trkpt>
   <trkpt lat="-37.88712" lon="145.31764">
    <ele>220.83</ele>
   </trkpt>
   <trkpt lat="-37.88761" lon="145.31761">
    <ele>213.96</ele>
   </trkpt>
   <trkpt lat="-37.88772" lon="145.31759000000002">
    <ele>212.26</ele>
   </trkpt>
   <trkpt lat="-37.88781" lon="145.31755">
    <ele>210.71</ele>
   </trkpt>
   <trkpt lat="-37.88787000000001" lon="145.31756000000001">
    <ele>210.71</ele>
   </trkpt>
   <trkpt lat="-37.88808" lon="145.31744">
    <ele>208.39000000000001</ele>
   </trkpt>
   <trkpt lat="-37.888270000000006" lon="145.31747000000001">
    <ele>206.91</ele>
   </trkpt>
   <trkpt lat="-37.88828" lon="145.31748000000002">
    <ele>206.91</ele>
   </trkpt>
   <trkpt lat="-37.88839" lon="145.31750000000002">
    <ele>204.69</ele>
   </trkpt>
   <trkpt lat="-37.88846" lon="145.31753">
    <ele>204.69</ele>
   </trkpt>
   <trkpt lat="-37.88866" lon="145.31772">
    <ele>201.14000000000001</ele>
   </trkpt>
   <trkpt lat="-37.888830000000006" lon="145.31773">
    <ele>201.14000000000001</ele>
   </trkpt>
   <trkpt lat="-37.8889" lon="145.31777000000002">
    <ele>198.10000000000002</ele>
   </trkpt>
   <trkpt lat="-37.88893" lon="145.31777000000002">
    <ele>198.10000000000002</ele>
   </trkpt>
   <trkpt lat="-37.88895" lon="145.31774000000001">
    <ele>198.10000000000002</ele>
   </trkpt>
   <trkpt lat="-37.889" lon="145.31774000000001">
    <ele>198.10000000000002</ele>
   </trkpt>
  </trkseg>
 </trk>
</gpx>
