<?xml version="1.0" encoding="UTF-8"?>
<gpx creator="StravaGPX" version="1.1" xmlns="http://www.topografix.com/GPX/1/1" xmlns:xsi="http://www.w3.org/2001/XMLSchema-instance" xsi:schemaLocation="http://www.topografix.com/GPX/1/1 http://www.topografix.com/GPX/1/1/gpx.xsd">
 <metadata>
  <name>DTR 20Sep 14km</name>
  <author>
   <name>Richard Jones</name>
   <link href="https://www.strava.com/athletes/38085969"/>
  </author>
  <copyright author="OpenStreetMap contributors">
   <year>2020</year>
   <license>https://www.openstreetmap.org/copyright</license>
  </copyright>
  <link href="https://www.strava.com/routes/3535830825931075962"/>
 </metadata>
 <trk>
  <name>DTR 20Sep 14km</name>
  <link href="https://www.strava.com/routes/3535830825931075962"/>
  <type>trail_running</type>
  <trkseg>
   <trkpt lat="-37.85222" lon="145.36827000000002">
    <ele>570.34</ele>
   </trkpt>
   <trkpt lat="-37.852070000000005" lon="145.36833000000001">
    <ele>569.47</ele>
   </trkpt>
   <trkpt lat="-37.851760000000006" lon="145.36859">
    <ele>565.22</ele>
   </trkpt>
   <trkpt lat="-37.85159" lon="145.36880000000002">
    <ele>563.7500000000001</ele>
   </trkpt>
   <trkpt lat="-37.85105" lon="145.36917000000003">
    <ele>561.83</ele>
   </trkpt>
   <trkpt lat="-37.85072" lon="145.36927">
    <ele>560.25</ele>
   </trkpt>
   <trkpt lat="-37.850370000000005" lon="145.36927">
    <ele>557.7500000000001</ele>
   </trkpt>
   <trkpt lat="-37.84972600368085" lon="145.3688019836328">
    <ele>550.28</ele>
   </trkpt>
   <trkpt lat="-37.84908200550947" lon="145.36833397544098">
    <ele>540.1400000000001</ele>
   </trkpt>
   <trkpt lat="-37.84843800548594" lon="145.36786597542425">
    <ele>534.84</ele>
   </trkpt>
   <trkpt lat="-37.84779400361036" lon="145.36739798358232">
    <ele>534.2800000000001</ele>
   </trkpt>
   <trkpt lat="-37.847150000000006" lon="145.36693000000002">
    <ele>533.0400000000001</ele>
   </trkpt>
   <trkpt lat="-37.847150000000006" lon="145.36692000000002">
    <ele>532.98</ele>
   </trkpt>
   <trkpt lat="-37.84709" lon="145.36679">
    <ele>531.8900000000001</ele>
   </trkpt>
   <trkpt lat="-37.84700000200787" lon="145.36609499888638">
    <ele>527.25</ele>
   </trkpt>
   <trkpt lat="-37.84691" lon="145.36540000000002">
    <ele>518.02</ele>
   </trkpt>
   <trkpt lat="-37.84693" lon="145.36513000000002">
    <ele>513.5500000000001</ele>
   </trkpt>
   <trkpt lat="-37.84687" lon="145.36482">
    <ele>510.0</ele>
   </trkpt>
   <trkpt lat="-37.84678000163085" lon="145.36420499946612">
    <ele>498.94000000000005</ele>
   </trkpt>
   <trkpt lat="-37.84669" lon="145.36359000000002">
    <ele>487.30000000000007</ele>
   </trkpt>
   <trkpt lat="-37.84655000177262" lon="145.36294499883846">
    <ele>487.31</ele>
   </trkpt>
   <trkpt lat="-37.846410000000006" lon="145.3623">
    <ele>500.37000000000006</ele>
   </trkpt>
   <trkpt lat="-37.84630000000001" lon="145.3617">
    <ele>508.27</ele>
   </trkpt>
   <trkpt lat="-37.84619" lon="145.36064000000002">
    <ele>512.38</ele>
   </trkpt>
   <trkpt lat="-37.84655" lon="145.36054000000001">
    <ele>512.14</ele>
   </trkpt>
   <trkpt lat="-37.84682" lon="145.36052">
    <ele>511.99000000000007</ele>
   </trkpt>
   <trkpt lat="-37.84698" lon="145.36054000000001">
    <ele>511.82000000000005</ele>
   </trkpt>
   <trkpt lat="-37.84707" lon="145.3604">
    <ele>512.2500000000001</ele>
   </trkpt>
   <trkpt lat="-37.84713" lon="145.36037000000002">
    <ele>512.2500000000001</ele>
   </trkpt>
   <trkpt lat="-37.84738" lon="145.36030000000002">
    <ele>512.17</ele>
   </trkpt>
   <trkpt lat="-37.84725" lon="145.35972">
    <ele>514.9100000000001</ele>
   </trkpt>
   <trkpt lat="-37.84732" lon="145.35972">
    <ele>516.09</ele>
   </trkpt>
   <trkpt lat="-37.84709" lon="145.35882">
    <ele>518.9100000000001</ele>
   </trkpt>
   <trkpt lat="-37.84695" lon="145.35840000000002">
    <ele>517.24</ele>
   </trkpt>
   <trkpt lat="-37.84664" lon="145.35795000000002">
    <ele>512.9</ele>
   </trkpt>
   <trkpt lat="-37.846540000000005" lon="145.35771000000003">
    <ele>510.70000000000005</ele>
   </trkpt>
   <trkpt lat="-37.84664" lon="145.35767">
    <ele>509.90000000000003</ele>
   </trkpt>
   <trkpt lat="-37.84664" lon="145.35756">
    <ele>509.34000000000003</ele>
   </trkpt>
   <trkpt lat="-37.846360000000004" lon="145.35734000000002">
    <ele>509.58000000000004</ele>
   </trkpt>
   <trkpt lat="-37.846006670389734" lon="145.35667666031446">
    <ele>509.87000000000006</ele>
   </trkpt>
   <trkpt lat="-37.84565333705871" lon="145.35601332698553">
    <ele>511.0300000000001</ele>
   </trkpt>
   <trkpt lat="-37.8453" lon="145.35535000000002">
    <ele>511.62000000000006</ele>
   </trkpt>
   <trkpt lat="-37.845220000000005" lon="145.35527000000002">
    <ele>512.0</ele>
   </trkpt>
   <trkpt lat="-37.845180000000006" lon="145.35528000000002">
    <ele>512.1300000000001</ele>
   </trkpt>
   <trkpt lat="-37.84514" lon="145.35531">
    <ele>512.1300000000001</ele>
   </trkpt>
   <trkpt lat="-37.8446" lon="145.35533">
    <ele>515.0100000000001</ele>
   </trkpt>
   <trkpt lat="-37.84467" lon="145.35559">
    <ele>515.0</ele>
   </trkpt>
   <trkpt lat="-37.84406666889865" lon="145.35610334172927">
    <ele>523.25</ele>
   </trkpt>
   <trkpt lat="-37.84346333556906" lon="145.35661667505929">
    <ele>527.1800000000001</ele>
   </trkpt>
   <trkpt lat="-37.84286" lon="145.35713">
    <ele>522.99</ele>
   </trkpt>
   <trkpt lat="-37.842740000000006" lon="145.35716000000002">
    <ele>521.82</ele>
   </trkpt>
   <trkpt lat="-37.84257" lon="145.35696000000002">
    <ele>519.49</ele>
   </trkpt>
   <trkpt lat="-37.84246" lon="145.35690000000002">
    <ele>519.49</ele>
   </trkpt>
   <trkpt lat="-37.84158" lon="145.35688000000002">
    <ele>516.1999999999999</ele>
   </trkpt>
   <trkpt lat="-37.84147" lon="145.35690000000002">
    <ele>516.4000000000001</ele>
   </trkpt>
   <trkpt lat="-37.84136" lon="145.35671000000002">
    <ele>517.33</ele>
   </trkpt>
   <trkpt lat="-37.84116" lon="145.35615">
    <ele>519.75</ele>
   </trkpt>
   <trkpt lat="-37.84107" lon="145.35589000000002">
    <ele>520.6</ele>
   </trkpt>
   <trkpt lat="-37.84089" lon="145.35552">
    <ele>522.9200000000001</ele>
   </trkpt>
   <trkpt lat="-37.8408" lon="145.35539">
    <ele>523.7400000000001</ele>
   </trkpt>
   <trkpt lat="-37.84069" lon="145.35527000000002">
    <ele>524.2600000000001</ele>
   </trkpt>
   <trkpt lat="-37.83997" lon="145.35490000000001">
    <ele>529.7700000000001</ele>
   </trkpt>
   <trkpt lat="-37.839560000000006" lon="145.35476">
    <ele>532.22</ele>
   </trkpt>
   <trkpt lat="-37.83957" lon="145.35476">
    <ele>532.33</ele>
   </trkpt>
   <trkpt lat="-37.83939" lon="145.35484000000002">
    <ele>532.35</ele>
   </trkpt>
   <trkpt lat="-37.83876" lon="145.35527000000002">
    <ele>525.6</ele>
   </trkpt>
   <trkpt lat="-37.8386" lon="145.35541">
    <ele>524.1800000000001</ele>
   </trkpt>
   <trkpt lat="-37.838530000000006" lon="145.35543">
    <ele>523.7400000000001</ele>
   </trkpt>
   <trkpt lat="-37.83829" lon="145.35543">
    <ele>523.5500000000001</ele>
   </trkpt>
   <trkpt lat="-37.83805" lon="145.35538000000003">
    <ele>524.76</ele>
   </trkpt>
   <trkpt lat="-37.8378" lon="145.35539">
    <ele>526.7</ele>
   </trkpt>
   <trkpt lat="-37.83717" lon="145.35562000000002">
    <ele>526.0799999999999</ele>
   </trkpt>
   <trkpt lat="-37.83677" lon="145.3565">
    <ele>515.07</ele>
   </trkpt>
   <trkpt lat="-37.83594" lon="145.35689000000002">
    <ele>516.1999999999999</ele>
   </trkpt>
   <trkpt lat="-37.83576" lon="145.35691">
    <ele>516.38</ele>
   </trkpt>
   <trkpt lat="-37.83567" lon="145.35696000000002">
    <ele>516.78</ele>
   </trkpt>
   <trkpt lat="-37.83545" lon="145.35711">
    <ele>515.11</ele>
   </trkpt>
   <trkpt lat="-37.8352" lon="145.35738">
    <ele>511.65999999999997</ele>
   </trkpt>
   <trkpt lat="-37.83498" lon="145.35755">
    <ele>507.72</ele>
   </trkpt>
   <trkpt lat="-37.83484" lon="145.35758">
    <ele>507.72</ele>
   </trkpt>
   <trkpt lat="-37.8348" lon="145.35757">
    <ele>507.72</ele>
   </trkpt>
   <trkpt lat="-37.83478" lon="145.35753000000003">
    <ele>506.4200000000001</ele>
   </trkpt>
   <trkpt lat="-37.83473" lon="145.35742000000002">
    <ele>506.4200000000001</ele>
   </trkpt>
   <trkpt lat="-37.83434000053454" lon="145.3570849982807">
    <ele>501.92</ele>
   </trkpt>
   <trkpt lat="-37.83395" lon="145.35675">
    <ele>499.42</ele>
   </trkpt>
   <trkpt lat="-37.83381" lon="145.35676">
    <ele>499.2300000000001</ele>
   </trkpt>
   <trkpt lat="-37.8337" lon="145.35686">
    <ele>498.76000000000005</ele>
   </trkpt>
   <trkpt lat="-37.83364" lon="145.35705000000002">
    <ele>498.6700000000001</ele>
   </trkpt>
   <trkpt lat="-37.83348" lon="145.35719">
    <ele>498.92</ele>
   </trkpt>
   <trkpt lat="-37.83319" lon="145.35757">
    <ele>502.53999999999996</ele>
   </trkpt>
   <trkpt lat="-37.83276" lon="145.35837">
    <ele>508.06000000000006</ele>
   </trkpt>
   <trkpt lat="-37.83258" lon="145.35876000000002">
    <ele>511.78000000000003</ele>
   </trkpt>
   <trkpt lat="-37.83249" lon="145.35882">
    <ele>512.1</ele>
   </trkpt>
   <trkpt lat="-37.83211" lon="145.35886000000002">
    <ele>514.14</ele>
   </trkpt>
   <trkpt lat="-37.83187" lon="145.35897">
    <ele>514.94</ele>
   </trkpt>
   <trkpt lat="-37.83167" lon="145.35912000000002">
    <ele>516.46</ele>
   </trkpt>
   <trkpt lat="-37.83165" lon="145.35913000000002">
    <ele>516.5200000000001</ele>
   </trkpt>
   <trkpt lat="-37.83155" lon="145.35931000000002">
    <ele>517.6</ele>
   </trkpt>
   <trkpt lat="-37.83153" lon="145.35956000000002">
    <ele>518.27</ele>
   </trkpt>
   <trkpt lat="-37.8316" lon="145.35969">
    <ele>520.7700000000001</ele>
   </trkpt>
   <trkpt lat="-37.83178" lon="145.35983000000002">
    <ele>521.7700000000001</ele>
   </trkpt>
   <trkpt lat="-37.83182" lon="145.35993000000002">
    <ele>522.2900000000001</ele>
   </trkpt>
   <trkpt lat="-37.83178" lon="145.36006">
    <ele>522.71</ele>
   </trkpt>
   <trkpt lat="-37.83158" lon="145.36038000000002">
    <ele>522.15</ele>
   </trkpt>
   <trkpt lat="-37.83135" lon="145.36093000000002">
    <ele>521.6700000000001</ele>
   </trkpt>
   <trkpt lat="-37.831070000000004" lon="145.36184">
    <ele>519.5200000000001</ele>
   </trkpt>
   <trkpt lat="-37.83079500109966" lon="145.36235500195986">
    <ele>513.45</ele>
   </trkpt>
   <trkpt lat="-37.83052" lon="145.36287000000002">
    <ele>505.44</ele>
   </trkpt>
   <trkpt lat="-37.83026" lon="145.363">
    <ele>501.72</ele>
   </trkpt>
   <trkpt lat="-37.82972" lon="145.36313">
    <ele>494.38000000000005</ele>
   </trkpt>
   <trkpt lat="-37.82936" lon="145.36311">
    <ele>490.62000000000006</ele>
   </trkpt>
   <trkpt lat="-37.82893" lon="145.36302">
    <ele>486.89000000000004</ele>
   </trkpt>
   <trkpt lat="-37.82884" lon="145.36302">
    <ele>491.49</ele>
   </trkpt>
   <trkpt lat="-37.82883" lon="145.36298000000002">
    <ele>492.63000000000005</ele>
   </trkpt>
   <trkpt lat="-37.82894" lon="145.36309">
    <ele>498.6</ele>
   </trkpt>
   <trkpt lat="-37.82916" lon="145.36327">
    <ele>497.58</ele>
   </trkpt>
   <trkpt lat="-37.82925" lon="145.36343000000002">
    <ele>497.71000000000004</ele>
   </trkpt>
   <trkpt lat="-37.82932" lon="145.36349">
    <ele>497.84000000000003</ele>
   </trkpt>
   <trkpt lat="-37.82938" lon="145.36346">
    <ele>497.84000000000003</ele>
   </trkpt>
   <trkpt lat="-37.82943" lon="145.36349">
    <ele>498.85</ele>
   </trkpt>
   <trkpt lat="-37.82938" lon="145.36354">
    <ele>498.3</ele>
   </trkpt>
   <trkpt lat="-37.82967" lon="145.3639">
    <ele>496.56000000000006</ele>
   </trkpt>
   <trkpt lat="-37.83028" lon="145.36438">
    <ele>494.00000000000006</ele>
   </trkpt>
   <trkpt lat="-37.83028" lon="145.36444">
    <ele>494.00000000000006</ele>
   </trkpt>
   <trkpt lat="-37.83032" lon="145.36453">
    <ele>494.12000000000006</ele>
   </trkpt>
   <trkpt lat="-37.8305" lon="145.36457000000001">
    <ele>494.33000000000004</ele>
   </trkpt>
   <trkpt lat="-37.83062" lon="145.36463">
    <ele>494.36</ele>
   </trkpt>
   <trkpt lat="-37.83113" lon="145.36483">
    <ele>493.81</ele>
   </trkpt>
   <trkpt lat="-37.83124" lon="145.36485000000002">
    <ele>493.01000000000005</ele>
   </trkpt>
   <trkpt lat="-37.831480000000006" lon="145.365">
    <ele>489.3</ele>
   </trkpt>
   <trkpt lat="-37.83164" lon="145.365">
    <ele>488.53000000000003</ele>
   </trkpt>
   <trkpt lat="-37.83196" lon="145.36511000000002">
    <ele>484.46000000000004</ele>
   </trkpt>
   <trkpt lat="-37.83207" lon="145.36518">
    <ele>483.65000000000003</ele>
   </trkpt>
   <trkpt lat="-37.83209" lon="145.36526">
    <ele>480.94</ele>
   </trkpt>
   <trkpt lat="-37.8322" lon="145.36537">
    <ele>478.81</ele>
   </trkpt>
   <trkpt lat="-37.832240000000006" lon="145.36546">
    <ele>477.26</ele>
   </trkpt>
   <trkpt lat="-37.8322" lon="145.36557000000002">
    <ele>476.93</ele>
   </trkpt>
   <trkpt lat="-37.83229" lon="145.3656">
    <ele>475.63000000000005</ele>
   </trkpt>
   <trkpt lat="-37.83234" lon="145.36567000000002">
    <ele>473.51000000000005</ele>
   </trkpt>
   <trkpt lat="-37.83252" lon="145.36566000000002">
    <ele>471.69000000000005</ele>
   </trkpt>
   <trkpt lat="-37.83263" lon="145.36575000000002">
    <ele>470.88</ele>
   </trkpt>
   <trkpt lat="-37.83268" lon="145.36575000000002">
    <ele>470.88</ele>
   </trkpt>
   <trkpt lat="-37.83269000000001" lon="145.36567000000002">
    <ele>468.59000000000003</ele>
   </trkpt>
   <trkpt lat="-37.83272" lon="145.36565000000002">
    <ele>468.59000000000003</ele>
   </trkpt>
   <trkpt lat="-37.833000000000006" lon="145.36563">
    <ele>462.39</ele>
   </trkpt>
   <trkpt lat="-37.833020000000005" lon="145.36566000000002">
    <ele>462.39</ele>
   </trkpt>
   <trkpt lat="-37.83346" lon="145.36599">
    <ele>455.36</ele>
   </trkpt>
   <trkpt lat="-37.83372" lon="145.36615">
    <ele>452.84000000000003</ele>
   </trkpt>
   <trkpt lat="-37.83428" lon="145.3666">
    <ele>443.12</ele>
   </trkpt>
   <trkpt lat="-37.8344" lon="145.36679">
    <ele>440.99000000000007</ele>
   </trkpt>
   <trkpt lat="-37.83469" lon="145.36711000000003">
    <ele>434.98</ele>
   </trkpt>
   <trkpt lat="-37.83482" lon="145.36722">
    <ele>433.71000000000004</ele>
   </trkpt>
   <trkpt lat="-37.83509" lon="145.3673">
    <ele>428.74</ele>
   </trkpt>
   <trkpt lat="-37.83527" lon="145.36759">
    <ele>426.74</ele>
   </trkpt>
   <trkpt lat="-37.83536" lon="145.3684">
    <ele>427.6</ele>
   </trkpt>
   <trkpt lat="-37.83547" lon="145.36883">
    <ele>426.65000000000003</ele>
   </trkpt>
   <trkpt lat="-37.83558" lon="145.36916000000002">
    <ele>425.34000000000003</ele>
   </trkpt>
   <trkpt lat="-37.83572" lon="145.36931">
    <ele>421.64</ele>
   </trkpt>
   <trkpt lat="-37.83583" lon="145.36949">
    <ele>419.83000000000004</ele>
   </trkpt>
   <trkpt lat="-37.83583" lon="145.36974">
    <ele>419.44000000000005</ele>
   </trkpt>
   <trkpt lat="-37.83583" lon="145.36970000000002">
    <ele>419.40000000000003</ele>
   </trkpt>
   <trkpt lat="-37.83574" lon="145.37077000000002">
    <ele>409.74000000000007</ele>
   </trkpt>
   <trkpt lat="-37.8353700019093" lon="145.37141000290262">
    <ele>405.88</ele>
   </trkpt>
   <trkpt lat="-37.835" lon="145.37205">
    <ele>405.87</ele>
   </trkpt>
   <trkpt lat="-37.83491" lon="145.37243">
    <ele>407.58000000000004</ele>
   </trkpt>
   <trkpt lat="-37.83491" lon="145.37251">
    <ele>407.97</ele>
   </trkpt>
   <trkpt lat="-37.835" lon="145.37262">
    <ele>407.5</ele>
   </trkpt>
   <trkpt lat="-37.83525" lon="145.37281000000002">
    <ele>402.86000000000007</ele>
   </trkpt>
   <trkpt lat="-37.83529" lon="145.37287">
    <ele>402.68</ele>
   </trkpt>
   <trkpt lat="-37.83534" lon="145.37307">
    <ele>402.38</ele>
   </trkpt>
   <trkpt lat="-37.83534" lon="145.37347000000003">
    <ele>397.57000000000005</ele>
   </trkpt>
   <trkpt lat="-37.8352" lon="145.37391000000002">
    <ele>387.87000000000006</ele>
   </trkpt>
   <trkpt lat="-37.835150000000006" lon="145.37397">
    <ele>386.82000000000005</ele>
   </trkpt>
   <trkpt lat="-37.835170000000005" lon="145.37395">
    <ele>387.08000000000004</ele>
   </trkpt>
   <trkpt lat="-37.835060000000006" lon="145.37404">
    <ele>384.77000000000004</ele>
   </trkpt>
   <trkpt lat="-37.83478" lon="145.37412">
    <ele>380.14000000000004</ele>
   </trkpt>
   <trkpt lat="-37.83442" lon="145.37417000000002">
    <ele>372.36</ele>
   </trkpt>
   <trkpt lat="-37.83413" lon="145.37428">
    <ele>361.76</ele>
   </trkpt>
   <trkpt lat="-37.83379" lon="145.3745">
    <ele>350.52000000000004</ele>
   </trkpt>
   <trkpt lat="-37.8337" lon="145.37454000000002">
    <ele>348.23</ele>
   </trkpt>
   <trkpt lat="-37.83357" lon="145.37456">
    <ele>345.85</ele>
   </trkpt>
   <trkpt lat="-37.83328" lon="145.37453000000002">
    <ele>342.82</ele>
   </trkpt>
   <trkpt lat="-37.83283" lon="145.37455">
    <ele>336.91</ele>
   </trkpt>
   <trkpt lat="-37.83261" lon="145.37459">
    <ele>331.75000000000006</ele>
   </trkpt>
   <trkpt lat="-37.83238" lon="145.37460000000002">
    <ele>328.22</ele>
   </trkpt>
   <trkpt lat="-37.83209" lon="145.37465">
    <ele>326.6</ele>
   </trkpt>
   <trkpt lat="-37.8316" lon="145.37477">
    <ele>325.83</ele>
   </trkpt>
   <trkpt lat="-37.83142" lon="145.37479000000002">
    <ele>324.93000000000006</ele>
   </trkpt>
   <trkpt lat="-37.83099" lon="145.37507000000002">
    <ele>318.62</ele>
   </trkpt>
   <trkpt lat="-37.8305" lon="145.3753">
    <ele>311.87</ele>
   </trkpt>
   <trkpt lat="-37.83019" lon="145.37534000000002">
    <ele>308.6</ele>
   </trkpt>
   <trkpt lat="-37.8299" lon="145.37518">
    <ele>306.31</ele>
   </trkpt>
   <trkpt lat="-37.8297" lon="145.37526000000003">
    <ele>303.33000000000004</ele>
   </trkpt>
   <trkpt lat="-37.82947" lon="145.37548">
    <ele>300.98</ele>
   </trkpt>
   <trkpt lat="-37.82934" lon="145.37553">
    <ele>300.12</ele>
   </trkpt>
   <trkpt lat="-37.82903" lon="145.37557">
    <ele>297.88000000000005</ele>
   </trkpt>
   <trkpt lat="-37.82898" lon="145.37562">
    <ele>297.88000000000005</ele>
   </trkpt>
   <trkpt lat="-37.82884" lon="145.37587000000002">
    <ele>289.73</ele>
   </trkpt>
   <trkpt lat="-37.82876" lon="145.37608">
    <ele>283.6</ele>
   </trkpt>
   <trkpt lat="-37.828880000000005" lon="145.37612000000001">
    <ele>283.48</ele>
   </trkpt>
   <trkpt lat="-37.82893" lon="145.37623000000002">
    <ele>282.93</ele>
   </trkpt>
   <trkpt lat="-37.82893" lon="145.37641000000002">
    <ele>282.69</ele>
   </trkpt>
   <trkpt lat="-37.82887" lon="145.37672">
    <ele>282.16</ele>
   </trkpt>
   <trkpt lat="-37.82873" lon="145.37708">
    <ele>281.11</ele>
   </trkpt>
   <trkpt lat="-37.8286" lon="145.37732000000003">
    <ele>279.83000000000004</ele>
   </trkpt>
   <trkpt lat="-37.82824" lon="145.37775000000002">
    <ele>274.40000000000003</ele>
   </trkpt>
   <trkpt lat="-37.82769000122411" lon="145.37825000357466">
    <ele>268.82</ele>
   </trkpt>
   <trkpt lat="-37.82714" lon="145.37875000000003">
    <ele>264.33</ele>
   </trkpt>
   <trkpt lat="-37.82679" lon="145.37921">
    <ele>261.78000000000003</ele>
   </trkpt>
   <trkpt lat="-37.826620000000005" lon="145.37963000000002">
    <ele>260.36</ele>
   </trkpt>
   <trkpt lat="-37.82663" lon="145.37963000000002">
    <ele>260.41</ele>
   </trkpt>
   <trkpt lat="-37.82652" lon="145.38021">
    <ele>257.12</ele>
   </trkpt>
   <trkpt lat="-37.82654" lon="145.38103">
    <ele>253.82000000000005</ele>
   </trkpt>
   <trkpt lat="-37.82652" lon="145.38128">
    <ele>253.82000000000005</ele>
   </trkpt>
   <trkpt lat="-37.82643" lon="145.38152000000002">
    <ele>252.60999999999999</ele>
   </trkpt>
   <trkpt lat="-37.82629" lon="145.38177000000002">
    <ele>251.01000000000002</ele>
   </trkpt>
   <trkpt lat="-37.82629" lon="145.38195000000002">
    <ele>250.64000000000001</ele>
   </trkpt>
   <trkpt lat="-37.82636" lon="145.38215000000002">
    <ele>250.14000000000001</ele>
   </trkpt>
   <trkpt lat="-37.82699" lon="145.38222000000002">
    <ele>249.86</ele>
   </trkpt>
   <trkpt lat="-37.82719" lon="145.38226">
    <ele>249.92000000000002</ele>
   </trkpt>
   <trkpt lat="-37.82741" lon="145.38234">
    <ele>249.9</ele>
   </trkpt>
   <trkpt lat="-37.827920000000006" lon="145.38285000000002">
    <ele>249.55</ele>
   </trkpt>
   <trkpt lat="-37.82808" lon="145.38298">
    <ele>249.04</ele>
   </trkpt>
   <trkpt lat="-37.82817" lon="145.38315">
    <ele>248.86</ele>
   </trkpt>
   <trkpt lat="-37.82822" lon="145.38331000000002">
    <ele>248.8</ele>
   </trkpt>
   <trkpt lat="-37.82829" lon="145.3837">
    <ele>249.77</ele>
   </trkpt>
   <trkpt lat="-37.82829" lon="145.38435">
    <ele>250.98000000000002</ele>
   </trkpt>
   <trkpt lat="-37.82831" lon="145.38457000000002">
    <ele>251.0</ele>
   </trkpt>
   <trkpt lat="-37.82849" lon="145.38482000000002">
    <ele>251.02</ele>
   </trkpt>
   <trkpt lat="-37.82887" lon="145.38559">
    <ele>252.81000000000003</ele>
   </trkpt>
   <trkpt lat="-37.82898" lon="145.38607000000002">
    <ele>253.82999999999998</ele>
   </trkpt>
   <trkpt lat="-37.82931" lon="145.38711">
    <ele>256.86</ele>
   </trkpt>
   <trkpt lat="-37.82938" lon="145.38762">
    <ele>257.06</ele>
   </trkpt>
   <trkpt lat="-37.82938000674723" lon="145.388513333375">
    <ele>257.5</ele>
   </trkpt>
   <trkpt lat="-37.82938000674723" lon="145.3894066667501">
    <ele>258.03000000000003</ele>
   </trkpt>
   <trkpt lat="-37.82938" lon="145.39030000000002">
    <ele>257.61</ele>
   </trkpt>
   <trkpt lat="-37.829350000000005" lon="145.39053">
    <ele>258.09999999999997</ele>
   </trkpt>
   <trkpt lat="-37.82936" lon="145.39064000000002">
    <ele>258.34000000000003</ele>
   </trkpt>
   <trkpt lat="-37.82956" lon="145.39079">
    <ele>258.90000000000003</ele>
   </trkpt>
   <trkpt lat="-37.82972" lon="145.39087">
    <ele>259.62</ele>
   </trkpt>
   <trkpt lat="-37.82994" lon="145.39091000000002">
    <ele>259.62</ele>
   </trkpt>
   <trkpt lat="-37.83043" lon="145.39088">
    <ele>261.66</ele>
   </trkpt>
   <trkpt lat="-37.83104" lon="145.3908">
    <ele>265.02000000000004</ele>
   </trkpt>
   <trkpt lat="-37.83144" lon="145.39083000000002">
    <ele>266.02000000000004</ele>
   </trkpt>
   <trkpt lat="-37.83198" lon="145.39096">
    <ele>265.88</ele>
   </trkpt>
   <trkpt lat="-37.83207" lon="145.39095">
    <ele>265.93</ele>
   </trkpt>
   <trkpt lat="-37.83254" lon="145.39079">
    <ele>265.24</ele>
   </trkpt>
   <trkpt lat="-37.83281" lon="145.39064000000002">
    <ele>264.12</ele>
   </trkpt>
   <trkpt lat="-37.83325" lon="145.39020000000002">
    <ele>262.61</ele>
   </trkpt>
   <trkpt lat="-37.83352" lon="145.38988">
    <ele>262.02000000000004</ele>
   </trkpt>
   <trkpt lat="-37.83399" lon="145.3891">
    <ele>259.27</ele>
   </trkpt>
   <trkpt lat="-37.83419" lon="145.38856">
    <ele>258.38</ele>
   </trkpt>
   <trkpt lat="-37.83435" lon="145.38838">
    <ele>258.76000000000005</ele>
   </trkpt>
   <trkpt lat="-37.83442" lon="145.38834">
    <ele>259.12</ele>
   </trkpt>
   <trkpt lat="-37.83455" lon="145.38832000000002">
    <ele>259.83</ele>
   </trkpt>
   <trkpt lat="-37.83498" lon="145.38831000000002">
    <ele>262.77</ele>
   </trkpt>
   <trkpt lat="-37.83531" lon="145.38819">
    <ele>266.0</ele>
   </trkpt>
   <trkpt lat="-37.83585" lon="145.38849000000002">
    <ele>267.44</ele>
   </trkpt>
   <trkpt lat="-37.83623" lon="145.38852">
    <ele>267.43</ele>
   </trkpt>
   <trkpt lat="-37.83666" lon="145.38841000000002">
    <ele>267.55</ele>
   </trkpt>
   <trkpt lat="-37.83719" lon="145.38831000000002">
    <ele>262.73</ele>
   </trkpt>
   <trkpt lat="-37.83791000022881" lon="145.38807000234752">
    <ele>266.0</ele>
   </trkpt>
   <trkpt lat="-37.83863" lon="145.38783">
    <ele>274.96000000000004</ele>
   </trkpt>
   <trkpt lat="-37.83894" lon="145.38829">
    <ele>270.57000000000005</ele>
   </trkpt>
   <trkpt lat="-37.83914" lon="145.38853">
    <ele>267.21</ele>
   </trkpt>
   <trkpt lat="-37.839180000000006" lon="145.3887">
    <ele>265.99</ele>
   </trkpt>
   <trkpt lat="-37.83925" lon="145.38882">
    <ele>265.99</ele>
   </trkpt>
   <trkpt lat="-37.83932" lon="145.38919">
    <ele>259.37000000000006</ele>
   </trkpt>
   <trkpt lat="-37.83959" lon="145.38912000000002">
    <ele>260.31000000000006</ele>
   </trkpt>
   <trkpt lat="-37.83981" lon="145.38901">
    <ele>259.88</ele>
   </trkpt>
   <trkpt lat="-37.840030000000006" lon="145.38874">
    <ele>257.64000000000004</ele>
   </trkpt>
   <trkpt lat="-37.84024" lon="145.38854">
    <ele>256.97</ele>
   </trkpt>
   <trkpt lat="-37.84055" lon="145.38814000000002">
    <ele>260.07</ele>
   </trkpt>
   <trkpt lat="-37.840880000000006" lon="145.38792">
    <ele>263.16</ele>
   </trkpt>
   <trkpt lat="-37.84098" lon="145.3878">
    <ele>263.85</ele>
   </trkpt>
   <trkpt lat="-37.84118" lon="145.38735">
    <ele>266.16</ele>
   </trkpt>
   <trkpt lat="-37.84149" lon="145.387">
    <ele>268.24</ele>
   </trkpt>
   <trkpt lat="-37.84203" lon="145.38627000000002">
    <ele>273.79</ele>
   </trkpt>
   <trkpt lat="-37.84223" lon="145.38594">
    <ele>274.26</ele>
   </trkpt>
   <trkpt lat="-37.84237" lon="145.38589000000002">
    <ele>274.8</ele>
   </trkpt>
   <trkpt lat="-37.842470000000006" lon="145.38578">
    <ele>275.33000000000004</ele>
   </trkpt>
   <trkpt lat="-37.84254" lon="145.38564000000002">
    <ele>275.94</ele>
   </trkpt>
   <trkpt lat="-37.84266" lon="145.38509000000002">
    <ele>279.80000000000007</ele>
   </trkpt>
   <trkpt lat="-37.84272" lon="145.38490000000002">
    <ele>280.82</ele>
   </trkpt>
   <trkpt lat="-37.84281" lon="145.38477">
    <ele>281.6</ele>
   </trkpt>
   <trkpt lat="-37.84288" lon="145.38473000000002">
    <ele>282.01000000000005</ele>
   </trkpt>
   <trkpt lat="-37.84292000000001" lon="145.38473000000002">
    <ele>282.01000000000005</ele>
   </trkpt>
   <trkpt lat="-37.84299" lon="145.38485">
    <ele>281.58</ele>
   </trkpt>
   <trkpt lat="-37.84304" lon="145.38501000000002">
    <ele>281.58</ele>
   </trkpt>
   <trkpt lat="-37.84299" lon="145.38529">
    <ele>279.93</ele>
   </trkpt>
   <trkpt lat="-37.84286" lon="145.38585">
    <ele>278.32</ele>
   </trkpt>
   <trkpt lat="-37.84277" lon="145.38612">
    <ele>277.7</ele>
   </trkpt>
   <trkpt lat="-37.8427" lon="145.38637">
    <ele>277.55</ele>
   </trkpt>
   <trkpt lat="-37.84261" lon="145.38726">
    <ele>278.42</ele>
   </trkpt>
   <trkpt lat="-37.842470000000006" lon="145.38771">
    <ele>279.1</ele>
   </trkpt>
   <trkpt lat="-37.84237" lon="145.38825">
    <ele>281.17</ele>
   </trkpt>
   <trkpt lat="-37.84237" lon="145.38848000000002">
    <ele>281.72</ele>
   </trkpt>
   <trkpt lat="-37.84243" lon="145.38848000000002">
    <ele>281.72</ele>
   </trkpt>
   <trkpt lat="-37.842830000000006" lon="145.38816">
    <ele>286.68000000000006</ele>
   </trkpt>
   <trkpt lat="-37.84297" lon="145.38794000000001">
    <ele>288.68000000000006</ele>
   </trkpt>
   <trkpt lat="-37.84317" lon="145.38776000000001">
    <ele>291.31</ele>
   </trkpt>
   <trkpt lat="-37.84337" lon="145.38748">
    <ele>293.76</ele>
   </trkpt>
   <trkpt lat="-37.84369" lon="145.38717000000003">
    <ele>299.05</ele>
   </trkpt>
   <trkpt lat="-37.8438" lon="145.38695">
    <ele>301.85</ele>
   </trkpt>
   <trkpt lat="-37.84413" lon="145.38656">
    <ele>307.41</ele>
   </trkpt>
   <trkpt lat="-37.84413" lon="145.38657">
    <ele>307.32000000000005</ele>
   </trkpt>
   <trkpt lat="-37.844480000992434" lon="145.38609500220207">
    <ele>314.05000000000007</ele>
   </trkpt>
   <trkpt lat="-37.84483" lon="145.38562000000002">
    <ele>318.74</ele>
   </trkpt>
   <trkpt lat="-37.84487" lon="145.3854">
    <ele>320.18</ele>
   </trkpt>
   <trkpt lat="-37.844930000000005" lon="145.38529">
    <ele>320.84000000000003</ele>
   </trkpt>
   <trkpt lat="-37.84507" lon="145.38525">
    <ele>321.05</ele>
   </trkpt>
   <trkpt lat="-37.8451" lon="145.38520000000003">
    <ele>321.08000000000004</ele>
   </trkpt>
   <trkpt lat="-37.84512" lon="145.38515">
    <ele>321.08000000000004</ele>
   </trkpt>
   <trkpt lat="-37.845040000000004" lon="145.38504">
    <ele>321.48</ele>
   </trkpt>
   <trkpt lat="-37.84528" lon="145.38482000000002">
    <ele>323.40000000000003</ele>
   </trkpt>
   <trkpt lat="-37.84557" lon="145.38465000000002">
    <ele>324.08000000000004</ele>
   </trkpt>
   <trkpt lat="-37.84566" lon="145.38462">
    <ele>323.96000000000004</ele>
   </trkpt>
   <trkpt lat="-37.84608" lon="145.38455000000002">
    <ele>322.28000000000003</ele>
   </trkpt>
   <trkpt lat="-37.84637" lon="145.38448000000002">
    <ele>319.27000000000004</ele>
   </trkpt>
   <trkpt lat="-37.84684" lon="145.38444">
    <ele>317.77000000000004</ele>
   </trkpt>
   <trkpt lat="-37.84695" lon="145.38441">
    <ele>317.97</ele>
   </trkpt>
   <trkpt lat="-37.846920000000004" lon="145.38442">
    <ele>317.94</ele>
   </trkpt>
   <trkpt lat="-37.84702" lon="145.3844">
    <ele>318.41</ele>
   </trkpt>
   <trkpt lat="-37.847170000000006" lon="145.38441">
    <ele>319.35</ele>
   </trkpt>
   <trkpt lat="-37.84758" lon="145.38437000000002">
    <ele>325.3</ele>
   </trkpt>
   <trkpt lat="-37.84796" lon="145.38426">
    <ele>328.49</ele>
   </trkpt>
   <trkpt lat="-37.84836" lon="145.38422">
    <ele>333.01000000000005</ele>
   </trkpt>
   <trkpt lat="-37.84848" lon="145.38417">
    <ele>335.11</ele>
   </trkpt>
   <trkpt lat="-37.8487" lon="145.38395">
    <ele>338.14000000000004</ele>
   </trkpt>
   <trkpt lat="-37.84877" lon="145.38364">
    <ele>340.83000000000004</ele>
   </trkpt>
   <trkpt lat="-37.84879" lon="145.38334">
    <ele>344.06</ele>
   </trkpt>
   <trkpt lat="-37.848730001359534" lon="145.38276999940166">
    <ele>351.67</ele>
   </trkpt>
   <trkpt lat="-37.848670000000006" lon="145.3822">
    <ele>362.48</ele>
   </trkpt>
   <trkpt lat="-37.84861" lon="145.38208">
    <ele>363.39000000000004</ele>
   </trkpt>
   <trkpt lat="-37.84852" lon="145.38196000000002">
    <ele>365.63</ele>
   </trkpt>
   <trkpt lat="-37.848290000000006" lon="145.38188000000002">
    <ele>368.05</ele>
   </trkpt>
   <trkpt lat="-37.84807" lon="145.38186000000002">
    <ele>370.72</ele>
   </trkpt>
   <trkpt lat="-37.84776" lon="145.3819">
    <ele>372.96</ele>
   </trkpt>
   <trkpt lat="-37.8476" lon="145.38195000000002">
    <ele>374.05000000000007</ele>
   </trkpt>
   <trkpt lat="-37.8474" lon="145.38206000000002">
    <ele>377.62</ele>
   </trkpt>
   <trkpt lat="-37.84702" lon="145.38219">
    <ele>382.86</ele>
   </trkpt>
   <trkpt lat="-37.8468" lon="145.38217">
    <ele>386.14000000000004</ele>
   </trkpt>
   <trkpt lat="-37.846700000000006" lon="145.38214000000002">
    <ele>387.81000000000006</ele>
   </trkpt>
   <trkpt lat="-37.84642" lon="145.3819">
    <ele>393.25000000000006</ele>
   </trkpt>
   <trkpt lat="-37.84619" lon="145.38119">
    <ele>405.97</ele>
   </trkpt>
   <trkpt lat="-37.846140000000005" lon="145.38064">
    <ele>416.89000000000004</ele>
   </trkpt>
   <trkpt lat="-37.846140000000005" lon="145.38061000000002">
    <ele>417.06000000000006</ele>
   </trkpt>
   <trkpt lat="-37.84604500361289" lon="145.37968499876288">
    <ele>431.92</ele>
   </trkpt>
   <trkpt lat="-37.84595" lon="145.37876">
    <ele>441.37</ele>
   </trkpt>
   <trkpt lat="-37.84575" lon="145.37785000000002">
    <ele>450.28000000000003</ele>
   </trkpt>
   <trkpt lat="-37.84575" lon="145.37768">
    <ele>452.11</ele>
   </trkpt>
   <trkpt lat="-37.84582" lon="145.37730000000002">
    <ele>456.38000000000005</ele>
   </trkpt>
   <trkpt lat="-37.8459" lon="145.37727">
    <ele>459.1000000000001</ele>
   </trkpt>
   <trkpt lat="-37.8461" lon="145.37725">
    <ele>463.44</ele>
   </trkpt>
   <trkpt lat="-37.84624" lon="145.37720000000002">
    <ele>464.82</ele>
   </trkpt>
   <trkpt lat="-37.84646" lon="145.37716">
    <ele>469.46000000000004</ele>
   </trkpt>
   <trkpt lat="-37.84666" lon="145.37718">
    <ele>473.99</ele>
   </trkpt>
   <trkpt lat="-37.8468" lon="145.37722000000002">
    <ele>473.99</ele>
   </trkpt>
   <trkpt lat="-37.847" lon="145.37736">
    <ele>478.56000000000006</ele>
   </trkpt>
   <trkpt lat="-37.84729" lon="145.37757000000002">
    <ele>483.69000000000005</ele>
   </trkpt>
   <trkpt lat="-37.84742" lon="145.3778">
    <ele>485.04</ele>
   </trkpt>
   <trkpt lat="-37.84747" lon="145.37811000000002">
    <ele>484.95000000000005</ele>
   </trkpt>
   <trkpt lat="-37.8476" lon="145.37832">
    <ele>484.18000000000006</ele>
   </trkpt>
   <trkpt lat="-37.84774" lon="145.37846000000002">
    <ele>484.12000000000006</ele>
   </trkpt>
   <trkpt lat="-37.84794" lon="145.37849">
    <ele>484.65000000000003</ele>
   </trkpt>
   <trkpt lat="-37.84825" lon="145.37846000000002">
    <ele>486.36</ele>
   </trkpt>
   <trkpt lat="-37.84848" lon="145.3784">
    <ele>487.62000000000006</ele>
   </trkpt>
   <trkpt lat="-37.8491" lon="145.37814">
    <ele>492.8</ele>
   </trkpt>
   <trkpt lat="-37.84951" lon="145.37792000000002">
    <ele>500.4700000000001</ele>
   </trkpt>
   <trkpt lat="-37.84964" lon="145.37782">
    <ele>500.4700000000001</ele>
   </trkpt>
   <trkpt lat="-37.85029" lon="145.3775">
    <ele>508.25000000000006</ele>
   </trkpt>
   <trkpt lat="-37.85047" lon="145.37738000000002">
    <ele>509.49</ele>
   </trkpt>
   <trkpt lat="-37.85085" lon="145.37730000000002">
    <ele>511.4200000000001</ele>
   </trkpt>
   <trkpt lat="-37.85121" lon="145.37741000000003">
    <ele>512.96</ele>
   </trkpt>
   <trkpt lat="-37.85157" lon="145.3776">
    <ele>510.63</ele>
   </trkpt>
   <trkpt lat="-37.85172" lon="145.37773">
    <ele>509.51</ele>
   </trkpt>
   <trkpt lat="-37.85188" lon="145.37808">
    <ele>506.3500000000001</ele>
   </trkpt>
   <trkpt lat="-37.85201" lon="145.37857000000002">
    <ele>504.41</ele>
   </trkpt>
   <trkpt lat="-37.85228" lon="145.37909000000002">
    <ele>506.61</ele>
   </trkpt>
   <trkpt lat="-37.85251" lon="145.37935000000002">
    <ele>508.13000000000005</ele>
   </trkpt>
   <trkpt lat="-37.85282" lon="145.3796">
    <ele>510.53000000000003</ele>
   </trkpt>
   <trkpt lat="-37.85293" lon="145.37962000000002">
    <ele>511.45000000000005</ele>
   </trkpt>
   <trkpt lat="-37.853080000000006" lon="145.37959">
    <ele>511.9100000000001</ele>
   </trkpt>
   <trkpt lat="-37.853350000000006" lon="145.37931">
    <ele>512.1600000000001</ele>
   </trkpt>
   <trkpt lat="-37.85351" lon="145.37909000000002">
    <ele>514.3199999999999</ele>
   </trkpt>
   <trkpt lat="-37.85387" lon="145.37866000000002">
    <ele>521.22</ele>
   </trkpt>
   <trkpt lat="-37.85389" lon="145.37864000000002">
    <ele>521.5200000000001</ele>
   </trkpt>
   <trkpt lat="-37.85427" lon="145.37793000000002">
    <ele>533.7900000000001</ele>
   </trkpt>
   <trkpt lat="-37.85468" lon="145.37728">
    <ele>546.58</ele>
   </trkpt>
   <trkpt lat="-37.85501" lon="145.37684000000002">
    <ele>553.24</ele>
   </trkpt>
   <trkpt lat="-37.85533" lon="145.37614000000002">
    <ele>563.62</ele>
   </trkpt>
   <trkpt lat="-37.85571" lon="145.37552000000002">
    <ele>569.2700000000001</ele>
   </trkpt>
   <trkpt lat="-37.85604" lon="145.37508000000003">
    <ele>573.0200000000001</ele>
   </trkpt>
   <trkpt lat="-37.85622" lon="145.37490000000003">
    <ele>574.2700000000001</ele>
   </trkpt>
   <trkpt lat="-37.856260000000006" lon="145.37480000000002">
    <ele>574.32</ele>
   </trkpt>
   <trkpt lat="-37.856280000000005" lon="145.37481000000002">
    <ele>574.1700000000001</ele>
   </trkpt>
   <trkpt lat="-37.856" lon="145.37456">
    <ele>577.0600000000001</ele>
   </trkpt>
   <trkpt lat="-37.8556750005453" lon="145.37416499811948">
    <ele>578.85</ele>
   </trkpt>
   <trkpt lat="-37.85535" lon="145.37377">
    <ele>578.3000000000001</ele>
   </trkpt>
   <trkpt lat="-37.85531" lon="145.37379">
    <ele>578.3600000000001</ele>
   </trkpt>
   <trkpt lat="-37.85521" lon="145.37367">
    <ele>578.28</ele>
   </trkpt>
   <trkpt lat="-37.854845000635606" lon="145.37326999797466">
    <ele>578.4100000000001</ele>
   </trkpt>
   <trkpt lat="-37.85448" lon="145.37287">
    <ele>579.13</ele>
   </trkpt>
   <trkpt lat="-37.8543" lon="145.37263000000002">
    <ele>579.46</ele>
   </trkpt>
   <trkpt lat="-37.85414" lon="145.37239000000002">
    <ele>579.83</ele>
   </trkpt>
   <trkpt lat="-37.85405" lon="145.37220000000002">
    <ele>579.9200000000001</ele>
   </trkpt>
   <trkpt lat="-37.854020000000006" lon="145.37182">
    <ele>579.61</ele>
   </trkpt>
   <trkpt lat="-37.854020000000006" lon="145.3717">
    <ele>579.5400000000001</ele>
   </trkpt>
   <trkpt lat="-37.8541050050113" lon="145.3706100014149">
    <ele>577.0500000000001</ele>
   </trkpt>
   <trkpt lat="-37.85419" lon="145.36952000000002">
    <ele>573.47</ele>
   </trkpt>
   <trkpt lat="-37.854290000000006" lon="145.36955">
    <ele>570.76</ele>
   </trkpt>
   <trkpt lat="-37.85436" lon="145.36935000000003">
    <ele>570.62</ele>
   </trkpt>
   <trkpt lat="-37.854470000000006" lon="145.36917000000003">
    <ele>570.72</ele>
   </trkpt>
   <trkpt lat="-37.85409000000001" lon="145.36882">
    <ele>576.4</ele>
   </trkpt>
   <trkpt lat="-37.853660000000005" lon="145.36857">
    <ele>579.04</ele>
   </trkpt>
   <trkpt lat="-37.85314" lon="145.36833000000001">
    <ele>578.52</ele>
   </trkpt>
   <trkpt lat="-37.85295" lon="145.36823">
    <ele>577.23</ele>
   </trkpt>
   <trkpt lat="-37.85264" lon="145.36819">
    <ele>574.2700000000001</ele>
   </trkpt>
   <trkpt lat="-37.85258" lon="145.3682">
    <ele>574.0200000000001</ele>
   </trkpt>
  </trkseg>
 </trk>
</gpx>
