<?xml version="1.0" encoding="UTF-8"?>
<gpx creator="StravaGPX" version="1.1" xmlns="http://www.topografix.com/GPX/1/1" xmlns:xsi="http://www.w3.org/2001/XMLSchema-instance" xsi:schemaLocation="http://www.topografix.com/GPX/1/1 http://www.topografix.com/GPX/1/1/gpx.xsd">
 <metadata>
  <name>Sunday 13 Sep 2026 - 14k</name>
  <author>
   <name>Majid Nazem 🇦🇺</name>
   <link href="https://www.strava.com/athletes/5612969"/>
  </author>
  <copyright author="OpenStreetMap contributors">
   <year>2020</year>
   <license>https://www.openstreetmap.org/copyright</license>
  </copyright>
  <link href="https://www.strava.com/routes/3532980464334031984"/>
 </metadata>
 <trk>
  <name>Sunday 13 Sep 2026 - 14k</name>
  <link href="https://www.strava.com/routes/3532980464334031984"/>
  <type>running</type>
  <trkseg>
   <trkpt lat="-37.887620000000005" lon="145.36993">
    <ele>362.26</ele>
   </trkpt>
   <trkpt lat="-37.88749" lon="145.36999">
    <ele>362.21000000000004</ele>
   </trkpt>
   <trkpt lat="-37.88738" lon="145.37008">
    <ele>363.35</ele>
   </trkpt>
   <trkpt lat="-37.88729" lon="145.37024000000002">
    <ele>366.6</ele>
   </trkpt>
   <trkpt lat="-37.886860000000006" lon="145.37055">
    <ele>369.42</ele>
   </trkpt>
   <trkpt lat="-37.88689" lon="145.37066000000002">
    <ele>371.19</ele>
   </trkpt>
   <trkpt lat="-37.88694" lon="145.37120000000002">
    <ele>371.27000000000004</ele>
   </trkpt>
   <trkpt lat="-37.88698" lon="145.37135">
    <ele>371.69</ele>
   </trkpt>
   <trkpt lat="-37.88705" lon="145.37147000000002">
    <ele>371.78000000000003</ele>
   </trkpt>
   <trkpt lat="-37.887425000479915" lon="145.37178999841026">
    <ele>370.00000000000006</ele>
   </trkpt>
   <trkpt lat="-37.887800000000006" lon="145.37211000000002">
    <ele>365.98</ele>
   </trkpt>
   <trkpt lat="-37.88841000078449" lon="145.37258499593258">
    <ele>361.81</ele>
   </trkpt>
   <trkpt lat="-37.88902" lon="145.37306">
    <ele>356.59000000000003</ele>
   </trkpt>
   <trkpt lat="-37.88950000069874" lon="145.37347499726883">
    <ele>352.72</ele>
   </trkpt>
   <trkpt lat="-37.88998" lon="145.37389000000002">
    <ele>347.85</ele>
   </trkpt>
   <trkpt lat="-37.89007" lon="145.37402">
    <ele>347.07000000000005</ele>
   </trkpt>
   <trkpt lat="-37.89011" lon="145.37428">
    <ele>346.2</ele>
   </trkpt>
   <trkpt lat="-37.89009" lon="145.37448">
    <ele>344.79</ele>
   </trkpt>
   <trkpt lat="-37.89" lon="145.37468">
    <ele>344.37</ele>
   </trkpt>
   <trkpt lat="-37.88993" lon="145.37490000000003">
    <ele>343.95000000000005</ele>
   </trkpt>
   <trkpt lat="-37.88996" lon="145.37504">
    <ele>344.31</ele>
   </trkpt>
   <trkpt lat="-37.89007" lon="145.37515000000002">
    <ele>345.30000000000007</ele>
   </trkpt>
   <trkpt lat="-37.89025" lon="145.37519">
    <ele>346.11</ele>
   </trkpt>
   <trkpt lat="-37.89052" lon="145.37509">
    <ele>345.47</ele>
   </trkpt>
   <trkpt lat="-37.89079" lon="145.37492">
    <ele>345.21000000000004</ele>
   </trkpt>
   <trkpt lat="-37.89112" lon="145.37477">
    <ele>341.71</ele>
   </trkpt>
   <trkpt lat="-37.891180000000006" lon="145.37476">
    <ele>341.26</ele>
   </trkpt>
   <trkpt lat="-37.89137" lon="145.37478000000002">
    <ele>338.75000000000006</ele>
   </trkpt>
   <trkpt lat="-37.89148" lon="145.37473">
    <ele>337.79</ele>
   </trkpt>
   <trkpt lat="-37.89157" lon="145.37466">
    <ele>336.82</ele>
   </trkpt>
   <trkpt lat="-37.89159" lon="145.37459">
    <ele>336.77</ele>
   </trkpt>
   <trkpt lat="-37.89159" lon="145.37401">
    <ele>339.8</ele>
   </trkpt>
   <trkpt lat="-37.89161" lon="145.37392">
    <ele>342.01000000000005</ele>
   </trkpt>
   <trkpt lat="-37.89166" lon="145.37383">
    <ele>342.01000000000005</ele>
   </trkpt>
   <trkpt lat="-37.89175" lon="145.37377">
    <ele>343.97</ele>
   </trkpt>
   <trkpt lat="-37.89193" lon="145.37368">
    <ele>345.09</ele>
   </trkpt>
   <trkpt lat="-37.89213" lon="145.37365">
    <ele>348.21000000000004</ele>
   </trkpt>
   <trkpt lat="-37.8924" lon="145.37368">
    <ele>352.8</ele>
   </trkpt>
   <trkpt lat="-37.89284" lon="145.37382000000002">
    <ele>357.62000000000006</ele>
   </trkpt>
   <trkpt lat="-37.89331" lon="145.37409000000002">
    <ele>362.19</ele>
   </trkpt>
   <trkpt lat="-37.89349" lon="145.37424000000001">
    <ele>364.7</ele>
   </trkpt>
   <trkpt lat="-37.89383" lon="145.37475">
    <ele>371.51</ele>
   </trkpt>
   <trkpt lat="-37.89392" lon="145.37482">
    <ele>372.88000000000005</ele>
   </trkpt>
   <trkpt lat="-37.89423" lon="145.37495">
    <ele>378.50000000000006</ele>
   </trkpt>
   <trkpt lat="-37.89437" lon="145.37505000000002">
    <ele>381.55000000000007</ele>
   </trkpt>
   <trkpt lat="-37.894560000000006" lon="145.37512">
    <ele>384.40000000000003</ele>
   </trkpt>
   <trkpt lat="-37.89479" lon="145.37516000000002">
    <ele>388.97</ele>
   </trkpt>
   <trkpt lat="-37.89513" lon="145.37514000000002">
    <ele>393.85</ele>
   </trkpt>
   <trkpt lat="-37.89549" lon="145.37521">
    <ele>398.27</ele>
   </trkpt>
   <trkpt lat="-37.8958" lon="145.37517000000003">
    <ele>399.83</ele>
   </trkpt>
   <trkpt lat="-37.896080000000005" lon="145.37524000000002">
    <ele>400.11</ele>
   </trkpt>
   <trkpt lat="-37.89636" lon="145.37518">
    <ele>400.45000000000005</ele>
   </trkpt>
   <trkpt lat="-37.89658" lon="145.37518">
    <ele>400.32</ele>
   </trkpt>
   <trkpt lat="-37.89676" lon="145.37524000000002">
    <ele>400.43</ele>
   </trkpt>
   <trkpt lat="-37.89701" lon="145.37541000000002">
    <ele>400.94</ele>
   </trkpt>
   <trkpt lat="-37.89723" lon="145.37565">
    <ele>400.94</ele>
   </trkpt>
   <trkpt lat="-37.89734" lon="145.37586000000002">
    <ele>401.4200000000001</ele>
   </trkpt>
   <trkpt lat="-37.8975000016422" lon="145.37647999871515">
    <ele>400.79</ele>
   </trkpt>
   <trkpt lat="-37.89766" lon="145.3771">
    <ele>398.78000000000003</ele>
   </trkpt>
   <trkpt lat="-37.89772" lon="145.37738000000002">
    <ele>397.81000000000006</ele>
   </trkpt>
   <trkpt lat="-37.89781" lon="145.3779">
    <ele>397.24</ele>
   </trkpt>
   <trkpt lat="-37.8979" lon="145.37899000000002">
    <ele>400.28000000000003</ele>
   </trkpt>
   <trkpt lat="-37.897920000000006" lon="145.37907">
    <ele>400.28000000000003</ele>
   </trkpt>
   <trkpt lat="-37.897980000000004" lon="145.37919000000002">
    <ele>399.37000000000006</ele>
   </trkpt>
   <trkpt lat="-37.89788" lon="145.37979">
    <ele>397.70000000000005</ele>
   </trkpt>
   <trkpt lat="-37.89784" lon="145.38036000000002">
    <ele>394.49</ele>
   </trkpt>
   <trkpt lat="-37.89779" lon="145.38079000000002">
    <ele>393.14000000000004</ele>
   </trkpt>
   <trkpt lat="-37.897690000000004" lon="145.38145">
    <ele>391.38</ele>
   </trkpt>
   <trkpt lat="-37.89762000163202" lon="145.3820750007756">
    <ele>391.88</ele>
   </trkpt>
   <trkpt lat="-37.89755" lon="145.3827">
    <ele>392.65000000000003</ele>
   </trkpt>
   <trkpt lat="-37.897440001519705" lon="145.3833050010612">
    <ele>394.77</ele>
   </trkpt>
   <trkpt lat="-37.897330000000004" lon="145.38391000000001">
    <ele>396.70000000000005</ele>
   </trkpt>
   <trkpt lat="-37.897330000000004" lon="145.38393000000002">
    <ele>396.75000000000006</ele>
   </trkpt>
   <trkpt lat="-37.8973" lon="145.38409000000001">
    <ele>397.61</ele>
   </trkpt>
   <trkpt lat="-37.89719" lon="145.38446000000002">
    <ele>400.07000000000005</ele>
   </trkpt>
   <trkpt lat="-37.89703" lon="145.38479">
    <ele>403.21</ele>
   </trkpt>
   <trkpt lat="-37.89708" lon="145.38508000000002">
    <ele>404.90000000000003</ele>
   </trkpt>
   <trkpt lat="-37.89705" lon="145.38526000000002">
    <ele>405.55</ele>
   </trkpt>
   <trkpt lat="-37.89696" lon="145.38565">
    <ele>409.14000000000004</ele>
   </trkpt>
   <trkpt lat="-37.89676" lon="145.38609000000002">
    <ele>414.81</ele>
   </trkpt>
   <trkpt lat="-37.89663" lon="145.38676">
    <ele>422.48</ele>
   </trkpt>
   <trkpt lat="-37.89663" lon="145.38708000000003">
    <ele>424.68000000000006</ele>
   </trkpt>
   <trkpt lat="-37.89656" lon="145.38734000000002">
    <ele>429.28000000000003</ele>
   </trkpt>
   <trkpt lat="-37.89643" lon="145.38760000000002">
    <ele>430.16</ele>
   </trkpt>
   <trkpt lat="-37.89587" lon="145.38802">
    <ele>433.59000000000003</ele>
   </trkpt>
   <trkpt lat="-37.89574" lon="145.38798">
    <ele>433.7300000000001</ele>
   </trkpt>
   <trkpt lat="-37.89587" lon="145.38819">
    <ele>433.85</ele>
   </trkpt>
   <trkpt lat="-37.89607" lon="145.38836">
    <ele>433.61</ele>
   </trkpt>
   <trkpt lat="-37.89625" lon="145.38855">
    <ele>432.87</ele>
   </trkpt>
   <trkpt lat="-37.89674" lon="145.38902000000002">
    <ele>430.21000000000004</ele>
   </trkpt>
   <trkpt lat="-37.89701" lon="145.38949000000002">
    <ele>426.55</ele>
   </trkpt>
   <trkpt lat="-37.89703" lon="145.38963">
    <ele>425.75</ele>
   </trkpt>
   <trkpt lat="-37.89712" lon="145.38982000000001">
    <ele>423.83000000000004</ele>
   </trkpt>
   <trkpt lat="-37.89714" lon="145.38993000000002">
    <ele>422.89000000000004</ele>
   </trkpt>
   <trkpt lat="-37.89743" lon="145.39031">
    <ele>419.57000000000005</ele>
   </trkpt>
   <trkpt lat="-37.89803500152297" lon="145.39090999506845">
    <ele>414.05</ele>
   </trkpt>
   <trkpt lat="-37.89864" lon="145.39151">
    <ele>411.84000000000003</ele>
   </trkpt>
   <trkpt lat="-37.89876" lon="145.39167">
    <ele>411.94</ele>
   </trkpt>
   <trkpt lat="-37.89884" lon="145.39183">
    <ele>411.72</ele>
   </trkpt>
   <trkpt lat="-37.89893" lon="145.3921">
    <ele>412.04</ele>
   </trkpt>
   <trkpt lat="-37.898970000000006" lon="145.39257">
    <ele>413.90000000000003</ele>
   </trkpt>
   <trkpt lat="-37.89896" lon="145.39297000000002">
    <ele>417.85</ele>
   </trkpt>
   <trkpt lat="-37.89884" lon="145.394">
    <ele>422.79</ele>
   </trkpt>
   <trkpt lat="-37.89893" lon="145.39467000000002">
    <ele>426.09000000000003</ele>
   </trkpt>
   <trkpt lat="-37.89914" lon="145.39504000000002">
    <ele>428.7900000000001</ele>
   </trkpt>
   <trkpt lat="-37.89931" lon="145.39533">
    <ele>431.27000000000004</ele>
   </trkpt>
   <trkpt lat="-37.89954" lon="145.39557000000002">
    <ele>432.1700000000001</ele>
   </trkpt>
   <trkpt lat="-37.900130000000004" lon="145.39607">
    <ele>437.00000000000006</ele>
   </trkpt>
   <trkpt lat="-37.90086" lon="145.39651">
    <ele>442.90000000000003</ele>
   </trkpt>
   <trkpt lat="-37.90122" lon="145.39669">
    <ele>444.04</ele>
   </trkpt>
   <trkpt lat="-37.901620001124904" lon="145.39720499720477">
    <ele>447.1</ele>
   </trkpt>
   <trkpt lat="-37.90202" lon="145.39772000000002">
    <ele>451.59000000000003</ele>
   </trkpt>
   <trkpt lat="-37.90265" lon="145.39842000000002">
    <ele>460.57000000000005</ele>
   </trkpt>
   <trkpt lat="-37.90276" lon="145.39836000000003">
    <ele>460.8</ele>
   </trkpt>
   <trkpt lat="-37.9033" lon="145.39819">
    <ele>458.74</ele>
   </trkpt>
   <trkpt lat="-37.9035" lon="145.39805">
    <ele>457.67</ele>
   </trkpt>
   <trkpt lat="-37.90379" lon="145.39776">
    <ele>456.90000000000003</ele>
   </trkpt>
   <trkpt lat="-37.9041" lon="145.39733">
    <ele>456.36</ele>
   </trkpt>
   <trkpt lat="-37.90444" lon="145.39645000000002">
    <ele>456.49000000000007</ele>
   </trkpt>
   <trkpt lat="-37.90464000136008" lon="145.39588000158997">
    <ele>456.81000000000006</ele>
   </trkpt>
   <trkpt lat="-37.90484" lon="145.39531000000002">
    <ele>455.06</ele>
   </trkpt>
   <trkpt lat="-37.90491" lon="145.39521000000002">
    <ele>454.21000000000004</ele>
   </trkpt>
   <trkpt lat="-37.905" lon="145.39518">
    <ele>454.21000000000004</ele>
   </trkpt>
   <trkpt lat="-37.905260000000006" lon="145.39513000000002">
    <ele>449.72</ele>
   </trkpt>
   <trkpt lat="-37.905730000000005" lon="145.39508">
    <ele>444.26000000000005</ele>
   </trkpt>
   <trkpt lat="-37.90629499992542" lon="145.39508499996094">
    <ele>434.37</ele>
   </trkpt>
   <trkpt lat="-37.90686" lon="145.39509">
    <ele>424.99</ele>
   </trkpt>
   <trkpt lat="-37.90706" lon="145.39508">
    <ele>422.34000000000003</ele>
   </trkpt>
   <trkpt lat="-37.90746" lon="145.39514">
    <ele>411.6</ele>
   </trkpt>
   <trkpt lat="-37.90775" lon="145.39513000000002">
    <ele>405.65</ele>
   </trkpt>
   <trkpt lat="-37.90816" lon="145.39518">
    <ele>398.77</ele>
   </trkpt>
   <trkpt lat="-37.908170000000005" lon="145.39518">
    <ele>398.77</ele>
   </trkpt>
   <trkpt lat="-37.90849" lon="145.39521000000002">
    <ele>392.74</ele>
   </trkpt>
   <trkpt lat="-37.908910000000006" lon="145.39523">
    <ele>385.37000000000006</ele>
   </trkpt>
   <trkpt lat="-37.90961" lon="145.39531000000002">
    <ele>377.03000000000003</ele>
   </trkpt>
   <trkpt lat="-37.91007000016125" lon="145.3953399998227">
    <ele>373.26000000000005</ele>
   </trkpt>
   <trkpt lat="-37.91053" lon="145.39537">
    <ele>370.54</ele>
   </trkpt>
   <trkpt lat="-37.910990000000005" lon="145.39541">
    <ele>370.75</ele>
   </trkpt>
   <trkpt lat="-37.91113" lon="145.39545">
    <ele>370.75</ele>
   </trkpt>
   <trkpt lat="-37.91131" lon="145.39558000000002">
    <ele>371.15000000000003</ele>
   </trkpt>
   <trkpt lat="-37.9114" lon="145.39558000000002">
    <ele>370.31</ele>
   </trkpt>
   <trkpt lat="-37.91145" lon="145.39552">
    <ele>370.37</ele>
   </trkpt>
   <trkpt lat="-37.911640000000006" lon="145.39548000000002">
    <ele>371.13</ele>
   </trkpt>
   <trkpt lat="-37.91185" lon="145.39546">
    <ele>372.63</ele>
   </trkpt>
   <trkpt lat="-37.912020000000005" lon="145.39546">
    <ele>373.28000000000003</ele>
   </trkpt>
   <trkpt lat="-37.9124800000851" lon="145.3955049997261">
    <ele>377.1</ele>
   </trkpt>
   <trkpt lat="-37.912940000000006" lon="145.39555000000001">
    <ele>380.26000000000005</ele>
   </trkpt>
   <trkpt lat="-37.91275" lon="145.39448000000002">
    <ele>383.39</ele>
   </trkpt>
   <trkpt lat="-37.912565002103946" lon="145.3937699981046">
    <ele>382.75</ele>
   </trkpt>
   <trkpt lat="-37.912380000000006" lon="145.39306000000002">
    <ele>382.08000000000004</ele>
   </trkpt>
   <trkpt lat="-37.9122500022059" lon="145.39233999879875">
    <ele>381.09000000000003</ele>
   </trkpt>
   <trkpt lat="-37.91212" lon="145.39162000000002">
    <ele>378.06</ele>
   </trkpt>
   <trkpt lat="-37.9121" lon="145.39141">
    <ele>377.18</ele>
   </trkpt>
   <trkpt lat="-37.912150000000004" lon="145.39096">
    <ele>374.66</ele>
   </trkpt>
   <trkpt lat="-37.91228" lon="145.39037000000002">
    <ele>367.44000000000005</ele>
   </trkpt>
   <trkpt lat="-37.912330000000004" lon="145.38986">
    <ele>360.57000000000005</ele>
   </trkpt>
   <trkpt lat="-37.91236" lon="145.38958000000002">
    <ele>358.59000000000003</ele>
   </trkpt>
   <trkpt lat="-37.91237" lon="145.38920000000002">
    <ele>353.45000000000005</ele>
   </trkpt>
   <trkpt lat="-37.91245" lon="145.38824000000002">
    <ele>342.87</ele>
   </trkpt>
   <trkpt lat="-37.91245" lon="145.38784">
    <ele>339.51000000000005</ele>
   </trkpt>
   <trkpt lat="-37.91248" lon="145.38751000000002">
    <ele>338.57000000000005</ele>
   </trkpt>
   <trkpt lat="-37.91242000190222" lon="145.3868399994889">
    <ele>338.07000000000005</ele>
   </trkpt>
   <trkpt lat="-37.91236" lon="145.38617000000002">
    <ele>339.87</ele>
   </trkpt>
   <trkpt lat="-37.91234" lon="145.38577">
    <ele>341.95000000000005</ele>
   </trkpt>
   <trkpt lat="-37.912275002057136" lon="145.38507499953258">
    <ele>347.44</ele>
   </trkpt>
   <trkpt lat="-37.91221" lon="145.38438000000002">
    <ele>351.3</ele>
   </trkpt>
   <trkpt lat="-37.91192" lon="145.38375000000002">
    <ele>349.13000000000005</ele>
   </trkpt>
   <trkpt lat="-37.91178" lon="145.38351">
    <ele>345.89000000000004</ele>
   </trkpt>
   <trkpt lat="-37.91142" lon="145.38275000000002">
    <ele>342.29</ele>
   </trkpt>
   <trkpt lat="-37.91131" lon="145.38238">
    <ele>340.61</ele>
   </trkpt>
   <trkpt lat="-37.91127" lon="145.38201">
    <ele>338.34000000000003</ele>
   </trkpt>
   <trkpt lat="-37.911260000000006" lon="145.38142000000002">
    <ele>335.68</ele>
   </trkpt>
   <trkpt lat="-37.91118" lon="145.38091">
    <ele>331.74</ele>
   </trkpt>
   <trkpt lat="-37.91111" lon="145.38077">
    <ele>328.85</ele>
   </trkpt>
   <trkpt lat="-37.91098" lon="145.38056">
    <ele>325.79</ele>
   </trkpt>
   <trkpt lat="-37.91053" lon="145.38001">
    <ele>324.68</ele>
   </trkpt>
   <trkpt lat="-37.91024" lon="145.37946000000002">
    <ele>321.76000000000005</ele>
   </trkpt>
   <trkpt lat="-37.91013" lon="145.37915">
    <ele>321.17</ele>
   </trkpt>
   <trkpt lat="-37.91004" lon="145.3787">
    <ele>318.15999999999997</ele>
   </trkpt>
   <trkpt lat="-37.91004" lon="145.37857000000002">
    <ele>317.18</ele>
   </trkpt>
   <trkpt lat="-37.91008" lon="145.37851">
    <ele>317.18</ele>
   </trkpt>
   <trkpt lat="-37.91013" lon="145.37849">
    <ele>315.12</ele>
   </trkpt>
   <trkpt lat="-37.91082" lon="145.37852">
    <ele>309.59000000000003</ele>
   </trkpt>
   <trkpt lat="-37.911" lon="145.3785">
    <ele>308.50000000000006</ele>
   </trkpt>
   <trkpt lat="-37.910830000000004" lon="145.37843">
    <ele>312.97</ele>
   </trkpt>
   <trkpt lat="-37.91033" lon="145.37793000000002">
    <ele>303.33000000000004</ele>
   </trkpt>
   <trkpt lat="-37.9101" lon="145.37749000000002">
    <ele>295.85</ele>
   </trkpt>
   <trkpt lat="-37.90992" lon="145.37733">
    <ele>294.24</ele>
   </trkpt>
   <trkpt lat="-37.90983000000001" lon="145.37728">
    <ele>293.53000000000003</ele>
   </trkpt>
   <trkpt lat="-37.91006" lon="145.37734">
    <ele>292.32</ele>
   </trkpt>
   <trkpt lat="-37.910340000000005" lon="145.37748000000002">
    <ele>290.48</ele>
   </trkpt>
   <trkpt lat="-37.91015" lon="145.37726">
    <ele>287.75</ele>
   </trkpt>
   <trkpt lat="-37.90999" lon="145.37698">
    <ele>284.33000000000004</ele>
   </trkpt>
   <trkpt lat="-37.90977" lon="145.37643">
    <ele>276.42</ele>
   </trkpt>
   <trkpt lat="-37.909740000000006" lon="145.3762">
    <ele>274.5</ele>
   </trkpt>
   <trkpt lat="-37.90975" lon="145.37584">
    <ele>272.88</ele>
   </trkpt>
   <trkpt lat="-37.90968" lon="145.37546">
    <ele>267.61</ele>
   </trkpt>
   <trkpt lat="-37.90963" lon="145.37486">
    <ele>260.65000000000003</ele>
   </trkpt>
   <trkpt lat="-37.90957" lon="145.37385">
    <ele>249.59000000000003</ele>
   </trkpt>
   <trkpt lat="-37.90948" lon="145.37339">
    <ele>247.14000000000001</ele>
   </trkpt>
   <trkpt lat="-37.90941000169416" lon="145.3727599995368">
    <ele>246.95000000000002</ele>
   </trkpt>
   <trkpt lat="-37.90934" lon="145.37213">
    <ele>249.43</ele>
   </trkpt>
   <trkpt lat="-37.909200000000006" lon="145.37147000000002">
    <ele>251.10999999999999</ele>
   </trkpt>
   <trkpt lat="-37.909010001151216" lon="145.37093499845056">
    <ele>249.18</ele>
   </trkpt>
   <trkpt lat="-37.908820000000006" lon="145.37040000000002">
    <ele>245.01000000000002</ele>
   </trkpt>
   <trkpt lat="-37.90869" lon="145.3701">
    <ele>241.79000000000002</ele>
   </trkpt>
   <trkpt lat="-37.90836" lon="145.36937">
    <ele>227.64000000000001</ele>
   </trkpt>
   <trkpt lat="-37.90829" lon="145.36899000000003">
    <ele>224.02</ele>
   </trkpt>
   <trkpt lat="-37.90829" lon="145.36884">
    <ele>222.18</ele>
   </trkpt>
   <trkpt lat="-37.90833000000001" lon="145.36857">
    <ele>220.88000000000002</ele>
   </trkpt>
   <trkpt lat="-37.9082" lon="145.36867">
    <ele>222.23000000000002</ele>
   </trkpt>
   <trkpt lat="-37.90790000099448" lon="145.36915500197844">
    <ele>222.66000000000003</ele>
   </trkpt>
   <trkpt lat="-37.9076" lon="145.36964">
    <ele>221.83</ele>
   </trkpt>
   <trkpt lat="-37.90736500135839" lon="145.37019000157233">
    <ele>221.8</ele>
   </trkpt>
   <trkpt lat="-37.90713" lon="145.37074">
    <ele>220.35000000000002</ele>
   </trkpt>
   <trkpt lat="-37.906530000000004" lon="145.37126">
    <ele>224.81</ele>
   </trkpt>
   <trkpt lat="-37.90639" lon="145.37087000000002">
    <ele>226.16000000000003</ele>
   </trkpt>
   <trkpt lat="-37.90628" lon="145.37043">
    <ele>229.08</ele>
   </trkpt>
   <trkpt lat="-37.9063" lon="145.37003">
    <ele>230.13000000000002</ele>
   </trkpt>
   <trkpt lat="-37.90634" lon="145.36982">
    <ele>230.11</ele>
   </trkpt>
   <trkpt lat="-37.9065" lon="145.36961000000002">
    <ele>229.82000000000002</ele>
   </trkpt>
   <trkpt lat="-37.9067" lon="145.36924000000002">
    <ele>230.28</ele>
   </trkpt>
   <trkpt lat="-37.90677" lon="145.36897000000002">
    <ele>230.39000000000001</ele>
   </trkpt>
   <trkpt lat="-37.90677" lon="145.36884">
    <ele>230.39000000000001</ele>
   </trkpt>
   <trkpt lat="-37.90668" lon="145.36825000000002">
    <ele>230.96</ele>
   </trkpt>
   <trkpt lat="-37.90675" lon="145.36773000000002">
    <ele>227.91000000000003</ele>
   </trkpt>
   <trkpt lat="-37.90663" lon="145.36713">
    <ele>226.33</ele>
   </trkpt>
   <trkpt lat="-37.90661" lon="145.36685">
    <ele>228.37</ele>
   </trkpt>
   <trkpt lat="-37.90657" lon="145.36668">
    <ele>232.42000000000002</ele>
   </trkpt>
   <trkpt lat="-37.90663" lon="145.36637000000002">
    <ele>239.47</ele>
   </trkpt>
   <trkpt lat="-37.90646" lon="145.36564">
    <ele>254.66</ele>
   </trkpt>
   <trkpt lat="-37.90623" lon="145.36459000000002">
    <ele>279.78000000000003</ele>
   </trkpt>
   <trkpt lat="-37.90614" lon="145.36395000000002">
    <ele>289.51000000000005</ele>
   </trkpt>
   <trkpt lat="-37.906060000000004" lon="145.36378000000002">
    <ele>290.89000000000004</ele>
   </trkpt>
   <trkpt lat="-37.905770000000004" lon="145.36347">
    <ele>294.98</ele>
   </trkpt>
   <trkpt lat="-37.90565" lon="145.3634">
    <ele>297.13</ele>
   </trkpt>
   <trkpt lat="-37.90545" lon="145.36334000000002">
    <ele>297.13</ele>
   </trkpt>
   <trkpt lat="-37.905350000000006" lon="145.36324000000002">
    <ele>306.92</ele>
   </trkpt>
   <trkpt lat="-37.90522" lon="145.36309">
    <ele>306.92</ele>
   </trkpt>
   <trkpt lat="-37.9046" lon="145.36269000000001">
    <ele>315.37</ele>
   </trkpt>
   <trkpt lat="-37.90442" lon="145.36266">
    <ele>317.11</ele>
   </trkpt>
   <trkpt lat="-37.90417" lon="145.36270000000002">
    <ele>318.59000000000003</ele>
   </trkpt>
   <trkpt lat="-37.90366" lon="145.36271000000002">
    <ele>323.21000000000004</ele>
   </trkpt>
   <trkpt lat="-37.90307" lon="145.36296000000002">
    <ele>327.14000000000004</ele>
   </trkpt>
   <trkpt lat="-37.90283" lon="145.36315000000002">
    <ele>330.85</ele>
   </trkpt>
   <trkpt lat="-37.90263" lon="145.36328">
    <ele>332.48</ele>
   </trkpt>
   <trkpt lat="-37.90216" lon="145.36339">
    <ele>339.57000000000005</ele>
   </trkpt>
   <trkpt lat="-37.90189" lon="145.36350000000002">
    <ele>342.66</ele>
   </trkpt>
   <trkpt lat="-37.901450000000004" lon="145.36383">
    <ele>347.45000000000005</ele>
   </trkpt>
   <trkpt lat="-37.90124" lon="145.36343000000002">
    <ele>346.09</ele>
   </trkpt>
   <trkpt lat="-37.901050001985745" lon="145.36273999811638">
    <ele>341.75000000000006</ele>
   </trkpt>
   <trkpt lat="-37.90086" lon="145.36205">
    <ele>333.3</ele>
   </trkpt>
   <trkpt lat="-37.900830000000006" lon="145.36186">
    <ele>332.52000000000004</ele>
   </trkpt>
   <trkpt lat="-37.90077" lon="145.36145000000002">
    <ele>333.63000000000005</ele>
   </trkpt>
   <trkpt lat="-37.90059" lon="145.36069">
    <ele>337.74</ele>
   </trkpt>
   <trkpt lat="-37.90057" lon="145.36046000000002">
    <ele>337.24</ele>
   </trkpt>
   <trkpt lat="-37.9005" lon="145.36012000000002">
    <ele>331.84000000000003</ele>
   </trkpt>
   <trkpt lat="-37.9003" lon="145.35946">
    <ele>316.54</ele>
   </trkpt>
   <trkpt lat="-37.9001" lon="145.35860000000002">
    <ele>301.49</ele>
   </trkpt>
   <trkpt lat="-37.9001" lon="145.35835">
    <ele>297.94000000000005</ele>
   </trkpt>
   <trkpt lat="-37.900000000000006" lon="145.35778000000002">
    <ele>284.21000000000004</ele>
   </trkpt>
   <trkpt lat="-37.89992" lon="145.35763">
    <ele>277.12</ele>
   </trkpt>
   <trkpt lat="-37.89992" lon="145.35755">
    <ele>275.48</ele>
   </trkpt>
   <trkpt lat="-37.900000000000006" lon="145.35732000000002">
    <ele>269.69000000000005</ele>
   </trkpt>
   <trkpt lat="-37.900000000000006" lon="145.35713">
    <ele>257.98</ele>
   </trkpt>
   <trkpt lat="-37.89996" lon="145.35696000000002">
    <ele>258.0</ele>
   </trkpt>
   <trkpt lat="-37.89985" lon="145.35690000000002">
    <ele>260.83</ele>
   </trkpt>
   <trkpt lat="-37.89994" lon="145.35687000000001">
    <ele>266.29</ele>
   </trkpt>
   <trkpt lat="-37.90001" lon="145.35687000000001">
    <ele>266.29</ele>
   </trkpt>
   <trkpt lat="-37.9001" lon="145.35691">
    <ele>266.5</ele>
   </trkpt>
   <trkpt lat="-37.900110000000005" lon="145.35685">
    <ele>266.5</ele>
   </trkpt>
   <trkpt lat="-37.89996" lon="145.35677">
    <ele>267.92</ele>
   </trkpt>
   <trkpt lat="-37.89985" lon="145.35665">
    <ele>268.77</ele>
   </trkpt>
   <trkpt lat="-37.89974" lon="145.35645000000002">
    <ele>269.43</ele>
   </trkpt>
   <trkpt lat="-37.899730000000005" lon="145.35632">
    <ele>269.43</ele>
   </trkpt>
   <trkpt lat="-37.89967" lon="145.35628">
    <ele>271.17</ele>
   </trkpt>
   <trkpt lat="-37.89958" lon="145.35626000000002">
    <ele>271.99</ele>
   </trkpt>
   <trkpt lat="-37.89932" lon="145.35603">
    <ele>274.62</ele>
   </trkpt>
   <trkpt lat="-37.89934" lon="145.35593">
    <ele>274.62</ele>
   </trkpt>
   <trkpt lat="-37.89927" lon="145.35586">
    <ele>275.03</ele>
   </trkpt>
   <trkpt lat="-37.899170000000005" lon="145.35578">
    <ele>276.32</ele>
   </trkpt>
   <trkpt lat="-37.89898" lon="145.3557">
    <ele>277.16</ele>
   </trkpt>
   <trkpt lat="-37.89873" lon="145.35563000000002">
    <ele>279.90000000000003</ele>
   </trkpt>
   <trkpt lat="-37.8984" lon="145.35568">
    <ele>283.79</ele>
   </trkpt>
   <trkpt lat="-37.89819" lon="145.35568">
    <ele>286.05</ele>
   </trkpt>
   <trkpt lat="-37.89804" lon="145.35571000000002">
    <ele>287.24000000000007</ele>
   </trkpt>
   <trkpt lat="-37.89795" lon="145.35578">
    <ele>287.24000000000007</ele>
   </trkpt>
   <trkpt lat="-37.89748" lon="145.35624">
    <ele>293.04</ele>
   </trkpt>
   <trkpt lat="-37.89728" lon="145.35668">
    <ele>296.54</ele>
   </trkpt>
   <trkpt lat="-37.89676" lon="145.35695">
    <ele>301.19</ele>
   </trkpt>
   <trkpt lat="-37.8967" lon="145.357">
    <ele>301.19</ele>
   </trkpt>
   <trkpt lat="-37.89654" lon="145.35726000000003">
    <ele>302.83000000000004</ele>
   </trkpt>
   <trkpt lat="-37.89629" lon="145.35743000000002">
    <ele>304.13</ele>
   </trkpt>
   <trkpt lat="-37.89616" lon="145.35745">
    <ele>305.09000000000003</ele>
   </trkpt>
   <trkpt lat="-37.89598" lon="145.35736">
    <ele>306.29</ele>
   </trkpt>
   <trkpt lat="-37.89558" lon="145.35738">
    <ele>310.33000000000004</ele>
   </trkpt>
   <trkpt lat="-37.89531" lon="145.35732000000002">
    <ele>313.09000000000003</ele>
   </trkpt>
   <trkpt lat="-37.89522" lon="145.35726000000003">
    <ele>314.65000000000003</ele>
   </trkpt>
   <trkpt lat="-37.89504" lon="145.35737">
    <ele>315.51</ele>
   </trkpt>
   <trkpt lat="-37.89488" lon="145.35737">
    <ele>317.42</ele>
   </trkpt>
   <trkpt lat="-37.89457" lon="145.35724000000002">
    <ele>322.95</ele>
   </trkpt>
   <trkpt lat="-37.89434" lon="145.35721">
    <ele>328.03000000000003</ele>
   </trkpt>
   <trkpt lat="-37.89408" lon="145.35721">
    <ele>331.48</ele>
   </trkpt>
   <trkpt lat="-37.89372" lon="145.35718">
    <ele>338.24</ele>
   </trkpt>
   <trkpt lat="-37.89329" lon="145.35727">
    <ele>342.05</ele>
   </trkpt>
   <trkpt lat="-37.89316" lon="145.35723000000002">
    <ele>342.59</ele>
   </trkpt>
   <trkpt lat="-37.89298" lon="145.35709">
    <ele>344.61</ele>
   </trkpt>
   <trkpt lat="-37.89287" lon="145.35705000000002">
    <ele>345.73</ele>
   </trkpt>
   <trkpt lat="-37.89273" lon="145.35704">
    <ele>347.48</ele>
   </trkpt>
   <trkpt lat="-37.89258" lon="145.35709">
    <ele>349.87</ele>
   </trkpt>
   <trkpt lat="-37.89246" lon="145.35709">
    <ele>351.58</ele>
   </trkpt>
   <trkpt lat="-37.89199" lon="145.35691">
    <ele>358.11</ele>
   </trkpt>
   <trkpt lat="-37.89195" lon="145.35690000000002">
    <ele>358.11</ele>
   </trkpt>
   <trkpt lat="-37.89186" lon="145.35682">
    <ele>361.44000000000005</ele>
   </trkpt>
   <trkpt lat="-37.891740000000006" lon="145.35659">
    <ele>364.17</ele>
   </trkpt>
   <trkpt lat="-37.891200000000005" lon="145.35612">
    <ele>373.6</ele>
   </trkpt>
   <trkpt lat="-37.89049" lon="145.35545000000002">
    <ele>382.27000000000004</ele>
   </trkpt>
   <trkpt lat="-37.89034" lon="145.35532">
    <ele>384.0</ele>
   </trkpt>
   <trkpt lat="-37.89014" lon="145.35523">
    <ele>387.51</ele>
   </trkpt>
   <trkpt lat="-37.88985" lon="145.35506">
    <ele>390.22</ele>
   </trkpt>
   <trkpt lat="-37.88964" lon="145.35511000000002">
    <ele>396.83</ele>
   </trkpt>
   <trkpt lat="-37.88958" lon="145.35502000000002">
    <ele>398.1</ele>
   </trkpt>
   <trkpt lat="-37.88922" lon="145.35487">
    <ele>401.09000000000003</ele>
   </trkpt>
   <trkpt lat="-37.88915" lon="145.35486">
    <ele>402.01000000000005</ele>
   </trkpt>
   <trkpt lat="-37.88893" lon="145.35489">
    <ele>403.77</ele>
   </trkpt>
   <trkpt lat="-37.888630000000006" lon="145.35499000000002">
    <ele>410.15000000000003</ele>
   </trkpt>
   <trkpt lat="-37.888600000000004" lon="145.35502000000002">
    <ele>411.67</ele>
   </trkpt>
   <trkpt lat="-37.88855" lon="145.35496">
    <ele>412.46000000000004</ele>
   </trkpt>
   <trkpt lat="-37.88857" lon="145.35492000000002">
    <ele>412.46000000000004</ele>
   </trkpt>
   <trkpt lat="-37.88848" lon="145.35468">
    <ele>416.23</ele>
   </trkpt>
   <trkpt lat="-37.88828" lon="145.35435">
    <ele>422.98</ele>
   </trkpt>
   <trkpt lat="-37.8881" lon="145.35416">
    <ele>427.36</ele>
   </trkpt>
   <trkpt lat="-37.88792" lon="145.35378">
    <ele>431.6700000000001</ele>
   </trkpt>
   <trkpt lat="-37.88781" lon="145.35358000000002">
    <ele>436.87</ele>
   </trkpt>
   <trkpt lat="-37.88772" lon="145.35336">
    <ele>439.32000000000005</ele>
   </trkpt>
   <trkpt lat="-37.88765" lon="145.35301">
    <ele>442.14000000000004</ele>
   </trkpt>
   <trkpt lat="-37.88745" lon="145.35251000000002">
    <ele>450.97</ele>
   </trkpt>
   <trkpt lat="-37.887240000000006" lon="145.35214000000002">
    <ele>457.28000000000003</ele>
   </trkpt>
   <trkpt lat="-37.88698" lon="145.35202">
    <ele>462.35</ele>
   </trkpt>
   <trkpt lat="-37.88678" lon="145.35202">
    <ele>464.90000000000003</ele>
   </trkpt>
   <trkpt lat="-37.88662" lon="145.352">
    <ele>466.36000000000007</ele>
   </trkpt>
   <trkpt lat="-37.88626" lon="145.35184">
    <ele>468.41</ele>
   </trkpt>
   <trkpt lat="-37.88615" lon="145.35176">
    <ele>468.68</ele>
   </trkpt>
   <trkpt lat="-37.88606" lon="145.35204000000002">
    <ele>472.93</ele>
   </trkpt>
   <trkpt lat="-37.88588" lon="145.35242000000002">
    <ele>478.55</ele>
   </trkpt>
   <trkpt lat="-37.88555" lon="145.35296000000002">
    <ele>486.51000000000005</ele>
   </trkpt>
   <trkpt lat="-37.88544" lon="145.35307">
    <ele>486.51000000000005</ele>
   </trkpt>
   <trkpt lat="-37.88508" lon="145.35324">
    <ele>489.66</ele>
   </trkpt>
   <trkpt lat="-37.88497" lon="145.35328">
    <ele>490.39000000000004</ele>
   </trkpt>
   <trkpt lat="-37.88434" lon="145.35368000000003">
    <ele>491.62000000000006</ele>
   </trkpt>
   <trkpt lat="-37.88423" lon="145.35381">
    <ele>490.8500000000001</ele>
   </trkpt>
   <trkpt lat="-37.88371" lon="145.35464000000002">
    <ele>485.1</ele>
   </trkpt>
   <trkpt lat="-37.88351" lon="145.35512">
    <ele>486.46000000000004</ele>
   </trkpt>
   <trkpt lat="-37.88351" lon="145.3553">
    <ele>486.80000000000007</ele>
   </trkpt>
   <trkpt lat="-37.8838" lon="145.35575">
    <ele>489.09000000000003</ele>
   </trkpt>
   <trkpt lat="-37.88387" lon="145.35593">
    <ele>490.49</ele>
   </trkpt>
   <trkpt lat="-37.88391" lon="145.35613">
    <ele>491.84000000000003</ele>
   </trkpt>
   <trkpt lat="-37.88391" lon="145.35645000000002">
    <ele>495.50000000000006</ele>
   </trkpt>
   <trkpt lat="-37.88389" lon="145.35675">
    <ele>497.19</ele>
   </trkpt>
   <trkpt lat="-37.883790000000005" lon="145.35711">
    <ele>498.48</ele>
   </trkpt>
   <trkpt lat="-37.8838" lon="145.35725000000002">
    <ele>497.83000000000004</ele>
   </trkpt>
   <trkpt lat="-37.88385" lon="145.35776">
    <ele>499.49</ele>
   </trkpt>
   <trkpt lat="-37.884" lon="145.35808">
    <ele>501.30000000000007</ele>
   </trkpt>
   <trkpt lat="-37.88402" lon="145.35827">
    <ele>501.99</ele>
   </trkpt>
   <trkpt lat="-37.88407" lon="145.35852">
    <ele>502.2300000000001</ele>
   </trkpt>
   <trkpt lat="-37.88441" lon="145.35840000000002">
    <ele>504.31</ele>
   </trkpt>
   <trkpt lat="-37.88456" lon="145.35838">
    <ele>504.31</ele>
   </trkpt>
   <trkpt lat="-37.88476" lon="145.35842000000002">
    <ele>505.2000000000001</ele>
   </trkpt>
   <trkpt lat="-37.88532" lon="145.35860000000002">
    <ele>508.07</ele>
   </trkpt>
   <trkpt lat="-37.885450000000006" lon="145.35868000000002">
    <ele>509.01000000000005</ele>
   </trkpt>
   <trkpt lat="-37.8858" lon="145.35913000000002">
    <ele>512.11</ele>
   </trkpt>
   <trkpt lat="-37.88591" lon="145.35922000000002">
    <ele>512.39</ele>
   </trkpt>
   <trkpt lat="-37.88595" lon="145.35933">
    <ele>512.59</ele>
   </trkpt>
   <trkpt lat="-37.88598" lon="145.35957000000002">
    <ele>512.59</ele>
   </trkpt>
   <trkpt lat="-37.88573" lon="145.36033">
    <ele>510.11000000000007</ele>
   </trkpt>
   <trkpt lat="-37.88568" lon="145.36059">
    <ele>508.6</ele>
   </trkpt>
   <trkpt lat="-37.88555" lon="145.36100000000002">
    <ele>504.94000000000005</ele>
   </trkpt>
   <trkpt lat="-37.88537" lon="145.36136000000002">
    <ele>502.62000000000006</ele>
   </trkpt>
   <trkpt lat="-37.885110000000005" lon="145.36208000000002">
    <ele>498.7300000000001</ele>
   </trkpt>
   <trkpt lat="-37.885130000000004" lon="145.36205">
    <ele>498.88000000000005</ele>
   </trkpt>
   <trkpt lat="-37.88503" lon="145.36224">
    <ele>497.81</ele>
   </trkpt>
   <trkpt lat="-37.88496000000001" lon="145.36231">
    <ele>496.74</ele>
   </trkpt>
   <trkpt lat="-37.8851" lon="145.36238">
    <ele>496.40000000000003</ele>
   </trkpt>
   <trkpt lat="-37.88514" lon="145.36243000000002">
    <ele>496.22</ele>
   </trkpt>
   <trkpt lat="-37.88514" lon="145.36251000000001">
    <ele>495.77000000000004</ele>
   </trkpt>
   <trkpt lat="-37.8849" lon="145.36279000000002">
    <ele>491.3500000000001</ele>
   </trkpt>
   <trkpt lat="-37.88479" lon="145.36302">
    <ele>488.84000000000003</ele>
   </trkpt>
   <trkpt lat="-37.88474" lon="145.36315000000002">
    <ele>483.17</ele>
   </trkpt>
   <trkpt lat="-37.88472" lon="145.36334000000002">
    <ele>481.47</ele>
   </trkpt>
   <trkpt lat="-37.8847" lon="145.36339">
    <ele>480.75000000000006</ele>
   </trkpt>
   <trkpt lat="-37.88456" lon="145.3634">
    <ele>478.61</ele>
   </trkpt>
   <trkpt lat="-37.88449" lon="145.36339">
    <ele>478.04</ele>
   </trkpt>
   <trkpt lat="-37.88443" lon="145.36341000000002">
    <ele>477.34000000000003</ele>
   </trkpt>
   <trkpt lat="-37.884420000000006" lon="145.36347">
    <ele>476.5</ele>
   </trkpt>
   <trkpt lat="-37.88445" lon="145.36369000000002">
    <ele>475.54</ele>
   </trkpt>
   <trkpt lat="-37.88463" lon="145.36419">
    <ele>462.51000000000005</ele>
   </trkpt>
   <trkpt lat="-37.88476" lon="145.36443">
    <ele>458.81000000000006</ele>
   </trkpt>
   <trkpt lat="-37.88479" lon="145.36451000000002">
    <ele>456.92</ele>
   </trkpt>
   <trkpt lat="-37.88476" lon="145.36459000000002">
    <ele>456.92</ele>
   </trkpt>
   <trkpt lat="-37.88483" lon="145.36484000000002">
    <ele>451.03000000000003</ele>
   </trkpt>
   <trkpt lat="-37.88494" lon="145.36503000000002">
    <ele>449.32000000000005</ele>
   </trkpt>
   <trkpt lat="-37.88499" lon="145.36505000000002">
    <ele>449.24</ele>
   </trkpt>
   <trkpt lat="-37.88517" lon="145.36524">
    <ele>448.04</ele>
   </trkpt>
   <trkpt lat="-37.88519" lon="145.36531000000002">
    <ele>446.48</ele>
   </trkpt>
   <trkpt lat="-37.885360000000006" lon="145.36547000000002">
    <ele>440.53000000000003</ele>
   </trkpt>
   <trkpt lat="-37.88539" lon="145.36557000000002">
    <ele>440.53000000000003</ele>
   </trkpt>
   <trkpt lat="-37.88546" lon="145.36561">
    <ele>439.59000000000003</ele>
   </trkpt>
   <trkpt lat="-37.88548" lon="145.36577">
    <ele>436.00000000000006</ele>
   </trkpt>
   <trkpt lat="-37.88546" lon="145.36592000000002">
    <ele>432.61</ele>
   </trkpt>
   <trkpt lat="-37.885270000000006" lon="145.36607">
    <ele>427.74</ele>
   </trkpt>
   <trkpt lat="-37.884980000000006" lon="145.36612000000002">
    <ele>423.1</ele>
   </trkpt>
   <trkpt lat="-37.88474" lon="145.36611000000002">
    <ele>419.34000000000003</ele>
   </trkpt>
   <trkpt lat="-37.88463" lon="145.36617">
    <ele>417.57000000000005</ele>
   </trkpt>
   <trkpt lat="-37.88458" lon="145.36623">
    <ele>415.55</ele>
   </trkpt>
   <trkpt lat="-37.88461" lon="145.36635">
    <ele>411.25000000000006</ele>
   </trkpt>
   <trkpt lat="-37.88465" lon="145.36642">
    <ele>411.25000000000006</ele>
   </trkpt>
   <trkpt lat="-37.88465" lon="145.36651">
    <ele>411.25000000000006</ele>
   </trkpt>
   <trkpt lat="-37.8847" lon="145.36657000000002">
    <ele>407.95000000000005</ele>
   </trkpt>
   <trkpt lat="-37.8847" lon="145.36672000000002">
    <ele>405.65</ele>
   </trkpt>
   <trkpt lat="-37.88481" lon="145.36711000000003">
    <ele>397.28000000000003</ele>
   </trkpt>
   <trkpt lat="-37.88499" lon="145.36737000000002">
    <ele>389.96000000000004</ele>
   </trkpt>
   <trkpt lat="-37.88517" lon="145.36757">
    <ele>384.8</ele>
   </trkpt>
   <trkpt lat="-37.8855" lon="145.36785">
    <ele>378.40000000000003</ele>
   </trkpt>
   <trkpt lat="-37.88564" lon="145.36801">
    <ele>372.56000000000006</ele>
   </trkpt>
   <trkpt lat="-37.88602" lon="145.36834000000002">
    <ele>362.2</ele>
   </trkpt>
   <trkpt lat="-37.886100000000006" lon="145.36837">
    <ele>360.08</ele>
   </trkpt>
   <trkpt lat="-37.88611" lon="145.36851000000001">
    <ele>360.02</ele>
   </trkpt>
   <trkpt lat="-37.88642" lon="145.36872000000002">
    <ele>364.00000000000006</ele>
   </trkpt>
   <trkpt lat="-37.88667" lon="145.36906000000002">
    <ele>367.16</ele>
   </trkpt>
   <trkpt lat="-37.88736" lon="145.36978000000002">
    <ele>353.19</ele>
   </trkpt>
   <trkpt lat="-37.88743" lon="145.36973">
    <ele>352.90000000000003</ele>
   </trkpt>
   <trkpt lat="-37.88749" lon="145.36999">
    <ele>362.13</ele>
   </trkpt>
   <trkpt lat="-37.887550000000005" lon="145.36996000000002">
    <ele>362.13</ele>
   </trkpt>
  </trkseg>
 </trk>
</gpx>
