<?xml version="1.0" encoding="UTF-8"?>
<gpx creator="StravaGPX" version="1.1" xmlns="http://www.topografix.com/GPX/1/1" xmlns:xsi="http://www.w3.org/2001/XMLSchema-instance" xsi:schemaLocation="http://www.topografix.com/GPX/1/1 http://www.topografix.com/GPX/1/1/gpx.xsd">
 <metadata>
  <name>DTR 20Sep 8km</name>
  <author>
   <name>Richard Jones</name>
   <link href="https://www.strava.com/athletes/38085969"/>
  </author>
  <copyright author="OpenStreetMap contributors">
   <year>2020</year>
   <license>https://www.openstreetmap.org/copyright</license>
  </copyright>
  <link href="https://www.strava.com/routes/3535835145101718124"/>
 </metadata>
 <trk>
  <name>DTR 20Sep 8km</name>
  <link href="https://www.strava.com/routes/3535835145101718124"/>
  <type>trail_running</type>
  <trkseg>
   <trkpt lat="-37.852230000000006" lon="145.36826000000002">
    <ele>570.4100000000001</ele>
   </trkpt>
   <trkpt lat="-37.852070000000005" lon="145.36833000000001">
    <ele>569.47</ele>
   </trkpt>
   <trkpt lat="-37.851760000000006" lon="145.36859">
    <ele>565.22</ele>
   </trkpt>
   <trkpt lat="-37.85159" lon="145.36880000000002">
    <ele>563.7500000000001</ele>
   </trkpt>
   <trkpt lat="-37.85105" lon="145.36917000000003">
    <ele>561.83</ele>
   </trkpt>
   <trkpt lat="-37.85072" lon="145.36927">
    <ele>560.25</ele>
   </trkpt>
   <trkpt lat="-37.850370000000005" lon="145.36927">
    <ele>557.7500000000001</ele>
   </trkpt>
   <trkpt lat="-37.84972600368085" lon="145.3688019836328">
    <ele>550.28</ele>
   </trkpt>
   <trkpt lat="-37.84908200550947" lon="145.36833397544098">
    <ele>540.1400000000001</ele>
   </trkpt>
   <trkpt lat="-37.84843800548594" lon="145.36786597542425">
    <ele>534.84</ele>
   </trkpt>
   <trkpt lat="-37.84779400361036" lon="145.36739798358232">
    <ele>534.2800000000001</ele>
   </trkpt>
   <trkpt lat="-37.847150000000006" lon="145.36693000000002">
    <ele>533.0100000000001</ele>
   </trkpt>
   <trkpt lat="-37.847150000000006" lon="145.36692000000002">
    <ele>532.98</ele>
   </trkpt>
   <trkpt lat="-37.84709" lon="145.36679">
    <ele>531.8900000000001</ele>
   </trkpt>
   <trkpt lat="-37.84700000200787" lon="145.36609499888638">
    <ele>527.25</ele>
   </trkpt>
   <trkpt lat="-37.84691" lon="145.36540000000002">
    <ele>518.02</ele>
   </trkpt>
   <trkpt lat="-37.84693" lon="145.36513000000002">
    <ele>513.5500000000001</ele>
   </trkpt>
   <trkpt lat="-37.84687" lon="145.36482">
    <ele>510.0</ele>
   </trkpt>
   <trkpt lat="-37.84678000163085" lon="145.36420499946612">
    <ele>498.94000000000005</ele>
   </trkpt>
   <trkpt lat="-37.84669" lon="145.36359000000002">
    <ele>487.30000000000007</ele>
   </trkpt>
   <trkpt lat="-37.84655000177262" lon="145.36294499883846">
    <ele>487.31</ele>
   </trkpt>
   <trkpt lat="-37.846410000000006" lon="145.3623">
    <ele>500.37000000000006</ele>
   </trkpt>
   <trkpt lat="-37.84630000000001" lon="145.36171000000002">
    <ele>508.24</ele>
   </trkpt>
   <trkpt lat="-37.84630000000001" lon="145.3617">
    <ele>508.27</ele>
   </trkpt>
   <trkpt lat="-37.846230000000006" lon="145.36183000000003">
    <ele>507.5200000000001</ele>
   </trkpt>
   <trkpt lat="-37.84599" lon="145.36199000000002">
    <ele>506.15</ele>
   </trkpt>
   <trkpt lat="-37.84577" lon="145.36235000000002">
    <ele>503.05</ele>
   </trkpt>
   <trkpt lat="-37.84563" lon="145.36243000000002">
    <ele>501.78</ele>
   </trkpt>
   <trkpt lat="-37.8451" lon="145.36257">
    <ele>499.66</ele>
   </trkpt>
   <trkpt lat="-37.84483" lon="145.36253000000002">
    <ele>498.2900000000001</ele>
   </trkpt>
   <trkpt lat="-37.84438" lon="145.36254000000002">
    <ele>495.36</ele>
   </trkpt>
   <trkpt lat="-37.84404" lon="145.36257">
    <ele>491.48</ele>
   </trkpt>
   <trkpt lat="-37.84396" lon="145.36256">
    <ele>490.73</ele>
   </trkpt>
   <trkpt lat="-37.84333" lon="145.36239">
    <ele>485.63000000000005</ele>
   </trkpt>
   <trkpt lat="-37.84324" lon="145.36229">
    <ele>485.22</ele>
   </trkpt>
   <trkpt lat="-37.84292000000001" lon="145.36152">
    <ele>484.86</ele>
   </trkpt>
   <trkpt lat="-37.84214" lon="145.36173000000002">
    <ele>477.68000000000006</ele>
   </trkpt>
   <trkpt lat="-37.842130000000004" lon="145.36174000000003">
    <ele>477.61</ele>
   </trkpt>
   <trkpt lat="-37.8421" lon="145.36245000000002">
    <ele>472.6</ele>
   </trkpt>
   <trkpt lat="-37.84223" lon="145.36280000000002">
    <ele>468.03000000000003</ele>
   </trkpt>
   <trkpt lat="-37.84281" lon="145.36349">
    <ele>457.95</ele>
   </trkpt>
   <trkpt lat="-37.84288" lon="145.36368000000002">
    <ele>457.91</ele>
   </trkpt>
   <trkpt lat="-37.84286" lon="145.36383">
    <ele>458.75000000000006</ele>
   </trkpt>
   <trkpt lat="-37.84281" lon="145.36392">
    <ele>459.71000000000004</ele>
   </trkpt>
   <trkpt lat="-37.842455000747556" lon="145.36434000201953">
    <ele>467.76000000000005</ele>
   </trkpt>
   <trkpt lat="-37.8421" lon="145.36476000000002">
    <ele>473.31000000000006</ele>
   </trkpt>
   <trkpt lat="-37.84199" lon="145.36499">
    <ele>474.68000000000006</ele>
   </trkpt>
   <trkpt lat="-37.841910000000006" lon="145.36531000000002">
    <ele>477.46000000000004</ele>
   </trkpt>
   <trkpt lat="-37.84192" lon="145.36546">
    <ele>477.46000000000004</ele>
   </trkpt>
   <trkpt lat="-37.84234" lon="145.36639000000002">
    <ele>477.24000000000007</ele>
   </trkpt>
   <trkpt lat="-37.8425" lon="145.36689">
    <ele>475.02000000000004</ele>
   </trkpt>
   <trkpt lat="-37.8425" lon="145.36701000000002">
    <ele>474.94</ele>
   </trkpt>
   <trkpt lat="-37.842470000000006" lon="145.36714">
    <ele>475.43</ele>
   </trkpt>
   <trkpt lat="-37.842470000000006" lon="145.36713">
    <ele>475.43</ele>
   </trkpt>
   <trkpt lat="-37.842470000000006" lon="145.36715">
    <ele>475.43</ele>
   </trkpt>
   <trkpt lat="-37.842290000000006" lon="145.36720000000003">
    <ele>478.28000000000003</ele>
   </trkpt>
   <trkpt lat="-37.84219" lon="145.36729000000003">
    <ele>478.28000000000003</ele>
   </trkpt>
   <trkpt lat="-37.84181" lon="145.36819">
    <ele>486.39000000000004</ele>
   </trkpt>
   <trkpt lat="-37.84169" lon="145.36817000000002">
    <ele>484.67</ele>
   </trkpt>
   <trkpt lat="-37.84096" lon="145.36811">
    <ele>476.03000000000003</ele>
   </trkpt>
   <trkpt lat="-37.840970000000006" lon="145.36842000000001">
    <ele>474.91</ele>
   </trkpt>
   <trkpt lat="-37.84087" lon="145.36892">
    <ele>472.11</ele>
   </trkpt>
   <trkpt lat="-37.84057" lon="145.36894">
    <ele>468.20000000000005</ele>
   </trkpt>
   <trkpt lat="-37.84022" lon="145.36902">
    <ele>462.90000000000003</ele>
   </trkpt>
   <trkpt lat="-37.83999" lon="145.36903">
    <ele>460.67</ele>
   </trkpt>
   <trkpt lat="-37.839940000000006" lon="145.36906000000002">
    <ele>459.69000000000005</ele>
   </trkpt>
   <trkpt lat="-37.83975" lon="145.36926000000003">
    <ele>455.5</ele>
   </trkpt>
   <trkpt lat="-37.839560000000006" lon="145.36941000000002">
    <ele>452.47</ele>
   </trkpt>
   <trkpt lat="-37.8391" lon="145.36968000000002">
    <ele>444.67</ele>
   </trkpt>
   <trkpt lat="-37.83885" lon="145.3698">
    <ele>441.82000000000005</ele>
   </trkpt>
   <trkpt lat="-37.83869" lon="145.36991">
    <ele>439.92</ele>
   </trkpt>
   <trkpt lat="-37.83849" lon="145.36997000000002">
    <ele>436.11000000000007</ele>
   </trkpt>
   <trkpt lat="-37.83798" lon="145.37023000000002">
    <ele>429.59000000000003</ele>
   </trkpt>
   <trkpt lat="-37.83769" lon="145.37040000000002">
    <ele>429.88000000000005</ele>
   </trkpt>
   <trkpt lat="-37.83737" lon="145.37053">
    <ele>433.42</ele>
   </trkpt>
   <trkpt lat="-37.83702" lon="145.37063">
    <ele>434.01000000000005</ele>
   </trkpt>
   <trkpt lat="-37.83701000000001" lon="145.37062">
    <ele>433.99</ele>
   </trkpt>
   <trkpt lat="-37.837030000000006" lon="145.37094000000002">
    <ele>432.21000000000004</ele>
   </trkpt>
   <trkpt lat="-37.83699" lon="145.37133">
    <ele>429.84000000000003</ele>
   </trkpt>
   <trkpt lat="-37.837030000000006" lon="145.3719">
    <ele>426.54</ele>
   </trkpt>
   <trkpt lat="-37.83699" lon="145.37235">
    <ele>422.83000000000004</ele>
   </trkpt>
   <trkpt lat="-37.83708" lon="145.37331">
    <ele>412.13000000000005</ele>
   </trkpt>
   <trkpt lat="-37.83719" lon="145.37388">
    <ele>408.85</ele>
   </trkpt>
   <trkpt lat="-37.83719" lon="145.37407000000002">
    <ele>408.44</ele>
   </trkpt>
   <trkpt lat="-37.83722" lon="145.37418000000002">
    <ele>407.94</ele>
   </trkpt>
   <trkpt lat="-37.83722" lon="145.37419">
    <ele>407.9200000000001</ele>
   </trkpt>
   <trkpt lat="-37.83735" lon="145.37466">
    <ele>406.94</ele>
   </trkpt>
   <trkpt lat="-37.83746" lon="145.37449">
    <ele>406.54</ele>
   </trkpt>
   <trkpt lat="-37.83764" lon="145.37427000000002">
    <ele>402.34000000000003</ele>
   </trkpt>
   <trkpt lat="-37.83784" lon="145.37368">
    <ele>395.51000000000005</ele>
   </trkpt>
   <trkpt lat="-37.83791" lon="145.37358">
    <ele>393.57000000000005</ele>
   </trkpt>
   <trkpt lat="-37.83805" lon="145.37351">
    <ele>390.29</ele>
   </trkpt>
   <trkpt lat="-37.83822" lon="145.37348">
    <ele>384.20000000000005</ele>
   </trkpt>
   <trkpt lat="-37.83847" lon="145.37354000000002">
    <ele>381.24</ele>
   </trkpt>
   <trkpt lat="-37.83858" lon="145.37359">
    <ele>380.44000000000005</ele>
   </trkpt>
   <trkpt lat="-37.83883" lon="145.37376">
    <ele>380.3</ele>
   </trkpt>
   <trkpt lat="-37.839110000000005" lon="145.37400000000002">
    <ele>379.48</ele>
   </trkpt>
   <trkpt lat="-37.8391" lon="145.37398000000002">
    <ele>379.52000000000004</ele>
   </trkpt>
   <trkpt lat="-37.83921" lon="145.37414">
    <ele>378.68</ele>
   </trkpt>
   <trkpt lat="-37.83925" lon="145.37425000000002">
    <ele>377.97</ele>
   </trkpt>
   <trkpt lat="-37.83950000240526" lon="145.37500499742703">
    <ele>370.43</ele>
   </trkpt>
   <trkpt lat="-37.83975" lon="145.37576">
    <ele>361.63</ele>
   </trkpt>
   <trkpt lat="-37.839995001151586" lon="145.37628499822682">
    <ele>355.26</ele>
   </trkpt>
   <trkpt lat="-37.84024" lon="145.37681">
    <ele>349.06</ele>
   </trkpt>
   <trkpt lat="-37.84046" lon="145.37711000000002">
    <ele>342.76</ele>
   </trkpt>
   <trkpt lat="-37.84089" lon="145.37754">
    <ele>334.36</ele>
   </trkpt>
   <trkpt lat="-37.840970000000006" lon="145.37764">
    <ele>333.18</ele>
   </trkpt>
   <trkpt lat="-37.840990000000005" lon="145.37779">
    <ele>332.54</ele>
   </trkpt>
   <trkpt lat="-37.84103" lon="145.37786">
    <ele>332.53000000000003</ele>
   </trkpt>
   <trkpt lat="-37.84122" lon="145.37847000000002">
    <ele>329.51</ele>
   </trkpt>
   <trkpt lat="-37.84154" lon="145.37922">
    <ele>327.94</ele>
   </trkpt>
   <trkpt lat="-37.84185" lon="145.37971000000002">
    <ele>325.08000000000004</ele>
   </trkpt>
   <trkpt lat="-37.84201" lon="145.38002">
    <ele>324.57</ele>
   </trkpt>
   <trkpt lat="-37.84205" lon="145.38012">
    <ele>324.55</ele>
   </trkpt>
   <trkpt lat="-37.84223" lon="145.38017000000002">
    <ele>327.42</ele>
   </trkpt>
   <trkpt lat="-37.842380000000006" lon="145.38016000000002">
    <ele>330.78000000000003</ele>
   </trkpt>
   <trkpt lat="-37.8425" lon="145.38008000000002">
    <ele>332.96000000000004</ele>
   </trkpt>
   <trkpt lat="-37.84257" lon="145.37998000000002">
    <ele>334.53000000000003</ele>
   </trkpt>
   <trkpt lat="-37.84277" lon="145.37985">
    <ele>339.11</ele>
   </trkpt>
   <trkpt lat="-37.84297" lon="145.37982000000002">
    <ele>342.33000000000004</ele>
   </trkpt>
   <trkpt lat="-37.84315" lon="145.37983">
    <ele>345.86</ele>
   </trkpt>
   <trkpt lat="-37.84396" lon="145.38022">
    <ele>356.6</ele>
   </trkpt>
   <trkpt lat="-37.84431" lon="145.38042000000002">
    <ele>364.21000000000004</ele>
   </trkpt>
   <trkpt lat="-37.844440000000006" lon="145.38039">
    <ele>365.86</ele>
   </trkpt>
   <trkpt lat="-37.84449" lon="145.38033000000001">
    <ele>365.86</ele>
   </trkpt>
   <trkpt lat="-37.84451" lon="145.3802">
    <ele>368.95000000000005</ele>
   </trkpt>
   <trkpt lat="-37.84451" lon="145.38000000000002">
    <ele>371.1700000000001</ele>
   </trkpt>
   <trkpt lat="-37.8444" lon="145.37967">
    <ele>376.8</ele>
   </trkpt>
   <trkpt lat="-37.84427" lon="145.37936000000002">
    <ele>380.14000000000004</ele>
   </trkpt>
   <trkpt lat="-37.84411" lon="145.37913">
    <ele>384.33</ele>
   </trkpt>
   <trkpt lat="-37.84375" lon="145.37878">
    <ele>388.70000000000005</ele>
   </trkpt>
   <trkpt lat="-37.84333" lon="145.37800000000001">
    <ele>398.93</ele>
   </trkpt>
   <trkpt lat="-37.84326" lon="145.3778">
    <ele>401.13000000000005</ele>
   </trkpt>
   <trkpt lat="-37.84324" lon="145.37767000000002">
    <ele>402.14000000000004</ele>
   </trkpt>
   <trkpt lat="-37.84326" lon="145.37756000000002">
    <ele>403.33000000000004</ele>
   </trkpt>
   <trkpt lat="-37.84333" lon="145.37742">
    <ele>405.21</ele>
   </trkpt>
   <trkpt lat="-37.843340000000005" lon="145.37741000000003">
    <ele>405.21</ele>
   </trkpt>
   <trkpt lat="-37.84346" lon="145.37734">
    <ele>407.37</ele>
   </trkpt>
   <trkpt lat="-37.8436" lon="145.37728">
    <ele>409.29</ele>
   </trkpt>
   <trkpt lat="-37.84384" lon="145.37723000000003">
    <ele>416.16</ele>
   </trkpt>
   <trkpt lat="-37.84431" lon="145.37730000000002">
    <ele>426.93</ele>
   </trkpt>
   <trkpt lat="-37.84492" lon="145.37729000000002">
    <ele>437.00000000000006</ele>
   </trkpt>
   <trkpt lat="-37.84523" lon="145.37737">
    <ele>441.59000000000003</ele>
   </trkpt>
   <trkpt lat="-37.84582" lon="145.37730000000002">
    <ele>456.38000000000005</ele>
   </trkpt>
   <trkpt lat="-37.8459" lon="145.37727">
    <ele>459.1000000000001</ele>
   </trkpt>
   <trkpt lat="-37.8461" lon="145.37725">
    <ele>463.44</ele>
   </trkpt>
   <trkpt lat="-37.84633" lon="145.37718">
    <ele>467.0</ele>
   </trkpt>
   <trkpt lat="-37.84646" lon="145.37716">
    <ele>469.25000000000006</ele>
   </trkpt>
   <trkpt lat="-37.846470000000004" lon="145.37716">
    <ele>469.25000000000006</ele>
   </trkpt>
   <trkpt lat="-37.84666" lon="145.37718">
    <ele>473.99</ele>
   </trkpt>
   <trkpt lat="-37.8468" lon="145.37722000000002">
    <ele>473.99</ele>
   </trkpt>
   <trkpt lat="-37.84729" lon="145.37757000000002">
    <ele>483.69000000000005</ele>
   </trkpt>
   <trkpt lat="-37.84727" lon="145.37806">
    <ele>480.46000000000004</ele>
   </trkpt>
   <trkpt lat="-37.84736" lon="145.37844">
    <ele>477.48</ele>
   </trkpt>
   <trkpt lat="-37.84738" lon="145.37852">
    <ele>477.48</ele>
   </trkpt>
   <trkpt lat="-37.8476" lon="145.37883000000002">
    <ele>474.6</ele>
   </trkpt>
   <trkpt lat="-37.84772" lon="145.37890000000002">
    <ele>474.6</ele>
   </trkpt>
   <trkpt lat="-37.84792" lon="145.37897">
    <ele>472.49</ele>
   </trkpt>
   <trkpt lat="-37.8481" lon="145.37898">
    <ele>470.20000000000005</ele>
   </trkpt>
   <trkpt lat="-37.84868" lon="145.37891000000002">
    <ele>465.69000000000005</ele>
   </trkpt>
   <trkpt lat="-37.849090000000004" lon="145.37893000000003">
    <ele>462.67</ele>
   </trkpt>
   <trkpt lat="-37.84933" lon="145.37897">
    <ele>462.67</ele>
   </trkpt>
   <trkpt lat="-37.84978" lon="145.37912">
    <ele>458.67</ele>
   </trkpt>
   <trkpt lat="-37.850350000000006" lon="145.37915">
    <ele>454.84000000000003</ele>
   </trkpt>
   <trkpt lat="-37.85049" lon="145.37914">
    <ele>454.70000000000005</ele>
   </trkpt>
   <trkpt lat="-37.85058" lon="145.37916">
    <ele>454.59000000000003</ele>
   </trkpt>
   <trkpt lat="-37.85067" lon="145.37921">
    <ele>454.53000000000003</ele>
   </trkpt>
   <trkpt lat="-37.85087" lon="145.37938000000003">
    <ele>454.6</ele>
   </trkpt>
   <trkpt lat="-37.85096" lon="145.37954000000002">
    <ele>454.86</ele>
   </trkpt>
   <trkpt lat="-37.85121" lon="145.38026000000002">
    <ele>452.83</ele>
   </trkpt>
   <trkpt lat="-37.8513" lon="145.38049">
    <ele>450.35</ele>
   </trkpt>
   <trkpt lat="-37.8517" lon="145.38093">
    <ele>445.89000000000004</ele>
   </trkpt>
   <trkpt lat="-37.85195" lon="145.38116000000002">
    <ele>444.31</ele>
   </trkpt>
   <trkpt lat="-37.85208" lon="145.38123000000002">
    <ele>444.22</ele>
   </trkpt>
   <trkpt lat="-37.8523" lon="145.38131">
    <ele>445.28</ele>
   </trkpt>
   <trkpt lat="-37.85255" lon="145.38136">
    <ele>446.86</ele>
   </trkpt>
   <trkpt lat="-37.85284" lon="145.38136">
    <ele>448.71000000000004</ele>
   </trkpt>
   <trkpt lat="-37.85311" lon="145.38133000000002">
    <ele>451.43000000000006</ele>
   </trkpt>
   <trkpt lat="-37.85369" lon="145.38122">
    <ele>453.20000000000005</ele>
   </trkpt>
   <trkpt lat="-37.85421" lon="145.38119">
    <ele>448.90000000000003</ele>
   </trkpt>
   <trkpt lat="-37.85483" lon="145.3813">
    <ele>446.78000000000003</ele>
   </trkpt>
   <trkpt lat="-37.85539" lon="145.38136">
    <ele>440.88000000000005</ele>
   </trkpt>
   <trkpt lat="-37.855940000000004" lon="145.38131">
    <ele>437.69</ele>
   </trkpt>
   <trkpt lat="-37.856390000000005" lon="145.38117000000003">
    <ele>436.3</ele>
   </trkpt>
   <trkpt lat="-37.85669" lon="145.38112">
    <ele>436.62</ele>
   </trkpt>
   <trkpt lat="-37.85678" lon="145.38113">
    <ele>436.62</ele>
   </trkpt>
   <trkpt lat="-37.85687" lon="145.38117000000003">
    <ele>437.39000000000004</ele>
   </trkpt>
   <trkpt lat="-37.857020000000006" lon="145.38128">
    <ele>437.93</ele>
   </trkpt>
   <trkpt lat="-37.85712" lon="145.38146">
    <ele>438.39000000000004</ele>
   </trkpt>
   <trkpt lat="-37.857290000000006" lon="145.38182">
    <ele>438.83000000000004</ele>
   </trkpt>
   <trkpt lat="-37.8573" lon="145.38177000000002">
    <ele>443.82000000000005</ele>
   </trkpt>
   <trkpt lat="-37.85743" lon="145.38174">
    <ele>445.26000000000005</ele>
   </trkpt>
   <trkpt lat="-37.85754" lon="145.3818">
    <ele>447.07</ele>
   </trkpt>
   <trkpt lat="-37.857710000000004" lon="145.38183">
    <ele>449.99000000000007</ele>
   </trkpt>
   <trkpt lat="-37.85797" lon="145.38177000000002">
    <ele>457.03000000000003</ele>
   </trkpt>
   <trkpt lat="-37.85806" lon="145.38177000000002">
    <ele>461.8</ele>
   </trkpt>
   <trkpt lat="-37.858560000000004" lon="145.38183">
    <ele>479.0</ele>
   </trkpt>
   <trkpt lat="-37.85871" lon="145.38193">
    <ele>479.0</ele>
   </trkpt>
   <trkpt lat="-37.858920000000005" lon="145.38225">
    <ele>490.48</ele>
   </trkpt>
   <trkpt lat="-37.85996" lon="145.38192">
    <ele>521.2800000000001</ele>
   </trkpt>
   <trkpt lat="-37.85996" lon="145.38187000000002">
    <ele>521.2800000000001</ele>
   </trkpt>
   <trkpt lat="-37.85996" lon="145.38186000000002">
    <ele>521.2800000000001</ele>
   </trkpt>
   <trkpt lat="-37.86001" lon="145.38142000000002">
    <ele>521.4300000000001</ele>
   </trkpt>
   <trkpt lat="-37.86007" lon="145.38119">
    <ele>520.57</ele>
   </trkpt>
   <trkpt lat="-37.86021" lon="145.38127">
    <ele>517.05</ele>
   </trkpt>
   <trkpt lat="-37.86027" lon="145.38124000000002">
    <ele>517.14</ele>
   </trkpt>
   <trkpt lat="-37.86032" lon="145.38089000000002">
    <ele>517.9100000000001</ele>
   </trkpt>
   <trkpt lat="-37.860330000000005" lon="145.38052000000002">
    <ele>519.19</ele>
   </trkpt>
   <trkpt lat="-37.86027" lon="145.38038">
    <ele>519.19</ele>
   </trkpt>
   <trkpt lat="-37.859935000757986" lon="145.37999499840095">
    <ele>523.46</ele>
   </trkpt>
   <trkpt lat="-37.8596" lon="145.37961">
    <ele>525.75</ele>
   </trkpt>
   <trkpt lat="-37.85918" lon="145.37899000000002">
    <ele>530.95</ele>
   </trkpt>
   <trkpt lat="-37.85884333708155" lon="145.37832666066046">
    <ele>537.8900000000001</ele>
   </trkpt>
   <trkpt lat="-37.858506670441926" lon="145.37766332738047">
    <ele>544.0200000000001</ele>
   </trkpt>
   <trkpt lat="-37.85817" lon="145.377">
    <ele>549.37</ele>
   </trkpt>
   <trkpt lat="-37.8579" lon="145.37639000000001">
    <ele>555.69</ele>
   </trkpt>
   <trkpt lat="-37.85743" lon="145.37563">
    <ele>563.35</ele>
   </trkpt>
   <trkpt lat="-37.85714" lon="145.37533000000002">
    <ele>566.6500000000001</ele>
   </trkpt>
   <trkpt lat="-37.85669" lon="145.37504">
    <ele>570.2600000000001</ele>
   </trkpt>
   <trkpt lat="-37.856260000000006" lon="145.37480000000002">
    <ele>575.1</ele>
   </trkpt>
   <trkpt lat="-37.856" lon="145.37456">
    <ele>577.0600000000001</ele>
   </trkpt>
   <trkpt lat="-37.8556750005453" lon="145.37416499811948">
    <ele>578.85</ele>
   </trkpt>
   <trkpt lat="-37.85535" lon="145.37377">
    <ele>578.3000000000001</ele>
   </trkpt>
   <trkpt lat="-37.85531" lon="145.37379">
    <ele>578.3600000000001</ele>
   </trkpt>
   <trkpt lat="-37.85521" lon="145.37367">
    <ele>578.2900000000001</ele>
   </trkpt>
   <trkpt lat="-37.854845000635606" lon="145.37326999797466">
    <ele>578.4100000000001</ele>
   </trkpt>
   <trkpt lat="-37.85448" lon="145.37287">
    <ele>579.13</ele>
   </trkpt>
   <trkpt lat="-37.8543" lon="145.37263000000002">
    <ele>579.46</ele>
   </trkpt>
   <trkpt lat="-37.85414" lon="145.37239000000002">
    <ele>579.83</ele>
   </trkpt>
   <trkpt lat="-37.854060000000004" lon="145.37221000000002">
    <ele>579.9200000000001</ele>
   </trkpt>
   <trkpt lat="-37.85405" lon="145.37217">
    <ele>579.9200000000001</ele>
   </trkpt>
   <trkpt lat="-37.854020000000006" lon="145.37182">
    <ele>579.61</ele>
   </trkpt>
   <trkpt lat="-37.854020000000006" lon="145.3717">
    <ele>579.5400000000001</ele>
   </trkpt>
   <trkpt lat="-37.8541050050113" lon="145.3706100014149">
    <ele>577.0500000000001</ele>
   </trkpt>
   <trkpt lat="-37.85419" lon="145.36952000000002">
    <ele>573.47</ele>
   </trkpt>
   <trkpt lat="-37.85421" lon="145.36937">
    <ele>573.47</ele>
   </trkpt>
   <trkpt lat="-37.85441" lon="145.36911">
    <ele>572.8199999999999</ele>
   </trkpt>
   <trkpt lat="-37.85409000000001" lon="145.36882">
    <ele>576.4</ele>
   </trkpt>
   <trkpt lat="-37.853660000000005" lon="145.36857">
    <ele>579.04</ele>
   </trkpt>
   <trkpt lat="-37.85314" lon="145.36833000000001">
    <ele>578.52</ele>
   </trkpt>
   <trkpt lat="-37.85295" lon="145.36823">
    <ele>577.23</ele>
   </trkpt>
   <trkpt lat="-37.85264" lon="145.36819">
    <ele>574.2700000000001</ele>
   </trkpt>
   <trkpt lat="-37.852450000000005" lon="145.36822">
    <ele>573.52</ele>
   </trkpt>
  </trkseg>
 </trk>
</gpx>
