<?xml version="1.0" encoding="UTF-8"?>
<gpx creator="StravaGPX" version="1.1" xmlns="http://www.topografix.com/GPX/1/1" xmlns:xsi="http://www.w3.org/2001/XMLSchema-instance" xsi:schemaLocation="http://www.topografix.com/GPX/1/1 http://www.topografix.com/GPX/1/1/gpx.xsd">
 <metadata>
  <name>Sunday 13 Sep 2026 - 20k</name>
  <author>
   <name>Majid Nazem 🇦🇺</name>
   <link href="https://www.strava.com/athletes/5612969"/>
  </author>
  <copyright author="OpenStreetMap contributors">
   <year>2020</year>
   <license>https://www.openstreetmap.org/copyright</license>
  </copyright>
  <link href="https://www.strava.com/routes/3532967423735286352"/>
 </metadata>
 <trk>
  <name>Sunday 13 Sep 2026 - 20k</name>
  <link href="https://www.strava.com/routes/3532967423735286352"/>
  <type>running</type>
  <trkseg>
   <trkpt lat="-37.887620000000005" lon="145.36993">
    <ele>362.26</ele>
   </trkpt>
   <trkpt lat="-37.88749" lon="145.36999">
    <ele>362.21000000000004</ele>
   </trkpt>
   <trkpt lat="-37.88738" lon="145.37008">
    <ele>363.35</ele>
   </trkpt>
   <trkpt lat="-37.88729" lon="145.37024000000002">
    <ele>366.6</ele>
   </trkpt>
   <trkpt lat="-37.886860000000006" lon="145.37055">
    <ele>369.42</ele>
   </trkpt>
   <trkpt lat="-37.88689" lon="145.37066000000002">
    <ele>371.19</ele>
   </trkpt>
   <trkpt lat="-37.88694" lon="145.37120000000002">
    <ele>371.27000000000004</ele>
   </trkpt>
   <trkpt lat="-37.88698" lon="145.37135">
    <ele>371.69</ele>
   </trkpt>
   <trkpt lat="-37.88705" lon="145.37147000000002">
    <ele>371.78000000000003</ele>
   </trkpt>
   <trkpt lat="-37.887425000479915" lon="145.37178999841026">
    <ele>370.00000000000006</ele>
   </trkpt>
   <trkpt lat="-37.887800000000006" lon="145.37211000000002">
    <ele>365.98</ele>
   </trkpt>
   <trkpt lat="-37.88841000078449" lon="145.37258499593258">
    <ele>361.81</ele>
   </trkpt>
   <trkpt lat="-37.88902" lon="145.37306">
    <ele>356.59000000000003</ele>
   </trkpt>
   <trkpt lat="-37.88950000069874" lon="145.37347499726883">
    <ele>352.72</ele>
   </trkpt>
   <trkpt lat="-37.88998" lon="145.37389000000002">
    <ele>347.85</ele>
   </trkpt>
   <trkpt lat="-37.89007" lon="145.37402">
    <ele>347.07000000000005</ele>
   </trkpt>
   <trkpt lat="-37.89011" lon="145.37428">
    <ele>346.2</ele>
   </trkpt>
   <trkpt lat="-37.89009" lon="145.37448">
    <ele>344.79</ele>
   </trkpt>
   <trkpt lat="-37.89" lon="145.37468">
    <ele>344.37</ele>
   </trkpt>
   <trkpt lat="-37.88993" lon="145.37490000000003">
    <ele>343.95000000000005</ele>
   </trkpt>
   <trkpt lat="-37.88996" lon="145.37504">
    <ele>344.31</ele>
   </trkpt>
   <trkpt lat="-37.89007" lon="145.37515000000002">
    <ele>345.30000000000007</ele>
   </trkpt>
   <trkpt lat="-37.89025" lon="145.37519">
    <ele>346.11</ele>
   </trkpt>
   <trkpt lat="-37.89052" lon="145.37509">
    <ele>345.47</ele>
   </trkpt>
   <trkpt lat="-37.89079" lon="145.37492">
    <ele>345.14</ele>
   </trkpt>
   <trkpt lat="-37.89114" lon="145.37492">
    <ele>344.32</ele>
   </trkpt>
   <trkpt lat="-37.89137" lon="145.37499000000003">
    <ele>344.25</ele>
   </trkpt>
   <trkpt lat="-37.89146" lon="145.37505000000002">
    <ele>344.53</ele>
   </trkpt>
   <trkpt lat="-37.89166" lon="145.37524000000002">
    <ele>345.76</ele>
   </trkpt>
   <trkpt lat="-37.892120000000006" lon="145.37593">
    <ele>352.71000000000004</ele>
   </trkpt>
   <trkpt lat="-37.89235000148019" lon="145.37650499840794">
    <ele>358.22</ele>
   </trkpt>
   <trkpt lat="-37.89258" lon="145.37708">
    <ele>363.97</ele>
   </trkpt>
   <trkpt lat="-37.89264" lon="145.37733">
    <ele>365.62000000000006</ele>
   </trkpt>
   <trkpt lat="-37.89267" lon="145.37773">
    <ele>369.96</ele>
   </trkpt>
   <trkpt lat="-37.89262" lon="145.37792000000002">
    <ele>372.09000000000003</ele>
   </trkpt>
   <trkpt lat="-37.89249" lon="145.37814">
    <ele>378.23</ele>
   </trkpt>
   <trkpt lat="-37.89235" lon="145.37830000000002">
    <ele>380.6</ele>
   </trkpt>
   <trkpt lat="-37.89229" lon="145.37834">
    <ele>381.17</ele>
   </trkpt>
   <trkpt lat="-37.89222" lon="145.37835">
    <ele>381.92</ele>
   </trkpt>
   <trkpt lat="-37.89177" lon="145.37807">
    <ele>383.56</ele>
   </trkpt>
   <trkpt lat="-37.89139" lon="145.37794000000002">
    <ele>386.01</ele>
   </trkpt>
   <trkpt lat="-37.89123" lon="145.37791">
    <ele>386.77000000000004</ele>
   </trkpt>
   <trkpt lat="-37.89112" lon="145.3779">
    <ele>387.0</ele>
   </trkpt>
   <trkpt lat="-37.89085" lon="145.37794000000002">
    <ele>389.14000000000004</ele>
   </trkpt>
   <trkpt lat="-37.89016" lon="145.37795">
    <ele>391.83</ele>
   </trkpt>
   <trkpt lat="-37.88931" lon="145.37781">
    <ele>395.5400000000001</ele>
   </trkpt>
   <trkpt lat="-37.88850500008015" lon="145.37797500181114">
    <ele>401.36</ele>
   </trkpt>
   <trkpt lat="-37.8877" lon="145.37814">
    <ele>408.40000000000003</ele>
   </trkpt>
   <trkpt lat="-37.887890000000006" lon="145.37830000000002">
    <ele>409.63000000000005</ele>
   </trkpt>
   <trkpt lat="-37.88812" lon="145.37844">
    <ele>411.35</ele>
   </trkpt>
   <trkpt lat="-37.88832" lon="145.3785">
    <ele>412.25000000000006</ele>
   </trkpt>
   <trkpt lat="-37.88861" lon="145.37863000000002">
    <ele>414.97</ele>
   </trkpt>
   <trkpt lat="-37.88917000045836" lon="145.3789299977599">
    <ele>419.58</ele>
   </trkpt>
   <trkpt lat="-37.88973" lon="145.37923">
    <ele>423.75</ele>
   </trkpt>
   <trkpt lat="-37.890150000000006" lon="145.3795">
    <ele>426.76</ele>
   </trkpt>
   <trkpt lat="-37.89045" lon="145.37973000000002">
    <ele>428.57000000000005</ele>
   </trkpt>
   <trkpt lat="-37.89085" lon="145.38015000000001">
    <ele>431.37</ele>
   </trkpt>
   <trkpt lat="-37.8913550007523" lon="145.38059499687247">
    <ele>430.2300000000001</ele>
   </trkpt>
   <trkpt lat="-37.89186" lon="145.38104">
    <ele>429.39000000000004</ele>
   </trkpt>
   <trkpt lat="-37.89206" lon="145.38125000000002">
    <ele>428.76000000000005</ele>
   </trkpt>
   <trkpt lat="-37.89228000000001" lon="145.38155">
    <ele>429.1</ele>
   </trkpt>
   <trkpt lat="-37.89228000000001" lon="145.38154">
    <ele>429.09000000000003</ele>
   </trkpt>
   <trkpt lat="-37.89233" lon="145.38163">
    <ele>429.2</ele>
   </trkpt>
   <trkpt lat="-37.89242" lon="145.38186000000002">
    <ele>429.00000000000006</ele>
   </trkpt>
   <trkpt lat="-37.89255" lon="145.38238">
    <ele>427.24</ele>
   </trkpt>
   <trkpt lat="-37.892520001865584" lon="145.38304500037967">
    <ele>425.63</ele>
   </trkpt>
   <trkpt lat="-37.89249" lon="145.38371">
    <ele>425.94000000000005</ele>
   </trkpt>
   <trkpt lat="-37.89251" lon="145.38418000000001">
    <ele>426.18000000000006</ele>
   </trkpt>
   <trkpt lat="-37.8926" lon="145.38464000000002">
    <ele>425.83000000000004</ele>
   </trkpt>
   <trkpt lat="-37.89279000134739" lon="145.3851949986977">
    <ele>425.58</ele>
   </trkpt>
   <trkpt lat="-37.89298" lon="145.38575">
    <ele>424.45000000000005</ele>
   </trkpt>
   <trkpt lat="-37.89323" lon="145.38596">
    <ele>423.91</ele>
   </trkpt>
   <trkpt lat="-37.89356" lon="145.38617000000002">
    <ele>425.39000000000004</ele>
   </trkpt>
   <trkpt lat="-37.89372" lon="145.38635000000002">
    <ele>426.55</ele>
   </trkpt>
   <trkpt lat="-37.89432" lon="145.38645000000002">
    <ele>424.75</ele>
   </trkpt>
   <trkpt lat="-37.89495" lon="145.38648">
    <ele>422.99</ele>
   </trkpt>
   <trkpt lat="-37.89535" lon="145.38631">
    <ele>419.91</ele>
   </trkpt>
   <trkpt lat="-37.89551" lon="145.38614">
    <ele>419.43</ele>
   </trkpt>
   <trkpt lat="-37.89562" lon="145.38605">
    <ele>418.57000000000005</ele>
   </trkpt>
   <trkpt lat="-37.89593" lon="145.38579000000001">
    <ele>416.63000000000005</ele>
   </trkpt>
   <trkpt lat="-37.89609" lon="145.38563000000002">
    <ele>415.45000000000005</ele>
   </trkpt>
   <trkpt lat="-37.89663" lon="145.38522">
    <ele>408.40000000000003</ele>
   </trkpt>
   <trkpt lat="-37.8969" lon="145.38498">
    <ele>406.29</ele>
   </trkpt>
   <trkpt lat="-37.89703" lon="145.38479">
    <ele>403.21</ele>
   </trkpt>
   <trkpt lat="-37.89708" lon="145.38508000000002">
    <ele>404.90000000000003</ele>
   </trkpt>
   <trkpt lat="-37.89705" lon="145.38526000000002">
    <ele>405.55</ele>
   </trkpt>
   <trkpt lat="-37.896980000000006" lon="145.3856">
    <ele>408.21000000000004</ele>
   </trkpt>
   <trkpt lat="-37.896980000000006" lon="145.38557">
    <ele>408.12</ele>
   </trkpt>
   <trkpt lat="-37.89696" lon="145.38565">
    <ele>409.14000000000004</ele>
   </trkpt>
   <trkpt lat="-37.89676" lon="145.38609000000002">
    <ele>414.81</ele>
   </trkpt>
   <trkpt lat="-37.89663" lon="145.38676">
    <ele>422.48</ele>
   </trkpt>
   <trkpt lat="-37.89663" lon="145.38708000000003">
    <ele>424.68000000000006</ele>
   </trkpt>
   <trkpt lat="-37.89656" lon="145.38734000000002">
    <ele>429.28000000000003</ele>
   </trkpt>
   <trkpt lat="-37.89643" lon="145.38760000000002">
    <ele>430.16</ele>
   </trkpt>
   <trkpt lat="-37.89587" lon="145.38802">
    <ele>433.59000000000003</ele>
   </trkpt>
   <trkpt lat="-37.89574" lon="145.38798">
    <ele>433.7300000000001</ele>
   </trkpt>
   <trkpt lat="-37.89587" lon="145.38819">
    <ele>433.85</ele>
   </trkpt>
   <trkpt lat="-37.89607" lon="145.38836">
    <ele>433.61</ele>
   </trkpt>
   <trkpt lat="-37.89625" lon="145.38855">
    <ele>432.87</ele>
   </trkpt>
   <trkpt lat="-37.89674" lon="145.38902000000002">
    <ele>430.21000000000004</ele>
   </trkpt>
   <trkpt lat="-37.89701" lon="145.38949000000002">
    <ele>426.55</ele>
   </trkpt>
   <trkpt lat="-37.89703" lon="145.38963">
    <ele>425.75</ele>
   </trkpt>
   <trkpt lat="-37.89712" lon="145.38982000000001">
    <ele>423.83000000000004</ele>
   </trkpt>
   <trkpt lat="-37.89714" lon="145.38993000000002">
    <ele>422.89000000000004</ele>
   </trkpt>
   <trkpt lat="-37.89743" lon="145.39031">
    <ele>419.57000000000005</ele>
   </trkpt>
   <trkpt lat="-37.89803500152297" lon="145.39090999506845">
    <ele>414.05</ele>
   </trkpt>
   <trkpt lat="-37.89864" lon="145.39151">
    <ele>411.84000000000003</ele>
   </trkpt>
   <trkpt lat="-37.89876" lon="145.39167">
    <ele>411.94</ele>
   </trkpt>
   <trkpt lat="-37.89884" lon="145.39183">
    <ele>411.72</ele>
   </trkpt>
   <trkpt lat="-37.89893" lon="145.3921">
    <ele>412.04</ele>
   </trkpt>
   <trkpt lat="-37.898970000000006" lon="145.39257">
    <ele>414.56000000000006</ele>
   </trkpt>
   <trkpt lat="-37.89896" lon="145.39297000000002">
    <ele>417.85</ele>
   </trkpt>
   <trkpt lat="-37.89884" lon="145.394">
    <ele>422.79</ele>
   </trkpt>
   <trkpt lat="-37.89893" lon="145.39467000000002">
    <ele>426.09000000000003</ele>
   </trkpt>
   <trkpt lat="-37.89914" lon="145.39504000000002">
    <ele>428.7900000000001</ele>
   </trkpt>
   <trkpt lat="-37.89931" lon="145.39533">
    <ele>431.27000000000004</ele>
   </trkpt>
   <trkpt lat="-37.89954" lon="145.39557000000002">
    <ele>432.1700000000001</ele>
   </trkpt>
   <trkpt lat="-37.900130000000004" lon="145.39607">
    <ele>437.00000000000006</ele>
   </trkpt>
   <trkpt lat="-37.90086" lon="145.39651">
    <ele>442.90000000000003</ele>
   </trkpt>
   <trkpt lat="-37.90122" lon="145.39669">
    <ele>444.04</ele>
   </trkpt>
   <trkpt lat="-37.901620001124904" lon="145.39720499720477">
    <ele>447.1</ele>
   </trkpt>
   <trkpt lat="-37.90202" lon="145.39772000000002">
    <ele>451.59000000000003</ele>
   </trkpt>
   <trkpt lat="-37.90265" lon="145.39842000000002">
    <ele>460.57000000000005</ele>
   </trkpt>
   <trkpt lat="-37.90276" lon="145.39836000000003">
    <ele>460.8</ele>
   </trkpt>
   <trkpt lat="-37.9033" lon="145.39819">
    <ele>458.74</ele>
   </trkpt>
   <trkpt lat="-37.9035" lon="145.39805">
    <ele>457.67</ele>
   </trkpt>
   <trkpt lat="-37.90379" lon="145.39776">
    <ele>456.90000000000003</ele>
   </trkpt>
   <trkpt lat="-37.9041" lon="145.39733">
    <ele>456.36</ele>
   </trkpt>
   <trkpt lat="-37.90444" lon="145.39645000000002">
    <ele>456.49000000000007</ele>
   </trkpt>
   <trkpt lat="-37.90464000136008" lon="145.39588000158997">
    <ele>456.81000000000006</ele>
   </trkpt>
   <trkpt lat="-37.90484" lon="145.39531000000002">
    <ele>455.06</ele>
   </trkpt>
   <trkpt lat="-37.90491" lon="145.39521000000002">
    <ele>454.21000000000004</ele>
   </trkpt>
   <trkpt lat="-37.905" lon="145.39518">
    <ele>454.21000000000004</ele>
   </trkpt>
   <trkpt lat="-37.905260000000006" lon="145.39513000000002">
    <ele>449.72</ele>
   </trkpt>
   <trkpt lat="-37.905730000000005" lon="145.39508">
    <ele>444.26000000000005</ele>
   </trkpt>
   <trkpt lat="-37.90629499992542" lon="145.39508499996094">
    <ele>434.37</ele>
   </trkpt>
   <trkpt lat="-37.90686" lon="145.39509">
    <ele>424.99</ele>
   </trkpt>
   <trkpt lat="-37.90706" lon="145.39508">
    <ele>422.34000000000003</ele>
   </trkpt>
   <trkpt lat="-37.90746" lon="145.39514">
    <ele>411.6</ele>
   </trkpt>
   <trkpt lat="-37.90775" lon="145.39513000000002">
    <ele>405.65</ele>
   </trkpt>
   <trkpt lat="-37.90816" lon="145.39518">
    <ele>398.77</ele>
   </trkpt>
   <trkpt lat="-37.908190000000005" lon="145.39518">
    <ele>398.37000000000006</ele>
   </trkpt>
   <trkpt lat="-37.90849" lon="145.39521000000002">
    <ele>392.74</ele>
   </trkpt>
   <trkpt lat="-37.908910000000006" lon="145.39523">
    <ele>385.37000000000006</ele>
   </trkpt>
   <trkpt lat="-37.90961" lon="145.39531000000002">
    <ele>377.03000000000003</ele>
   </trkpt>
   <trkpt lat="-37.91007000016125" lon="145.3953399998227">
    <ele>373.26000000000005</ele>
   </trkpt>
   <trkpt lat="-37.91053" lon="145.39537">
    <ele>370.54</ele>
   </trkpt>
   <trkpt lat="-37.910990000000005" lon="145.39541">
    <ele>370.75</ele>
   </trkpt>
   <trkpt lat="-37.91113" lon="145.39545">
    <ele>370.75</ele>
   </trkpt>
   <trkpt lat="-37.91131" lon="145.39558000000002">
    <ele>371.15000000000003</ele>
   </trkpt>
   <trkpt lat="-37.9114" lon="145.39558000000002">
    <ele>370.31</ele>
   </trkpt>
   <trkpt lat="-37.91145" lon="145.39552">
    <ele>370.37</ele>
   </trkpt>
   <trkpt lat="-37.911640000000006" lon="145.39548000000002">
    <ele>371.13</ele>
   </trkpt>
   <trkpt lat="-37.91185" lon="145.39546">
    <ele>372.63</ele>
   </trkpt>
   <trkpt lat="-37.912020000000005" lon="145.39546">
    <ele>373.28000000000003</ele>
   </trkpt>
   <trkpt lat="-37.9124800000851" lon="145.3955049997261">
    <ele>377.1</ele>
   </trkpt>
   <trkpt lat="-37.912940000000006" lon="145.39555000000001">
    <ele>380.26000000000005</ele>
   </trkpt>
   <trkpt lat="-37.91275" lon="145.39448000000002">
    <ele>383.39</ele>
   </trkpt>
   <trkpt lat="-37.912565002103946" lon="145.3937699981046">
    <ele>382.75</ele>
   </trkpt>
   <trkpt lat="-37.912380000000006" lon="145.39306000000002">
    <ele>382.08000000000004</ele>
   </trkpt>
   <trkpt lat="-37.9122500022059" lon="145.39233999879875">
    <ele>381.09000000000003</ele>
   </trkpt>
   <trkpt lat="-37.91212" lon="145.39162000000002">
    <ele>378.06</ele>
   </trkpt>
   <trkpt lat="-37.9121" lon="145.39141">
    <ele>377.18</ele>
   </trkpt>
   <trkpt lat="-37.912150000000004" lon="145.39096">
    <ele>374.66</ele>
   </trkpt>
   <trkpt lat="-37.91228" lon="145.39037000000002">
    <ele>367.44000000000005</ele>
   </trkpt>
   <trkpt lat="-37.912330000000004" lon="145.38984000000002">
    <ele>360.33000000000004</ele>
   </trkpt>
   <trkpt lat="-37.91234" lon="145.38982000000001">
    <ele>359.95000000000005</ele>
   </trkpt>
   <trkpt lat="-37.91239500264414" lon="145.38903000053452">
    <ele>351.46000000000004</ele>
   </trkpt>
   <trkpt lat="-37.91245" lon="145.38824000000002">
    <ele>342.87</ele>
   </trkpt>
   <trkpt lat="-37.91245" lon="145.38784">
    <ele>339.51000000000005</ele>
   </trkpt>
   <trkpt lat="-37.91248" lon="145.38751000000002">
    <ele>338.57000000000005</ele>
   </trkpt>
   <trkpt lat="-37.91242000190222" lon="145.3868399994889">
    <ele>338.07000000000005</ele>
   </trkpt>
   <trkpt lat="-37.91236" lon="145.38617000000002">
    <ele>339.87</ele>
   </trkpt>
   <trkpt lat="-37.91234" lon="145.38577">
    <ele>341.95000000000005</ele>
   </trkpt>
   <trkpt lat="-37.912240000000004" lon="145.3847">
    <ele>349.77000000000004</ele>
   </trkpt>
   <trkpt lat="-37.912240000000004" lon="145.38471">
    <ele>349.77000000000004</ele>
   </trkpt>
   <trkpt lat="-37.91221" lon="145.38438000000002">
    <ele>351.3</ele>
   </trkpt>
   <trkpt lat="-37.91219" lon="145.38386">
    <ele>353.69</ele>
   </trkpt>
   <trkpt lat="-37.912110000000006" lon="145.38325">
    <ele>356.66</ele>
   </trkpt>
   <trkpt lat="-37.912070001981014" lon="145.38256499955884">
    <ele>360.06000000000006</ele>
   </trkpt>
   <trkpt lat="-37.91203" lon="145.38188000000002">
    <ele>363.97</ele>
   </trkpt>
   <trkpt lat="-37.91256000005991" lon="145.38177000079068">
    <ele>372.95</ele>
   </trkpt>
   <trkpt lat="-37.913090000000004" lon="145.38166">
    <ele>378.23</ele>
   </trkpt>
   <trkpt lat="-37.913090000000004" lon="145.38165">
    <ele>378.33000000000004</ele>
   </trkpt>
   <trkpt lat="-37.913610000000006" lon="145.38157">
    <ele>382.37000000000006</ele>
   </trkpt>
   <trkpt lat="-37.91409" lon="145.38145">
    <ele>382.89</ele>
   </trkpt>
   <trkpt lat="-37.91433" lon="145.38141000000002">
    <ele>382.36</ele>
   </trkpt>
   <trkpt lat="-37.91447" lon="145.38133000000002">
    <ele>380.92</ele>
   </trkpt>
   <trkpt lat="-37.91451" lon="145.38116000000002">
    <ele>380.46000000000004</ele>
   </trkpt>
   <trkpt lat="-37.91451" lon="145.38025000000002">
    <ele>378.12</ele>
   </trkpt>
   <trkpt lat="-37.91429" lon="145.3793">
    <ele>370.91</ele>
   </trkpt>
   <trkpt lat="-37.9142" lon="145.37912">
    <ele>370.02</ele>
   </trkpt>
   <trkpt lat="-37.91409" lon="145.37909000000002">
    <ele>369.57</ele>
   </trkpt>
   <trkpt lat="-37.91358000076527" lon="145.37954500325307">
    <ele>368.91</ele>
   </trkpt>
   <trkpt lat="-37.913070000000005" lon="145.38000000000002">
    <ele>365.93</ele>
   </trkpt>
   <trkpt lat="-37.913090000000004" lon="145.37998000000002">
    <ele>365.97</ele>
   </trkpt>
   <trkpt lat="-37.912940000000006" lon="145.38012">
    <ele>365.2300000000001</ele>
   </trkpt>
   <trkpt lat="-37.912780000000005" lon="145.37995">
    <ele>373.15000000000003</ele>
   </trkpt>
   <trkpt lat="-37.91266" lon="145.37971000000002">
    <ele>367.27000000000004</ele>
   </trkpt>
   <trkpt lat="-37.91264" lon="145.37941">
    <ele>360.66</ele>
   </trkpt>
   <trkpt lat="-37.912470000000006" lon="145.37912">
    <ele>351.5</ele>
   </trkpt>
   <trkpt lat="-37.91248" lon="145.37885">
    <ele>342.41</ele>
   </trkpt>
   <trkpt lat="-37.912290000000006" lon="145.37890000000002">
    <ele>341.96000000000004</ele>
   </trkpt>
   <trkpt lat="-37.91228" lon="145.37890000000002">
    <ele>338.04</ele>
   </trkpt>
   <trkpt lat="-37.91207" lon="145.37897">
    <ele>336.12</ele>
   </trkpt>
   <trkpt lat="-37.91187" lon="145.37900000000002">
    <ele>328.89</ele>
   </trkpt>
   <trkpt lat="-37.91165" lon="145.37895">
    <ele>324.90000000000003</ele>
   </trkpt>
   <trkpt lat="-37.91145" lon="145.37887">
    <ele>318.90000000000003</ele>
   </trkpt>
   <trkpt lat="-37.91113" lon="145.3786">
    <ele>310.76000000000005</ele>
   </trkpt>
   <trkpt lat="-37.911" lon="145.3785">
    <ele>308.50000000000006</ele>
   </trkpt>
   <trkpt lat="-37.910830000000004" lon="145.37843">
    <ele>312.97</ele>
   </trkpt>
   <trkpt lat="-37.91033" lon="145.37793000000002">
    <ele>303.33000000000004</ele>
   </trkpt>
   <trkpt lat="-37.91024" lon="145.37774000000002">
    <ele>301.00000000000006</ele>
   </trkpt>
   <trkpt lat="-37.9101" lon="145.37749000000002">
    <ele>295.85</ele>
   </trkpt>
   <trkpt lat="-37.90992" lon="145.37733">
    <ele>294.24</ele>
   </trkpt>
   <trkpt lat="-37.90983000000001" lon="145.37728">
    <ele>293.53000000000003</ele>
   </trkpt>
   <trkpt lat="-37.91006" lon="145.37734">
    <ele>292.32</ele>
   </trkpt>
   <trkpt lat="-37.910340000000005" lon="145.37748000000002">
    <ele>290.48</ele>
   </trkpt>
   <trkpt lat="-37.91015" lon="145.37726">
    <ele>287.75</ele>
   </trkpt>
   <trkpt lat="-37.90999" lon="145.37698">
    <ele>284.33000000000004</ele>
   </trkpt>
   <trkpt lat="-37.90977" lon="145.37643">
    <ele>276.42</ele>
   </trkpt>
   <trkpt lat="-37.909740000000006" lon="145.3762">
    <ele>274.5</ele>
   </trkpt>
   <trkpt lat="-37.90975" lon="145.37584">
    <ele>272.88</ele>
   </trkpt>
   <trkpt lat="-37.90966" lon="145.37523000000002">
    <ele>265.0</ele>
   </trkpt>
   <trkpt lat="-37.90966" lon="145.37524000000002">
    <ele>265.0</ele>
   </trkpt>
   <trkpt lat="-37.90963" lon="145.37486">
    <ele>260.65000000000003</ele>
   </trkpt>
   <trkpt lat="-37.90957" lon="145.37385">
    <ele>249.59000000000003</ele>
   </trkpt>
   <trkpt lat="-37.90948" lon="145.37339">
    <ele>247.14000000000001</ele>
   </trkpt>
   <trkpt lat="-37.90941000169416" lon="145.3727599995368">
    <ele>246.95000000000002</ele>
   </trkpt>
   <trkpt lat="-37.90934" lon="145.37213">
    <ele>249.43</ele>
   </trkpt>
   <trkpt lat="-37.909200000000006" lon="145.37147000000002">
    <ele>251.10999999999999</ele>
   </trkpt>
   <trkpt lat="-37.90883" lon="145.37045">
    <ele>245.35</ele>
   </trkpt>
   <trkpt lat="-37.90869" lon="145.3701">
    <ele>241.79000000000002</ele>
   </trkpt>
   <trkpt lat="-37.90845" lon="145.36956">
    <ele>233.43000000000004</ele>
   </trkpt>
   <trkpt lat="-37.90845" lon="145.36955">
    <ele>233.43000000000004</ele>
   </trkpt>
   <trkpt lat="-37.90836" lon="145.36937">
    <ele>227.64000000000001</ele>
   </trkpt>
   <trkpt lat="-37.90829" lon="145.36899000000003">
    <ele>224.02</ele>
   </trkpt>
   <trkpt lat="-37.90829" lon="145.36884">
    <ele>222.18</ele>
   </trkpt>
   <trkpt lat="-37.90833000000001" lon="145.36857">
    <ele>220.88000000000002</ele>
   </trkpt>
   <trkpt lat="-37.9082" lon="145.36867">
    <ele>222.23000000000002</ele>
   </trkpt>
   <trkpt lat="-37.90790000099448" lon="145.36915500197844">
    <ele>222.66000000000003</ele>
   </trkpt>
   <trkpt lat="-37.9076" lon="145.36964">
    <ele>221.83</ele>
   </trkpt>
   <trkpt lat="-37.90736500135839" lon="145.37019000157233">
    <ele>221.8</ele>
   </trkpt>
   <trkpt lat="-37.90713" lon="145.37074">
    <ele>220.35000000000002</ele>
   </trkpt>
   <trkpt lat="-37.906530000000004" lon="145.37126">
    <ele>224.81</ele>
   </trkpt>
   <trkpt lat="-37.90639" lon="145.37087000000002">
    <ele>226.16000000000003</ele>
   </trkpt>
   <trkpt lat="-37.90628" lon="145.37043">
    <ele>229.08</ele>
   </trkpt>
   <trkpt lat="-37.9063" lon="145.37003">
    <ele>230.13000000000002</ele>
   </trkpt>
   <trkpt lat="-37.90634" lon="145.36982">
    <ele>230.11</ele>
   </trkpt>
   <trkpt lat="-37.9065" lon="145.36961000000002">
    <ele>229.82000000000002</ele>
   </trkpt>
   <trkpt lat="-37.9067" lon="145.36924000000002">
    <ele>230.28</ele>
   </trkpt>
   <trkpt lat="-37.90677" lon="145.36897000000002">
    <ele>230.39000000000001</ele>
   </trkpt>
   <trkpt lat="-37.90677" lon="145.36884">
    <ele>230.39000000000001</ele>
   </trkpt>
   <trkpt lat="-37.90668" lon="145.36825000000002">
    <ele>230.96</ele>
   </trkpt>
   <trkpt lat="-37.90675" lon="145.36773000000002">
    <ele>228.22</ele>
   </trkpt>
   <trkpt lat="-37.90663" lon="145.36713">
    <ele>226.29000000000002</ele>
   </trkpt>
   <trkpt lat="-37.90661" lon="145.36685">
    <ele>228.37</ele>
   </trkpt>
   <trkpt lat="-37.90657" lon="145.36668">
    <ele>232.42000000000002</ele>
   </trkpt>
   <trkpt lat="-37.90663" lon="145.36637000000002">
    <ele>239.47</ele>
   </trkpt>
   <trkpt lat="-37.90646" lon="145.36564">
    <ele>254.66</ele>
   </trkpt>
   <trkpt lat="-37.90623" lon="145.36459000000002">
    <ele>279.78000000000003</ele>
   </trkpt>
   <trkpt lat="-37.90614" lon="145.36395000000002">
    <ele>289.51000000000005</ele>
   </trkpt>
   <trkpt lat="-37.906060000000004" lon="145.36378000000002">
    <ele>290.89000000000004</ele>
   </trkpt>
   <trkpt lat="-37.905770000000004" lon="145.36347">
    <ele>294.98</ele>
   </trkpt>
   <trkpt lat="-37.90565" lon="145.3634">
    <ele>297.13</ele>
   </trkpt>
   <trkpt lat="-37.90545" lon="145.36334000000002">
    <ele>297.13</ele>
   </trkpt>
   <trkpt lat="-37.905350000000006" lon="145.36324000000002">
    <ele>306.92</ele>
   </trkpt>
   <trkpt lat="-37.90522" lon="145.36309">
    <ele>306.92</ele>
   </trkpt>
   <trkpt lat="-37.9046" lon="145.36269000000001">
    <ele>315.37</ele>
   </trkpt>
   <trkpt lat="-37.90442" lon="145.36266">
    <ele>317.11</ele>
   </trkpt>
   <trkpt lat="-37.90417" lon="145.36270000000002">
    <ele>318.59000000000003</ele>
   </trkpt>
   <trkpt lat="-37.90366" lon="145.36271000000002">
    <ele>323.21000000000004</ele>
   </trkpt>
   <trkpt lat="-37.90307" lon="145.36296000000002">
    <ele>327.14000000000004</ele>
   </trkpt>
   <trkpt lat="-37.90283" lon="145.36315000000002">
    <ele>330.85</ele>
   </trkpt>
   <trkpt lat="-37.90263" lon="145.36328">
    <ele>332.48</ele>
   </trkpt>
   <trkpt lat="-37.90216" lon="145.36339">
    <ele>339.57000000000005</ele>
   </trkpt>
   <trkpt lat="-37.90189" lon="145.36350000000002">
    <ele>342.66</ele>
   </trkpt>
   <trkpt lat="-37.901450000000004" lon="145.36383">
    <ele>347.45000000000005</ele>
   </trkpt>
   <trkpt lat="-37.90124" lon="145.36343000000002">
    <ele>346.09</ele>
   </trkpt>
   <trkpt lat="-37.901050001985745" lon="145.36273999811638">
    <ele>341.75000000000006</ele>
   </trkpt>
   <trkpt lat="-37.90086" lon="145.36205">
    <ele>333.3</ele>
   </trkpt>
   <trkpt lat="-37.900830000000006" lon="145.36186">
    <ele>332.52000000000004</ele>
   </trkpt>
   <trkpt lat="-37.90077" lon="145.36145000000002">
    <ele>333.63000000000005</ele>
   </trkpt>
   <trkpt lat="-37.90059" lon="145.36069">
    <ele>337.74</ele>
   </trkpt>
   <trkpt lat="-37.90057" lon="145.36046000000002">
    <ele>337.24</ele>
   </trkpt>
   <trkpt lat="-37.900400000000005" lon="145.35975000000002">
    <ele>324.51</ele>
   </trkpt>
   <trkpt lat="-37.900400000000005" lon="145.35976000000002">
    <ele>324.51</ele>
   </trkpt>
   <trkpt lat="-37.9003" lon="145.35946">
    <ele>316.54</ele>
   </trkpt>
   <trkpt lat="-37.9001" lon="145.35860000000002">
    <ele>302.52</ele>
   </trkpt>
   <trkpt lat="-37.9001" lon="145.35835">
    <ele>298.99</ele>
   </trkpt>
   <trkpt lat="-37.900000000000006" lon="145.35778000000002">
    <ele>285.90000000000003</ele>
   </trkpt>
   <trkpt lat="-37.89992" lon="145.35763">
    <ele>277.12</ele>
   </trkpt>
   <trkpt lat="-37.89992" lon="145.35755">
    <ele>277.12</ele>
   </trkpt>
   <trkpt lat="-37.900000000000006" lon="145.35732000000002">
    <ele>271.03000000000003</ele>
   </trkpt>
   <trkpt lat="-37.900000000000006" lon="145.35713">
    <ele>267.21</ele>
   </trkpt>
   <trkpt lat="-37.89996" lon="145.35696000000002">
    <ele>257.98</ele>
   </trkpt>
   <trkpt lat="-37.89985" lon="145.35690000000002">
    <ele>258.0</ele>
   </trkpt>
   <trkpt lat="-37.89994" lon="145.35687000000001">
    <ele>260.83</ele>
   </trkpt>
   <trkpt lat="-37.90001" lon="145.35687000000001">
    <ele>266.29</ele>
   </trkpt>
   <trkpt lat="-37.9001" lon="145.35691">
    <ele>266.5</ele>
   </trkpt>
   <trkpt lat="-37.900110000000005" lon="145.35685">
    <ele>266.5</ele>
   </trkpt>
   <trkpt lat="-37.89996" lon="145.35677">
    <ele>267.66</ele>
   </trkpt>
   <trkpt lat="-37.89985" lon="145.35665">
    <ele>268.38</ele>
   </trkpt>
   <trkpt lat="-37.89974" lon="145.35645000000002">
    <ele>269.22</ele>
   </trkpt>
   <trkpt lat="-37.899730000000005" lon="145.35632">
    <ele>269.43</ele>
   </trkpt>
   <trkpt lat="-37.89967" lon="145.35628">
    <ele>271.17</ele>
   </trkpt>
   <trkpt lat="-37.89958" lon="145.35626000000002">
    <ele>271.17</ele>
   </trkpt>
   <trkpt lat="-37.89932" lon="145.35603">
    <ele>273.75000000000006</ele>
   </trkpt>
   <trkpt lat="-37.89934" lon="145.35593">
    <ele>274.62</ele>
   </trkpt>
   <trkpt lat="-37.899170000000005" lon="145.35578">
    <ele>275.03</ele>
   </trkpt>
   <trkpt lat="-37.89898" lon="145.3557">
    <ele>277.16</ele>
   </trkpt>
   <trkpt lat="-37.89873" lon="145.35563000000002">
    <ele>279.90000000000003</ele>
   </trkpt>
   <trkpt lat="-37.8984" lon="145.35568">
    <ele>283.79</ele>
   </trkpt>
   <trkpt lat="-37.89819" lon="145.35568">
    <ele>284.61</ele>
   </trkpt>
   <trkpt lat="-37.89811" lon="145.35532">
    <ele>285.23</ele>
   </trkpt>
   <trkpt lat="-37.89788" lon="145.35500000000002">
    <ele>288.90000000000003</ele>
   </trkpt>
   <trkpt lat="-37.89775" lon="145.35477">
    <ele>289.32</ele>
   </trkpt>
   <trkpt lat="-37.89766" lon="145.35458">
    <ele>291.61</ele>
   </trkpt>
   <trkpt lat="-37.89759" lon="145.35435">
    <ele>293.40000000000003</ele>
   </trkpt>
   <trkpt lat="-37.89741" lon="145.35369">
    <ele>297.69</ele>
   </trkpt>
   <trkpt lat="-37.89734" lon="145.35315">
    <ele>302.38000000000005</ele>
   </trkpt>
   <trkpt lat="-37.89725" lon="145.35287000000002">
    <ele>304.76000000000005</ele>
   </trkpt>
   <trkpt lat="-37.89723" lon="145.35256">
    <ele>306.47</ele>
   </trkpt>
   <trkpt lat="-37.89725" lon="145.35237">
    <ele>306.88000000000005</ele>
   </trkpt>
   <trkpt lat="-37.89723" lon="145.35231000000002">
    <ele>307.33000000000004</ele>
   </trkpt>
   <trkpt lat="-37.89717" lon="145.35225">
    <ele>307.62</ele>
   </trkpt>
   <trkpt lat="-37.89674" lon="145.3521">
    <ele>311.87</ele>
   </trkpt>
   <trkpt lat="-37.89663" lon="145.35203">
    <ele>315.3</ele>
   </trkpt>
   <trkpt lat="-37.89609" lon="145.35136">
    <ele>321.43000000000006</ele>
   </trkpt>
   <trkpt lat="-37.89582" lon="145.35095">
    <ele>323.01</ele>
   </trkpt>
   <trkpt lat="-37.89566000000001" lon="145.35064">
    <ele>323.28000000000003</ele>
   </trkpt>
   <trkpt lat="-37.89546" lon="145.34998000000002">
    <ele>321.35</ele>
   </trkpt>
   <trkpt lat="-37.895410000000005" lon="145.34991000000002">
    <ele>321.32000000000005</ele>
   </trkpt>
   <trkpt lat="-37.89528" lon="145.34959">
    <ele>321.79</ele>
   </trkpt>
   <trkpt lat="-37.89526" lon="145.34951">
    <ele>322.24</ele>
   </trkpt>
   <trkpt lat="-37.895050000000005" lon="145.34922">
    <ele>324.5</ele>
   </trkpt>
   <trkpt lat="-37.89466" lon="145.34858">
    <ele>331.67</ele>
   </trkpt>
   <trkpt lat="-37.89419" lon="145.34762">
    <ele>344.82</ele>
   </trkpt>
   <trkpt lat="-37.894090000000006" lon="145.34743">
    <ele>346.77000000000004</ele>
   </trkpt>
   <trkpt lat="-37.89399" lon="145.34735">
    <ele>347.30000000000007</ele>
   </trkpt>
   <trkpt lat="-37.89392" lon="145.34734">
    <ele>347.34000000000003</ele>
   </trkpt>
   <trkpt lat="-37.89367" lon="145.34722000000002">
    <ele>347.69000000000005</ele>
   </trkpt>
   <trkpt lat="-37.89345" lon="145.34701">
    <ele>348.72</ele>
   </trkpt>
   <trkpt lat="-37.89316" lon="145.34688">
    <ele>351.14</ele>
   </trkpt>
   <trkpt lat="-37.892770000000006" lon="145.34666">
    <ele>357.88000000000005</ele>
   </trkpt>
   <trkpt lat="-37.89235" lon="145.34657">
    <ele>364.37</ele>
   </trkpt>
   <trkpt lat="-37.89180500056502" lon="145.34696000294312">
    <ele>373.08000000000004</ele>
   </trkpt>
   <trkpt lat="-37.89126" lon="145.34735">
    <ele>379.24</ele>
   </trkpt>
   <trkpt lat="-37.89103" lon="145.34747000000002">
    <ele>381.24</ele>
   </trkpt>
   <trkpt lat="-37.890800000000006" lon="145.34763">
    <ele>384.96000000000004</ele>
   </trkpt>
   <trkpt lat="-37.89052" lon="145.34785000000002">
    <ele>387.99000000000007</ele>
   </trkpt>
   <trkpt lat="-37.89043" lon="145.34805">
    <ele>390.06</ele>
   </trkpt>
   <trkpt lat="-37.89052" lon="145.34830000000002">
    <ele>390.06</ele>
   </trkpt>
   <trkpt lat="-37.89054" lon="145.34848000000002">
    <ele>392.65000000000003</ele>
   </trkpt>
   <trkpt lat="-37.89054" lon="145.34882000000002">
    <ele>395.84000000000003</ele>
   </trkpt>
   <trkpt lat="-37.890620000000006" lon="145.34932">
    <ele>399.89000000000004</ele>
   </trkpt>
   <trkpt lat="-37.8907" lon="145.34963000000002">
    <ele>400.74</ele>
   </trkpt>
   <trkpt lat="-37.89103" lon="145.35045000000002">
    <ele>406.32</ele>
   </trkpt>
   <trkpt lat="-37.891200002471756" lon="145.35121999805887">
    <ele>412.11</ele>
   </trkpt>
   <trkpt lat="-37.89137" lon="145.35199">
    <ele>415.99</ele>
   </trkpt>
   <trkpt lat="-37.89139" lon="145.35214000000002">
    <ele>419.01000000000005</ele>
   </trkpt>
   <trkpt lat="-37.89128" lon="145.35273">
    <ele>423.47</ele>
   </trkpt>
   <trkpt lat="-37.89101" lon="145.35302000000001">
    <ele>426.05</ele>
   </trkpt>
   <trkpt lat="-37.8909" lon="145.35308">
    <ele>426.05</ele>
   </trkpt>
   <trkpt lat="-37.89074" lon="145.35311000000002">
    <ele>427.62000000000006</ele>
   </trkpt>
   <trkpt lat="-37.89052" lon="145.3531">
    <ele>428.65000000000003</ele>
   </trkpt>
   <trkpt lat="-37.88985" lon="145.35299">
    <ele>434.94000000000005</ele>
   </trkpt>
   <trkpt lat="-37.88935" lon="145.35294000000002">
    <ele>438.55000000000007</ele>
   </trkpt>
   <trkpt lat="-37.88915" lon="145.35287000000002">
    <ele>440.09000000000003</ele>
   </trkpt>
   <trkpt lat="-37.88882" lon="145.35269000000002">
    <ele>442.92</ele>
   </trkpt>
   <trkpt lat="-37.88841" lon="145.35235">
    <ele>446.82000000000005</ele>
   </trkpt>
   <trkpt lat="-37.88812" lon="145.35205000000002">
    <ele>450.02000000000004</ele>
   </trkpt>
   <trkpt lat="-37.88783" lon="145.35185">
    <ele>451.95</ele>
   </trkpt>
   <trkpt lat="-37.88736" lon="145.35174">
    <ele>457.33</ele>
   </trkpt>
   <trkpt lat="-37.88687" lon="145.35166">
    <ele>464.11</ele>
   </trkpt>
   <trkpt lat="-37.886410000000005" lon="145.35162000000003">
    <ele>464.3</ele>
   </trkpt>
   <trkpt lat="-37.88617" lon="145.35155">
    <ele>465.3</ele>
   </trkpt>
   <trkpt lat="-37.88584" lon="145.35157">
    <ele>468.23</ele>
   </trkpt>
   <trkpt lat="-37.88552" lon="145.35153000000003">
    <ele>470.5</ele>
   </trkpt>
   <trkpt lat="-37.8853" lon="145.3514">
    <ele>471.37</ele>
   </trkpt>
   <trkpt lat="-37.88477" lon="145.35099000000002">
    <ele>470.69000000000005</ele>
   </trkpt>
   <trkpt lat="-37.884710000000005" lon="145.35090000000002">
    <ele>468.11</ele>
   </trkpt>
   <trkpt lat="-37.88461" lon="145.35066">
    <ele>469.78000000000003</ele>
   </trkpt>
   <trkpt lat="-37.88461" lon="145.35046">
    <ele>472.36000000000007</ele>
   </trkpt>
   <trkpt lat="-37.884640000000005" lon="145.35035000000002">
    <ele>473.49</ele>
   </trkpt>
   <trkpt lat="-37.88481" lon="145.35028">
    <ele>474.07000000000005</ele>
   </trkpt>
   <trkpt lat="-37.88503" lon="145.35021">
    <ele>475.91</ele>
   </trkpt>
   <trkpt lat="-37.88521" lon="145.35021">
    <ele>477.75000000000006</ele>
   </trkpt>
   <trkpt lat="-37.88537" lon="145.35015">
    <ele>478.91</ele>
   </trkpt>
   <trkpt lat="-37.88564" lon="145.34996">
    <ele>482.40000000000003</ele>
   </trkpt>
   <trkpt lat="-37.88568" lon="145.34986">
    <ele>482.79</ele>
   </trkpt>
   <trkpt lat="-37.88568" lon="145.34975">
    <ele>483.46000000000004</ele>
   </trkpt>
   <trkpt lat="-37.88561" lon="145.34938000000002">
    <ele>484.96000000000004</ele>
   </trkpt>
   <trkpt lat="-37.88561" lon="145.34911000000002">
    <ele>485.38</ele>
   </trkpt>
   <trkpt lat="-37.88555" lon="145.34883000000002">
    <ele>485.46000000000004</ele>
   </trkpt>
   <trkpt lat="-37.88548" lon="145.34823">
    <ele>486.47</ele>
   </trkpt>
   <trkpt lat="-37.8855" lon="145.34765000000002">
    <ele>488.46000000000004</ele>
   </trkpt>
   <trkpt lat="-37.88555" lon="145.34747000000002">
    <ele>488.74000000000007</ele>
   </trkpt>
   <trkpt lat="-37.88517" lon="145.34727">
    <ele>489.09000000000003</ele>
   </trkpt>
   <trkpt lat="-37.88492" lon="145.34708">
    <ele>490.61</ele>
   </trkpt>
   <trkpt lat="-37.88461" lon="145.34673">
    <ele>492.40000000000003</ele>
   </trkpt>
   <trkpt lat="-37.88454" lon="145.34662">
    <ele>492.91</ele>
   </trkpt>
   <trkpt lat="-37.88447" lon="145.34646">
    <ele>493.86</ele>
   </trkpt>
   <trkpt lat="-37.8842" lon="145.34558">
    <ele>503.56</ele>
   </trkpt>
   <trkpt lat="-37.88412" lon="145.34536">
    <ele>504.93</ele>
   </trkpt>
   <trkpt lat="-37.88396" lon="145.34514000000001">
    <ele>507.37</ele>
   </trkpt>
   <trkpt lat="-37.88389" lon="145.34507000000002">
    <ele>508.06000000000006</ele>
   </trkpt>
   <trkpt lat="-37.88349" lon="145.34484">
    <ele>510.49</ele>
   </trkpt>
   <trkpt lat="-37.883" lon="145.34471000000002">
    <ele>513.61</ele>
   </trkpt>
   <trkpt lat="-37.88275" lon="145.34470000000002">
    <ele>515.96</ele>
   </trkpt>
   <trkpt lat="-37.88228" lon="145.34477">
    <ele>519.8900000000001</ele>
   </trkpt>
   <trkpt lat="-37.881665000197465" lon="145.3446049986443">
    <ele>523.57</ele>
   </trkpt>
   <trkpt lat="-37.88105" lon="145.34444000000002">
    <ele>524.48</ele>
   </trkpt>
   <trkpt lat="-37.88069" lon="145.34425000000002">
    <ele>523.0100000000001</ele>
   </trkpt>
   <trkpt lat="-37.88016500044806" lon="145.34398499818735">
    <ele>516.4700000000001</ele>
   </trkpt>
   <trkpt lat="-37.87964" lon="145.34372000000002">
    <ele>509.11000000000007</ele>
   </trkpt>
   <trkpt lat="-37.87955" lon="145.34361">
    <ele>503.86000000000007</ele>
   </trkpt>
   <trkpt lat="-37.87937" lon="145.34337000000002">
    <ele>501.04</ele>
   </trkpt>
   <trkpt lat="-37.87924" lon="145.34312">
    <ele>499.6700000000001</ele>
   </trkpt>
   <trkpt lat="-37.87924" lon="145.34313">
    <ele>499.6700000000001</ele>
   </trkpt>
   <trkpt lat="-37.87917" lon="145.34300000000002">
    <ele>498.65000000000003</ele>
   </trkpt>
   <trkpt lat="-37.87901" lon="145.34286">
    <ele>495.34000000000003</ele>
   </trkpt>
   <trkpt lat="-37.87892" lon="145.34284000000002">
    <ele>495.34000000000003</ele>
   </trkpt>
   <trkpt lat="-37.87877" lon="145.34292000000002">
    <ele>494.03000000000003</ele>
   </trkpt>
   <trkpt lat="-37.87892" lon="145.34343">
    <ele>497.94000000000005</ele>
   </trkpt>
   <trkpt lat="-37.8791" lon="145.34417000000002">
    <ele>499.98</ele>
   </trkpt>
   <trkpt lat="-37.87919" lon="145.34452000000002">
    <ele>500.29</ele>
   </trkpt>
   <trkpt lat="-37.87914" lon="145.34452000000002">
    <ele>500.29</ele>
   </trkpt>
   <trkpt lat="-37.8789" lon="145.34474">
    <ele>491.77000000000004</ele>
   </trkpt>
   <trkpt lat="-37.87888" lon="145.34482">
    <ele>490.59000000000003</ele>
   </trkpt>
   <trkpt lat="-37.87876" lon="145.34495">
    <ele>489.07000000000005</ele>
   </trkpt>
   <trkpt lat="-37.87861" lon="145.34490000000002">
    <ele>490.66</ele>
   </trkpt>
   <trkpt lat="-37.87836" lon="145.34455">
    <ele>491.51000000000005</ele>
   </trkpt>
   <trkpt lat="-37.87827" lon="145.34451">
    <ele>491.84000000000003</ele>
   </trkpt>
   <trkpt lat="-37.87814" lon="145.34448">
    <ele>493.37</ele>
   </trkpt>
   <trkpt lat="-37.87807" lon="145.34451">
    <ele>494.24000000000007</ele>
   </trkpt>
   <trkpt lat="-37.87805" lon="145.34458">
    <ele>494.74</ele>
   </trkpt>
   <trkpt lat="-37.878040000000006" lon="145.34474">
    <ele>496.96000000000004</ele>
   </trkpt>
   <trkpt lat="-37.878" lon="145.34487000000001">
    <ele>497.99</ele>
   </trkpt>
   <trkpt lat="-37.877970000000005" lon="145.34491">
    <ele>497.99</ele>
   </trkpt>
   <trkpt lat="-37.877990000000004" lon="145.34489000000002">
    <ele>497.84000000000003</ele>
   </trkpt>
   <trkpt lat="-37.87794" lon="145.34497000000002">
    <ele>498.92</ele>
   </trkpt>
   <trkpt lat="-37.87767" lon="145.34526000000002">
    <ele>500.85</ele>
   </trkpt>
   <trkpt lat="-37.877570000000006" lon="145.34542000000002">
    <ele>501.56</ele>
   </trkpt>
   <trkpt lat="-37.87726" lon="145.34634">
    <ele>505.76</ele>
   </trkpt>
   <trkpt lat="-37.87702" lon="145.34689">
    <ele>509.75</ele>
   </trkpt>
   <trkpt lat="-37.87688" lon="145.34705000000002">
    <ele>514.03</ele>
   </trkpt>
   <trkpt lat="-37.876760000000004" lon="145.34722000000002">
    <ele>514.03</ele>
   </trkpt>
   <trkpt lat="-37.87726" lon="145.34721000000002">
    <ele>513.85</ele>
   </trkpt>
   <trkpt lat="-37.87758" lon="145.34729000000002">
    <ele>513.42</ele>
   </trkpt>
   <trkpt lat="-37.87776" lon="145.34745">
    <ele>512.5200000000001</ele>
   </trkpt>
   <trkpt lat="-37.87794" lon="145.34774000000002">
    <ele>511.18000000000006</ele>
   </trkpt>
   <trkpt lat="-37.878040000000006" lon="145.34804000000003">
    <ele>509.0300000000001</ele>
   </trkpt>
   <trkpt lat="-37.87825" lon="145.34847000000002">
    <ele>506.05</ele>
   </trkpt>
   <trkpt lat="-37.87847" lon="145.34895">
    <ele>503.07</ele>
   </trkpt>
   <trkpt lat="-37.878490000000006" lon="145.34901000000002">
    <ele>502.86000000000007</ele>
   </trkpt>
   <trkpt lat="-37.87848" lon="145.34895">
    <ele>502.9800000000001</ele>
   </trkpt>
   <trkpt lat="-37.87872" lon="145.34991000000002">
    <ele>501.43</ele>
   </trkpt>
   <trkpt lat="-37.87876" lon="145.35029">
    <ele>500.26000000000005</ele>
   </trkpt>
   <trkpt lat="-37.87859" lon="145.35132000000002">
    <ele>496.46000000000004</ele>
   </trkpt>
   <trkpt lat="-37.87841" lon="145.3519">
    <ele>494.75</ele>
   </trkpt>
   <trkpt lat="-37.87832" lon="145.35207000000003">
    <ele>494.47</ele>
   </trkpt>
   <trkpt lat="-37.87827" lon="145.35227">
    <ele>494.09000000000003</ele>
   </trkpt>
   <trkpt lat="-37.87816" lon="145.35258000000002">
    <ele>492.27000000000004</ele>
   </trkpt>
   <trkpt lat="-37.87782" lon="145.35314000000002">
    <ele>490.44000000000005</ele>
   </trkpt>
   <trkpt lat="-37.87773" lon="145.35335">
    <ele>489.50000000000006</ele>
   </trkpt>
   <trkpt lat="-37.877230000000004" lon="145.35415">
    <ele>485.54</ele>
   </trkpt>
   <trkpt lat="-37.87702" lon="145.35441">
    <ele>483.94000000000005</ele>
   </trkpt>
   <trkpt lat="-37.87684" lon="145.35466000000002">
    <ele>482.12000000000006</ele>
   </trkpt>
   <trkpt lat="-37.8767" lon="145.35494">
    <ele>479.49</ele>
   </trkpt>
   <trkpt lat="-37.87666" lon="145.35511000000002">
    <ele>476.11</ele>
   </trkpt>
   <trkpt lat="-37.87666" lon="145.35527000000002">
    <ele>475.45000000000005</ele>
   </trkpt>
   <trkpt lat="-37.87673" lon="145.35552">
    <ele>473.12</ele>
   </trkpt>
   <trkpt lat="-37.87691000121973" lon="145.35604999879845">
    <ele>474.0</ele>
   </trkpt>
   <trkpt lat="-37.87709" lon="145.35658">
    <ele>476.80000000000007</ele>
   </trkpt>
   <trkpt lat="-37.87729500116891" lon="145.35711499840252">
    <ele>479.18000000000006</ele>
   </trkpt>
   <trkpt lat="-37.877500000000005" lon="145.35765">
    <ele>481.21000000000004</ele>
   </trkpt>
   <trkpt lat="-37.8778" lon="145.35791">
    <ele>482.80000000000007</ele>
   </trkpt>
   <trkpt lat="-37.87798" lon="145.35797000000002">
    <ele>483.1</ele>
   </trkpt>
   <trkpt lat="-37.87818" lon="145.35801">
    <ele>484.11</ele>
   </trkpt>
   <trkpt lat="-37.878600000000006" lon="145.35829">
    <ele>485.39000000000004</ele>
   </trkpt>
   <trkpt lat="-37.87876" lon="145.35838">
    <ele>485.24000000000007</ele>
   </trkpt>
   <trkpt lat="-37.87919" lon="145.35846">
    <ele>482.68000000000006</ele>
   </trkpt>
   <trkpt lat="-37.87975" lon="145.35876000000002">
    <ele>480.71000000000004</ele>
   </trkpt>
   <trkpt lat="-37.87988" lon="145.35893000000002">
    <ele>481.44</ele>
   </trkpt>
   <trkpt lat="-37.88006" lon="145.35903000000002">
    <ele>481.95000000000005</ele>
   </trkpt>
   <trkpt lat="-37.8802" lon="145.35908">
    <ele>482.07000000000005</ele>
   </trkpt>
   <trkpt lat="-37.88033" lon="145.3591">
    <ele>481.94</ele>
   </trkpt>
   <trkpt lat="-37.88062" lon="145.35906">
    <ele>481.32</ele>
   </trkpt>
   <trkpt lat="-37.880680000000005" lon="145.35916">
    <ele>480.12000000000006</ele>
   </trkpt>
   <trkpt lat="-37.88082" lon="145.35912000000002">
    <ele>482.95000000000005</ele>
   </trkpt>
   <trkpt lat="-37.8811" lon="145.35928">
    <ele>487.84000000000003</ele>
   </trkpt>
   <trkpt lat="-37.88116" lon="145.35941000000003">
    <ele>487.12000000000006</ele>
   </trkpt>
   <trkpt lat="-37.88112" lon="145.35963">
    <ele>486.08</ele>
   </trkpt>
   <trkpt lat="-37.88163" lon="145.35975000000002">
    <ele>485.26</ele>
   </trkpt>
   <trkpt lat="-37.88208" lon="145.35974000000002">
    <ele>484.78000000000003</ele>
   </trkpt>
   <trkpt lat="-37.882490000000004" lon="145.35981">
    <ele>484.56000000000006</ele>
   </trkpt>
   <trkpt lat="-37.88297" lon="145.35958000000002">
    <ele>488.9100000000001</ele>
   </trkpt>
   <trkpt lat="-37.88347" lon="145.35923000000003">
    <ele>493.72</ele>
   </trkpt>
   <trkpt lat="-37.88371" lon="145.35887000000002">
    <ele>498.57</ele>
   </trkpt>
   <trkpt lat="-37.88391" lon="145.35863">
    <ele>502.2300000000001</ele>
   </trkpt>
   <trkpt lat="-37.88407" lon="145.35852">
    <ele>502.2300000000001</ele>
   </trkpt>
   <trkpt lat="-37.88441" lon="145.35840000000002">
    <ele>504.31</ele>
   </trkpt>
   <trkpt lat="-37.88456" lon="145.35838">
    <ele>504.31</ele>
   </trkpt>
   <trkpt lat="-37.88476" lon="145.35842000000002">
    <ele>505.2000000000001</ele>
   </trkpt>
   <trkpt lat="-37.88532" lon="145.35860000000002">
    <ele>508.07</ele>
   </trkpt>
   <trkpt lat="-37.885450000000006" lon="145.35868000000002">
    <ele>509.01000000000005</ele>
   </trkpt>
   <trkpt lat="-37.8858" lon="145.35913000000002">
    <ele>512.11</ele>
   </trkpt>
   <trkpt lat="-37.88591" lon="145.35922000000002">
    <ele>512.5200000000001</ele>
   </trkpt>
   <trkpt lat="-37.88595" lon="145.35933">
    <ele>512.59</ele>
   </trkpt>
   <trkpt lat="-37.88598" lon="145.35957000000002">
    <ele>512.6200000000001</ele>
   </trkpt>
   <trkpt lat="-37.886010000000006" lon="145.35957000000002">
    <ele>512.6200000000001</ele>
   </trkpt>
   <trkpt lat="-37.88598" lon="145.35957000000002">
    <ele>512.59</ele>
   </trkpt>
   <trkpt lat="-37.88595" lon="145.35933">
    <ele>512.5200000000001</ele>
   </trkpt>
   <trkpt lat="-37.88591" lon="145.35922000000002">
    <ele>512.39</ele>
   </trkpt>
   <trkpt lat="-37.8858" lon="145.35913000000002">
    <ele>512.11</ele>
   </trkpt>
   <trkpt lat="-37.88591" lon="145.35922000000002">
    <ele>512.5200000000001</ele>
   </trkpt>
   <trkpt lat="-37.88595" lon="145.35933">
    <ele>512.59</ele>
   </trkpt>
   <trkpt lat="-37.88598" lon="145.35957000000002">
    <ele>512.59</ele>
   </trkpt>
   <trkpt lat="-37.88573" lon="145.36033">
    <ele>510.11000000000007</ele>
   </trkpt>
   <trkpt lat="-37.88568" lon="145.36059">
    <ele>508.6</ele>
   </trkpt>
   <trkpt lat="-37.88555" lon="145.36100000000002">
    <ele>504.94000000000005</ele>
   </trkpt>
   <trkpt lat="-37.88537" lon="145.36136000000002">
    <ele>502.62000000000006</ele>
   </trkpt>
   <trkpt lat="-37.88514" lon="145.36202">
    <ele>498.91</ele>
   </trkpt>
   <trkpt lat="-37.88503" lon="145.36224">
    <ele>496.74</ele>
   </trkpt>
   <trkpt lat="-37.88496000000001" lon="145.36231">
    <ele>496.54</ele>
   </trkpt>
   <trkpt lat="-37.8851" lon="145.36238">
    <ele>496.22</ele>
   </trkpt>
   <trkpt lat="-37.88514" lon="145.36243000000002">
    <ele>495.77000000000004</ele>
   </trkpt>
   <trkpt lat="-37.88514" lon="145.36251000000001">
    <ele>495.77000000000004</ele>
   </trkpt>
   <trkpt lat="-37.8849" lon="145.36279000000002">
    <ele>490.57000000000005</ele>
   </trkpt>
   <trkpt lat="-37.88479" lon="145.36302">
    <ele>483.17</ele>
   </trkpt>
   <trkpt lat="-37.88474" lon="145.36315000000002">
    <ele>483.17</ele>
   </trkpt>
   <trkpt lat="-37.88472" lon="145.36334000000002">
    <ele>480.75000000000006</ele>
   </trkpt>
   <trkpt lat="-37.8847" lon="145.36339">
    <ele>480.13000000000005</ele>
   </trkpt>
   <trkpt lat="-37.88456" lon="145.3634">
    <ele>478.61</ele>
   </trkpt>
   <trkpt lat="-37.88449" lon="145.36339">
    <ele>477.34000000000003</ele>
   </trkpt>
   <trkpt lat="-37.88443" lon="145.36341000000002">
    <ele>476.5</ele>
   </trkpt>
   <trkpt lat="-37.884420000000006" lon="145.36347">
    <ele>475.54</ele>
   </trkpt>
   <trkpt lat="-37.88445" lon="145.36369000000002">
    <ele>468.13000000000005</ele>
   </trkpt>
   <trkpt lat="-37.88454" lon="145.36391">
    <ele>467.09000000000003</ele>
   </trkpt>
   <trkpt lat="-37.88454" lon="145.36393">
    <ele>467.09000000000003</ele>
   </trkpt>
   <trkpt lat="-37.88463" lon="145.36419">
    <ele>462.51000000000005</ele>
   </trkpt>
   <trkpt lat="-37.88476" lon="145.36443">
    <ele>458.81000000000006</ele>
   </trkpt>
   <trkpt lat="-37.88479" lon="145.36451000000002">
    <ele>456.92</ele>
   </trkpt>
   <trkpt lat="-37.88476" lon="145.36459000000002">
    <ele>456.92</ele>
   </trkpt>
   <trkpt lat="-37.88483" lon="145.36484000000002">
    <ele>451.03000000000003</ele>
   </trkpt>
   <trkpt lat="-37.88494" lon="145.36503000000002">
    <ele>449.32000000000005</ele>
   </trkpt>
   <trkpt lat="-37.88499" lon="145.36505000000002">
    <ele>449.24</ele>
   </trkpt>
   <trkpt lat="-37.88517" lon="145.36524">
    <ele>447.33000000000004</ele>
   </trkpt>
   <trkpt lat="-37.88519" lon="145.36531000000002">
    <ele>446.48</ele>
   </trkpt>
   <trkpt lat="-37.885360000000006" lon="145.36547000000002">
    <ele>440.53000000000003</ele>
   </trkpt>
   <trkpt lat="-37.88539" lon="145.36557000000002">
    <ele>439.59000000000003</ele>
   </trkpt>
   <trkpt lat="-37.88546" lon="145.36561">
    <ele>439.59000000000003</ele>
   </trkpt>
   <trkpt lat="-37.88548" lon="145.36577">
    <ele>436.00000000000006</ele>
   </trkpt>
   <trkpt lat="-37.88546" lon="145.36592000000002">
    <ele>432.61</ele>
   </trkpt>
   <trkpt lat="-37.885270000000006" lon="145.36607">
    <ele>427.74</ele>
   </trkpt>
   <trkpt lat="-37.884980000000006" lon="145.36612000000002">
    <ele>423.1</ele>
   </trkpt>
   <trkpt lat="-37.88474" lon="145.36611000000002">
    <ele>419.34000000000003</ele>
   </trkpt>
   <trkpt lat="-37.88463" lon="145.36617">
    <ele>417.57000000000005</ele>
   </trkpt>
   <trkpt lat="-37.88458" lon="145.36623">
    <ele>415.55</ele>
   </trkpt>
   <trkpt lat="-37.88461" lon="145.36635">
    <ele>411.25000000000006</ele>
   </trkpt>
   <trkpt lat="-37.88465" lon="145.36642">
    <ele>411.25000000000006</ele>
   </trkpt>
   <trkpt lat="-37.88465" lon="145.36651">
    <ele>411.25000000000006</ele>
   </trkpt>
   <trkpt lat="-37.8847" lon="145.36657000000002">
    <ele>407.95000000000005</ele>
   </trkpt>
   <trkpt lat="-37.8847" lon="145.36672000000002">
    <ele>405.65</ele>
   </trkpt>
   <trkpt lat="-37.88481" lon="145.36711000000003">
    <ele>397.28000000000003</ele>
   </trkpt>
   <trkpt lat="-37.88499" lon="145.36737000000002">
    <ele>389.96000000000004</ele>
   </trkpt>
   <trkpt lat="-37.88517" lon="145.36757">
    <ele>384.8</ele>
   </trkpt>
   <trkpt lat="-37.8855" lon="145.36785">
    <ele>378.40000000000003</ele>
   </trkpt>
   <trkpt lat="-37.88564" lon="145.36801">
    <ele>372.56000000000006</ele>
   </trkpt>
   <trkpt lat="-37.88602" lon="145.36834000000002">
    <ele>362.2</ele>
   </trkpt>
   <trkpt lat="-37.886100000000006" lon="145.36837">
    <ele>360.08</ele>
   </trkpt>
   <trkpt lat="-37.88611" lon="145.36851000000001">
    <ele>360.02</ele>
   </trkpt>
   <trkpt lat="-37.88642" lon="145.36872000000002">
    <ele>364.00000000000006</ele>
   </trkpt>
   <trkpt lat="-37.88667" lon="145.36906000000002">
    <ele>367.16</ele>
   </trkpt>
   <trkpt lat="-37.88736" lon="145.36978000000002">
    <ele>353.19</ele>
   </trkpt>
   <trkpt lat="-37.88743" lon="145.36973">
    <ele>352.90000000000003</ele>
   </trkpt>
   <trkpt lat="-37.88749" lon="145.36999">
    <ele>362.13</ele>
   </trkpt>
   <trkpt lat="-37.887550000000005" lon="145.36996000000002">
    <ele>359.39000000000004</ele>
   </trkpt>
   <trkpt lat="-37.88754" lon="145.3699">
    <ele>359.27000000000004</ele>
   </trkpt>
   <trkpt lat="-37.88765" lon="145.36973">
    <ele>359.04</ele>
   </trkpt>
   <trkpt lat="-37.88768" lon="145.36970000000002">
    <ele>359.04</ele>
   </trkpt>
  </trkseg>
 </trk>
</gpx>
