<?xml version="1.0" encoding="UTF-8"?>
<gpx creator="StravaGPX" version="1.1" xmlns="http://www.topografix.com/GPX/1/1" xmlns:xsi="http://www.w3.org/2001/XMLSchema-instance" xsi:schemaLocation="http://www.topografix.com/GPX/1/1 http://www.topografix.com/GPX/1/1/gpx.xsd">
 <metadata>
  <name>DTR 20Sep 20km </name>
  <author>
   <name>Richard Jones</name>
   <link href="https://www.strava.com/athletes/38085969"/>
  </author>
  <copyright author="OpenStreetMap contributors">
   <year>2020</year>
   <license>https://www.openstreetmap.org/copyright</license>
  </copyright>
  <link href="https://www.strava.com/routes/3535834894901015920"/>
 </metadata>
 <trk>
  <name>DTR 20Sep 20km </name>
  <link href="https://www.strava.com/routes/3535834894901015920"/>
  <type>trail_running</type>
  <trkseg>
   <trkpt lat="-37.85186" lon="145.36849">
    <ele>566.59</ele>
   </trkpt>
   <trkpt lat="-37.851760000000006" lon="145.36859">
    <ele>565.22</ele>
   </trkpt>
   <trkpt lat="-37.85159" lon="145.36880000000002">
    <ele>563.7500000000001</ele>
   </trkpt>
   <trkpt lat="-37.85105" lon="145.36917000000003">
    <ele>561.83</ele>
   </trkpt>
   <trkpt lat="-37.85072" lon="145.36927">
    <ele>560.25</ele>
   </trkpt>
   <trkpt lat="-37.850370000000005" lon="145.36927">
    <ele>557.7500000000001</ele>
   </trkpt>
   <trkpt lat="-37.84972600368085" lon="145.3688019836328">
    <ele>550.28</ele>
   </trkpt>
   <trkpt lat="-37.84908200550947" lon="145.36833397544098">
    <ele>540.1400000000001</ele>
   </trkpt>
   <trkpt lat="-37.84843800548594" lon="145.36786597542425">
    <ele>534.84</ele>
   </trkpt>
   <trkpt lat="-37.84779400361036" lon="145.36739798358232">
    <ele>534.2800000000001</ele>
   </trkpt>
   <trkpt lat="-37.847150000000006" lon="145.36693000000002">
    <ele>533.0100000000001</ele>
   </trkpt>
   <trkpt lat="-37.847150000000006" lon="145.36692000000002">
    <ele>532.98</ele>
   </trkpt>
   <trkpt lat="-37.84709" lon="145.36679">
    <ele>531.8900000000001</ele>
   </trkpt>
   <trkpt lat="-37.84700000200787" lon="145.36609499888638">
    <ele>527.25</ele>
   </trkpt>
   <trkpt lat="-37.84691" lon="145.36540000000002">
    <ele>518.02</ele>
   </trkpt>
   <trkpt lat="-37.84693" lon="145.36513000000002">
    <ele>513.5500000000001</ele>
   </trkpt>
   <trkpt lat="-37.84687" lon="145.36482">
    <ele>510.0</ele>
   </trkpt>
   <trkpt lat="-37.84678000163085" lon="145.36420499946612">
    <ele>498.94000000000005</ele>
   </trkpt>
   <trkpt lat="-37.84669" lon="145.36359000000002">
    <ele>487.30000000000007</ele>
   </trkpt>
   <trkpt lat="-37.84655000177262" lon="145.36294499883846">
    <ele>487.31</ele>
   </trkpt>
   <trkpt lat="-37.846410000000006" lon="145.3623">
    <ele>500.37000000000006</ele>
   </trkpt>
   <trkpt lat="-37.84630000000001" lon="145.3617">
    <ele>508.27</ele>
   </trkpt>
   <trkpt lat="-37.84619" lon="145.36064000000002">
    <ele>512.38</ele>
   </trkpt>
   <trkpt lat="-37.84655" lon="145.36054000000001">
    <ele>512.14</ele>
   </trkpt>
   <trkpt lat="-37.84682" lon="145.36052">
    <ele>511.99000000000007</ele>
   </trkpt>
   <trkpt lat="-37.84698" lon="145.36054000000001">
    <ele>511.82000000000005</ele>
   </trkpt>
   <trkpt lat="-37.84707" lon="145.3604">
    <ele>512.2500000000001</ele>
   </trkpt>
   <trkpt lat="-37.84713" lon="145.36037000000002">
    <ele>512.2500000000001</ele>
   </trkpt>
   <trkpt lat="-37.84738" lon="145.36030000000002">
    <ele>512.17</ele>
   </trkpt>
   <trkpt lat="-37.84725" lon="145.35972">
    <ele>514.9100000000001</ele>
   </trkpt>
   <trkpt lat="-37.84732" lon="145.35972">
    <ele>516.09</ele>
   </trkpt>
   <trkpt lat="-37.84709" lon="145.35882">
    <ele>518.9100000000001</ele>
   </trkpt>
   <trkpt lat="-37.84695" lon="145.35840000000002">
    <ele>517.24</ele>
   </trkpt>
   <trkpt lat="-37.84664" lon="145.35795000000002">
    <ele>512.9</ele>
   </trkpt>
   <trkpt lat="-37.846540000000005" lon="145.35771000000003">
    <ele>510.70000000000005</ele>
   </trkpt>
   <trkpt lat="-37.84644" lon="145.35760000000002">
    <ele>510.45000000000005</ele>
   </trkpt>
   <trkpt lat="-37.846360000000004" lon="145.35734000000002">
    <ele>509.58000000000004</ele>
   </trkpt>
   <trkpt lat="-37.846006670389734" lon="145.35667666031446">
    <ele>509.87000000000006</ele>
   </trkpt>
   <trkpt lat="-37.84565333705871" lon="145.35601332698553">
    <ele>511.0300000000001</ele>
   </trkpt>
   <trkpt lat="-37.8453" lon="145.35535000000002">
    <ele>511.62000000000006</ele>
   </trkpt>
   <trkpt lat="-37.845220000000005" lon="145.35526000000002">
    <ele>512.0100000000001</ele>
   </trkpt>
   <trkpt lat="-37.845180000000006" lon="145.35529000000002">
    <ele>512.15</ele>
   </trkpt>
   <trkpt lat="-37.84514" lon="145.35531">
    <ele>512.15</ele>
   </trkpt>
   <trkpt lat="-37.8446" lon="145.35533">
    <ele>515.0100000000001</ele>
   </trkpt>
   <trkpt lat="-37.84467" lon="145.35559">
    <ele>515.0</ele>
   </trkpt>
   <trkpt lat="-37.84406666889865" lon="145.35610334172927">
    <ele>523.25</ele>
   </trkpt>
   <trkpt lat="-37.84346333556906" lon="145.35661667505929">
    <ele>527.1800000000001</ele>
   </trkpt>
   <trkpt lat="-37.84286" lon="145.35713">
    <ele>522.99</ele>
   </trkpt>
   <trkpt lat="-37.842740000000006" lon="145.35716000000002">
    <ele>521.82</ele>
   </trkpt>
   <trkpt lat="-37.84257" lon="145.35696000000002">
    <ele>519.49</ele>
   </trkpt>
   <trkpt lat="-37.84246" lon="145.35690000000002">
    <ele>519.49</ele>
   </trkpt>
   <trkpt lat="-37.84158" lon="145.35688000000002">
    <ele>516.1999999999999</ele>
   </trkpt>
   <trkpt lat="-37.84147" lon="145.35690000000002">
    <ele>516.4000000000001</ele>
   </trkpt>
   <trkpt lat="-37.84136" lon="145.35671000000002">
    <ele>517.33</ele>
   </trkpt>
   <trkpt lat="-37.84116" lon="145.35615">
    <ele>519.75</ele>
   </trkpt>
   <trkpt lat="-37.84107" lon="145.35589000000002">
    <ele>520.6</ele>
   </trkpt>
   <trkpt lat="-37.84089" lon="145.35552">
    <ele>522.9200000000001</ele>
   </trkpt>
   <trkpt lat="-37.8408" lon="145.35539">
    <ele>523.7400000000001</ele>
   </trkpt>
   <trkpt lat="-37.84069" lon="145.35527000000002">
    <ele>524.2600000000001</ele>
   </trkpt>
   <trkpt lat="-37.83997" lon="145.35490000000001">
    <ele>529.7700000000001</ele>
   </trkpt>
   <trkpt lat="-37.839560000000006" lon="145.35476">
    <ele>532.2800000000001</ele>
   </trkpt>
   <trkpt lat="-37.83939" lon="145.35484000000002">
    <ele>532.35</ele>
   </trkpt>
   <trkpt lat="-37.83876" lon="145.35527000000002">
    <ele>525.19</ele>
   </trkpt>
   <trkpt lat="-37.8386" lon="145.35541">
    <ele>523.94</ele>
   </trkpt>
   <trkpt lat="-37.838530000000006" lon="145.35543">
    <ele>523.58</ele>
   </trkpt>
   <trkpt lat="-37.83829" lon="145.35543">
    <ele>523.7</ele>
   </trkpt>
   <trkpt lat="-37.83805" lon="145.35538000000003">
    <ele>525.8000000000001</ele>
   </trkpt>
   <trkpt lat="-37.8378" lon="145.35539">
    <ele>526.7</ele>
   </trkpt>
   <trkpt lat="-37.83717" lon="145.35562000000002">
    <ele>526.0799999999999</ele>
   </trkpt>
   <trkpt lat="-37.83677" lon="145.3565">
    <ele>515.07</ele>
   </trkpt>
   <trkpt lat="-37.83594" lon="145.35689000000002">
    <ele>516.1999999999999</ele>
   </trkpt>
   <trkpt lat="-37.83576" lon="145.35691">
    <ele>516.38</ele>
   </trkpt>
   <trkpt lat="-37.83567" lon="145.35696000000002">
    <ele>516.78</ele>
   </trkpt>
   <trkpt lat="-37.83545" lon="145.35711">
    <ele>515.11</ele>
   </trkpt>
   <trkpt lat="-37.8352" lon="145.35738">
    <ele>511.65999999999997</ele>
   </trkpt>
   <trkpt lat="-37.83498" lon="145.35755">
    <ele>507.72</ele>
   </trkpt>
   <trkpt lat="-37.83484" lon="145.35758">
    <ele>507.72</ele>
   </trkpt>
   <trkpt lat="-37.8348" lon="145.35757">
    <ele>506.4200000000001</ele>
   </trkpt>
   <trkpt lat="-37.83478" lon="145.35753000000003">
    <ele>506.4200000000001</ele>
   </trkpt>
   <trkpt lat="-37.83473" lon="145.35742000000002">
    <ele>505.2000000000001</ele>
   </trkpt>
   <trkpt lat="-37.83434000053454" lon="145.3570849982807">
    <ele>501.92</ele>
   </trkpt>
   <trkpt lat="-37.83395" lon="145.35675">
    <ele>499.42</ele>
   </trkpt>
   <trkpt lat="-37.83381" lon="145.35676">
    <ele>499.07</ele>
   </trkpt>
   <trkpt lat="-37.8337" lon="145.35686">
    <ele>498.76000000000005</ele>
   </trkpt>
   <trkpt lat="-37.83364" lon="145.35705000000002">
    <ele>498.69</ele>
   </trkpt>
   <trkpt lat="-37.83348" lon="145.35719">
    <ele>499.06000000000006</ele>
   </trkpt>
   <trkpt lat="-37.83319" lon="145.35757">
    <ele>502.53999999999996</ele>
   </trkpt>
   <trkpt lat="-37.83276" lon="145.35837">
    <ele>508.06000000000006</ele>
   </trkpt>
   <trkpt lat="-37.83258" lon="145.35876000000002">
    <ele>511.78000000000003</ele>
   </trkpt>
   <trkpt lat="-37.83249" lon="145.35882">
    <ele>512.6400000000001</ele>
   </trkpt>
   <trkpt lat="-37.83211" lon="145.35886000000002">
    <ele>514.14</ele>
   </trkpt>
   <trkpt lat="-37.83187" lon="145.35897">
    <ele>514.94</ele>
   </trkpt>
   <trkpt lat="-37.83166000000001" lon="145.35913000000002">
    <ele>516.5200000000001</ele>
   </trkpt>
   <trkpt lat="-37.83165" lon="145.35913000000002">
    <ele>516.5200000000001</ele>
   </trkpt>
   <trkpt lat="-37.83155" lon="145.35931000000002">
    <ele>517.6</ele>
   </trkpt>
   <trkpt lat="-37.83153" lon="145.35956000000002">
    <ele>518.27</ele>
   </trkpt>
   <trkpt lat="-37.8316" lon="145.35969">
    <ele>520.7700000000001</ele>
   </trkpt>
   <trkpt lat="-37.83178" lon="145.35983000000002">
    <ele>521.7700000000001</ele>
   </trkpt>
   <trkpt lat="-37.83182" lon="145.35993000000002">
    <ele>522.2900000000001</ele>
   </trkpt>
   <trkpt lat="-37.83178" lon="145.36006">
    <ele>522.71</ele>
   </trkpt>
   <trkpt lat="-37.83158" lon="145.36038000000002">
    <ele>522.15</ele>
   </trkpt>
   <trkpt lat="-37.83135" lon="145.36093000000002">
    <ele>521.6700000000001</ele>
   </trkpt>
   <trkpt lat="-37.831100000000006" lon="145.36174000000003">
    <ele>519.8000000000001</ele>
   </trkpt>
   <trkpt lat="-37.83104" lon="145.3617">
    <ele>517.05</ele>
   </trkpt>
   <trkpt lat="-37.830980000000004" lon="145.36181000000002">
    <ele>519.25</ele>
   </trkpt>
   <trkpt lat="-37.830310000000004" lon="145.36164000000002">
    <ele>516.88</ele>
   </trkpt>
   <trkpt lat="-37.83001" lon="145.36154000000002">
    <ele>515.93</ele>
   </trkpt>
   <trkpt lat="-37.82994" lon="145.36149">
    <ele>512.57</ele>
   </trkpt>
   <trkpt lat="-37.82968" lon="145.36117000000002">
    <ele>511.25000000000006</ele>
   </trkpt>
   <trkpt lat="-37.82958" lon="145.36103">
    <ele>511.2300000000001</ele>
   </trkpt>
   <trkpt lat="-37.82936" lon="145.36065000000002">
    <ele>510.13000000000005</ele>
   </trkpt>
   <trkpt lat="-37.82927" lon="145.36059">
    <ele>509.21999999999997</ele>
   </trkpt>
   <trkpt lat="-37.82918" lon="145.36062">
    <ele>508.07</ele>
   </trkpt>
   <trkpt lat="-37.82911" lon="145.36081000000001">
    <ele>506.14000000000004</ele>
   </trkpt>
   <trkpt lat="-37.829" lon="145.36149">
    <ele>499.15000000000003</ele>
   </trkpt>
   <trkpt lat="-37.82896" lon="145.36196">
    <ele>495.42</ele>
   </trkpt>
   <trkpt lat="-37.829" lon="145.36242000000001">
    <ele>491.87</ele>
   </trkpt>
   <trkpt lat="-37.82911" lon="145.36268">
    <ele>490.77000000000004</ele>
   </trkpt>
   <trkpt lat="-37.82893" lon="145.36302">
    <ele>486.89000000000004</ele>
   </trkpt>
   <trkpt lat="-37.82883" lon="145.36302">
    <ele>491.42</ele>
   </trkpt>
   <trkpt lat="-37.82882" lon="145.36297000000002">
    <ele>492.88000000000005</ele>
   </trkpt>
   <trkpt lat="-37.82894" lon="145.36309">
    <ele>498.6</ele>
   </trkpt>
   <trkpt lat="-37.82916" lon="145.36327">
    <ele>497.58</ele>
   </trkpt>
   <trkpt lat="-37.82925" lon="145.36343000000002">
    <ele>497.71000000000004</ele>
   </trkpt>
   <trkpt lat="-37.82932" lon="145.36349">
    <ele>497.84000000000003</ele>
   </trkpt>
   <trkpt lat="-37.82938" lon="145.36346">
    <ele>497.84000000000003</ele>
   </trkpt>
   <trkpt lat="-37.82943" lon="145.36349">
    <ele>498.85</ele>
   </trkpt>
   <trkpt lat="-37.82938" lon="145.36354">
    <ele>498.3</ele>
   </trkpt>
   <trkpt lat="-37.82967" lon="145.3639">
    <ele>496.56000000000006</ele>
   </trkpt>
   <trkpt lat="-37.83028" lon="145.36438">
    <ele>494.00000000000006</ele>
   </trkpt>
   <trkpt lat="-37.83028" lon="145.36444">
    <ele>494.00000000000006</ele>
   </trkpt>
   <trkpt lat="-37.83032" lon="145.36453">
    <ele>494.12000000000006</ele>
   </trkpt>
   <trkpt lat="-37.8305" lon="145.36457000000001">
    <ele>494.33000000000004</ele>
   </trkpt>
   <trkpt lat="-37.83062" lon="145.36463">
    <ele>494.36</ele>
   </trkpt>
   <trkpt lat="-37.83113" lon="145.36483">
    <ele>493.81</ele>
   </trkpt>
   <trkpt lat="-37.83124" lon="145.36485000000002">
    <ele>493.01000000000005</ele>
   </trkpt>
   <trkpt lat="-37.831480000000006" lon="145.365">
    <ele>489.3</ele>
   </trkpt>
   <trkpt lat="-37.83164" lon="145.365">
    <ele>488.53000000000003</ele>
   </trkpt>
   <trkpt lat="-37.83196" lon="145.36511000000002">
    <ele>485.17</ele>
   </trkpt>
   <trkpt lat="-37.83207" lon="145.36518">
    <ele>483.65000000000003</ele>
   </trkpt>
   <trkpt lat="-37.83209" lon="145.36526">
    <ele>480.94</ele>
   </trkpt>
   <trkpt lat="-37.8322" lon="145.36537">
    <ele>478.81</ele>
   </trkpt>
   <trkpt lat="-37.832240000000006" lon="145.36546">
    <ele>477.26</ele>
   </trkpt>
   <trkpt lat="-37.8322" lon="145.36557000000002">
    <ele>476.93</ele>
   </trkpt>
   <trkpt lat="-37.83229" lon="145.3656">
    <ele>475.63000000000005</ele>
   </trkpt>
   <trkpt lat="-37.83234" lon="145.36567000000002">
    <ele>473.51000000000005</ele>
   </trkpt>
   <trkpt lat="-37.83252" lon="145.36566000000002">
    <ele>471.69000000000005</ele>
   </trkpt>
   <trkpt lat="-37.83263" lon="145.36575000000002">
    <ele>470.88</ele>
   </trkpt>
   <trkpt lat="-37.83268" lon="145.36575000000002">
    <ele>470.88</ele>
   </trkpt>
   <trkpt lat="-37.83269000000001" lon="145.36567000000002">
    <ele>468.59000000000003</ele>
   </trkpt>
   <trkpt lat="-37.83272" lon="145.36565000000002">
    <ele>468.59000000000003</ele>
   </trkpt>
   <trkpt lat="-37.833000000000006" lon="145.36563">
    <ele>462.39</ele>
   </trkpt>
   <trkpt lat="-37.833020000000005" lon="145.36566000000002">
    <ele>462.39</ele>
   </trkpt>
   <trkpt lat="-37.83346" lon="145.36599">
    <ele>456.04</ele>
   </trkpt>
   <trkpt lat="-37.83372" lon="145.36615">
    <ele>452.84000000000003</ele>
   </trkpt>
   <trkpt lat="-37.83428" lon="145.3666">
    <ele>443.12</ele>
   </trkpt>
   <trkpt lat="-37.8344" lon="145.36679">
    <ele>440.99000000000007</ele>
   </trkpt>
   <trkpt lat="-37.83469" lon="145.36711000000003">
    <ele>435.43</ele>
   </trkpt>
   <trkpt lat="-37.83482" lon="145.36722">
    <ele>433.71000000000004</ele>
   </trkpt>
   <trkpt lat="-37.83509" lon="145.3673">
    <ele>428.74</ele>
   </trkpt>
   <trkpt lat="-37.835190000000004" lon="145.36743">
    <ele>427.67</ele>
   </trkpt>
   <trkpt lat="-37.83527" lon="145.36759">
    <ele>426.74</ele>
   </trkpt>
   <trkpt lat="-37.83536" lon="145.3684">
    <ele>427.6</ele>
   </trkpt>
   <trkpt lat="-37.83547" lon="145.36883">
    <ele>426.65000000000003</ele>
   </trkpt>
   <trkpt lat="-37.83558" lon="145.36916000000002">
    <ele>425.34000000000003</ele>
   </trkpt>
   <trkpt lat="-37.83572" lon="145.36931">
    <ele>421.64</ele>
   </trkpt>
   <trkpt lat="-37.83583" lon="145.36949">
    <ele>419.83000000000004</ele>
   </trkpt>
   <trkpt lat="-37.83583" lon="145.36973">
    <ele>419.40000000000003</ele>
   </trkpt>
   <trkpt lat="-37.83578" lon="145.37018">
    <ele>416.80000000000007</ele>
   </trkpt>
   <trkpt lat="-37.83576" lon="145.37064">
    <ele>410.61</ele>
   </trkpt>
   <trkpt lat="-37.83574" lon="145.37077000000002">
    <ele>409.74000000000007</ele>
   </trkpt>
   <trkpt lat="-37.8353700019093" lon="145.37141000290262">
    <ele>405.88</ele>
   </trkpt>
   <trkpt lat="-37.835" lon="145.37205">
    <ele>405.87</ele>
   </trkpt>
   <trkpt lat="-37.83491" lon="145.37243">
    <ele>407.58000000000004</ele>
   </trkpt>
   <trkpt lat="-37.83491" lon="145.37251">
    <ele>408.13000000000005</ele>
   </trkpt>
   <trkpt lat="-37.835" lon="145.37262">
    <ele>406.75000000000006</ele>
   </trkpt>
   <trkpt lat="-37.83525" lon="145.37281000000002">
    <ele>402.86000000000007</ele>
   </trkpt>
   <trkpt lat="-37.83529" lon="145.37287">
    <ele>402.58000000000004</ele>
   </trkpt>
   <trkpt lat="-37.83534" lon="145.37307">
    <ele>402.38</ele>
   </trkpt>
   <trkpt lat="-37.83534" lon="145.37347000000003">
    <ele>398.15000000000003</ele>
   </trkpt>
   <trkpt lat="-37.83534" lon="145.37345000000002">
    <ele>398.37000000000006</ele>
   </trkpt>
   <trkpt lat="-37.8352" lon="145.37391000000002">
    <ele>387.87000000000006</ele>
   </trkpt>
   <trkpt lat="-37.83516" lon="145.37397">
    <ele>387.11</ele>
   </trkpt>
   <trkpt lat="-37.835060000000006" lon="145.37404">
    <ele>384.77000000000004</ele>
   </trkpt>
   <trkpt lat="-37.83478" lon="145.37412">
    <ele>380.14000000000004</ele>
   </trkpt>
   <trkpt lat="-37.83442" lon="145.37417000000002">
    <ele>372.36</ele>
   </trkpt>
   <trkpt lat="-37.83413" lon="145.37428">
    <ele>361.76</ele>
   </trkpt>
   <trkpt lat="-37.83379" lon="145.3745">
    <ele>350.52000000000004</ele>
   </trkpt>
   <trkpt lat="-37.8337" lon="145.37454000000002">
    <ele>348.23</ele>
   </trkpt>
   <trkpt lat="-37.83357" lon="145.37456">
    <ele>345.85</ele>
   </trkpt>
   <trkpt lat="-37.83328" lon="145.37453000000002">
    <ele>342.82</ele>
   </trkpt>
   <trkpt lat="-37.83283" lon="145.37455">
    <ele>334.21</ele>
   </trkpt>
   <trkpt lat="-37.83261" lon="145.37459">
    <ele>331.75000000000006</ele>
   </trkpt>
   <trkpt lat="-37.83238" lon="145.37460000000002">
    <ele>328.22</ele>
   </trkpt>
   <trkpt lat="-37.83209" lon="145.37465">
    <ele>326.6</ele>
   </trkpt>
   <trkpt lat="-37.8316" lon="145.37477">
    <ele>325.83</ele>
   </trkpt>
   <trkpt lat="-37.83142" lon="145.37479000000002">
    <ele>324.93000000000006</ele>
   </trkpt>
   <trkpt lat="-37.83099" lon="145.37507000000002">
    <ele>318.62</ele>
   </trkpt>
   <trkpt lat="-37.8305" lon="145.3753">
    <ele>311.87</ele>
   </trkpt>
   <trkpt lat="-37.83019" lon="145.37534000000002">
    <ele>308.6</ele>
   </trkpt>
   <trkpt lat="-37.8299" lon="145.37518">
    <ele>306.31</ele>
   </trkpt>
   <trkpt lat="-37.8297" lon="145.37526000000003">
    <ele>303.33000000000004</ele>
   </trkpt>
   <trkpt lat="-37.82947" lon="145.37548">
    <ele>300.98</ele>
   </trkpt>
   <trkpt lat="-37.82934" lon="145.37553">
    <ele>300.12</ele>
   </trkpt>
   <trkpt lat="-37.82903" lon="145.37557">
    <ele>297.88000000000005</ele>
   </trkpt>
   <trkpt lat="-37.82898" lon="145.37562">
    <ele>297.88000000000005</ele>
   </trkpt>
   <trkpt lat="-37.82884" lon="145.37587000000002">
    <ele>289.73</ele>
   </trkpt>
   <trkpt lat="-37.82876" lon="145.37608">
    <ele>283.6</ele>
   </trkpt>
   <trkpt lat="-37.828880000000005" lon="145.37612000000001">
    <ele>283.48</ele>
   </trkpt>
   <trkpt lat="-37.82893" lon="145.37623000000002">
    <ele>282.93</ele>
   </trkpt>
   <trkpt lat="-37.82893" lon="145.37641000000002">
    <ele>282.69</ele>
   </trkpt>
   <trkpt lat="-37.82887" lon="145.37672">
    <ele>282.16</ele>
   </trkpt>
   <trkpt lat="-37.82873" lon="145.37708">
    <ele>281.11</ele>
   </trkpt>
   <trkpt lat="-37.8286" lon="145.37732000000003">
    <ele>279.83000000000004</ele>
   </trkpt>
   <trkpt lat="-37.82824" lon="145.37775000000002">
    <ele>274.40000000000003</ele>
   </trkpt>
   <trkpt lat="-37.82769000122411" lon="145.37825000357466">
    <ele>268.82</ele>
   </trkpt>
   <trkpt lat="-37.82714" lon="145.37875000000003">
    <ele>264.33</ele>
   </trkpt>
   <trkpt lat="-37.82679" lon="145.37919000000002">
    <ele>262.47</ele>
   </trkpt>
   <trkpt lat="-37.82661" lon="145.37966">
    <ele>260.49</ele>
   </trkpt>
   <trkpt lat="-37.82652" lon="145.38021">
    <ele>257.12</ele>
   </trkpt>
   <trkpt lat="-37.82654" lon="145.38103">
    <ele>253.82000000000005</ele>
   </trkpt>
   <trkpt lat="-37.82652" lon="145.38128">
    <ele>253.82000000000005</ele>
   </trkpt>
   <trkpt lat="-37.82643" lon="145.38152000000002">
    <ele>252.60999999999999</ele>
   </trkpt>
   <trkpt lat="-37.82629" lon="145.38177000000002">
    <ele>251.01000000000002</ele>
   </trkpt>
   <trkpt lat="-37.82629" lon="145.38195000000002">
    <ele>250.64000000000001</ele>
   </trkpt>
   <trkpt lat="-37.82636" lon="145.38215000000002">
    <ele>250.14000000000001</ele>
   </trkpt>
   <trkpt lat="-37.82699" lon="145.38222000000002">
    <ele>249.86</ele>
   </trkpt>
   <trkpt lat="-37.82719" lon="145.38226">
    <ele>249.92000000000002</ele>
   </trkpt>
   <trkpt lat="-37.82741" lon="145.38234">
    <ele>249.9</ele>
   </trkpt>
   <trkpt lat="-37.827920000000006" lon="145.38285000000002">
    <ele>249.55</ele>
   </trkpt>
   <trkpt lat="-37.82808" lon="145.38298">
    <ele>249.04</ele>
   </trkpt>
   <trkpt lat="-37.82817" lon="145.38315">
    <ele>248.76</ele>
   </trkpt>
   <trkpt lat="-37.82822" lon="145.38331000000002">
    <ele>248.8</ele>
   </trkpt>
   <trkpt lat="-37.82829" lon="145.3837">
    <ele>249.77</ele>
   </trkpt>
   <trkpt lat="-37.82829" lon="145.38435">
    <ele>250.98000000000002</ele>
   </trkpt>
   <trkpt lat="-37.82831" lon="145.38457000000002">
    <ele>251.0</ele>
   </trkpt>
   <trkpt lat="-37.82849" lon="145.38482000000002">
    <ele>251.02</ele>
   </trkpt>
   <trkpt lat="-37.82887" lon="145.38559">
    <ele>252.81000000000003</ele>
   </trkpt>
   <trkpt lat="-37.82898" lon="145.38607000000002">
    <ele>253.82999999999998</ele>
   </trkpt>
   <trkpt lat="-37.82931" lon="145.38711">
    <ele>256.86</ele>
   </trkpt>
   <trkpt lat="-37.82938" lon="145.38762">
    <ele>257.06</ele>
   </trkpt>
   <trkpt lat="-37.82938000674723" lon="145.388513333375">
    <ele>257.5</ele>
   </trkpt>
   <trkpt lat="-37.82938000674723" lon="145.3894066667501">
    <ele>258.03000000000003</ele>
   </trkpt>
   <trkpt lat="-37.82938" lon="145.39030000000002">
    <ele>257.61</ele>
   </trkpt>
   <trkpt lat="-37.829350000000005" lon="145.39052">
    <ele>258.06</ele>
   </trkpt>
   <trkpt lat="-37.829350000000005" lon="145.39054000000002">
    <ele>258.09999999999997</ele>
   </trkpt>
   <trkpt lat="-37.82927" lon="145.39053">
    <ele>257.78000000000003</ele>
   </trkpt>
   <trkpt lat="-37.8292" lon="145.39066000000003">
    <ele>257.54</ele>
   </trkpt>
   <trkpt lat="-37.82909" lon="145.39100000000002">
    <ele>257.25000000000006</ele>
   </trkpt>
   <trkpt lat="-37.82902" lon="145.39116">
    <ele>257.28000000000003</ele>
   </trkpt>
   <trkpt lat="-37.82869" lon="145.39164000000002">
    <ele>257.51</ele>
   </trkpt>
   <trkpt lat="-37.8286" lon="145.39170000000001">
    <ele>257.49</ele>
   </trkpt>
   <trkpt lat="-37.82846" lon="145.39174">
    <ele>257.3</ele>
   </trkpt>
   <trkpt lat="-37.828160000000004" lon="145.39166">
    <ele>256.24</ele>
   </trkpt>
   <trkpt lat="-37.82782" lon="145.39147">
    <ele>254.28</ele>
   </trkpt>
   <trkpt lat="-37.82728" lon="145.39110000000002">
    <ele>250.02</ele>
   </trkpt>
   <trkpt lat="-37.82701" lon="145.39096">
    <ele>245.57</ele>
   </trkpt>
   <trkpt lat="-37.82674" lon="145.39086">
    <ele>244.86</ele>
   </trkpt>
   <trkpt lat="-37.82661" lon="145.39093000000003">
    <ele>243.6</ele>
   </trkpt>
   <trkpt lat="-37.82647" lon="145.39103">
    <ele>242.83</ele>
   </trkpt>
   <trkpt lat="-37.82636" lon="145.3912">
    <ele>242.06000000000003</ele>
   </trkpt>
   <trkpt lat="-37.82614" lon="145.39172000000002">
    <ele>240.54000000000002</ele>
   </trkpt>
   <trkpt lat="-37.82584000000001" lon="145.39218000000002">
    <ele>240.45000000000002</ele>
   </trkpt>
   <trkpt lat="-37.82571" lon="145.39232">
    <ele>240.75000000000003</ele>
   </trkpt>
   <trkpt lat="-37.82558" lon="145.39251000000002">
    <ele>241.8</ele>
   </trkpt>
   <trkpt lat="-37.82549" lon="145.39275">
    <ele>243.82</ele>
   </trkpt>
   <trkpt lat="-37.82528000000001" lon="145.39302">
    <ele>248.01</ele>
   </trkpt>
   <trkpt lat="-37.82515" lon="145.39312">
    <ele>249.71</ele>
   </trkpt>
   <trkpt lat="-37.82486" lon="145.39357">
    <ele>256.76000000000005</ele>
   </trkpt>
   <trkpt lat="-37.824740000000006" lon="145.39372">
    <ele>259.31000000000006</ele>
   </trkpt>
   <trkpt lat="-37.82417" lon="145.39417">
    <ele>273.59</ele>
   </trkpt>
   <trkpt lat="-37.823890000000006" lon="145.39452">
    <ele>278.12</ele>
   </trkpt>
   <trkpt lat="-37.82374" lon="145.39478000000003">
    <ele>281.94</ele>
   </trkpt>
   <trkpt lat="-37.82354" lon="145.39499">
    <ele>286.16</ele>
   </trkpt>
   <trkpt lat="-37.823240000000006" lon="145.39521000000002">
    <ele>289.65000000000003</ele>
   </trkpt>
   <trkpt lat="-37.82267" lon="145.39543">
    <ele>293.78000000000003</ele>
   </trkpt>
   <trkpt lat="-37.822590000000005" lon="145.39541">
    <ele>294.81</ele>
   </trkpt>
   <trkpt lat="-37.82255" lon="145.39549000000002">
    <ele>296.12000000000006</ele>
   </trkpt>
   <trkpt lat="-37.822540000000004" lon="145.39549000000002">
    <ele>296.12000000000006</ele>
   </trkpt>
   <trkpt lat="-37.82255" lon="145.39571">
    <ele>297.56000000000006</ele>
   </trkpt>
   <trkpt lat="-37.82267500128152" lon="145.3962649989688">
    <ele>306.3</ele>
   </trkpt>
   <trkpt lat="-37.8228" lon="145.39682000000002">
    <ele>318.65999999999997</ele>
   </trkpt>
   <trkpt lat="-37.82298" lon="145.39788000000001">
    <ele>320.65999999999997</ele>
   </trkpt>
   <trkpt lat="-37.82316" lon="145.39844000000002">
    <ele>312.26000000000005</ele>
   </trkpt>
   <trkpt lat="-37.82343" lon="145.39882">
    <ele>300.1</ele>
   </trkpt>
   <trkpt lat="-37.82352" lon="145.39914000000002">
    <ele>293.01000000000005</ele>
   </trkpt>
   <trkpt lat="-37.82352" lon="145.39950000000002">
    <ele>283.66</ele>
   </trkpt>
   <trkpt lat="-37.8233100031918" lon="145.40036500234206">
    <ele>254.79000000000002</ele>
   </trkpt>
   <trkpt lat="-37.823100000000004" lon="145.40123">
    <ele>234.73000000000002</ele>
   </trkpt>
   <trkpt lat="-37.82311" lon="145.40124">
    <ele>234.46000000000004</ele>
   </trkpt>
   <trkpt lat="-37.82381" lon="145.40116">
    <ele>230.63000000000002</ele>
   </trkpt>
   <trkpt lat="-37.824310000000004" lon="145.40124">
    <ele>226.52</ele>
   </trkpt>
   <trkpt lat="-37.82448" lon="145.40115">
    <ele>226.13000000000002</ele>
   </trkpt>
   <trkpt lat="-37.82479" lon="145.4009">
    <ele>226.44000000000003</ele>
   </trkpt>
   <trkpt lat="-37.825185000200094" lon="145.4006250015552">
    <ele>228.14000000000001</ele>
   </trkpt>
   <trkpt lat="-37.82558" lon="145.40035">
    <ele>229.24</ele>
   </trkpt>
   <trkpt lat="-37.82636" lon="145.39988000000002">
    <ele>231.12</ele>
   </trkpt>
   <trkpt lat="-37.82665" lon="145.39974">
    <ele>231.81</ele>
   </trkpt>
   <trkpt lat="-37.82683" lon="145.39962">
    <ele>232.47</ele>
   </trkpt>
   <trkpt lat="-37.82687" lon="145.39963">
    <ele>232.47</ele>
   </trkpt>
   <trkpt lat="-37.82701" lon="145.39977000000002">
    <ele>231.38000000000002</ele>
   </trkpt>
   <trkpt lat="-37.82714" lon="145.39978000000002">
    <ele>231.91000000000003</ele>
   </trkpt>
   <trkpt lat="-37.82732" lon="145.39971">
    <ele>232.0</ele>
   </trkpt>
   <trkpt lat="-37.82741" lon="145.39962">
    <ele>232.3</ele>
   </trkpt>
   <trkpt lat="-37.82777" lon="145.39955">
    <ele>233.99000000000004</ele>
   </trkpt>
   <trkpt lat="-37.82795" lon="145.39947">
    <ele>235.61</ele>
   </trkpt>
   <trkpt lat="-37.82824" lon="145.39944">
    <ele>239.35</ele>
   </trkpt>
   <trkpt lat="-37.828320000000005" lon="145.39941000000002">
    <ele>240.0</ele>
   </trkpt>
   <trkpt lat="-37.82837" lon="145.39937">
    <ele>239.63</ele>
   </trkpt>
   <trkpt lat="-37.8284" lon="145.39929">
    <ele>238.55</ele>
   </trkpt>
   <trkpt lat="-37.82833" lon="145.39913">
    <ele>236.52</ele>
   </trkpt>
   <trkpt lat="-37.82833" lon="145.39909">
    <ele>236.04000000000002</ele>
   </trkpt>
   <trkpt lat="-37.82855" lon="145.39870000000002">
    <ele>234.29000000000002</ele>
   </trkpt>
   <trkpt lat="-37.82871" lon="145.39852000000002">
    <ele>234.38000000000002</ele>
   </trkpt>
   <trkpt lat="-37.82882" lon="145.39857">
    <ele>235.05</ele>
   </trkpt>
   <trkpt lat="-37.82898" lon="145.39888000000002">
    <ele>237.02</ele>
   </trkpt>
   <trkpt lat="-37.82902" lon="145.39890000000003">
    <ele>237.02</ele>
   </trkpt>
   <trkpt lat="-37.82916" lon="145.39906000000002">
    <ele>243.31000000000003</ele>
   </trkpt>
   <trkpt lat="-37.82923" lon="145.39903">
    <ele>243.31000000000003</ele>
   </trkpt>
   <trkpt lat="-37.82929" lon="145.39898000000002">
    <ele>243.6</ele>
   </trkpt>
   <trkpt lat="-37.82943" lon="145.39875">
    <ele>243.97000000000003</ele>
   </trkpt>
   <trkpt lat="-37.82958" lon="145.39857">
    <ele>244.50000000000003</ele>
   </trkpt>
   <trkpt lat="-37.82995000115219" lon="145.3980700023784">
    <ele>242.44</ele>
   </trkpt>
   <trkpt lat="-37.83032" lon="145.39757">
    <ele>242.75000000000003</ele>
   </trkpt>
   <trkpt lat="-37.83084" lon="145.39721">
    <ele>245.86</ele>
   </trkpt>
   <trkpt lat="-37.83117" lon="145.39671">
    <ele>247.62</ele>
   </trkpt>
   <trkpt lat="-37.83164000101921" lon="145.39622500306393">
    <ele>248.24</ele>
   </trkpt>
   <trkpt lat="-37.83211" lon="145.39574000000002">
    <ele>246.65</ele>
   </trkpt>
   <trkpt lat="-37.832770001068916" lon="145.39524000446377">
    <ele>246.07</ele>
   </trkpt>
   <trkpt lat="-37.83343" lon="145.39474">
    <ele>244.98000000000002</ele>
   </trkpt>
   <trkpt lat="-37.83377" lon="145.39452">
    <ele>246.12000000000003</ele>
   </trkpt>
   <trkpt lat="-37.83422" lon="145.39430000000002">
    <ele>247.00000000000003</ele>
   </trkpt>
   <trkpt lat="-37.8346" lon="145.3942">
    <ele>245.25000000000003</ele>
   </trkpt>
   <trkpt lat="-37.83469" lon="145.39408">
    <ele>244.87000000000003</ele>
   </trkpt>
   <trkpt lat="-37.835150000000006" lon="145.39395000000002">
    <ele>245.25000000000003</ele>
   </trkpt>
   <trkpt lat="-37.83522" lon="145.39397000000002">
    <ele>245.56000000000003</ele>
   </trkpt>
   <trkpt lat="-37.83534" lon="145.39405000000002">
    <ele>246.6</ele>
   </trkpt>
   <trkpt lat="-37.83541" lon="145.39405000000002">
    <ele>246.86</ele>
   </trkpt>
   <trkpt lat="-37.83545" lon="145.39387000000002">
    <ele>245.13</ele>
   </trkpt>
   <trkpt lat="-37.83549" lon="145.39381">
    <ele>244.46</ele>
   </trkpt>
   <trkpt lat="-37.83572" lon="145.39354">
    <ele>243.11</ele>
   </trkpt>
   <trkpt lat="-37.83614500085438" lon="145.3930850026437">
    <ele>246.96</ele>
   </trkpt>
   <trkpt lat="-37.83657" lon="145.39263000000003">
    <ele>248.79</ele>
   </trkpt>
   <trkpt lat="-37.83679" lon="145.39245000000003">
    <ele>249.3</ele>
   </trkpt>
   <trkpt lat="-37.83697" lon="145.39235000000002">
    <ele>249.83</ele>
   </trkpt>
   <trkpt lat="-37.83737" lon="145.39208000000002">
    <ele>251.17</ele>
   </trkpt>
   <trkpt lat="-37.83726" lon="145.39164000000002">
    <ele>250.27000000000004</ele>
   </trkpt>
   <trkpt lat="-37.837270000000004" lon="145.39118000000002">
    <ele>248.46</ele>
   </trkpt>
   <trkpt lat="-37.8374" lon="145.39013">
    <ele>254.69000000000003</ele>
   </trkpt>
   <trkpt lat="-37.837410000000006" lon="145.38957000000002">
    <ele>254.9</ele>
   </trkpt>
   <trkpt lat="-37.83751" lon="145.38939000000002">
    <ele>255.1</ele>
   </trkpt>
   <trkpt lat="-37.83769" lon="145.38928">
    <ele>255.42000000000004</ele>
   </trkpt>
   <trkpt lat="-37.83791" lon="145.38927">
    <ele>255.76000000000005</ele>
   </trkpt>
   <trkpt lat="-37.83816" lon="145.38933">
    <ele>256.21999999999997</ele>
   </trkpt>
   <trkpt lat="-37.83836" lon="145.38944">
    <ele>257.55</ele>
   </trkpt>
   <trkpt lat="-37.83849" lon="145.38949000000002">
    <ele>257.8</ele>
   </trkpt>
   <trkpt lat="-37.83865" lon="145.38945">
    <ele>258.47</ele>
   </trkpt>
   <trkpt lat="-37.83885" lon="145.38936">
    <ele>258.67</ele>
   </trkpt>
   <trkpt lat="-37.83908" lon="145.38930000000002">
    <ele>259.03000000000003</ele>
   </trkpt>
   <trkpt lat="-37.83932" lon="145.38919">
    <ele>259.37000000000006</ele>
   </trkpt>
   <trkpt lat="-37.83959" lon="145.38912000000002">
    <ele>260.35</ele>
   </trkpt>
   <trkpt lat="-37.83981" lon="145.38901">
    <ele>259.88</ele>
   </trkpt>
   <trkpt lat="-37.840030000000006" lon="145.38874">
    <ele>257.64000000000004</ele>
   </trkpt>
   <trkpt lat="-37.84024" lon="145.38854">
    <ele>256.97</ele>
   </trkpt>
   <trkpt lat="-37.84055" lon="145.38814000000002">
    <ele>260.07</ele>
   </trkpt>
   <trkpt lat="-37.840880000000006" lon="145.38792">
    <ele>263.16</ele>
   </trkpt>
   <trkpt lat="-37.84098" lon="145.3878">
    <ele>263.85</ele>
   </trkpt>
   <trkpt lat="-37.84118" lon="145.38735">
    <ele>266.16</ele>
   </trkpt>
   <trkpt lat="-37.84149" lon="145.387">
    <ele>268.24</ele>
   </trkpt>
   <trkpt lat="-37.84203" lon="145.38627000000002">
    <ele>273.79</ele>
   </trkpt>
   <trkpt lat="-37.84221" lon="145.38597000000001">
    <ele>274.23</ele>
   </trkpt>
   <trkpt lat="-37.84223" lon="145.38594">
    <ele>274.26</ele>
   </trkpt>
   <trkpt lat="-37.84216" lon="145.38590000000002">
    <ele>274.18</ele>
   </trkpt>
   <trkpt lat="-37.84205" lon="145.38577">
    <ele>274.52000000000004</ele>
   </trkpt>
   <trkpt lat="-37.84196" lon="145.38561">
    <ele>276.21</ele>
   </trkpt>
   <trkpt lat="-37.84178" lon="145.38521">
    <ele>281.32</ele>
   </trkpt>
   <trkpt lat="-37.84165" lon="145.38485">
    <ele>286.17</ele>
   </trkpt>
   <trkpt lat="-37.84154" lon="145.38462">
    <ele>290.71000000000004</ele>
   </trkpt>
   <trkpt lat="-37.841440000000006" lon="145.38451">
    <ele>292.81</ele>
   </trkpt>
   <trkpt lat="-37.84129" lon="145.38446000000002">
    <ele>293.96</ele>
   </trkpt>
   <trkpt lat="-37.841" lon="145.38444">
    <ele>296.95000000000005</ele>
   </trkpt>
   <trkpt lat="-37.84089" lon="145.38447000000002">
    <ele>297.62000000000006</ele>
   </trkpt>
   <trkpt lat="-37.84073" lon="145.38456000000002">
    <ele>297.65000000000003</ele>
   </trkpt>
   <trkpt lat="-37.84022" lon="145.38496">
    <ele>295.37</ele>
   </trkpt>
   <trkpt lat="-37.83997" lon="145.38510000000002">
    <ele>294.85</ele>
   </trkpt>
   <trkpt lat="-37.83975" lon="145.38520000000003">
    <ele>294.90000000000003</ele>
   </trkpt>
   <trkpt lat="-37.8395" lon="145.38522">
    <ele>295.84000000000003</ele>
   </trkpt>
   <trkpt lat="-37.83906" lon="145.38516">
    <ele>298.79</ele>
   </trkpt>
   <trkpt lat="-37.83906" lon="145.38515">
    <ele>298.88000000000005</ele>
   </trkpt>
   <trkpt lat="-37.83928" lon="145.38444">
    <ele>305.25</ele>
   </trkpt>
   <trkpt lat="-37.83968" lon="145.38363">
    <ele>312.71000000000004</ele>
   </trkpt>
   <trkpt lat="-37.83993" lon="145.383">
    <ele>319.11</ele>
   </trkpt>
   <trkpt lat="-37.8399" lon="145.38273">
    <ele>323.61</ele>
   </trkpt>
   <trkpt lat="-37.8397" lon="145.38205000000002">
    <ele>338.95000000000005</ele>
   </trkpt>
   <trkpt lat="-37.839380000000006" lon="145.38116000000002">
    <ele>359.51000000000005</ele>
   </trkpt>
   <trkpt lat="-37.83928" lon="145.38109">
    <ele>361.06000000000006</ele>
   </trkpt>
   <trkpt lat="-37.83919" lon="145.38108000000003">
    <ele>361.96</ele>
   </trkpt>
   <trkpt lat="-37.83894" lon="145.38115000000002">
    <ele>362.68</ele>
   </trkpt>
   <trkpt lat="-37.83885" lon="145.38114000000002">
    <ele>363.07</ele>
   </trkpt>
   <trkpt lat="-37.83863" lon="145.38101">
    <ele>364.99</ele>
   </trkpt>
   <trkpt lat="-37.83845" lon="145.38077">
    <ele>369.83000000000004</ele>
   </trkpt>
   <trkpt lat="-37.838420000000006" lon="145.38066">
    <ele>369.83000000000004</ele>
   </trkpt>
   <trkpt lat="-37.83867" lon="145.38033000000001">
    <ele>374.31</ele>
   </trkpt>
   <trkpt lat="-37.83912" lon="145.37999000000002">
    <ele>378.89</ele>
   </trkpt>
   <trkpt lat="-37.83921" lon="145.37984">
    <ele>380.41</ele>
   </trkpt>
   <trkpt lat="-37.83923" lon="145.37973000000002">
    <ele>380.41</ele>
   </trkpt>
   <trkpt lat="-37.83921" lon="145.37961">
    <ele>380.41</ele>
   </trkpt>
   <trkpt lat="-37.8391" lon="145.37933">
    <ele>382.59000000000003</ele>
   </trkpt>
   <trkpt lat="-37.83867" lon="145.3788">
    <ele>387.83</ele>
   </trkpt>
   <trkpt lat="-37.83858" lon="145.37865000000002">
    <ele>388.05</ele>
   </trkpt>
   <trkpt lat="-37.83849" lon="145.37836000000001">
    <ele>389.32000000000005</ele>
   </trkpt>
   <trkpt lat="-37.83829" lon="145.37793000000002">
    <ele>391.79</ele>
   </trkpt>
   <trkpt lat="-37.83825" lon="145.37769">
    <ele>393.16</ele>
   </trkpt>
   <trkpt lat="-37.83825" lon="145.37757000000002">
    <ele>395.1</ele>
   </trkpt>
   <trkpt lat="-37.83838" lon="145.37723000000003">
    <ele>396.52000000000004</ele>
   </trkpt>
   <trkpt lat="-37.83838" lon="145.37712000000002">
    <ele>397.37000000000006</ele>
   </trkpt>
   <trkpt lat="-37.83834" lon="145.37685000000002">
    <ele>400.15</ele>
   </trkpt>
   <trkpt lat="-37.83816" lon="145.37661">
    <ele>403.58000000000004</ele>
   </trkpt>
   <trkpt lat="-37.83773" lon="145.37587000000002">
    <ele>407.95000000000005</ele>
   </trkpt>
   <trkpt lat="-37.8376" lon="145.37522">
    <ele>406.43</ele>
   </trkpt>
   <trkpt lat="-37.83738" lon="145.37475">
    <ele>406.94</ele>
   </trkpt>
   <trkpt lat="-37.83735" lon="145.37466">
    <ele>406.9200000000001</ele>
   </trkpt>
   <trkpt lat="-37.83746" lon="145.37449">
    <ele>406.2</ele>
   </trkpt>
   <trkpt lat="-37.83764" lon="145.37427000000002">
    <ele>402.34000000000003</ele>
   </trkpt>
   <trkpt lat="-37.83784" lon="145.37368">
    <ele>393.62</ele>
   </trkpt>
   <trkpt lat="-37.837880000000006" lon="145.37362000000002">
    <ele>393.57000000000005</ele>
   </trkpt>
   <trkpt lat="-37.83791" lon="145.37358">
    <ele>393.57000000000005</ele>
   </trkpt>
   <trkpt lat="-37.838060000000006" lon="145.3735">
    <ele>389.72</ele>
   </trkpt>
   <trkpt lat="-37.83804000000001" lon="145.37351">
    <ele>389.97</ele>
   </trkpt>
   <trkpt lat="-37.83822" lon="145.37348">
    <ele>384.20000000000005</ele>
   </trkpt>
   <trkpt lat="-37.83847" lon="145.37354000000002">
    <ele>381.24</ele>
   </trkpt>
   <trkpt lat="-37.83858" lon="145.37359">
    <ele>380.44000000000005</ele>
   </trkpt>
   <trkpt lat="-37.83883" lon="145.37376">
    <ele>380.3</ele>
   </trkpt>
   <trkpt lat="-37.8391" lon="145.37399000000002">
    <ele>379.38000000000005</ele>
   </trkpt>
   <trkpt lat="-37.83921" lon="145.37414">
    <ele>378.68</ele>
   </trkpt>
   <trkpt lat="-37.83948000278583" lon="145.374949997071">
    <ele>370.43</ele>
   </trkpt>
   <trkpt lat="-37.83975" lon="145.37576">
    <ele>361.63</ele>
   </trkpt>
   <trkpt lat="-37.839995001151586" lon="145.37628499822682">
    <ele>355.26</ele>
   </trkpt>
   <trkpt lat="-37.84024" lon="145.37681">
    <ele>349.06</ele>
   </trkpt>
   <trkpt lat="-37.84046" lon="145.37711000000002">
    <ele>342.76</ele>
   </trkpt>
   <trkpt lat="-37.84089" lon="145.37754">
    <ele>334.36</ele>
   </trkpt>
   <trkpt lat="-37.840970000000006" lon="145.37764">
    <ele>333.18</ele>
   </trkpt>
   <trkpt lat="-37.840990000000005" lon="145.37779">
    <ele>332.54</ele>
   </trkpt>
   <trkpt lat="-37.84103" lon="145.37786">
    <ele>332.53000000000003</ele>
   </trkpt>
   <trkpt lat="-37.84122" lon="145.37847000000002">
    <ele>329.51</ele>
   </trkpt>
   <trkpt lat="-37.84154" lon="145.37922">
    <ele>327.94</ele>
   </trkpt>
   <trkpt lat="-37.84185" lon="145.37971000000002">
    <ele>325.08000000000004</ele>
   </trkpt>
   <trkpt lat="-37.84201" lon="145.38002">
    <ele>324.57</ele>
   </trkpt>
   <trkpt lat="-37.84205" lon="145.38012">
    <ele>324.56</ele>
   </trkpt>
   <trkpt lat="-37.8423" lon="145.38066">
    <ele>321.0</ele>
   </trkpt>
   <trkpt lat="-37.84243" lon="145.38109">
    <ele>316.08000000000004</ele>
   </trkpt>
   <trkpt lat="-37.84248" lon="145.38133000000002">
    <ele>314.1</ele>
   </trkpt>
   <trkpt lat="-37.84248" lon="145.38167">
    <ele>310.12</ele>
   </trkpt>
   <trkpt lat="-37.84263" lon="145.38217">
    <ele>305.99</ele>
   </trkpt>
   <trkpt lat="-37.84272" lon="145.38237">
    <ele>304.8</ele>
   </trkpt>
   <trkpt lat="-37.84279" lon="145.38266000000002">
    <ele>300.35</ele>
   </trkpt>
   <trkpt lat="-37.84281" lon="145.38304000000002">
    <ele>296.50000000000006</ele>
   </trkpt>
   <trkpt lat="-37.84281" lon="145.38352">
    <ele>297.08</ele>
   </trkpt>
   <trkpt lat="-37.84293" lon="145.38351">
    <ele>297.13</ele>
   </trkpt>
   <trkpt lat="-37.84326" lon="145.38336">
    <ele>301.57</ele>
   </trkpt>
   <trkpt lat="-37.84335" lon="145.38330000000002">
    <ele>302.48</ele>
   </trkpt>
   <trkpt lat="-37.84346" lon="145.38327">
    <ele>302.23</ele>
   </trkpt>
   <trkpt lat="-37.84364" lon="145.38343">
    <ele>300.53000000000003</ele>
   </trkpt>
   <trkpt lat="-37.84373" lon="145.38359">
    <ele>296.14</ele>
   </trkpt>
   <trkpt lat="-37.84393" lon="145.38383000000002">
    <ele>295.38000000000005</ele>
   </trkpt>
   <trkpt lat="-37.84407" lon="145.38397">
    <ele>296.38000000000005</ele>
   </trkpt>
   <trkpt lat="-37.844260000000006" lon="145.38410000000002">
    <ele>298.05</ele>
   </trkpt>
   <trkpt lat="-37.84436" lon="145.38415">
    <ele>299.55</ele>
   </trkpt>
   <trkpt lat="-37.84445" lon="145.38416">
    <ele>301.25</ele>
   </trkpt>
   <trkpt lat="-37.84463" lon="145.38432">
    <ele>304.78000000000003</ele>
   </trkpt>
   <trkpt lat="-37.84488" lon="145.38497">
    <ele>321.39</ele>
   </trkpt>
   <trkpt lat="-37.84494" lon="145.38497">
    <ele>321.48</ele>
   </trkpt>
   <trkpt lat="-37.84501" lon="145.38500000000002">
    <ele>321.5</ele>
   </trkpt>
   <trkpt lat="-37.84512" lon="145.38516">
    <ele>321.18</ele>
   </trkpt>
   <trkpt lat="-37.84512" lon="145.38513">
    <ele>321.21000000000004</ele>
   </trkpt>
   <trkpt lat="-37.84512" lon="145.38515">
    <ele>321.21000000000004</ele>
   </trkpt>
   <trkpt lat="-37.84507" lon="145.38525">
    <ele>321.05</ele>
   </trkpt>
   <trkpt lat="-37.844930000000005" lon="145.38529">
    <ele>320.84000000000003</ele>
   </trkpt>
   <trkpt lat="-37.84487" lon="145.3854">
    <ele>320.18</ele>
   </trkpt>
   <trkpt lat="-37.84483" lon="145.38562000000002">
    <ele>318.74</ele>
   </trkpt>
   <trkpt lat="-37.84445000127426" lon="145.38614000250016">
    <ele>312.53000000000003</ele>
   </trkpt>
   <trkpt lat="-37.84407" lon="145.38666">
    <ele>304.59000000000003</ele>
   </trkpt>
   <trkpt lat="-37.8438" lon="145.38695">
    <ele>301.85</ele>
   </trkpt>
   <trkpt lat="-37.84369" lon="145.38717000000003">
    <ele>299.05</ele>
   </trkpt>
   <trkpt lat="-37.84337" lon="145.38748">
    <ele>293.76</ele>
   </trkpt>
   <trkpt lat="-37.84317" lon="145.38776000000001">
    <ele>291.31</ele>
   </trkpt>
   <trkpt lat="-37.84297" lon="145.38794000000001">
    <ele>288.68000000000006</ele>
   </trkpt>
   <trkpt lat="-37.842830000000006" lon="145.38816">
    <ele>286.68000000000006</ele>
   </trkpt>
   <trkpt lat="-37.84306" lon="145.38855">
    <ele>283.8</ele>
   </trkpt>
   <trkpt lat="-37.8431" lon="145.38876000000002">
    <ele>279.86</ele>
   </trkpt>
   <trkpt lat="-37.84315" lon="145.38891">
    <ele>278.37</ele>
   </trkpt>
   <trkpt lat="-37.843320000000006" lon="145.38902000000002">
    <ele>275.99</ele>
   </trkpt>
   <trkpt lat="-37.84351" lon="145.38905000000003">
    <ele>274.82</ele>
   </trkpt>
   <trkpt lat="-37.84375" lon="145.38884000000002">
    <ele>276.06</ele>
   </trkpt>
   <trkpt lat="-37.84393" lon="145.38879">
    <ele>275.23</ele>
   </trkpt>
   <trkpt lat="-37.844100000000005" lon="145.38879">
    <ele>273.29</ele>
   </trkpt>
   <trkpt lat="-37.844210000000004" lon="145.38883">
    <ele>283.0</ele>
   </trkpt>
   <trkpt lat="-37.84427" lon="145.38897">
    <ele>280.56</ele>
   </trkpt>
   <trkpt lat="-37.84427" lon="145.38914000000003">
    <ele>279.63000000000005</ele>
   </trkpt>
   <trkpt lat="-37.8442" lon="145.38957000000002">
    <ele>281.05</ele>
   </trkpt>
   <trkpt lat="-37.844260000000006" lon="145.39003000000002">
    <ele>282.71000000000004</ele>
   </trkpt>
   <trkpt lat="-37.84416" lon="145.39043">
    <ele>283.98</ele>
   </trkpt>
   <trkpt lat="-37.84416" lon="145.39055000000002">
    <ele>284.6</ele>
   </trkpt>
   <trkpt lat="-37.84452" lon="145.39135000000002">
    <ele>290.53000000000003</ele>
   </trkpt>
   <trkpt lat="-37.84452" lon="145.39134">
    <ele>290.54</ele>
   </trkpt>
   <trkpt lat="-37.844630001587014" lon="145.39072000114012">
    <ele>288.62000000000006</ele>
   </trkpt>
   <trkpt lat="-37.84474" lon="145.39010000000002">
    <ele>286.48</ele>
   </trkpt>
   <trkpt lat="-37.84478" lon="145.38966000000002">
    <ele>283.87</ele>
   </trkpt>
   <trkpt lat="-37.84487" lon="145.38931000000002">
    <ele>283.12</ele>
   </trkpt>
   <trkpt lat="-37.84523" lon="145.38868000000002">
    <ele>282.46999999999997</ele>
   </trkpt>
   <trkpt lat="-37.84539" lon="145.38825">
    <ele>282.3</ele>
   </trkpt>
   <trkpt lat="-37.84557" lon="145.388">
    <ele>282.6</ele>
   </trkpt>
   <trkpt lat="-37.84577" lon="145.38776000000001">
    <ele>283.51000000000005</ele>
   </trkpt>
   <trkpt lat="-37.84613" lon="145.38748">
    <ele>286.04</ele>
   </trkpt>
   <trkpt lat="-37.84628" lon="145.38743000000002">
    <ele>286.6</ele>
   </trkpt>
   <trkpt lat="-37.84651" lon="145.38742000000002">
    <ele>286.90000000000003</ele>
   </trkpt>
   <trkpt lat="-37.84671" lon="145.38737">
    <ele>287.45000000000005</ele>
   </trkpt>
   <trkpt lat="-37.84691" lon="145.38723000000002">
    <ele>289.15000000000003</ele>
   </trkpt>
   <trkpt lat="-37.8472" lon="145.38689000000002">
    <ele>292.12000000000006</ele>
   </trkpt>
   <trkpt lat="-37.84736" lon="145.38680000000002">
    <ele>293.64</ele>
   </trkpt>
   <trkpt lat="-37.84751" lon="145.38669000000002">
    <ele>294.39000000000004</ele>
   </trkpt>
   <trkpt lat="-37.84812" lon="145.38636000000002">
    <ele>301.83000000000004</ele>
   </trkpt>
   <trkpt lat="-37.84834" lon="145.38619">
    <ele>303.97</ele>
   </trkpt>
   <trkpt lat="-37.84854" lon="145.38608000000002">
    <ele>306.28000000000003</ele>
   </trkpt>
   <trkpt lat="-37.84904" lon="145.38596">
    <ele>312.19</ele>
   </trkpt>
   <trkpt lat="-37.849500000000006" lon="145.38575">
    <ele>318.74</ele>
   </trkpt>
   <trkpt lat="-37.849970000000006" lon="145.3854">
    <ele>325.18</ele>
   </trkpt>
   <trkpt lat="-37.84995" lon="145.38541">
    <ele>325.05</ele>
   </trkpt>
   <trkpt lat="-37.850460000000005" lon="145.38531">
    <ele>331.1</ele>
   </trkpt>
   <trkpt lat="-37.85116" lon="145.38566">
    <ele>344.27000000000004</ele>
   </trkpt>
   <trkpt lat="-37.8519" lon="145.38586">
    <ele>354.75</ele>
   </trkpt>
   <trkpt lat="-37.85233" lon="145.38585">
    <ele>360.55</ele>
   </trkpt>
   <trkpt lat="-37.85275" lon="145.38578">
    <ele>369.63</ele>
   </trkpt>
   <trkpt lat="-37.85309" lon="145.38565">
    <ele>374.25</ele>
   </trkpt>
   <trkpt lat="-37.85396" lon="145.38551">
    <ele>394.02000000000004</ele>
   </trkpt>
   <trkpt lat="-37.854490000000006" lon="145.38562000000002">
    <ele>403.72</ele>
   </trkpt>
   <trkpt lat="-37.85501" lon="145.38577">
    <ele>414.74000000000007</ele>
   </trkpt>
   <trkpt lat="-37.855610000000006" lon="145.3861">
    <ele>422.83000000000004</ele>
   </trkpt>
   <trkpt lat="-37.85557" lon="145.38625000000002">
    <ele>425.15000000000003</ele>
   </trkpt>
   <trkpt lat="-37.85551" lon="145.38635000000002">
    <ele>426.01000000000005</ele>
   </trkpt>
   <trkpt lat="-37.855430000000005" lon="145.38639">
    <ele>420.42</ele>
   </trkpt>
   <trkpt lat="-37.85548" lon="145.38683">
    <ele>429.12000000000006</ele>
   </trkpt>
   <trkpt lat="-37.85535" lon="145.387">
    <ele>435.70000000000005</ele>
   </trkpt>
   <trkpt lat="-37.85573" lon="145.38751000000002">
    <ele>442.76000000000005</ele>
   </trkpt>
   <trkpt lat="-37.85613" lon="145.38815000000002">
    <ele>454.1</ele>
   </trkpt>
   <trkpt lat="-37.85618" lon="145.38828">
    <ele>457.41</ele>
   </trkpt>
   <trkpt lat="-37.85624" lon="145.38842000000002">
    <ele>459.43000000000006</ele>
   </trkpt>
   <trkpt lat="-37.85656" lon="145.38819">
    <ele>457.94</ele>
   </trkpt>
   <trkpt lat="-37.85676" lon="145.38799">
    <ele>456.57000000000005</ele>
   </trkpt>
   <trkpt lat="-37.85696" lon="145.38773">
    <ele>456.07</ele>
   </trkpt>
   <trkpt lat="-37.85714" lon="145.38738">
    <ele>454.89</ele>
   </trkpt>
   <trkpt lat="-37.85736" lon="145.38678000000002">
    <ele>453.65000000000003</ele>
   </trkpt>
   <trkpt lat="-37.857490000000006" lon="145.38659">
    <ele>453.33</ele>
   </trkpt>
   <trkpt lat="-37.85801" lon="145.38590000000002">
    <ele>451.67</ele>
   </trkpt>
   <trkpt lat="-37.85806" lon="145.38576">
    <ele>451.40000000000003</ele>
   </trkpt>
   <trkpt lat="-37.85808" lon="145.38565">
    <ele>450.90000000000003</ele>
   </trkpt>
   <trkpt lat="-37.858050000000006" lon="145.38551">
    <ele>450.59000000000003</ele>
   </trkpt>
   <trkpt lat="-37.85815" lon="145.38567">
    <ele>454.05000000000007</ele>
   </trkpt>
   <trkpt lat="-37.85821" lon="145.38587">
    <ele>457.02000000000004</ele>
   </trkpt>
   <trkpt lat="-37.85821" lon="145.38609000000002">
    <ele>461.76000000000005</ele>
   </trkpt>
   <trkpt lat="-37.85817" lon="145.38619">
    <ele>463.83</ele>
   </trkpt>
   <trkpt lat="-37.85821" lon="145.38625000000002">
    <ele>466.08000000000004</ele>
   </trkpt>
   <trkpt lat="-37.85839" lon="145.38625000000002">
    <ele>469.09000000000003</ele>
   </trkpt>
   <trkpt lat="-37.8586" lon="145.3862">
    <ele>472.61</ele>
   </trkpt>
   <trkpt lat="-37.85871" lon="145.38611">
    <ele>473.55</ele>
   </trkpt>
   <trkpt lat="-37.85891" lon="145.38585">
    <ele>476.75000000000006</ele>
   </trkpt>
   <trkpt lat="-37.85891" lon="145.38584">
    <ele>476.9200000000001</ele>
   </trkpt>
   <trkpt lat="-37.8592" lon="145.3854">
    <ele>485.03000000000003</ele>
   </trkpt>
   <trkpt lat="-37.85924" lon="145.38524">
    <ele>488.18000000000006</ele>
   </trkpt>
   <trkpt lat="-37.85927" lon="145.38478">
    <ele>493.21000000000004</ele>
   </trkpt>
   <trkpt lat="-37.8594" lon="145.38458">
    <ele>496.77000000000004</ele>
   </trkpt>
   <trkpt lat="-37.85965" lon="145.38445000000002">
    <ele>501.44</ele>
   </trkpt>
   <trkpt lat="-37.85971" lon="145.38439000000002">
    <ele>503.15</ele>
   </trkpt>
   <trkpt lat="-37.85974" lon="145.38429000000002">
    <ele>503.65999999999997</ele>
   </trkpt>
   <trkpt lat="-37.85974" lon="145.38416">
    <ele>505.06000000000006</ele>
   </trkpt>
   <trkpt lat="-37.8598" lon="145.38387">
    <ele>507.13000000000005</ele>
   </trkpt>
   <trkpt lat="-37.85987" lon="145.38334">
    <ele>510.86000000000007</ele>
   </trkpt>
   <trkpt lat="-37.8598" lon="145.38292">
    <ele>513.0100000000001</ele>
   </trkpt>
   <trkpt lat="-37.859770000000005" lon="145.38287000000003">
    <ele>514.1300000000001</ele>
   </trkpt>
   <trkpt lat="-37.85983" lon="145.38273">
    <ele>515.3199999999999</ele>
   </trkpt>
   <trkpt lat="-37.859930000000006" lon="145.38259000000002">
    <ele>517.83</ele>
   </trkpt>
   <trkpt lat="-37.859950000000005" lon="145.38201">
    <ele>521.27</ele>
   </trkpt>
   <trkpt lat="-37.86001" lon="145.38142000000002">
    <ele>521.42</ele>
   </trkpt>
   <trkpt lat="-37.86007" lon="145.38119">
    <ele>520.9200000000001</ele>
   </trkpt>
   <trkpt lat="-37.86021" lon="145.38127">
    <ele>517.05</ele>
   </trkpt>
   <trkpt lat="-37.86027" lon="145.38124000000002">
    <ele>517.14</ele>
   </trkpt>
   <trkpt lat="-37.86032" lon="145.38089000000002">
    <ele>517.9100000000001</ele>
   </trkpt>
   <trkpt lat="-37.860330000000005" lon="145.38048">
    <ele>519.19</ele>
   </trkpt>
   <trkpt lat="-37.86023" lon="145.38049">
    <ele>520.36</ele>
   </trkpt>
   <trkpt lat="-37.85992" lon="145.38004">
    <ele>523.02</ele>
   </trkpt>
   <trkpt lat="-37.85957000073842" lon="145.37964999825422">
    <ele>526.3800000000001</ele>
   </trkpt>
   <trkpt lat="-37.85922" lon="145.37926000000002">
    <ele>528.27</ele>
   </trkpt>
   <trkpt lat="-37.859" lon="145.37889">
    <ele>531.19</ele>
   </trkpt>
   <trkpt lat="-37.85886" lon="145.37858">
    <ele>535.42</ele>
   </trkpt>
   <trkpt lat="-37.85852667035379" lon="145.37791666059948">
    <ele>542.62</ele>
   </trkpt>
   <trkpt lat="-37.858193336986425" lon="145.3772533271985">
    <ele>548.7</ele>
   </trkpt>
   <trkpt lat="-37.85786" lon="145.37659000000002">
    <ele>554.96</ele>
   </trkpt>
   <trkpt lat="-37.8575" lon="145.37597000000002">
    <ele>561.46</ele>
   </trkpt>
   <trkpt lat="-37.85714" lon="145.37555">
    <ele>565.3600000000001</ele>
   </trkpt>
   <trkpt lat="-37.85683" lon="145.37527">
    <ele>567.37</ele>
   </trkpt>
   <trkpt lat="-37.85622" lon="145.37490000000003">
    <ele>574.2700000000001</ele>
   </trkpt>
   <trkpt lat="-37.856260000000006" lon="145.37480000000002">
    <ele>574.32</ele>
   </trkpt>
   <trkpt lat="-37.856" lon="145.37456">
    <ele>577.0600000000001</ele>
   </trkpt>
   <trkpt lat="-37.8556750005453" lon="145.37416499811948">
    <ele>578.85</ele>
   </trkpt>
   <trkpt lat="-37.85535" lon="145.37377">
    <ele>578.3000000000001</ele>
   </trkpt>
   <trkpt lat="-37.85531" lon="145.37379">
    <ele>578.3600000000001</ele>
   </trkpt>
   <trkpt lat="-37.85521" lon="145.37367">
    <ele>578.28</ele>
   </trkpt>
   <trkpt lat="-37.854845000635606" lon="145.37326999797466">
    <ele>578.4100000000001</ele>
   </trkpt>
   <trkpt lat="-37.85448" lon="145.37287">
    <ele>579.13</ele>
   </trkpt>
   <trkpt lat="-37.8543" lon="145.37263000000002">
    <ele>579.46</ele>
   </trkpt>
   <trkpt lat="-37.85414" lon="145.37239000000002">
    <ele>579.83</ele>
   </trkpt>
   <trkpt lat="-37.85405" lon="145.37220000000002">
    <ele>579.9200000000001</ele>
   </trkpt>
   <trkpt lat="-37.854020000000006" lon="145.37182">
    <ele>579.61</ele>
   </trkpt>
   <trkpt lat="-37.854040000000005" lon="145.37130000000002">
    <ele>579.19</ele>
   </trkpt>
   <trkpt lat="-37.85412500394389" lon="145.37033500103993">
    <ele>575.97</ele>
   </trkpt>
   <trkpt lat="-37.85421" lon="145.36937">
    <ele>573.0500000000001</ele>
   </trkpt>
   <trkpt lat="-37.85441" lon="145.36911">
    <ele>572.8199999999999</ele>
   </trkpt>
   <trkpt lat="-37.85409000000001" lon="145.36882">
    <ele>576.4</ele>
   </trkpt>
   <trkpt lat="-37.853660000000005" lon="145.36857">
    <ele>579.04</ele>
   </trkpt>
   <trkpt lat="-37.85314" lon="145.36833000000001">
    <ele>578.52</ele>
   </trkpt>
   <trkpt lat="-37.85295" lon="145.36823">
    <ele>577.23</ele>
   </trkpt>
   <trkpt lat="-37.85264" lon="145.36819">
    <ele>574.2700000000001</ele>
   </trkpt>
   <trkpt lat="-37.85228" lon="145.36824000000001">
    <ele>570.7800000000001</ele>
   </trkpt>
  </trkseg>
 </trk>
</gpx>
