<?xml version="1.0" encoding="UTF-8"?>
<gpx creator="StravaGPX" version="1.1" xmlns="http://www.topografix.com/GPX/1/1" xmlns:xsi="http://www.w3.org/2001/XMLSchema-instance" xsi:schemaLocation="http://www.topografix.com/GPX/1/1 http://www.topografix.com/GPX/1/1/gpx.xsd">
 <metadata>
  <name>DTR 6 Sep 20k</name>
  <author>
   <name>Richard Jones</name>
   <link href="https://www.strava.com/athletes/38085969"/>
  </author>
  <copyright author="OpenStreetMap contributors">
   <year>2020</year>
   <license>https://www.openstreetmap.org/copyright</license>
  </copyright>
  <link href="https://www.strava.com/routes/3530363315319141166"/>
 </metadata>
 <trk>
  <name>DTR 6 Sep 20k</name>
  <link href="https://www.strava.com/routes/3530363315319141166"/>
  <type>trail_running</type>
  <trkseg>
   <trkpt lat="-37.862820000000006" lon="145.3536">
    <ele>480.86000000000007</ele>
   </trkpt>
   <trkpt lat="-37.862860000000005" lon="145.35369">
    <ele>480.95000000000005</ele>
   </trkpt>
   <trkpt lat="-37.862840000000006" lon="145.35371">
    <ele>481.04</ele>
   </trkpt>
   <trkpt lat="-37.86287" lon="145.3538">
    <ele>481.13000000000005</ele>
   </trkpt>
   <trkpt lat="-37.86316" lon="145.35444">
    <ele>485.97</ele>
   </trkpt>
   <trkpt lat="-37.86334" lon="145.35477">
    <ele>476.69000000000005</ele>
   </trkpt>
   <trkpt lat="-37.86345" lon="145.35489">
    <ele>474.93</ele>
   </trkpt>
   <trkpt lat="-37.863600000000005" lon="145.35494">
    <ele>473.07000000000005</ele>
   </trkpt>
   <trkpt lat="-37.86415" lon="145.35496">
    <ele>464.37000000000006</ele>
   </trkpt>
   <trkpt lat="-37.86435" lon="145.35499000000002">
    <ele>461.46000000000004</ele>
   </trkpt>
   <trkpt lat="-37.8645" lon="145.35506">
    <ele>456.03000000000003</ele>
   </trkpt>
   <trkpt lat="-37.864850000000004" lon="145.35513">
    <ele>448.66</ele>
   </trkpt>
   <trkpt lat="-37.86502" lon="145.35512">
    <ele>446.65000000000003</ele>
   </trkpt>
   <trkpt lat="-37.8652" lon="145.35519000000002">
    <ele>444.83000000000004</ele>
   </trkpt>
   <trkpt lat="-37.86547" lon="145.35535000000002">
    <ele>440.15000000000003</ele>
   </trkpt>
   <trkpt lat="-37.86591000000001" lon="145.35539">
    <ele>435.78000000000003</ele>
   </trkpt>
   <trkpt lat="-37.86598" lon="145.35542">
    <ele>435.62000000000006</ele>
   </trkpt>
   <trkpt lat="-37.865990000000004" lon="145.35551">
    <ele>435.62000000000006</ele>
   </trkpt>
   <trkpt lat="-37.866" lon="145.35554000000002">
    <ele>435.62000000000006</ele>
   </trkpt>
   <trkpt lat="-37.86596" lon="145.35572000000002">
    <ele>435.46</ele>
   </trkpt>
   <trkpt lat="-37.865860000000005" lon="145.35572000000002">
    <ele>414.72</ele>
   </trkpt>
   <trkpt lat="-37.86589" lon="145.35592000000003">
    <ele>431.87</ele>
   </trkpt>
   <trkpt lat="-37.86585" lon="145.35607000000002">
    <ele>431.44000000000005</ele>
   </trkpt>
   <trkpt lat="-37.866" lon="145.35656">
    <ele>428.50000000000006</ele>
   </trkpt>
   <trkpt lat="-37.86623" lon="145.35682">
    <ele>426.13</ele>
   </trkpt>
   <trkpt lat="-37.86632" lon="145.35688000000002">
    <ele>425.54</ele>
   </trkpt>
   <trkpt lat="-37.86654" lon="145.35708000000002">
    <ele>422.56000000000006</ele>
   </trkpt>
   <trkpt lat="-37.86672" lon="145.35738">
    <ele>420.7</ele>
   </trkpt>
   <trkpt lat="-37.86675" lon="145.35739">
    <ele>420.7</ele>
   </trkpt>
   <trkpt lat="-37.86688" lon="145.35736">
    <ele>420.47</ele>
   </trkpt>
   <trkpt lat="-37.86715" lon="145.35776">
    <ele>420.7</ele>
   </trkpt>
   <trkpt lat="-37.86728" lon="145.35787000000002">
    <ele>419.83000000000004</ele>
   </trkpt>
   <trkpt lat="-37.86737" lon="145.35797000000002">
    <ele>419.6</ele>
   </trkpt>
   <trkpt lat="-37.86748" lon="145.35804000000002">
    <ele>419.62000000000006</ele>
   </trkpt>
   <trkpt lat="-37.86755" lon="145.35812">
    <ele>419.46000000000004</ele>
   </trkpt>
   <trkpt lat="-37.86766" lon="145.35817">
    <ele>419.44000000000005</ele>
   </trkpt>
   <trkpt lat="-37.86771" lon="145.35824000000002">
    <ele>419.48</ele>
   </trkpt>
   <trkpt lat="-37.86768" lon="145.35852">
    <ele>418.90000000000003</ele>
   </trkpt>
   <trkpt lat="-37.86773" lon="145.35860000000002">
    <ele>419.12000000000006</ele>
   </trkpt>
   <trkpt lat="-37.86793" lon="145.35878000000002">
    <ele>420.21000000000004</ele>
   </trkpt>
   <trkpt lat="-37.86806" lon="145.35901">
    <ele>419.6</ele>
   </trkpt>
   <trkpt lat="-37.8682" lon="145.35908">
    <ele>419.32</ele>
   </trkpt>
   <trkpt lat="-37.86871" lon="145.35917">
    <ele>419.64</ele>
   </trkpt>
   <trkpt lat="-37.86887" lon="145.35943">
    <ele>417.59000000000003</ele>
   </trkpt>
   <trkpt lat="-37.869220000000006" lon="145.35977000000003">
    <ele>416.11</ele>
   </trkpt>
   <trkpt lat="-37.8695" lon="145.36015">
    <ele>415.40000000000003</ele>
   </trkpt>
   <trkpt lat="-37.86963" lon="145.36053">
    <ele>413.59000000000003</ele>
   </trkpt>
   <trkpt lat="-37.86972" lon="145.36065000000002">
    <ele>412.6</ele>
   </trkpt>
   <trkpt lat="-37.86999" lon="145.36083000000002">
    <ele>412.83000000000004</ele>
   </trkpt>
   <trkpt lat="-37.87071" lon="145.36105">
    <ele>411.02000000000004</ele>
   </trkpt>
   <trkpt lat="-37.87113" lon="145.36123">
    <ele>410.12</ele>
   </trkpt>
   <trkpt lat="-37.87182" lon="145.36126000000002">
    <ele>410.11</ele>
   </trkpt>
   <trkpt lat="-37.87205" lon="145.36114">
    <ele>410.08000000000004</ele>
   </trkpt>
   <trkpt lat="-37.87221" lon="145.36118000000002">
    <ele>409.25000000000006</ele>
   </trkpt>
   <trkpt lat="-37.87234" lon="145.36127000000002">
    <ele>408.76</ele>
   </trkpt>
   <trkpt lat="-37.87243" lon="145.36129000000003">
    <ele>407.96000000000004</ele>
   </trkpt>
   <trkpt lat="-37.87292" lon="145.36119000000002">
    <ele>406.26</ele>
   </trkpt>
   <trkpt lat="-37.873360000000005" lon="145.36122">
    <ele>402.04</ele>
   </trkpt>
   <trkpt lat="-37.873400000000004" lon="145.36126000000002">
    <ele>401.41</ele>
   </trkpt>
   <trkpt lat="-37.873490000000004" lon="145.36143">
    <ele>400.70000000000005</ele>
   </trkpt>
   <trkpt lat="-37.873540000000006" lon="145.3614">
    <ele>400.38</ele>
   </trkpt>
   <trkpt lat="-37.873560000000005" lon="145.36141">
    <ele>400.22</ele>
   </trkpt>
   <trkpt lat="-37.87357" lon="145.36146000000002">
    <ele>400.22</ele>
   </trkpt>
   <trkpt lat="-37.87355" lon="145.36154000000002">
    <ele>399.97</ele>
   </trkpt>
   <trkpt lat="-37.87368" lon="145.36174000000003">
    <ele>397.27</ele>
   </trkpt>
   <trkpt lat="-37.87377" lon="145.36196">
    <ele>393.07000000000005</ele>
   </trkpt>
   <trkpt lat="-37.873720000000006" lon="145.36151">
    <ele>395.58000000000004</ele>
   </trkpt>
   <trkpt lat="-37.87391" lon="145.36107">
    <ele>400.23</ele>
   </trkpt>
   <trkpt lat="-37.87406" lon="145.36083000000002">
    <ele>402.94</ele>
   </trkpt>
   <trkpt lat="-37.87416" lon="145.36074000000002">
    <ele>402.94</ele>
   </trkpt>
   <trkpt lat="-37.874010000000006" lon="145.36059">
    <ele>406.41</ele>
   </trkpt>
   <trkpt lat="-37.87379" lon="145.36043">
    <ele>411.19000000000005</ele>
   </trkpt>
   <trkpt lat="-37.87375" lon="145.36037000000002">
    <ele>412.95000000000005</ele>
   </trkpt>
   <trkpt lat="-37.87388" lon="145.35995">
    <ele>413.71000000000004</ele>
   </trkpt>
   <trkpt lat="-37.87393" lon="145.35992000000002">
    <ele>413.71000000000004</ele>
   </trkpt>
   <trkpt lat="-37.87402" lon="145.35992000000002">
    <ele>413.84000000000003</ele>
   </trkpt>
   <trkpt lat="-37.874100000000006" lon="145.3599">
    <ele>413.77000000000004</ele>
   </trkpt>
   <trkpt lat="-37.8742" lon="145.35981">
    <ele>413.25</ele>
   </trkpt>
   <trkpt lat="-37.87449" lon="145.35945">
    <ele>423.45000000000005</ele>
   </trkpt>
   <trkpt lat="-37.874460000000006" lon="145.35942">
    <ele>417.00000000000006</ele>
   </trkpt>
   <trkpt lat="-37.874500000000005" lon="145.35922000000002">
    <ele>424.63</ele>
   </trkpt>
   <trkpt lat="-37.87449" lon="145.35915">
    <ele>424.63</ele>
   </trkpt>
   <trkpt lat="-37.874460000000006" lon="145.35913000000002">
    <ele>424.63</ele>
   </trkpt>
   <trkpt lat="-37.87445" lon="145.35906">
    <ele>424.94000000000005</ele>
   </trkpt>
   <trkpt lat="-37.8744" lon="145.359">
    <ele>424.94000000000005</ele>
   </trkpt>
   <trkpt lat="-37.874210000000005" lon="145.35897">
    <ele>425.27000000000004</ele>
   </trkpt>
   <trkpt lat="-37.87406" lon="145.35889">
    <ele>425.7</ele>
   </trkpt>
   <trkpt lat="-37.87393" lon="145.35877000000002">
    <ele>425.8</ele>
   </trkpt>
   <trkpt lat="-37.87382" lon="145.35876000000002">
    <ele>425.93</ele>
   </trkpt>
   <trkpt lat="-37.873630000000006" lon="145.35879">
    <ele>426.07000000000005</ele>
   </trkpt>
   <trkpt lat="-37.8736" lon="145.35864">
    <ele>426.16</ele>
   </trkpt>
   <trkpt lat="-37.8735" lon="145.35858000000002">
    <ele>428.1</ele>
   </trkpt>
   <trkpt lat="-37.87335" lon="145.35840000000002">
    <ele>431.76000000000005</ele>
   </trkpt>
   <trkpt lat="-37.87319" lon="145.35809">
    <ele>435.75</ele>
   </trkpt>
   <trkpt lat="-37.87312" lon="145.35764">
    <ele>442.44000000000005</ele>
   </trkpt>
   <trkpt lat="-37.87321" lon="145.35702">
    <ele>445.67</ele>
   </trkpt>
   <trkpt lat="-37.87326" lon="145.35636000000002">
    <ele>450.59000000000003</ele>
   </trkpt>
   <trkpt lat="-37.873310000000004" lon="145.35644000000002">
    <ele>451.19</ele>
   </trkpt>
   <trkpt lat="-37.87335" lon="145.35644000000002">
    <ele>451.19</ele>
   </trkpt>
   <trkpt lat="-37.87339" lon="145.35649">
    <ele>451.54</ele>
   </trkpt>
   <trkpt lat="-37.87353" lon="145.35718">
    <ele>453.6</ele>
   </trkpt>
   <trkpt lat="-37.87379" lon="145.35763">
    <ele>457.31000000000006</ele>
   </trkpt>
   <trkpt lat="-37.874120000000005" lon="145.35781">
    <ele>459.42</ele>
   </trkpt>
   <trkpt lat="-37.87435" lon="145.35784">
    <ele>461.19000000000005</ele>
   </trkpt>
   <trkpt lat="-37.87473" lon="145.35783">
    <ele>463.28000000000003</ele>
   </trkpt>
   <trkpt lat="-37.87482" lon="145.35784">
    <ele>463.57000000000005</ele>
   </trkpt>
   <trkpt lat="-37.87541" lon="145.35777000000002">
    <ele>469.33000000000004</ele>
   </trkpt>
   <trkpt lat="-37.87559" lon="145.35771000000003">
    <ele>470.30000000000007</ele>
   </trkpt>
   <trkpt lat="-37.87572" lon="145.35758">
    <ele>471.44</ele>
   </trkpt>
   <trkpt lat="-37.875840000000004" lon="145.3574">
    <ele>474.56</ele>
   </trkpt>
   <trkpt lat="-37.875930000000004" lon="145.35714000000002">
    <ele>475.77000000000004</ele>
   </trkpt>
   <trkpt lat="-37.876160000000006" lon="145.35686">
    <ele>476.30000000000007</ele>
   </trkpt>
   <trkpt lat="-37.8763" lon="145.35674">
    <ele>476.25000000000006</ele>
   </trkpt>
   <trkpt lat="-37.87646" lon="145.35667">
    <ele>475.98</ele>
   </trkpt>
   <trkpt lat="-37.87675" lon="145.35661000000002">
    <ele>475.58000000000004</ele>
   </trkpt>
   <trkpt lat="-37.876900000000006" lon="145.35659">
    <ele>460.34000000000003</ele>
   </trkpt>
   <trkpt lat="-37.87708000000001" lon="145.35653000000002">
    <ele>475.96000000000004</ele>
   </trkpt>
   <trkpt lat="-37.8772900013161" lon="145.35708999837638">
    <ele>477.12000000000006</ele>
   </trkpt>
   <trkpt lat="-37.877500000000005" lon="145.35765">
    <ele>480.22</ele>
   </trkpt>
   <trkpt lat="-37.8778" lon="145.35791">
    <ele>481.63000000000005</ele>
   </trkpt>
   <trkpt lat="-37.87798" lon="145.35797000000002">
    <ele>482.28000000000003</ele>
   </trkpt>
   <trkpt lat="-37.87818" lon="145.35801">
    <ele>482.90000000000003</ele>
   </trkpt>
   <trkpt lat="-37.878600000000006" lon="145.35829">
    <ele>484.59000000000003</ele>
   </trkpt>
   <trkpt lat="-37.87876" lon="145.35838">
    <ele>484.51000000000005</ele>
   </trkpt>
   <trkpt lat="-37.87919" lon="145.35846">
    <ele>482.67</ele>
   </trkpt>
   <trkpt lat="-37.87975" lon="145.35876000000002">
    <ele>480.19000000000005</ele>
   </trkpt>
   <trkpt lat="-37.87991" lon="145.35891">
    <ele>481.02000000000004</ele>
   </trkpt>
   <trkpt lat="-37.88006" lon="145.35903000000002">
    <ele>481.11</ele>
   </trkpt>
   <trkpt lat="-37.8802" lon="145.35908">
    <ele>481.21000000000004</ele>
   </trkpt>
   <trkpt lat="-37.88033" lon="145.3591">
    <ele>481.16</ele>
   </trkpt>
   <trkpt lat="-37.88051" lon="145.35909">
    <ele>480.76</ele>
   </trkpt>
   <trkpt lat="-37.8808" lon="145.35903000000002">
    <ele>485.11</ele>
   </trkpt>
   <trkpt lat="-37.88094" lon="145.35907">
    <ele>485.77000000000004</ele>
   </trkpt>
   <trkpt lat="-37.88102000000001" lon="145.35904000000002">
    <ele>485.94000000000005</ele>
   </trkpt>
   <trkpt lat="-37.88103" lon="145.35902000000002">
    <ele>485.97</ele>
   </trkpt>
   <trkpt lat="-37.881190000000004" lon="145.35876000000002">
    <ele>486.29</ele>
   </trkpt>
   <trkpt lat="-37.88123" lon="145.35861">
    <ele>486.32</ele>
   </trkpt>
   <trkpt lat="-37.88138" lon="145.35829">
    <ele>487.29</ele>
   </trkpt>
   <trkpt lat="-37.88183" lon="145.35763">
    <ele>492.08</ele>
   </trkpt>
   <trkpt lat="-37.88212" lon="145.35702">
    <ele>492.06000000000006</ele>
   </trkpt>
   <trkpt lat="-37.88226" lon="145.35667">
    <ele>491.45000000000005</ele>
   </trkpt>
   <trkpt lat="-37.88244" lon="145.35639">
    <ele>492.25</ele>
   </trkpt>
   <trkpt lat="-37.88266" lon="145.35619">
    <ele>492.56000000000006</ele>
   </trkpt>
   <trkpt lat="-37.88288" lon="145.35593">
    <ele>492.2900000000001</ele>
   </trkpt>
   <trkpt lat="-37.88302" lon="145.35574000000003">
    <ele>491.52000000000004</ele>
   </trkpt>
   <trkpt lat="-37.88318" lon="145.3554">
    <ele>489.49</ele>
   </trkpt>
   <trkpt lat="-37.88351" lon="145.3553">
    <ele>487.35</ele>
   </trkpt>
   <trkpt lat="-37.88351" lon="145.35512">
    <ele>486.92</ele>
   </trkpt>
   <trkpt lat="-37.88371" lon="145.35464000000002">
    <ele>485.7</ele>
   </trkpt>
   <trkpt lat="-37.88423" lon="145.35381">
    <ele>491.59000000000003</ele>
   </trkpt>
   <trkpt lat="-37.88434" lon="145.35368000000003">
    <ele>492.11</ele>
   </trkpt>
   <trkpt lat="-37.88497" lon="145.35328">
    <ele>490.96000000000004</ele>
   </trkpt>
   <trkpt lat="-37.88508" lon="145.35324">
    <ele>489.88000000000005</ele>
   </trkpt>
   <trkpt lat="-37.88544" lon="145.35307">
    <ele>487.47</ele>
   </trkpt>
   <trkpt lat="-37.88555" lon="145.35296000000002">
    <ele>482.84000000000003</ele>
   </trkpt>
   <trkpt lat="-37.88588" lon="145.35242000000002">
    <ele>478.47</ele>
   </trkpt>
   <trkpt lat="-37.88606" lon="145.35204000000002">
    <ele>473.32</ele>
   </trkpt>
   <trkpt lat="-37.88615" lon="145.35176">
    <ele>468.91</ele>
   </trkpt>
   <trkpt lat="-37.88626" lon="145.35184">
    <ele>468.72</ele>
   </trkpt>
   <trkpt lat="-37.88662" lon="145.352">
    <ele>466.5</ele>
   </trkpt>
   <trkpt lat="-37.88678" lon="145.35202">
    <ele>465.72</ele>
   </trkpt>
   <trkpt lat="-37.88698" lon="145.35202">
    <ele>462.70000000000005</ele>
   </trkpt>
   <trkpt lat="-37.887240000000006" lon="145.35214000000002">
    <ele>457.70000000000005</ele>
   </trkpt>
   <trkpt lat="-37.88745" lon="145.35251000000002">
    <ele>451.25000000000006</ele>
   </trkpt>
   <trkpt lat="-37.88765" lon="145.35301">
    <ele>442.20000000000005</ele>
   </trkpt>
   <trkpt lat="-37.88772" lon="145.35336">
    <ele>439.24</ele>
   </trkpt>
   <trkpt lat="-37.88781" lon="145.35358000000002">
    <ele>436.01</ele>
   </trkpt>
   <trkpt lat="-37.88792" lon="145.35378">
    <ele>431.44000000000005</ele>
   </trkpt>
   <trkpt lat="-37.8881" lon="145.35416">
    <ele>427.06000000000006</ele>
   </trkpt>
   <trkpt lat="-37.88828" lon="145.35435">
    <ele>422.68000000000006</ele>
   </trkpt>
   <trkpt lat="-37.88848" lon="145.35468">
    <ele>415.77000000000004</ele>
   </trkpt>
   <trkpt lat="-37.88857" lon="145.35492000000002">
    <ele>411.88</ele>
   </trkpt>
   <trkpt lat="-37.88855" lon="145.35496">
    <ele>411.88</ele>
   </trkpt>
   <trkpt lat="-37.888600000000004" lon="145.35502000000002">
    <ele>410.58000000000004</ele>
   </trkpt>
   <trkpt lat="-37.888630000000006" lon="145.35499000000002">
    <ele>408.63000000000005</ele>
   </trkpt>
   <trkpt lat="-37.88893" lon="145.35489">
    <ele>403.91</ele>
   </trkpt>
   <trkpt lat="-37.88915" lon="145.35486">
    <ele>401.76</ele>
   </trkpt>
   <trkpt lat="-37.88922" lon="145.35487">
    <ele>401.76</ele>
   </trkpt>
   <trkpt lat="-37.88958" lon="145.35502000000002">
    <ele>397.95000000000005</ele>
   </trkpt>
   <trkpt lat="-37.88964" lon="145.35511000000002">
    <ele>396.70000000000005</ele>
   </trkpt>
   <trkpt lat="-37.88985" lon="145.35506">
    <ele>390.48</ele>
   </trkpt>
   <trkpt lat="-37.889880000000005" lon="145.35507">
    <ele>390.48</ele>
   </trkpt>
   <trkpt lat="-37.89014" lon="145.35523">
    <ele>387.40000000000003</ele>
   </trkpt>
   <trkpt lat="-37.89034" lon="145.35532">
    <ele>384.35</ele>
   </trkpt>
   <trkpt lat="-37.89049" lon="145.35545000000002">
    <ele>382.66</ele>
   </trkpt>
   <trkpt lat="-37.891200000000005" lon="145.35612">
    <ele>373.98</ele>
   </trkpt>
   <trkpt lat="-37.891740000000006" lon="145.35659">
    <ele>364.81</ele>
   </trkpt>
   <trkpt lat="-37.89186" lon="145.35682">
    <ele>361.93</ele>
   </trkpt>
   <trkpt lat="-37.89195" lon="145.35690000000002">
    <ele>358.29</ele>
   </trkpt>
   <trkpt lat="-37.89246" lon="145.35709">
    <ele>349.49</ele>
   </trkpt>
   <trkpt lat="-37.89258" lon="145.35709">
    <ele>349.49</ele>
   </trkpt>
   <trkpt lat="-37.89273" lon="145.35704">
    <ele>345.47</ele>
   </trkpt>
   <trkpt lat="-37.89287" lon="145.35705000000002">
    <ele>345.47</ele>
   </trkpt>
   <trkpt lat="-37.89298" lon="145.35709">
    <ele>344.01000000000005</ele>
   </trkpt>
   <trkpt lat="-37.89316" lon="145.35723000000002">
    <ele>342.19000000000005</ele>
   </trkpt>
   <trkpt lat="-37.89329" lon="145.35727">
    <ele>341.87</ele>
   </trkpt>
   <trkpt lat="-37.89372" lon="145.35718">
    <ele>337.35</ele>
   </trkpt>
   <trkpt lat="-37.89408" lon="145.35721">
    <ele>331.81000000000006</ele>
   </trkpt>
   <trkpt lat="-37.89434" lon="145.35721">
    <ele>325.96000000000004</ele>
   </trkpt>
   <trkpt lat="-37.89457" lon="145.35724000000002">
    <ele>321.70000000000005</ele>
   </trkpt>
   <trkpt lat="-37.89488" lon="145.35737">
    <ele>317.69</ele>
   </trkpt>
   <trkpt lat="-37.89504" lon="145.35737">
    <ele>315.93000000000006</ele>
   </trkpt>
   <trkpt lat="-37.89522" lon="145.35726000000003">
    <ele>314.0</ele>
   </trkpt>
   <trkpt lat="-37.89531" lon="145.35732000000002">
    <ele>313.57</ele>
   </trkpt>
   <trkpt lat="-37.89558" lon="145.35738">
    <ele>309.82000000000005</ele>
   </trkpt>
   <trkpt lat="-37.89598" lon="145.35736">
    <ele>306.93</ele>
   </trkpt>
   <trkpt lat="-37.89616" lon="145.35745">
    <ele>305.43</ele>
   </trkpt>
   <trkpt lat="-37.89629" lon="145.35743000000002">
    <ele>305.1700000000001</ele>
   </trkpt>
   <trkpt lat="-37.89654" lon="145.35726000000003">
    <ele>303.02</ele>
   </trkpt>
   <trkpt lat="-37.8967" lon="145.357">
    <ele>301.55</ele>
   </trkpt>
   <trkpt lat="-37.89676" lon="145.35695">
    <ele>301.55</ele>
   </trkpt>
   <trkpt lat="-37.89728" lon="145.35668">
    <ele>295.68</ele>
   </trkpt>
   <trkpt lat="-37.89748" lon="145.35624">
    <ele>292.44000000000005</ele>
   </trkpt>
   <trkpt lat="-37.89795" lon="145.35578">
    <ele>286.58</ele>
   </trkpt>
   <trkpt lat="-37.89804" lon="145.35571000000002">
    <ele>285.74000000000007</ele>
   </trkpt>
   <trkpt lat="-37.8982" lon="145.35568">
    <ele>284.53</ele>
   </trkpt>
   <trkpt lat="-37.89819" lon="145.35568">
    <ele>284.61</ele>
   </trkpt>
   <trkpt lat="-37.89811" lon="145.35532">
    <ele>285.40999999999997</ele>
   </trkpt>
   <trkpt lat="-37.89788" lon="145.35500000000002">
    <ele>288.63</ele>
   </trkpt>
   <trkpt lat="-37.89775" lon="145.35477">
    <ele>290.49</ele>
   </trkpt>
   <trkpt lat="-37.89766" lon="145.35458">
    <ele>292.76</ele>
   </trkpt>
   <trkpt lat="-37.89759" lon="145.35435">
    <ele>294.24</ele>
   </trkpt>
   <trkpt lat="-37.89741" lon="145.35369">
    <ele>299.66</ele>
   </trkpt>
   <trkpt lat="-37.89734" lon="145.35315">
    <ele>304.24</ele>
   </trkpt>
   <trkpt lat="-37.89725" lon="145.35287000000002">
    <ele>306.49</ele>
   </trkpt>
   <trkpt lat="-37.89723" lon="145.35256">
    <ele>307.79</ele>
   </trkpt>
   <trkpt lat="-37.89725" lon="145.35237">
    <ele>308.27000000000004</ele>
   </trkpt>
   <trkpt lat="-37.89723" lon="145.35231000000002">
    <ele>308.45</ele>
   </trkpt>
   <trkpt lat="-37.89717" lon="145.35225">
    <ele>308.68</ele>
   </trkpt>
   <trkpt lat="-37.89674" lon="145.3521">
    <ele>312.43</ele>
   </trkpt>
   <trkpt lat="-37.89663" lon="145.35203">
    <ele>313.52000000000004</ele>
   </trkpt>
   <trkpt lat="-37.89609" lon="145.35136">
    <ele>321.90000000000003</ele>
   </trkpt>
   <trkpt lat="-37.89582" lon="145.35095">
    <ele>323.74</ele>
   </trkpt>
   <trkpt lat="-37.89566000000001" lon="145.35064">
    <ele>324.19000000000005</ele>
   </trkpt>
   <trkpt lat="-37.89546" lon="145.34998000000002">
    <ele>321.65000000000003</ele>
   </trkpt>
   <trkpt lat="-37.895410000000005" lon="145.34991000000002">
    <ele>321.65000000000003</ele>
   </trkpt>
   <trkpt lat="-37.89528" lon="145.34959">
    <ele>321.73</ele>
   </trkpt>
   <trkpt lat="-37.89526" lon="145.34951">
    <ele>321.90000000000003</ele>
   </trkpt>
   <trkpt lat="-37.895050000000005" lon="145.34922">
    <ele>323.38</ele>
   </trkpt>
   <trkpt lat="-37.89466" lon="145.34858">
    <ele>330.54</ele>
   </trkpt>
   <trkpt lat="-37.89419" lon="145.34762">
    <ele>342.61</ele>
   </trkpt>
   <trkpt lat="-37.894090000000006" lon="145.34743">
    <ele>345.11</ele>
   </trkpt>
   <trkpt lat="-37.89399" lon="145.34734">
    <ele>345.73</ele>
   </trkpt>
   <trkpt lat="-37.89399" lon="145.34735">
    <ele>345.73</ele>
   </trkpt>
   <trkpt lat="-37.89392" lon="145.34734">
    <ele>345.93</ele>
   </trkpt>
   <trkpt lat="-37.89367" lon="145.34722000000002">
    <ele>346.34000000000003</ele>
   </trkpt>
   <trkpt lat="-37.89345" lon="145.34701">
    <ele>347.72</ele>
   </trkpt>
   <trkpt lat="-37.89316" lon="145.34688">
    <ele>349.79</ele>
   </trkpt>
   <trkpt lat="-37.892770000000006" lon="145.34666">
    <ele>355.84000000000003</ele>
   </trkpt>
   <trkpt lat="-37.89235" lon="145.34657">
    <ele>362.6</ele>
   </trkpt>
   <trkpt lat="-37.89208" lon="145.34649000000002">
    <ele>366.83000000000004</ele>
   </trkpt>
   <trkpt lat="-37.891870000000004" lon="145.34645">
    <ele>370.44000000000005</ele>
   </trkpt>
   <trkpt lat="-37.89166" lon="145.34634">
    <ele>374.35</ele>
   </trkpt>
   <trkpt lat="-37.8915" lon="145.3462">
    <ele>377.55000000000007</ele>
   </trkpt>
   <trkpt lat="-37.89141" lon="145.34617">
    <ele>379.20000000000005</ele>
   </trkpt>
   <trkpt lat="-37.89099" lon="145.34611">
    <ele>388.61</ele>
   </trkpt>
   <trkpt lat="-37.89072" lon="145.34623000000002">
    <ele>392.75000000000006</ele>
   </trkpt>
   <trkpt lat="-37.89036" lon="145.34618">
    <ele>403.83000000000004</ele>
   </trkpt>
   <trkpt lat="-37.89016" lon="145.34611">
    <ele>407.45000000000005</ele>
   </trkpt>
   <trkpt lat="-37.89" lon="145.34609">
    <ele>413.71000000000004</ele>
   </trkpt>
   <trkpt lat="-37.88991" lon="145.34611">
    <ele>416.30000000000007</ele>
   </trkpt>
   <trkpt lat="-37.88973" lon="145.3462">
    <ele>423.03000000000003</ele>
   </trkpt>
   <trkpt lat="-37.88935" lon="145.34658000000002">
    <ele>435.7300000000001</ele>
   </trkpt>
   <trkpt lat="-37.88897" lon="145.34685000000002">
    <ele>451.58000000000004</ele>
   </trkpt>
   <trkpt lat="-37.88879" lon="145.34693000000001">
    <ele>456.83</ele>
   </trkpt>
   <trkpt lat="-37.888180000000006" lon="145.34709">
    <ele>470.09000000000003</ele>
   </trkpt>
   <trkpt lat="-37.88796" lon="145.34717">
    <ele>474.77000000000004</ele>
   </trkpt>
   <trkpt lat="-37.88781" lon="145.34726">
    <ele>479.22</ele>
   </trkpt>
   <trkpt lat="-37.88749" lon="145.34755">
    <ele>484.14</ele>
   </trkpt>
   <trkpt lat="-37.88705" lon="145.34804000000003">
    <ele>490.83000000000004</ele>
   </trkpt>
   <trkpt lat="-37.8868" lon="145.34823">
    <ele>493.24000000000007</ele>
   </trkpt>
   <trkpt lat="-37.88669" lon="145.34829000000002">
    <ele>493.6</ele>
   </trkpt>
   <trkpt lat="-37.88664" lon="145.34829000000002">
    <ele>493.63</ele>
   </trkpt>
   <trkpt lat="-37.88658" lon="145.34825">
    <ele>493.59000000000003</ele>
   </trkpt>
   <trkpt lat="-37.88606" lon="145.3478">
    <ele>491.46000000000004</ele>
   </trkpt>
   <trkpt lat="-37.88555" lon="145.34747000000002">
    <ele>489.62000000000006</ele>
   </trkpt>
   <trkpt lat="-37.88517" lon="145.34727">
    <ele>489.95000000000005</ele>
   </trkpt>
   <trkpt lat="-37.88492" lon="145.34708">
    <ele>491.27000000000004</ele>
   </trkpt>
   <trkpt lat="-37.88461" lon="145.34673">
    <ele>493.01000000000005</ele>
   </trkpt>
   <trkpt lat="-37.88454" lon="145.34662">
    <ele>493.81</ele>
   </trkpt>
   <trkpt lat="-37.88447" lon="145.34646">
    <ele>494.82000000000005</ele>
   </trkpt>
   <trkpt lat="-37.8842" lon="145.34558">
    <ele>503.40000000000003</ele>
   </trkpt>
   <trkpt lat="-37.88411" lon="145.34534000000002">
    <ele>505.58000000000004</ele>
   </trkpt>
   <trkpt lat="-37.88396" lon="145.34514000000001">
    <ele>507.6700000000001</ele>
   </trkpt>
   <trkpt lat="-37.88389" lon="145.34507000000002">
    <ele>508.32</ele>
   </trkpt>
   <trkpt lat="-37.88349" lon="145.34484">
    <ele>510.44</ele>
   </trkpt>
   <trkpt lat="-37.883" lon="145.34471000000002">
    <ele>513.95</ele>
   </trkpt>
   <trkpt lat="-37.88275" lon="145.34470000000002">
    <ele>516.1999999999999</ele>
   </trkpt>
   <trkpt lat="-37.88228" lon="145.34477">
    <ele>519.6</ele>
   </trkpt>
   <trkpt lat="-37.881665000197465" lon="145.3446049986443">
    <ele>523.3800000000001</ele>
   </trkpt>
   <trkpt lat="-37.88105" lon="145.34444000000002">
    <ele>524.21</ele>
   </trkpt>
   <trkpt lat="-37.8803450007479" lon="145.3440799966561">
    <ele>518.76</ele>
   </trkpt>
   <trkpt lat="-37.87964" lon="145.34372000000002">
    <ele>507.19</ele>
   </trkpt>
   <trkpt lat="-37.87955" lon="145.34361">
    <ele>503.62000000000006</ele>
   </trkpt>
   <trkpt lat="-37.87937" lon="145.34337000000002">
    <ele>500.65000000000003</ele>
   </trkpt>
   <trkpt lat="-37.87917" lon="145.34300000000002">
    <ele>497.58</ele>
   </trkpt>
   <trkpt lat="-37.87901" lon="145.34286">
    <ele>494.96000000000004</ele>
   </trkpt>
   <trkpt lat="-37.87892" lon="145.34284000000002">
    <ele>494.96000000000004</ele>
   </trkpt>
   <trkpt lat="-37.878930000000004" lon="145.34284000000002">
    <ele>494.96000000000004</ele>
   </trkpt>
   <trkpt lat="-37.87877" lon="145.34292000000002">
    <ele>493.32000000000005</ele>
   </trkpt>
   <trkpt lat="-37.87892" lon="145.34343">
    <ele>497.43</ele>
   </trkpt>
   <trkpt lat="-37.879070000000006" lon="145.34405">
    <ele>499.62000000000006</ele>
   </trkpt>
   <trkpt lat="-37.87919" lon="145.34452000000002">
    <ele>500.24</ele>
   </trkpt>
   <trkpt lat="-37.87944" lon="145.34486">
    <ele>502.26000000000005</ele>
   </trkpt>
   <trkpt lat="-37.87973" lon="145.34534000000002">
    <ele>500.30000000000007</ele>
   </trkpt>
   <trkpt lat="-37.8802" lon="145.34602">
    <ele>497.21000000000004</ele>
   </trkpt>
   <trkpt lat="-37.88042" lon="145.34634">
    <ele>494.8</ele>
   </trkpt>
   <trkpt lat="-37.88067" lon="145.34663">
    <ele>493.41</ele>
   </trkpt>
   <trkpt lat="-37.880860000000006" lon="145.34682">
    <ele>492.8500000000001</ele>
   </trkpt>
   <trkpt lat="-37.88105" lon="145.34695000000002">
    <ele>492.43</ele>
   </trkpt>
   <trkpt lat="-37.88154" lon="145.34723000000002">
    <ele>489.61</ele>
   </trkpt>
   <trkpt lat="-37.88167" lon="145.34744">
    <ele>486.66</ele>
   </trkpt>
   <trkpt lat="-37.88201" lon="145.34819000000002">
    <ele>482.49</ele>
   </trkpt>
   <trkpt lat="-37.88226" lon="145.34839000000002">
    <ele>481.16</ele>
   </trkpt>
   <trkpt lat="-37.88255" lon="145.34856000000002">
    <ele>480.48</ele>
   </trkpt>
   <trkpt lat="-37.88302" lon="145.3487">
    <ele>480.5</ele>
   </trkpt>
   <trkpt lat="-37.88311" lon="145.34876">
    <ele>480.48</ele>
   </trkpt>
   <trkpt lat="-37.8836" lon="145.34926000000002">
    <ele>479.35</ele>
   </trkpt>
   <trkpt lat="-37.88405" lon="145.34945000000002">
    <ele>478.41</ele>
   </trkpt>
   <trkpt lat="-37.88436" lon="145.34969">
    <ele>477.63000000000005</ele>
   </trkpt>
   <trkpt lat="-37.88456" lon="145.35004">
    <ele>475.33000000000004</ele>
   </trkpt>
   <trkpt lat="-37.88461" lon="145.35017000000002">
    <ele>475.33000000000004</ele>
   </trkpt>
   <trkpt lat="-37.884640000000005" lon="145.35035000000002">
    <ele>473.25000000000006</ele>
   </trkpt>
   <trkpt lat="-37.88461" lon="145.35046">
    <ele>472.19000000000005</ele>
   </trkpt>
   <trkpt lat="-37.88461" lon="145.35066">
    <ele>469.74</ele>
   </trkpt>
   <trkpt lat="-37.884710000000005" lon="145.35090000000002">
    <ele>468.13000000000005</ele>
   </trkpt>
   <trkpt lat="-37.88477" lon="145.35099000000002">
    <ele>469.87000000000006</ele>
   </trkpt>
   <trkpt lat="-37.88443" lon="145.35102">
    <ele>472.07000000000005</ele>
   </trkpt>
   <trkpt lat="-37.88427" lon="145.35105000000001">
    <ele>472.84000000000003</ele>
   </trkpt>
   <trkpt lat="-37.88402" lon="145.3512">
    <ele>475.7</ele>
   </trkpt>
   <trkpt lat="-37.883790000000005" lon="145.35131">
    <ele>476.77000000000004</ele>
   </trkpt>
   <trkpt lat="-37.88347" lon="145.35125000000002">
    <ele>480.31</ele>
   </trkpt>
   <trkpt lat="-37.8834" lon="145.35126000000002">
    <ele>481.18000000000006</ele>
   </trkpt>
   <trkpt lat="-37.88324" lon="145.3513">
    <ele>482.21000000000004</ele>
   </trkpt>
   <trkpt lat="-37.882920000000006" lon="145.35153000000003">
    <ele>487.56000000000006</ele>
   </trkpt>
   <trkpt lat="-37.88266" lon="145.35173">
    <ele>489.89000000000004</ele>
   </trkpt>
   <trkpt lat="-37.882090000518616" lon="145.35208500275652">
    <ele>495.64</ele>
   </trkpt>
   <trkpt lat="-37.88152" lon="145.35244">
    <ele>497.25</ele>
   </trkpt>
   <trkpt lat="-37.88125" lon="145.35248">
    <ele>497.65000000000003</ele>
   </trkpt>
   <trkpt lat="-37.88103" lon="145.35239">
    <ele>498.37</ele>
   </trkpt>
   <trkpt lat="-37.88056" lon="145.35199">
    <ele>498.66</ele>
   </trkpt>
   <trkpt lat="-37.88042" lon="145.35184">
    <ele>498.44000000000005</ele>
   </trkpt>
   <trkpt lat="-37.88011" lon="145.35161000000002">
    <ele>497.94000000000005</ele>
   </trkpt>
   <trkpt lat="-37.87993" lon="145.35151000000002">
    <ele>497.86</ele>
   </trkpt>
   <trkpt lat="-37.87961" lon="145.3514">
    <ele>498.11000000000007</ele>
   </trkpt>
   <trkpt lat="-37.87946" lon="145.35142000000002">
    <ele>498.01000000000005</ele>
   </trkpt>
   <trkpt lat="-37.87908" lon="145.35178000000002">
    <ele>496.85</ele>
   </trkpt>
   <trkpt lat="-37.87894" lon="145.35199">
    <ele>496.56000000000006</ele>
   </trkpt>
   <trkpt lat="-37.87859" lon="145.35291">
    <ele>494.13</ele>
   </trkpt>
   <trkpt lat="-37.87847" lon="145.35309">
    <ele>494.13</ele>
   </trkpt>
   <trkpt lat="-37.878130000000006" lon="145.35348000000002">
    <ele>492.94000000000005</ele>
   </trkpt>
   <trkpt lat="-37.87771" lon="145.35379">
    <ele>491.73</ele>
   </trkpt>
   <trkpt lat="-37.877370000000006" lon="145.35409">
    <ele>491.14</ele>
   </trkpt>
   <trkpt lat="-37.87724" lon="145.35415">
    <ele>484.55</ele>
   </trkpt>
   <trkpt lat="-37.87773" lon="145.35335">
    <ele>487.84000000000003</ele>
   </trkpt>
   <trkpt lat="-37.87782" lon="145.35314000000002">
    <ele>489.49</ele>
   </trkpt>
   <trkpt lat="-37.87816" lon="145.35258000000002">
    <ele>491.46000000000004</ele>
   </trkpt>
   <trkpt lat="-37.87827" lon="145.35227">
    <ele>492.94000000000005</ele>
   </trkpt>
   <trkpt lat="-37.87832" lon="145.35207000000003">
    <ele>493.75</ele>
   </trkpt>
   <trkpt lat="-37.87841" lon="145.3519">
    <ele>494.2300000000001</ele>
   </trkpt>
   <trkpt lat="-37.87859" lon="145.35132000000002">
    <ele>495.95000000000005</ele>
   </trkpt>
   <trkpt lat="-37.87876" lon="145.35029">
    <ele>500.0300000000001</ele>
   </trkpt>
   <trkpt lat="-37.87872" lon="145.34991000000002">
    <ele>500.99</ele>
   </trkpt>
   <trkpt lat="-37.87847" lon="145.34895">
    <ele>503.17</ele>
   </trkpt>
   <trkpt lat="-37.87825" lon="145.34847000000002">
    <ele>506.27</ele>
   </trkpt>
   <trkpt lat="-37.878040000000006" lon="145.34804000000003">
    <ele>509.57000000000005</ele>
   </trkpt>
   <trkpt lat="-37.87794" lon="145.34774000000002">
    <ele>511.46000000000004</ele>
   </trkpt>
   <trkpt lat="-37.87776" lon="145.34745">
    <ele>513.08</ele>
   </trkpt>
   <trkpt lat="-37.87758" lon="145.34729000000002">
    <ele>514.0</ele>
   </trkpt>
   <trkpt lat="-37.87726" lon="145.34721000000002">
    <ele>514.38</ele>
   </trkpt>
   <trkpt lat="-37.8767" lon="145.34722000000002">
    <ele>514.38</ele>
   </trkpt>
   <trkpt lat="-37.87648" lon="145.34716">
    <ele>514.03</ele>
   </trkpt>
   <trkpt lat="-37.8763" lon="145.34708">
    <ele>514.49</ele>
   </trkpt>
   <trkpt lat="-37.87621" lon="145.34698">
    <ele>515.26</ele>
   </trkpt>
   <trkpt lat="-37.87615" lon="145.34678000000002">
    <ele>517.23</ele>
   </trkpt>
   <trkpt lat="-37.87603" lon="145.34592">
    <ele>519.2800000000001</ele>
   </trkpt>
   <trkpt lat="-37.87603" lon="145.34573">
    <ele>519.26</ele>
   </trkpt>
   <trkpt lat="-37.87599" lon="145.3454">
    <ele>518.8900000000001</ele>
   </trkpt>
   <trkpt lat="-37.87599" lon="145.34493">
    <ele>516.78</ele>
   </trkpt>
   <trkpt lat="-37.8759" lon="145.34467">
    <ele>515.8600000000001</ele>
   </trkpt>
   <trkpt lat="-37.875690000000006" lon="145.34416000000002">
    <ele>513.9</ele>
   </trkpt>
   <trkpt lat="-37.87556" lon="145.34399000000002">
    <ele>512.7</ele>
   </trkpt>
   <trkpt lat="-37.875510000000006" lon="145.34384">
    <ele>512.51</ele>
   </trkpt>
   <trkpt lat="-37.87545" lon="145.3436">
    <ele>510.92</ele>
   </trkpt>
   <trkpt lat="-37.8755" lon="145.34335000000002">
    <ele>508.99000000000007</ele>
   </trkpt>
   <trkpt lat="-37.875510000000006" lon="145.34301000000002">
    <ele>504.70000000000005</ele>
   </trkpt>
   <trkpt lat="-37.875370000000004" lon="145.34295">
    <ele>503.06000000000006</ele>
   </trkpt>
   <trkpt lat="-37.875350000000005" lon="145.3428">
    <ele>502.65999999999997</ele>
   </trkpt>
   <trkpt lat="-37.87536" lon="145.3428">
    <ele>502.6400000000001</ele>
   </trkpt>
   <trkpt lat="-37.87581" lon="145.34248000000002">
    <ele>501.87</ele>
   </trkpt>
   <trkpt lat="-37.875980000000006" lon="145.34243">
    <ele>501.92999999999995</ele>
   </trkpt>
   <trkpt lat="-37.876000000000005" lon="145.34233">
    <ele>501.73</ele>
   </trkpt>
   <trkpt lat="-37.87603" lon="145.34226">
    <ele>502.09999999999997</ele>
   </trkpt>
   <trkpt lat="-37.87642000049679" lon="145.3419650014645">
    <ele>504.01000000000005</ele>
   </trkpt>
   <trkpt lat="-37.876810000000006" lon="145.34167000000002">
    <ele>506.9100000000001</ele>
   </trkpt>
   <trkpt lat="-37.87642000023929" lon="145.34196500165928">
    <ele>504.01000000000005</ele>
   </trkpt>
   <trkpt lat="-37.87603" lon="145.34226">
    <ele>502.09999999999997</ele>
   </trkpt>
   <trkpt lat="-37.876000000000005" lon="145.34233">
    <ele>501.73</ele>
   </trkpt>
   <trkpt lat="-37.87603" lon="145.34226">
    <ele>502.09999999999997</ele>
   </trkpt>
   <trkpt lat="-37.87652000049362" lon="145.3418900025257">
    <ele>504.73</ele>
   </trkpt>
   <trkpt lat="-37.877010000000006" lon="145.34152">
    <ele>508.55000000000007</ele>
   </trkpt>
   <trkpt lat="-37.87711" lon="145.34137">
    <ele>510.9600000000001</ele>
   </trkpt>
   <trkpt lat="-37.87743500123226" lon="145.3408600020427">
    <ele>513.97</ele>
   </trkpt>
   <trkpt lat="-37.87776" lon="145.34035">
    <ele>517.0600000000001</ele>
   </trkpt>
   <trkpt lat="-37.87824000311462" lon="145.33950000543462">
    <ele>522.6700000000001</ele>
   </trkpt>
   <trkpt lat="-37.87872" lon="145.33865">
    <ele>529.87</ele>
   </trkpt>
   <trkpt lat="-37.87866" lon="145.3386">
    <ele>532.2600000000001</ele>
   </trkpt>
   <trkpt lat="-37.87795666694364" lon="145.33841666316363">
    <ele>541.7700000000001</ele>
   </trkpt>
   <trkpt lat="-37.87725333360297" lon="145.33823332982843">
    <ele>543.85</ele>
   </trkpt>
   <trkpt lat="-37.87655" lon="145.33805">
    <ele>538.83</ele>
   </trkpt>
   <trkpt lat="-37.87581" lon="145.33782000000002">
    <ele>529.0</ele>
   </trkpt>
   <trkpt lat="-37.87563" lon="145.33741">
    <ele>525.81</ele>
   </trkpt>
   <trkpt lat="-37.87532" lon="145.33717000000001">
    <ele>520.58</ele>
   </trkpt>
   <trkpt lat="-37.87489" lon="145.33734">
    <ele>514.42</ele>
   </trkpt>
   <trkpt lat="-37.87442" lon="145.33729000000002">
    <ele>505.7900000000001</ele>
   </trkpt>
   <trkpt lat="-37.87407" lon="145.33732">
    <ele>499.37</ele>
   </trkpt>
   <trkpt lat="-37.874050000000004" lon="145.33732">
    <ele>499.15000000000003</ele>
   </trkpt>
   <trkpt lat="-37.87397" lon="145.33701000000002">
    <ele>495.2300000000001</ele>
   </trkpt>
   <trkpt lat="-37.87391" lon="145.33668">
    <ele>492.98</ele>
   </trkpt>
   <trkpt lat="-37.87393" lon="145.33620000000002">
    <ele>488.17</ele>
   </trkpt>
   <trkpt lat="-37.87406" lon="145.33561">
    <ele>483.06000000000006</ele>
   </trkpt>
   <trkpt lat="-37.87414000145162" lon="145.33503000041983">
    <ele>477.73</ele>
   </trkpt>
   <trkpt lat="-37.87422" lon="145.33445">
    <ele>473.09000000000003</ele>
   </trkpt>
   <trkpt lat="-37.87443500202568" lon="145.33376000197453">
    <ele>468.86000000000007</ele>
   </trkpt>
   <trkpt lat="-37.87465" lon="145.33307000000002">
    <ele>462.53000000000003</ele>
   </trkpt>
   <trkpt lat="-37.87489" lon="145.33247">
    <ele>455.51</ele>
   </trkpt>
   <trkpt lat="-37.87534" lon="145.33156000000002">
    <ele>443.02000000000004</ele>
   </trkpt>
   <trkpt lat="-37.87543" lon="145.33131">
    <ele>440.99000000000007</ele>
   </trkpt>
   <trkpt lat="-37.87545" lon="145.33118000000002">
    <ele>440.54</ele>
   </trkpt>
   <trkpt lat="-37.875440000000005" lon="145.33104">
    <ele>440.14000000000004</ele>
   </trkpt>
   <trkpt lat="-37.87543" lon="145.33102000000002">
    <ele>440.12</ele>
   </trkpt>
   <trkpt lat="-37.875400000000006" lon="145.33097">
    <ele>439.97</ele>
   </trkpt>
   <trkpt lat="-37.875" lon="145.33088">
    <ele>434.94000000000005</ele>
   </trkpt>
   <trkpt lat="-37.87465" lon="145.33086">
    <ele>431.85</ele>
   </trkpt>
   <trkpt lat="-37.87444" lon="145.33082000000002">
    <ele>429.06000000000006</ele>
   </trkpt>
   <trkpt lat="-37.87415" lon="145.33067">
    <ele>423.89000000000004</ele>
   </trkpt>
   <trkpt lat="-37.87397" lon="145.33055000000002">
    <ele>421.59000000000003</ele>
   </trkpt>
   <trkpt lat="-37.87384" lon="145.33040000000003">
    <ele>420.62000000000006</ele>
   </trkpt>
   <trkpt lat="-37.87341" lon="145.33013000000003">
    <ele>414.46000000000004</ele>
   </trkpt>
   <trkpt lat="-37.87292" lon="145.32993000000002">
    <ele>407.98</ele>
   </trkpt>
   <trkpt lat="-37.8725" lon="145.32989">
    <ele>402.23</ele>
   </trkpt>
   <trkpt lat="-37.872510000000005" lon="145.32989">
    <ele>402.23</ele>
   </trkpt>
   <trkpt lat="-37.87227" lon="145.33004000000003">
    <ele>398.01000000000005</ele>
   </trkpt>
   <trkpt lat="-37.87223" lon="145.33017">
    <ele>396.70000000000005</ele>
   </trkpt>
   <trkpt lat="-37.87221" lon="145.33038000000002">
    <ele>394.78000000000003</ele>
   </trkpt>
   <trkpt lat="-37.87223" lon="145.3309">
    <ele>391.27</ele>
   </trkpt>
   <trkpt lat="-37.87225" lon="145.33113">
    <ele>391.02000000000004</ele>
   </trkpt>
   <trkpt lat="-37.87236" lon="145.33138000000002">
    <ele>389.91</ele>
   </trkpt>
   <trkpt lat="-37.87263" lon="145.33171000000002">
    <ele>388.47</ele>
   </trkpt>
   <trkpt lat="-37.87279" lon="145.33183000000002">
    <ele>387.04</ele>
   </trkpt>
   <trkpt lat="-37.87297" lon="145.33206">
    <ele>385.23</ele>
   </trkpt>
   <trkpt lat="-37.87301" lon="145.33218000000002">
    <ele>384.68</ele>
   </trkpt>
   <trkpt lat="-37.87301" lon="145.33226000000002">
    <ele>384.64000000000004</ele>
   </trkpt>
   <trkpt lat="-37.872890000000005" lon="145.3325">
    <ele>384.52000000000004</ele>
   </trkpt>
   <trkpt lat="-37.87268" lon="145.33283">
    <ele>382.98</ele>
   </trkpt>
   <trkpt lat="-37.87238" lon="145.33305000000001">
    <ele>381.35</ele>
   </trkpt>
   <trkpt lat="-37.87207" lon="145.33307000000002">
    <ele>376.25</ele>
   </trkpt>
   <trkpt lat="-37.87167" lon="145.33290000000002">
    <ele>371.96</ele>
   </trkpt>
   <trkpt lat="-37.871280000000006" lon="145.33282">
    <ele>367.72</ele>
   </trkpt>
   <trkpt lat="-37.87113" lon="145.33284">
    <ele>367.45000000000005</ele>
   </trkpt>
   <trkpt lat="-37.87102" lon="145.33292">
    <ele>367.44000000000005</ele>
   </trkpt>
   <trkpt lat="-37.87091" lon="145.33315000000002">
    <ele>367.32000000000005</ele>
   </trkpt>
   <trkpt lat="-37.87082" lon="145.33339">
    <ele>366.04</ele>
   </trkpt>
   <trkpt lat="-37.87075" lon="145.33419">
    <ele>360.16</ele>
   </trkpt>
   <trkpt lat="-37.870810000000006" lon="145.33446">
    <ele>359.32</ele>
   </trkpt>
   <trkpt lat="-37.870810000000006" lon="145.3347">
    <ele>358.09000000000003</ele>
   </trkpt>
   <trkpt lat="-37.87075" lon="145.33478000000002">
    <ele>356.58</ele>
   </trkpt>
   <trkpt lat="-37.87066" lon="145.33478000000002">
    <ele>356.58</ele>
   </trkpt>
   <trkpt lat="-37.870450000000005" lon="145.33465">
    <ele>354.85</ele>
   </trkpt>
   <trkpt lat="-37.87055" lon="145.33518">
    <ele>364.03000000000003</ele>
   </trkpt>
   <trkpt lat="-37.87035" lon="145.3356">
    <ele>377.06</ele>
   </trkpt>
   <trkpt lat="-37.8701" lon="145.33595000000003">
    <ele>383.45</ele>
   </trkpt>
   <trkpt lat="-37.87001" lon="145.33628000000002">
    <ele>389.16</ele>
   </trkpt>
   <trkpt lat="-37.86983" lon="145.33668">
    <ele>396.08000000000004</ele>
   </trkpt>
   <trkpt lat="-37.869670000000006" lon="145.33686">
    <ele>396.38</ele>
   </trkpt>
   <trkpt lat="-37.86968" lon="145.33685">
    <ele>396.38</ele>
   </trkpt>
   <trkpt lat="-37.86927" lon="145.33711000000002">
    <ele>396.34000000000003</ele>
   </trkpt>
   <trkpt lat="-37.86914" lon="145.33722">
    <ele>398.37000000000006</ele>
   </trkpt>
   <trkpt lat="-37.86905" lon="145.33726000000001">
    <ele>399.02000000000004</ele>
   </trkpt>
   <trkpt lat="-37.86891" lon="145.33724">
    <ele>398.64000000000004</ele>
   </trkpt>
   <trkpt lat="-37.8686" lon="145.33698">
    <ele>395.44</ele>
   </trkpt>
   <trkpt lat="-37.86831" lon="145.3368">
    <ele>396.40000000000003</ele>
   </trkpt>
   <trkpt lat="-37.86813" lon="145.33664000000002">
    <ele>396.92</ele>
   </trkpt>
   <trkpt lat="-37.867900000000006" lon="145.33622000000003">
    <ele>397.85</ele>
   </trkpt>
   <trkpt lat="-37.86762" lon="145.33587">
    <ele>398.91</ele>
   </trkpt>
   <trkpt lat="-37.86748" lon="145.33566000000002">
    <ele>399.75000000000006</ele>
   </trkpt>
   <trkpt lat="-37.86741" lon="145.33546">
    <ele>400.69000000000005</ele>
   </trkpt>
   <trkpt lat="-37.86735" lon="145.33513000000002">
    <ele>403.57000000000005</ele>
   </trkpt>
   <trkpt lat="-37.86735" lon="145.33496000000002">
    <ele>403.57000000000005</ele>
   </trkpt>
   <trkpt lat="-37.86744" lon="145.33439">
    <ele>406.13000000000005</ele>
   </trkpt>
   <trkpt lat="-37.86741" lon="145.33403">
    <ele>408.33000000000004</ele>
   </trkpt>
   <trkpt lat="-37.86737" lon="145.33386000000002">
    <ele>408.33000000000004</ele>
   </trkpt>
   <trkpt lat="-37.8673" lon="145.33371000000002">
    <ele>409.56</ele>
   </trkpt>
   <trkpt lat="-37.867200000000004" lon="145.33355">
    <ele>410.97</ele>
   </trkpt>
   <trkpt lat="-37.86697" lon="145.33335000000002">
    <ele>409.05</ele>
   </trkpt>
   <trkpt lat="-37.86634" lon="145.33317000000002">
    <ele>402.47</ele>
   </trkpt>
   <trkpt lat="-37.86568000015063" lon="145.33300499853112">
    <ele>398.06</ele>
   </trkpt>
   <trkpt lat="-37.86502" lon="145.33284">
    <ele>392.3</ele>
   </trkpt>
   <trkpt lat="-37.86482" lon="145.33287">
    <ele>391.79</ele>
   </trkpt>
   <trkpt lat="-37.864830000000005" lon="145.33286">
    <ele>391.79</ele>
   </trkpt>
   <trkpt lat="-37.86473" lon="145.33291">
    <ele>390.94</ele>
   </trkpt>
   <trkpt lat="-37.86464" lon="145.333">
    <ele>390.94</ele>
   </trkpt>
   <trkpt lat="-37.86451" lon="145.3332">
    <ele>388.39</ele>
   </trkpt>
   <trkpt lat="-37.86475" lon="145.33338">
    <ele>398.11</ele>
   </trkpt>
   <trkpt lat="-37.86493" lon="145.33347">
    <ele>402.37</ele>
   </trkpt>
   <trkpt lat="-37.86529" lon="145.33396000000002">
    <ele>414.91</ele>
   </trkpt>
   <trkpt lat="-37.8656" lon="145.33411">
    <ele>422.38000000000005</ele>
   </trkpt>
   <trkpt lat="-37.86571" lon="145.3342">
    <ele>424.45000000000005</ele>
   </trkpt>
   <trkpt lat="-37.86576" lon="145.33428">
    <ele>425.29</ele>
   </trkpt>
   <trkpt lat="-37.86581500171866" lon="145.3349149996823">
    <ele>424.3</ele>
   </trkpt>
   <trkpt lat="-37.86587" lon="145.33555">
    <ele>421.58</ele>
   </trkpt>
   <trkpt lat="-37.86585" lon="145.3356">
    <ele>420.81</ele>
   </trkpt>
   <trkpt lat="-37.86585" lon="145.33585000000002">
    <ele>419.64</ele>
   </trkpt>
   <trkpt lat="-37.86583" lon="145.33618">
    <ele>418.55</ele>
   </trkpt>
   <trkpt lat="-37.86562" lon="145.33726000000001">
    <ele>417.7</ele>
   </trkpt>
   <trkpt lat="-37.865465001196924" lon="145.3377950011717">
    <ele>417.23</ele>
   </trkpt>
   <trkpt lat="-37.86531" lon="145.33833">
    <ele>417.63000000000005</ele>
   </trkpt>
   <trkpt lat="-37.86506" lon="145.33889000000002">
    <ele>420.23</ele>
   </trkpt>
   <trkpt lat="-37.86495" lon="145.33935000000002">
    <ele>422.26</ele>
   </trkpt>
   <trkpt lat="-37.86486" lon="145.33964">
    <ele>422.72</ele>
   </trkpt>
   <trkpt lat="-37.864760000000004" lon="145.33978000000002">
    <ele>424.09000000000003</ele>
   </trkpt>
   <trkpt lat="-37.86475" lon="145.33980000000003">
    <ele>424.26</ele>
   </trkpt>
   <trkpt lat="-37.86464" lon="145.33988000000002">
    <ele>426.67</ele>
   </trkpt>
   <trkpt lat="-37.8645" lon="145.33989000000003">
    <ele>428.50000000000006</ele>
   </trkpt>
   <trkpt lat="-37.8641" lon="145.33975">
    <ele>431.11</ele>
   </trkpt>
   <trkpt lat="-37.863780000000006" lon="145.33974">
    <ele>433.1</ele>
   </trkpt>
   <trkpt lat="-37.86354" lon="145.33979000000002">
    <ele>434.85</ele>
   </trkpt>
   <trkpt lat="-37.86318" lon="145.33996000000002">
    <ele>437.58000000000004</ele>
   </trkpt>
   <trkpt lat="-37.862860000000005" lon="145.34025000000003">
    <ele>439.6</ele>
   </trkpt>
   <trkpt lat="-37.863" lon="145.34040000000002">
    <ele>443.92</ele>
   </trkpt>
   <trkpt lat="-37.862860000000005" lon="145.34025000000003">
    <ele>439.6</ele>
   </trkpt>
   <trkpt lat="-37.8622" lon="145.33963">
    <ele>420.6</ele>
   </trkpt>
   <trkpt lat="-37.86168" lon="145.33925000000002">
    <ele>411.84000000000003</ele>
   </trkpt>
   <trkpt lat="-37.86095" lon="145.33902">
    <ele>394.52000000000004</ele>
   </trkpt>
   <trkpt lat="-37.86079" lon="145.33893">
    <ele>392.69000000000005</ele>
   </trkpt>
   <trkpt lat="-37.8607" lon="145.33889000000002">
    <ele>390.8</ele>
   </trkpt>
   <trkpt lat="-37.8607" lon="145.33880000000002">
    <ele>390.98</ele>
   </trkpt>
   <trkpt lat="-37.860510000000005" lon="145.33876">
    <ele>394.20000000000005</ele>
   </trkpt>
   <trkpt lat="-37.8605" lon="145.33886">
    <ele>393.97</ele>
   </trkpt>
   <trkpt lat="-37.86056" lon="145.33914000000001">
    <ele>393.88</ele>
   </trkpt>
   <trkpt lat="-37.86081" lon="145.33949">
    <ele>394.64000000000004</ele>
   </trkpt>
   <trkpt lat="-37.86115" lon="145.33973">
    <ele>393.52000000000004</ele>
   </trkpt>
   <trkpt lat="-37.86117" lon="145.33978000000002">
    <ele>392.28000000000003</ele>
   </trkpt>
   <trkpt lat="-37.86117" lon="145.3399">
    <ele>388.81000000000006</ele>
   </trkpt>
   <trkpt lat="-37.86112" lon="145.34012">
    <ele>380.89</ele>
   </trkpt>
   <trkpt lat="-37.86086" lon="145.34071">
    <ele>363.37</ele>
   </trkpt>
   <trkpt lat="-37.860780000000005" lon="145.341">
    <ele>358.97</ele>
   </trkpt>
   <trkpt lat="-37.86092" lon="145.34113000000002">
    <ele>359.00000000000006</ele>
   </trkpt>
   <trkpt lat="-37.86097" lon="145.34123000000002">
    <ele>361.55</ele>
   </trkpt>
   <trkpt lat="-37.86108" lon="145.3417">
    <ele>365.19</ele>
   </trkpt>
   <trkpt lat="-37.86121" lon="145.34249">
    <ele>368.94000000000005</ele>
   </trkpt>
   <trkpt lat="-37.86128" lon="145.34276">
    <ele>370.89000000000004</ele>
   </trkpt>
   <trkpt lat="-37.86139" lon="145.34300000000002">
    <ele>371.77000000000004</ele>
   </trkpt>
   <trkpt lat="-37.861520000000006" lon="145.34317000000001">
    <ele>372.73</ele>
   </trkpt>
   <trkpt lat="-37.86168" lon="145.34332">
    <ele>375.44000000000005</ele>
   </trkpt>
   <trkpt lat="-37.86204" lon="145.34342">
    <ele>377.46000000000004</ele>
   </trkpt>
   <trkpt lat="-37.86231" lon="145.34352">
    <ele>379.41</ele>
   </trkpt>
   <trkpt lat="-37.86296" lon="145.34383000000003">
    <ele>383.66</ele>
   </trkpt>
   <trkpt lat="-37.86303" lon="145.34388">
    <ele>384.0</ele>
   </trkpt>
   <trkpt lat="-37.86307" lon="145.34395">
    <ele>384.16</ele>
   </trkpt>
   <trkpt lat="-37.86305" lon="145.34406">
    <ele>384.66</ele>
   </trkpt>
   <trkpt lat="-37.862840000000006" lon="145.3444">
    <ele>386.36</ele>
   </trkpt>
   <trkpt lat="-37.86253" lon="145.34477">
    <ele>393.74</ele>
   </trkpt>
   <trkpt lat="-37.86238" lon="145.34501">
    <ele>395.55</ele>
   </trkpt>
   <trkpt lat="-37.86213" lon="145.34550000000002">
    <ele>400.03000000000003</ele>
   </trkpt>
   <trkpt lat="-37.86209" lon="145.34566">
    <ele>400.03000000000003</ele>
   </trkpt>
   <trkpt lat="-37.86193" lon="145.34642000000002">
    <ele>406.44</ele>
   </trkpt>
   <trkpt lat="-37.86186" lon="145.34658000000002">
    <ele>406.69000000000005</ele>
   </trkpt>
   <trkpt lat="-37.861790000000006" lon="145.34698">
    <ele>407.86000000000007</ele>
   </trkpt>
   <trkpt lat="-37.86186" lon="145.34747000000002">
    <ele>408.04</ele>
   </trkpt>
   <trkpt lat="-37.862115001274674" lon="145.34800999821977">
    <ele>407.30000000000007</ele>
   </trkpt>
   <trkpt lat="-37.862370000000006" lon="145.34855000000002">
    <ele>411.96000000000004</ele>
   </trkpt>
   <trkpt lat="-37.86238" lon="145.34883000000002">
    <ele>414.46000000000004</ele>
   </trkpt>
   <trkpt lat="-37.86234" lon="145.34894">
    <ele>415.32</ele>
   </trkpt>
   <trkpt lat="-37.86236" lon="145.34891000000002">
    <ele>415.09000000000003</ele>
   </trkpt>
   <trkpt lat="-37.86224" lon="145.34912">
    <ele>418.61</ele>
   </trkpt>
   <trkpt lat="-37.86182" lon="145.34959">
    <ele>427.46000000000004</ele>
   </trkpt>
   <trkpt lat="-37.86166" lon="145.34982000000002">
    <ele>431.57</ele>
   </trkpt>
   <trkpt lat="-37.86135" lon="145.35045000000002">
    <ele>439.1700000000001</ele>
   </trkpt>
   <trkpt lat="-37.86115" lon="145.3511">
    <ele>446.57</ele>
   </trkpt>
   <trkpt lat="-37.861050000000006" lon="145.35133000000002">
    <ele>449.22</ele>
   </trkpt>
   <trkpt lat="-37.860960000000006" lon="145.35146">
    <ele>450.68</ele>
   </trkpt>
   <trkpt lat="-37.860490000000006" lon="145.35181">
    <ele>460.70000000000005</ele>
   </trkpt>
   <trkpt lat="-37.86023" lon="145.35196000000002">
    <ele>464.77</ele>
   </trkpt>
   <trkpt lat="-37.85994" lon="145.35221">
    <ele>469.62</ele>
   </trkpt>
   <trkpt lat="-37.8596" lon="145.35241000000002">
    <ele>473.79</ele>
   </trkpt>
   <trkpt lat="-37.85945" lon="145.35244">
    <ele>475.61</ele>
   </trkpt>
   <trkpt lat="-37.8592" lon="145.35248">
    <ele>479.53000000000003</ele>
   </trkpt>
   <trkpt lat="-37.85851" lon="145.35268000000002">
    <ele>488.00000000000006</ele>
   </trkpt>
   <trkpt lat="-37.85815" lon="145.35273">
    <ele>495.85</ele>
   </trkpt>
   <trkpt lat="-37.857635000010575" lon="145.35270499982573">
    <ele>500.01000000000005</ele>
   </trkpt>
   <trkpt lat="-37.85712" lon="145.35268000000002">
    <ele>506.32</ele>
   </trkpt>
   <trkpt lat="-37.85701" lon="145.35266000000001">
    <ele>506.32</ele>
   </trkpt>
   <trkpt lat="-37.85683" lon="145.35260000000002">
    <ele>508.3500000000001</ele>
   </trkpt>
   <trkpt lat="-37.85636" lon="145.35253">
    <ele>511.53999999999996</ele>
   </trkpt>
   <trkpt lat="-37.85634" lon="145.35258000000002">
    <ele>511.9600000000001</ele>
   </trkpt>
   <trkpt lat="-37.85634" lon="145.35257000000001">
    <ele>511.86000000000007</ele>
   </trkpt>
   <trkpt lat="-37.856370000000005" lon="145.35273">
    <ele>514.0100000000001</ele>
   </trkpt>
   <trkpt lat="-37.85674" lon="145.35330000000002">
    <ele>525.63</ele>
   </trkpt>
   <trkpt lat="-37.85703" lon="145.35389">
    <ele>542.32</ele>
   </trkpt>
   <trkpt lat="-37.85703" lon="145.35401000000002">
    <ele>542.32</ele>
   </trkpt>
   <trkpt lat="-37.85685" lon="145.35449">
    <ele>554.13</ele>
   </trkpt>
   <trkpt lat="-37.8568" lon="145.35479">
    <ele>557.9000000000001</ele>
   </trkpt>
   <trkpt lat="-37.85681" lon="145.35496">
    <ele>560.46</ele>
   </trkpt>
   <trkpt lat="-37.85683" lon="145.35502000000002">
    <ele>562.35</ele>
   </trkpt>
   <trkpt lat="-37.85718" lon="145.35543">
    <ele>571.46</ele>
   </trkpt>
   <trkpt lat="-37.8573" lon="145.35565000000003">
    <ele>574.9000000000001</ele>
   </trkpt>
   <trkpt lat="-37.85736" lon="145.35574000000003">
    <ele>575.2</ele>
   </trkpt>
   <trkpt lat="-37.85743" lon="145.35574000000003">
    <ele>576.04</ele>
   </trkpt>
   <trkpt lat="-37.85745" lon="145.35580000000002">
    <ele>576.04</ele>
   </trkpt>
   <trkpt lat="-37.85746" lon="145.35580000000002">
    <ele>576.0500000000001</ele>
   </trkpt>
   <trkpt lat="-37.85774" lon="145.3557">
    <ele>574.5600000000001</ele>
   </trkpt>
   <trkpt lat="-37.85792" lon="145.35547000000003">
    <ele>571.9399999999999</ele>
   </trkpt>
   <trkpt lat="-37.85826" lon="145.35524">
    <ele>562.57</ele>
   </trkpt>
   <trkpt lat="-37.85846" lon="145.35508000000002">
    <ele>555.9200000000001</ele>
   </trkpt>
   <trkpt lat="-37.85866" lon="145.35498">
    <ele>552.39</ele>
   </trkpt>
   <trkpt lat="-37.85877" lon="145.35487">
    <ele>547.51</ele>
   </trkpt>
   <trkpt lat="-37.85891" lon="145.35462">
    <ele>537.0200000000001</ele>
   </trkpt>
   <trkpt lat="-37.85938" lon="145.35420000000002">
    <ele>522.8900000000001</ele>
   </trkpt>
   <trkpt lat="-37.85956" lon="145.35410000000002">
    <ele>518.21</ele>
   </trkpt>
   <trkpt lat="-37.85969" lon="145.35413">
    <ele>515.75</ele>
   </trkpt>
   <trkpt lat="-37.859930000000006" lon="145.35424">
    <ele>513.5300000000001</ele>
   </trkpt>
   <trkpt lat="-37.86016" lon="145.35452">
    <ele>513.49</ele>
   </trkpt>
   <trkpt lat="-37.860600000000005" lon="145.35546000000002">
    <ele>507.36</ele>
   </trkpt>
   <trkpt lat="-37.86061" lon="145.35558">
    <ele>504.95</ele>
   </trkpt>
   <trkpt lat="-37.86059" lon="145.35571000000002">
    <ele>504.95</ele>
   </trkpt>
   <trkpt lat="-37.86059" lon="145.35592000000003">
    <ele>498.72</ele>
   </trkpt>
   <trkpt lat="-37.860640000000004" lon="145.35598000000002">
    <ele>495.13</ele>
   </trkpt>
   <trkpt lat="-37.86072" lon="145.35566">
    <ele>494.61</ele>
   </trkpt>
   <trkpt lat="-37.86081" lon="145.35551">
    <ele>493.65000000000003</ele>
   </trkpt>
   <trkpt lat="-37.861260001004666" lon="145.35500000322173">
    <ele>490.3</ele>
   </trkpt>
   <trkpt lat="-37.86171" lon="145.35449">
    <ele>487.01000000000005</ele>
   </trkpt>
   <trkpt lat="-37.862" lon="145.35422">
    <ele>484.79</ele>
   </trkpt>
   <trkpt lat="-37.86243000031808" lon="145.3538950019934">
    <ele>481.90000000000003</ele>
   </trkpt>
   <trkpt lat="-37.862860000000005" lon="145.35357000000002">
    <ele>480.68000000000006</ele>
   </trkpt>
  </trkseg>
 </trk>
</gpx>
