<?xml version="1.0" encoding="UTF-8"?>
<gpx creator="StravaGPX" version="1.1" xmlns="http://www.topografix.com/GPX/1/1" xmlns:xsi="http://www.w3.org/2001/XMLSchema-instance" xsi:schemaLocation="http://www.topografix.com/GPX/1/1 http://www.topografix.com/GPX/1/1/gpx.xsd">
 <metadata>
  <name>DTR Sunday 11th October Sassafras</name>
  <author>
   <name>john csorgo</name>
   <link href="https://www.strava.com/athletes/61185584"/>
  </author>
  <copyright author="OpenStreetMap contributors">
   <year>2020</year>
   <license>https://www.openstreetmap.org/copyright</license>
  </copyright>
  <link href="https://www.strava.com/routes/3542817795624373258"/>
 </metadata>
 <trk>
  <name>DTR Sunday 11th October Sassafras</name>
  <link href="https://www.strava.com/routes/3542817795624373258"/>
  <type>running</type>
  <trkseg>
   <trkpt lat="-37.86269" lon="145.35319">
    <ele>479.97</ele>
   </trkpt>
   <trkpt lat="-37.86256" lon="145.35293000000001">
    <ele>478.55</ele>
   </trkpt>
   <trkpt lat="-37.86253" lon="145.35292">
    <ele>478.38</ele>
   </trkpt>
   <trkpt lat="-37.86253" lon="145.35285000000002">
    <ele>478.38</ele>
   </trkpt>
   <trkpt lat="-37.86242" lon="145.35278000000002">
    <ele>479.33000000000004</ele>
   </trkpt>
   <trkpt lat="-37.86222" lon="145.35236">
    <ele>474.4200000000001</ele>
   </trkpt>
   <trkpt lat="-37.862170000000006" lon="145.35208">
    <ele>471.03000000000003</ele>
   </trkpt>
   <trkpt lat="-37.86215" lon="145.35175">
    <ele>468.29</ele>
   </trkpt>
   <trkpt lat="-37.86222" lon="145.3514">
    <ele>466.76000000000005</ele>
   </trkpt>
   <trkpt lat="-37.862730000000006" lon="145.35070000000002">
    <ele>465.68</ele>
   </trkpt>
   <trkpt lat="-37.86265" lon="145.35060000000001">
    <ele>463.07000000000005</ele>
   </trkpt>
   <trkpt lat="-37.86233" lon="145.35036000000002">
    <ele>454.59000000000003</ele>
   </trkpt>
   <trkpt lat="-37.86218" lon="145.35036000000002">
    <ele>453.32000000000005</ele>
   </trkpt>
   <trkpt lat="-37.86175" lon="145.35062000000002">
    <ele>455.31000000000006</ele>
   </trkpt>
   <trkpt lat="-37.86157" lon="145.35075">
    <ele>453.47</ele>
   </trkpt>
   <trkpt lat="-37.86144" lon="145.35096000000001">
    <ele>452.65000000000003</ele>
   </trkpt>
   <trkpt lat="-37.86135" lon="145.35105000000001">
    <ele>450.35</ele>
   </trkpt>
   <trkpt lat="-37.86119" lon="145.35095">
    <ele>444.53000000000003</ele>
   </trkpt>
   <trkpt lat="-37.861050000000006" lon="145.35133000000002">
    <ele>448.57</ele>
   </trkpt>
   <trkpt lat="-37.860960000000006" lon="145.35146">
    <ele>451.47</ele>
   </trkpt>
   <trkpt lat="-37.860490000000006" lon="145.35181">
    <ele>459.48</ele>
   </trkpt>
   <trkpt lat="-37.86023" lon="145.35196000000002">
    <ele>464.34000000000003</ele>
   </trkpt>
   <trkpt lat="-37.85994" lon="145.35221">
    <ele>469.87000000000006</ele>
   </trkpt>
   <trkpt lat="-37.8596" lon="145.35241000000002">
    <ele>473.41</ele>
   </trkpt>
   <trkpt lat="-37.8592" lon="145.35248">
    <ele>478.92</ele>
   </trkpt>
   <trkpt lat="-37.85851" lon="145.35268000000002">
    <ele>488.47</ele>
   </trkpt>
   <trkpt lat="-37.85815" lon="145.35273">
    <ele>495.70000000000005</ele>
   </trkpt>
   <trkpt lat="-37.857635000010575" lon="145.35270499982573">
    <ele>500.39</ele>
   </trkpt>
   <trkpt lat="-37.85712" lon="145.35268000000002">
    <ele>505.8</ele>
   </trkpt>
   <trkpt lat="-37.85701" lon="145.35266000000001">
    <ele>507.09000000000003</ele>
   </trkpt>
   <trkpt lat="-37.85683" lon="145.35260000000002">
    <ele>509.01000000000005</ele>
   </trkpt>
   <trkpt lat="-37.85636" lon="145.35252">
    <ele>510.0</ele>
   </trkpt>
   <trkpt lat="-37.85622" lon="145.35247">
    <ele>508.39</ele>
   </trkpt>
   <trkpt lat="-37.85615000000001" lon="145.35240000000002">
    <ele>507.78</ele>
   </trkpt>
   <trkpt lat="-37.85581500101465" lon="145.35193999807424">
    <ele>497.77000000000004</ele>
   </trkpt>
   <trkpt lat="-37.85548" lon="145.35148">
    <ele>491.40000000000003</ele>
   </trkpt>
   <trkpt lat="-37.85508000128776" lon="145.35092499696825">
    <ele>482.61</ele>
   </trkpt>
   <trkpt lat="-37.85468" lon="145.35037">
    <ele>472.21000000000004</ele>
   </trkpt>
   <trkpt lat="-37.85419" lon="145.34983000000003">
    <ele>459.38</ele>
   </trkpt>
   <trkpt lat="-37.85387" lon="145.34941">
    <ele>453.20000000000005</ele>
   </trkpt>
   <trkpt lat="-37.85416" lon="145.34943">
    <ele>453.28000000000003</ele>
   </trkpt>
   <trkpt lat="-37.85474500023648" lon="145.3495549990445">
    <ele>455.5</ele>
   </trkpt>
   <trkpt lat="-37.85533" lon="145.34968">
    <ele>457.98</ele>
   </trkpt>
   <trkpt lat="-37.85577" lon="145.34973000000002">
    <ele>455.39</ele>
   </trkpt>
   <trkpt lat="-37.85632999992552" lon="145.34984499909962">
    <ele>445.32000000000005</ele>
   </trkpt>
   <trkpt lat="-37.85689" lon="145.34996">
    <ele>428.81</ele>
   </trkpt>
   <trkpt lat="-37.85716" lon="145.34998000000002">
    <ele>422.14</ele>
   </trkpt>
   <trkpt lat="-37.85743" lon="145.34995">
    <ele>414.75</ele>
   </trkpt>
   <trkpt lat="-37.85757" lon="145.34989000000002">
    <ele>412.84000000000003</ele>
   </trkpt>
   <trkpt lat="-37.85781" lon="145.34966">
    <ele>407.32</ele>
   </trkpt>
   <trkpt lat="-37.85801" lon="145.34944000000002">
    <ele>403.31000000000006</ele>
   </trkpt>
   <trkpt lat="-37.8581" lon="145.34938000000002">
    <ele>400.95000000000005</ele>
   </trkpt>
   <trkpt lat="-37.85875" lon="145.34924">
    <ele>391.19000000000005</ele>
   </trkpt>
   <trkpt lat="-37.8588" lon="145.34917000000002">
    <ele>390.49000000000007</ele>
   </trkpt>
   <trkpt lat="-37.85877" lon="145.34889">
    <ele>387.96000000000004</ele>
   </trkpt>
   <trkpt lat="-37.85893" lon="145.34861">
    <ele>378.39</ele>
   </trkpt>
   <trkpt lat="-37.859" lon="145.34836">
    <ele>375.89000000000004</ele>
   </trkpt>
   <trkpt lat="-37.85902" lon="145.34832">
    <ele>375.25</ele>
   </trkpt>
   <trkpt lat="-37.85909" lon="145.34833">
    <ele>374.58000000000004</ele>
   </trkpt>
   <trkpt lat="-37.85911" lon="145.34834">
    <ele>374.50000000000006</ele>
   </trkpt>
   <trkpt lat="-37.8592" lon="145.34841">
    <ele>373.53000000000003</ele>
   </trkpt>
   <trkpt lat="-37.85927" lon="145.34839000000002">
    <ele>372.56000000000006</ele>
   </trkpt>
   <trkpt lat="-37.85951" lon="145.34782">
    <ele>365.54</ele>
   </trkpt>
   <trkpt lat="-37.86027" lon="145.34776000000002">
    <ele>373.52000000000004</ele>
   </trkpt>
   <trkpt lat="-37.86068" lon="145.34759000000003">
    <ele>379.8</ele>
   </trkpt>
   <trkpt lat="-37.86097" lon="145.34757000000002">
    <ele>385.43000000000006</ele>
   </trkpt>
   <trkpt lat="-37.86101" lon="145.34763">
    <ele>386.72</ele>
   </trkpt>
   <trkpt lat="-37.86101" lon="145.34771">
    <ele>387.24</ele>
   </trkpt>
   <trkpt lat="-37.86097" lon="145.34788">
    <ele>388.12</ele>
   </trkpt>
   <trkpt lat="-37.86097" lon="145.34804000000003">
    <ele>389.63</ele>
   </trkpt>
   <trkpt lat="-37.86104" lon="145.34814">
    <ele>390.62</ele>
   </trkpt>
   <trkpt lat="-37.86112" lon="145.34822">
    <ele>392.63000000000005</ele>
   </trkpt>
   <trkpt lat="-37.86121" lon="145.34824">
    <ele>393.42</ele>
   </trkpt>
   <trkpt lat="-37.86128" lon="145.34822">
    <ele>395.06</ele>
   </trkpt>
   <trkpt lat="-37.86159" lon="145.34802000000002">
    <ele>398.74</ele>
   </trkpt>
   <trkpt lat="-37.86164" lon="145.34794000000002">
    <ele>399.29</ele>
   </trkpt>
   <trkpt lat="-37.86168" lon="145.34779">
    <ele>400.12</ele>
   </trkpt>
   <trkpt lat="-37.86162" lon="145.34753">
    <ele>402.27</ele>
   </trkpt>
   <trkpt lat="-37.86162" lon="145.34737">
    <ele>403.39000000000004</ele>
   </trkpt>
   <trkpt lat="-37.8618" lon="145.34698">
    <ele>408.12</ele>
   </trkpt>
   <trkpt lat="-37.86186" lon="145.34658000000002">
    <ele>406.65</ele>
   </trkpt>
   <trkpt lat="-37.86193" lon="145.34642000000002">
    <ele>406.09</ele>
   </trkpt>
   <trkpt lat="-37.86209" lon="145.34566">
    <ele>399.96000000000004</ele>
   </trkpt>
   <trkpt lat="-37.86213" lon="145.34550000000002">
    <ele>399.17</ele>
   </trkpt>
   <trkpt lat="-37.86238" lon="145.34501">
    <ele>395.09000000000003</ele>
   </trkpt>
   <trkpt lat="-37.86253" lon="145.34477">
    <ele>392.38</ele>
   </trkpt>
   <trkpt lat="-37.86283" lon="145.3444">
    <ele>388.0</ele>
   </trkpt>
   <trkpt lat="-37.862570000000005" lon="145.34472000000002">
    <ele>391.66</ele>
   </trkpt>
   <trkpt lat="-37.862840000000006" lon="145.3444">
    <ele>389.15000000000003</ele>
   </trkpt>
   <trkpt lat="-37.86305" lon="145.34406">
    <ele>384.36</ele>
   </trkpt>
   <trkpt lat="-37.86307" lon="145.34395">
    <ele>383.79</ele>
   </trkpt>
   <trkpt lat="-37.86303" lon="145.34388">
    <ele>383.48</ele>
   </trkpt>
   <trkpt lat="-37.86296" lon="145.34383000000003">
    <ele>383.26000000000005</ele>
   </trkpt>
   <trkpt lat="-37.86231" lon="145.34352">
    <ele>378.90000000000003</ele>
   </trkpt>
   <trkpt lat="-37.86204" lon="145.34342">
    <ele>376.65000000000003</ele>
   </trkpt>
   <trkpt lat="-37.86168" lon="145.34332">
    <ele>374.61000000000007</ele>
   </trkpt>
   <trkpt lat="-37.861520000000006" lon="145.34317000000001">
    <ele>373.64000000000004</ele>
   </trkpt>
   <trkpt lat="-37.86139" lon="145.34300000000002">
    <ele>371.33000000000004</ele>
   </trkpt>
   <trkpt lat="-37.86128" lon="145.34276">
    <ele>370.45000000000005</ele>
   </trkpt>
   <trkpt lat="-37.86121" lon="145.34249">
    <ele>368.8</ele>
   </trkpt>
   <trkpt lat="-37.86108" lon="145.3417">
    <ele>363.56000000000006</ele>
   </trkpt>
   <trkpt lat="-37.86097" lon="145.34123000000002">
    <ele>360.12000000000006</ele>
   </trkpt>
   <trkpt lat="-37.86092" lon="145.34113000000002">
    <ele>358.49</ele>
   </trkpt>
   <trkpt lat="-37.86079" lon="145.341">
    <ele>358.48</ele>
   </trkpt>
   <trkpt lat="-37.86086" lon="145.34071">
    <ele>362.16</ele>
   </trkpt>
   <trkpt lat="-37.86112" lon="145.34012">
    <ele>380.38000000000005</ele>
   </trkpt>
   <trkpt lat="-37.86117" lon="145.3399">
    <ele>388.20000000000005</ele>
   </trkpt>
   <trkpt lat="-37.86117" lon="145.33978000000002">
    <ele>391.71000000000004</ele>
   </trkpt>
   <trkpt lat="-37.86115" lon="145.33973">
    <ele>393.0</ele>
   </trkpt>
   <trkpt lat="-37.86081" lon="145.33949">
    <ele>394.03000000000003</ele>
   </trkpt>
   <trkpt lat="-37.86056" lon="145.33914000000001">
    <ele>393.28000000000003</ele>
   </trkpt>
   <trkpt lat="-37.8605" lon="145.33886">
    <ele>393.22</ele>
   </trkpt>
   <trkpt lat="-37.86052" lon="145.33876">
    <ele>393.47</ele>
   </trkpt>
   <trkpt lat="-37.860640000000004" lon="145.33878">
    <ele>392.96000000000004</ele>
   </trkpt>
   <trkpt lat="-37.8607" lon="145.33880000000002">
    <ele>391.71000000000004</ele>
   </trkpt>
   <trkpt lat="-37.8607" lon="145.33889000000002">
    <ele>391.39</ele>
   </trkpt>
   <trkpt lat="-37.86095" lon="145.33902">
    <ele>395.0</ele>
   </trkpt>
   <trkpt lat="-37.86168" lon="145.33925000000002">
    <ele>410.16</ele>
   </trkpt>
   <trkpt lat="-37.8622" lon="145.33963">
    <ele>421.07000000000005</ele>
   </trkpt>
   <trkpt lat="-37.86287" lon="145.34025000000003">
    <ele>439.13</ele>
   </trkpt>
   <trkpt lat="-37.86318" lon="145.33996000000002">
    <ele>437.36</ele>
   </trkpt>
   <trkpt lat="-37.86354" lon="145.33979000000002">
    <ele>435.25</ele>
   </trkpt>
   <trkpt lat="-37.863780000000006" lon="145.33974">
    <ele>434.21000000000004</ele>
   </trkpt>
   <trkpt lat="-37.8641" lon="145.33975">
    <ele>430.61</ele>
   </trkpt>
   <trkpt lat="-37.8645" lon="145.33989000000003">
    <ele>427.88000000000005</ele>
   </trkpt>
   <trkpt lat="-37.86464" lon="145.33988000000002">
    <ele>426.06000000000006</ele>
   </trkpt>
   <trkpt lat="-37.864720000000005" lon="145.33982">
    <ele>424.26</ele>
   </trkpt>
   <trkpt lat="-37.864740000000005" lon="145.33981">
    <ele>424.06000000000006</ele>
   </trkpt>
   <trkpt lat="-37.86486" lon="145.33964">
    <ele>422.07000000000005</ele>
   </trkpt>
   <trkpt lat="-37.86495" lon="145.33935000000002">
    <ele>421.63000000000005</ele>
   </trkpt>
   <trkpt lat="-37.86506" lon="145.33889000000002">
    <ele>419.98</ele>
   </trkpt>
   <trkpt lat="-37.86531" lon="145.33833">
    <ele>417.22</ele>
   </trkpt>
   <trkpt lat="-37.8654650012238" lon="145.33779500107892">
    <ele>416.63000000000005</ele>
   </trkpt>
   <trkpt lat="-37.86562" lon="145.33726000000001">
    <ele>417.27000000000004</ele>
   </trkpt>
   <trkpt lat="-37.86583" lon="145.33618">
    <ele>418.27000000000004</ele>
   </trkpt>
   <trkpt lat="-37.86585" lon="145.33585000000002">
    <ele>419.19</ele>
   </trkpt>
   <trkpt lat="-37.86585" lon="145.3356">
    <ele>420.29</ele>
   </trkpt>
   <trkpt lat="-37.86587" lon="145.33555">
    <ele>421.01000000000005</ele>
   </trkpt>
   <trkpt lat="-37.86585" lon="145.33534">
    <ele>421.88000000000005</ele>
   </trkpt>
   <trkpt lat="-37.86576" lon="145.33428">
    <ele>425.14</ele>
   </trkpt>
   <trkpt lat="-37.86571" lon="145.3342">
    <ele>424.34000000000003</ele>
   </trkpt>
   <trkpt lat="-37.8656" lon="145.33411">
    <ele>422.27000000000004</ele>
   </trkpt>
   <trkpt lat="-37.86529" lon="145.33394">
    <ele>414.75</ele>
   </trkpt>
   <trkpt lat="-37.86529" lon="145.33395000000002">
    <ele>414.87</ele>
   </trkpt>
   <trkpt lat="-37.86493" lon="145.33347">
    <ele>401.97</ele>
   </trkpt>
   <trkpt lat="-37.86475" lon="145.33338">
    <ele>397.73</ele>
   </trkpt>
   <trkpt lat="-37.864520000000006" lon="145.3332">
    <ele>387.99000000000007</ele>
   </trkpt>
   <trkpt lat="-37.86464" lon="145.333">
    <ele>390.18</ele>
   </trkpt>
   <trkpt lat="-37.86473" lon="145.33291">
    <ele>390.18</ele>
   </trkpt>
   <trkpt lat="-37.86482" lon="145.33287">
    <ele>392.16</ele>
   </trkpt>
   <trkpt lat="-37.86502" lon="145.33284">
    <ele>392.16</ele>
   </trkpt>
   <trkpt lat="-37.86578" lon="145.33302">
    <ele>398.17</ele>
   </trkpt>
   <trkpt lat="-37.86634" lon="145.33317000000002">
    <ele>402.19000000000005</ele>
   </trkpt>
   <trkpt lat="-37.86697" lon="145.33335000000002">
    <ele>408.83000000000004</ele>
   </trkpt>
   <trkpt lat="-37.86721" lon="145.33355">
    <ele>410.53</ele>
   </trkpt>
   <trkpt lat="-37.8673" lon="145.33371000000002">
    <ele>409.06</ele>
   </trkpt>
   <trkpt lat="-37.86737" lon="145.33386000000002">
    <ele>408.71000000000004</ele>
   </trkpt>
   <trkpt lat="-37.86741" lon="145.33403">
    <ele>407.12</ele>
   </trkpt>
   <trkpt lat="-37.86744" lon="145.33439">
    <ele>405.68</ele>
   </trkpt>
   <trkpt lat="-37.86735" lon="145.33496000000002">
    <ele>403.07000000000005</ele>
   </trkpt>
   <trkpt lat="-37.86735" lon="145.33513000000002">
    <ele>401.9200000000001</ele>
   </trkpt>
   <trkpt lat="-37.86741" lon="145.33546">
    <ele>399.96000000000004</ele>
   </trkpt>
   <trkpt lat="-37.86748" lon="145.33566000000002">
    <ele>399.15000000000003</ele>
   </trkpt>
   <trkpt lat="-37.86762" lon="145.33587">
    <ele>397.86</ele>
   </trkpt>
   <trkpt lat="-37.867900000000006" lon="145.33622000000003">
    <ele>396.90000000000003</ele>
   </trkpt>
   <trkpt lat="-37.86813" lon="145.33664000000002">
    <ele>395.68</ele>
   </trkpt>
   <trkpt lat="-37.86831" lon="145.3368">
    <ele>395.06</ele>
   </trkpt>
   <trkpt lat="-37.8686" lon="145.33698">
    <ele>394.3</ele>
   </trkpt>
   <trkpt lat="-37.86891" lon="145.33724">
    <ele>397.79</ele>
   </trkpt>
   <trkpt lat="-37.86905" lon="145.33726000000001">
    <ele>398.07000000000005</ele>
   </trkpt>
   <trkpt lat="-37.86914" lon="145.33722">
    <ele>397.1</ele>
   </trkpt>
   <trkpt lat="-37.86927" lon="145.33711000000002">
    <ele>395.40000000000003</ele>
   </trkpt>
   <trkpt lat="-37.869530000000005" lon="145.33694">
    <ele>394.63000000000005</ele>
   </trkpt>
   <trkpt lat="-37.86968" lon="145.33686">
    <ele>395.3</ele>
   </trkpt>
   <trkpt lat="-37.86983" lon="145.33668">
    <ele>394.95</ele>
   </trkpt>
   <trkpt lat="-37.87001" lon="145.33628000000002">
    <ele>388.47</ele>
   </trkpt>
   <trkpt lat="-37.8701" lon="145.33595000000003">
    <ele>382.77000000000004</ele>
   </trkpt>
   <trkpt lat="-37.87035" lon="145.3356">
    <ele>375.25</ele>
   </trkpt>
   <trkpt lat="-37.87055" lon="145.33518">
    <ele>363.08</ele>
   </trkpt>
   <trkpt lat="-37.87046" lon="145.33465">
    <ele>353.86</ele>
   </trkpt>
   <trkpt lat="-37.87066" lon="145.33478000000002">
    <ele>355.00000000000006</ele>
   </trkpt>
   <trkpt lat="-37.87075" lon="145.33478000000002">
    <ele>355.00000000000006</ele>
   </trkpt>
   <trkpt lat="-37.870810000000006" lon="145.3347">
    <ele>357.57000000000005</ele>
   </trkpt>
   <trkpt lat="-37.870810000000006" lon="145.33446">
    <ele>358.19</ele>
   </trkpt>
   <trkpt lat="-37.87075" lon="145.33419">
    <ele>359.35</ele>
   </trkpt>
   <trkpt lat="-37.87082" lon="145.33339">
    <ele>365.03000000000003</ele>
   </trkpt>
   <trkpt lat="-37.87091" lon="145.33315000000002">
    <ele>366.58</ele>
   </trkpt>
   <trkpt lat="-37.87102" lon="145.33292">
    <ele>366.69</ele>
   </trkpt>
   <trkpt lat="-37.87113" lon="145.33284">
    <ele>366.56000000000006</ele>
   </trkpt>
   <trkpt lat="-37.871280000000006" lon="145.33282">
    <ele>366.93</ele>
   </trkpt>
   <trkpt lat="-37.87167" lon="145.33290000000002">
    <ele>370.88000000000005</ele>
   </trkpt>
   <trkpt lat="-37.87207" lon="145.33307000000002">
    <ele>375.23</ele>
   </trkpt>
   <trkpt lat="-37.87238" lon="145.33305000000001">
    <ele>380.48</ele>
   </trkpt>
   <trkpt lat="-37.87247" lon="145.33298000000002">
    <ele>381.21000000000004</ele>
   </trkpt>
   <trkpt lat="-37.87248" lon="145.33297000000002">
    <ele>381.28</ele>
   </trkpt>
   <trkpt lat="-37.87268" lon="145.33283">
    <ele>382.20000000000005</ele>
   </trkpt>
   <trkpt lat="-37.8729" lon="145.3325">
    <ele>383.85</ele>
   </trkpt>
   <trkpt lat="-37.87301" lon="145.33226000000002">
    <ele>384.1</ele>
   </trkpt>
   <trkpt lat="-37.87301" lon="145.33218000000002">
    <ele>384.11</ele>
   </trkpt>
   <trkpt lat="-37.87297" lon="145.33206">
    <ele>384.70000000000005</ele>
   </trkpt>
   <trkpt lat="-37.87279" lon="145.33183000000002">
    <ele>386.68</ele>
   </trkpt>
   <trkpt lat="-37.87263" lon="145.33171000000002">
    <ele>388.01</ele>
   </trkpt>
   <trkpt lat="-37.87236" lon="145.33138000000002">
    <ele>389.53000000000003</ele>
   </trkpt>
   <trkpt lat="-37.87225" lon="145.33113">
    <ele>390.22</ele>
   </trkpt>
   <trkpt lat="-37.87223" lon="145.3309">
    <ele>391.37000000000006</ele>
   </trkpt>
   <trkpt lat="-37.87221" lon="145.33038000000002">
    <ele>394.28000000000003</ele>
   </trkpt>
   <trkpt lat="-37.87223" lon="145.33017">
    <ele>396.3</ele>
   </trkpt>
   <trkpt lat="-37.87227" lon="145.33004000000003">
    <ele>397.6</ele>
   </trkpt>
   <trkpt lat="-37.87223" lon="145.32968000000002">
    <ele>398.24</ele>
   </trkpt>
   <trkpt lat="-37.87216" lon="145.32951">
    <ele>397.47</ele>
   </trkpt>
   <trkpt lat="-37.87196" lon="145.32921000000002">
    <ele>395.91</ele>
   </trkpt>
   <trkpt lat="-37.8718" lon="145.32905000000002">
    <ele>397.47</ele>
   </trkpt>
   <trkpt lat="-37.87171" lon="145.32889">
    <ele>399.9200000000001</ele>
   </trkpt>
   <trkpt lat="-37.87169" lon="145.32861000000003">
    <ele>402.94</ele>
   </trkpt>
   <trkpt lat="-37.87158" lon="145.32842000000002">
    <ele>409.96000000000004</ele>
   </trkpt>
   <trkpt lat="-37.8714" lon="145.32824000000002">
    <ele>413.67</ele>
   </trkpt>
   <trkpt lat="-37.87131" lon="145.32817">
    <ele>414.63000000000005</ele>
   </trkpt>
   <trkpt lat="-37.871" lon="145.32801">
    <ele>416.96000000000004</ele>
   </trkpt>
   <trkpt lat="-37.87062" lon="145.32791">
    <ele>422.13000000000005</ele>
   </trkpt>
   <trkpt lat="-37.87035" lon="145.32771000000002">
    <ele>428.44000000000005</ele>
   </trkpt>
   <trkpt lat="-37.87024" lon="145.32759000000001">
    <ele>432.02</ele>
   </trkpt>
   <trkpt lat="-37.870160000000006" lon="145.32745">
    <ele>432.99</ele>
   </trkpt>
   <trkpt lat="-37.87008" lon="145.32731">
    <ele>438.03000000000003</ele>
   </trkpt>
   <trkpt lat="-37.87003" lon="145.32713">
    <ele>440.68</ele>
   </trkpt>
   <trkpt lat="-37.87001" lon="145.32697000000002">
    <ele>442.81</ele>
   </trkpt>
   <trkpt lat="-37.87003" lon="145.32679000000002">
    <ele>445.33000000000004</ele>
   </trkpt>
   <trkpt lat="-37.87006" lon="145.32671000000002">
    <ele>445.33000000000004</ele>
   </trkpt>
   <trkpt lat="-37.87024" lon="145.32659">
    <ele>451.35</ele>
   </trkpt>
   <trkpt lat="-37.87053" lon="145.32625000000002">
    <ele>455.1600000000001</ele>
   </trkpt>
   <trkpt lat="-37.87062" lon="145.32624">
    <ele>457.45</ele>
   </trkpt>
   <trkpt lat="-37.870720000000006" lon="145.32623">
    <ele>459.47</ele>
   </trkpt>
   <trkpt lat="-37.87082" lon="145.32609000000002">
    <ele>463.17</ele>
   </trkpt>
   <trkpt lat="-37.87093" lon="145.32597">
    <ele>466.13000000000005</ele>
   </trkpt>
   <trkpt lat="-37.87104" lon="145.32594">
    <ele>469.01000000000005</ele>
   </trkpt>
   <trkpt lat="-37.87124" lon="145.32594">
    <ele>470.83000000000004</ele>
   </trkpt>
   <trkpt lat="-37.87142" lon="145.32584">
    <ele>476.2</ele>
   </trkpt>
   <trkpt lat="-37.87171" lon="145.32548">
    <ele>483.53000000000003</ele>
   </trkpt>
   <trkpt lat="-37.871750000000006" lon="145.32506">
    <ele>482.27000000000004</ele>
   </trkpt>
   <trkpt lat="-37.87184500277681" lon="145.32425000102566">
    <ele>474.99</ele>
   </trkpt>
   <trkpt lat="-37.87194" lon="145.32344">
    <ele>465.02000000000004</ele>
   </trkpt>
   <trkpt lat="-37.87189" lon="145.32333">
    <ele>462.87000000000006</ele>
   </trkpt>
   <trkpt lat="-37.87185" lon="145.3232">
    <ele>459.33</ele>
   </trkpt>
   <trkpt lat="-37.87187" lon="145.32276000000002">
    <ele>459.44</ele>
   </trkpt>
   <trkpt lat="-37.87185" lon="145.32255">
    <ele>460.31000000000006</ele>
   </trkpt>
   <trkpt lat="-37.87178" lon="145.32256">
    <ele>459.07000000000005</ele>
   </trkpt>
   <trkpt lat="-37.87169" lon="145.32248">
    <ele>457.97</ele>
   </trkpt>
   <trkpt lat="-37.87127" lon="145.32199">
    <ele>454.78000000000003</ele>
   </trkpt>
   <trkpt lat="-37.87086" lon="145.32168000000001">
    <ele>452.25000000000006</ele>
   </trkpt>
   <trkpt lat="-37.87046" lon="145.3213">
    <ele>449.24</ele>
   </trkpt>
   <trkpt lat="-37.870250000000006" lon="145.32102">
    <ele>444.78</ele>
   </trkpt>
   <trkpt lat="-37.87019" lon="145.32089000000002">
    <ele>443.12</ele>
   </trkpt>
   <trkpt lat="-37.87012" lon="145.32062000000002">
    <ele>439.25</ele>
   </trkpt>
   <trkpt lat="-37.87001" lon="145.32003">
    <ele>429.64</ele>
   </trkpt>
   <trkpt lat="-37.86992" lon="145.31986">
    <ele>429.64</ele>
   </trkpt>
   <trkpt lat="-37.86974" lon="145.3196">
    <ele>424.08</ele>
   </trkpt>
   <trkpt lat="-37.86965" lon="145.31935000000001">
    <ele>421.26</ele>
   </trkpt>
   <trkpt lat="-37.86947" lon="145.31873000000002">
    <ele>417.17</ele>
   </trkpt>
   <trkpt lat="-37.86943" lon="145.31849000000003">
    <ele>415.59000000000003</ele>
   </trkpt>
   <trkpt lat="-37.86954" lon="145.31789">
    <ele>412.34000000000003</ele>
   </trkpt>
   <trkpt lat="-37.869780000000006" lon="145.31726">
    <ele>406.65</ele>
   </trkpt>
   <trkpt lat="-37.87006" lon="145.31660000000002">
    <ele>396.27</ele>
   </trkpt>
   <trkpt lat="-37.87031" lon="145.31615000000002">
    <ele>396.03000000000003</ele>
   </trkpt>
   <trkpt lat="-37.870340000000006" lon="145.31612">
    <ele>396.06</ele>
   </trkpt>
   <trkpt lat="-37.8705" lon="145.31583">
    <ele>396.73</ele>
   </trkpt>
   <trkpt lat="-37.87059" lon="145.31573">
    <ele>397.5400000000001</ele>
   </trkpt>
   <trkpt lat="-37.871" lon="145.31558">
    <ele>401.26</ele>
   </trkpt>
   <trkpt lat="-37.8712" lon="145.31547">
    <ele>403.64000000000004</ele>
   </trkpt>
   <trkpt lat="-37.87113" lon="145.31533000000002">
    <ele>401.65</ele>
   </trkpt>
   <trkpt lat="-37.871" lon="145.31480000000002">
    <ele>395.5400000000001</ele>
   </trkpt>
   <trkpt lat="-37.87064" lon="145.31427000000002">
    <ele>389.26000000000005</ele>
   </trkpt>
   <trkpt lat="-37.87055" lon="145.31419000000002">
    <ele>387.85</ele>
   </trkpt>
   <trkpt lat="-37.87088500167205" lon="145.3135600028766">
    <ele>392.85</ele>
   </trkpt>
   <trkpt lat="-37.87122" lon="145.31293000000002">
    <ele>388.73</ele>
   </trkpt>
   <trkpt lat="-37.871280000000006" lon="145.31286">
    <ele>388.73</ele>
   </trkpt>
   <trkpt lat="-37.87133" lon="145.3128">
    <ele>386.8</ele>
   </trkpt>
   <trkpt lat="-37.87165" lon="145.31262">
    <ele>376.28</ele>
   </trkpt>
   <trkpt lat="-37.87174" lon="145.31253">
    <ele>372.59000000000003</ele>
   </trkpt>
   <trkpt lat="-37.87182" lon="145.31231000000002">
    <ele>370.05</ele>
   </trkpt>
   <trkpt lat="-37.87191" lon="145.31216">
    <ele>364.50000000000006</ele>
   </trkpt>
   <trkpt lat="-37.872020000000006" lon="145.31204000000002">
    <ele>359.99</ele>
   </trkpt>
   <trkpt lat="-37.87227" lon="145.31188">
    <ele>351.38</ele>
   </trkpt>
   <trkpt lat="-37.87236" lon="145.31185000000002">
    <ele>349.51000000000005</ele>
   </trkpt>
   <trkpt lat="-37.87245" lon="145.31188">
    <ele>347.85</ele>
   </trkpt>
   <trkpt lat="-37.87254" lon="145.31198">
    <ele>347.31</ele>
   </trkpt>
   <trkpt lat="-37.87259" lon="145.31212000000002">
    <ele>347.84000000000003</ele>
   </trkpt>
   <trkpt lat="-37.87254" lon="145.31233">
    <ele>349.12000000000006</ele>
   </trkpt>
   <trkpt lat="-37.87229" lon="145.31288">
    <ele>355.25</ele>
   </trkpt>
   <trkpt lat="-37.87227" lon="145.31307">
    <ele>356.93</ele>
   </trkpt>
   <trkpt lat="-37.87229" lon="145.31326">
    <ele>359.03000000000003</ele>
   </trkpt>
   <trkpt lat="-37.87241" lon="145.3135">
    <ele>361.72</ele>
   </trkpt>
   <trkpt lat="-37.872600000000006" lon="145.31367">
    <ele>363.8</ele>
   </trkpt>
   <trkpt lat="-37.87288" lon="145.31377">
    <ele>367.4</ele>
   </trkpt>
   <trkpt lat="-37.87326" lon="145.31379">
    <ele>368.70000000000005</ele>
   </trkpt>
   <trkpt lat="-37.87324" lon="145.31379">
    <ele>368.68</ele>
   </trkpt>
   <trkpt lat="-37.87344" lon="145.31381000000002">
    <ele>369.04</ele>
   </trkpt>
   <trkpt lat="-37.87366" lon="145.31386">
    <ele>369.51</ele>
   </trkpt>
   <trkpt lat="-37.8742" lon="145.31409000000002">
    <ele>371.4</ele>
   </trkpt>
   <trkpt lat="-37.87447" lon="145.31404">
    <ele>374.63</ele>
   </trkpt>
   <trkpt lat="-37.87489" lon="145.31387">
    <ele>378.32000000000005</ele>
   </trkpt>
   <trkpt lat="-37.87532" lon="145.31391000000002">
    <ele>381.04</ele>
   </trkpt>
   <trkpt lat="-37.8757" lon="145.31402">
    <ele>384.44</ele>
   </trkpt>
   <trkpt lat="-37.87585" lon="145.31401000000002">
    <ele>385.70000000000005</ele>
   </trkpt>
   <trkpt lat="-37.87635" lon="145.31387">
    <ele>390.38</ele>
   </trkpt>
   <trkpt lat="-37.87684" lon="145.31383000000002">
    <ele>397.36</ele>
   </trkpt>
   <trkpt lat="-37.87729" lon="145.31387">
    <ele>402.93</ele>
   </trkpt>
   <trkpt lat="-37.87753" lon="145.31387">
    <ele>408.03000000000003</ele>
   </trkpt>
   <trkpt lat="-37.87796" lon="145.31396">
    <ele>410.59</ele>
   </trkpt>
   <trkpt lat="-37.87838" lon="145.31409000000002">
    <ele>416.72</ele>
   </trkpt>
   <trkpt lat="-37.87883000008877" lon="145.31413999970323">
    <ele>421.87</ele>
   </trkpt>
   <trkpt lat="-37.87928" lon="145.31419000000002">
    <ele>424.90000000000003</ele>
   </trkpt>
   <trkpt lat="-37.87941" lon="145.31419000000002">
    <ele>426.03000000000003</ele>
   </trkpt>
   <trkpt lat="-37.87948" lon="145.31417000000002">
    <ele>426.03000000000003</ele>
   </trkpt>
   <trkpt lat="-37.87946" lon="145.31428000000002">
    <ele>426.3</ele>
   </trkpt>
   <trkpt lat="-37.87939" lon="145.31436000000002">
    <ele>426.54</ele>
   </trkpt>
   <trkpt lat="-37.879160000000006" lon="145.31446000000003">
    <ele>427.36</ele>
   </trkpt>
   <trkpt lat="-37.87885" lon="145.31461000000002">
    <ele>429.42</ele>
   </trkpt>
   <trkpt lat="-37.878600000000006" lon="145.31485">
    <ele>432.11</ele>
   </trkpt>
   <trkpt lat="-37.87829" lon="145.31506000000002">
    <ele>437.34000000000003</ele>
   </trkpt>
   <trkpt lat="-37.87791" lon="145.31546">
    <ele>442.71000000000004</ele>
   </trkpt>
   <trkpt lat="-37.87778" lon="145.31557">
    <ele>445.01</ele>
   </trkpt>
   <trkpt lat="-37.87753" lon="145.31569000000002">
    <ele>447.68</ele>
   </trkpt>
   <trkpt lat="-37.87735" lon="145.31589000000002">
    <ele>448.6</ele>
   </trkpt>
   <trkpt lat="-37.87693" lon="145.31661000000003">
    <ele>457.08000000000004</ele>
   </trkpt>
   <trkpt lat="-37.87682" lon="145.31683">
    <ele>459.93000000000006</ele>
   </trkpt>
   <trkpt lat="-37.876760000000004" lon="145.31671">
    <ele>459.23</ele>
   </trkpt>
   <trkpt lat="-37.87682" lon="145.31683">
    <ele>459.93000000000006</ele>
   </trkpt>
   <trkpt lat="-37.87668" lon="145.31728">
    <ele>465.16</ele>
   </trkpt>
   <trkpt lat="-37.87641" lon="145.31827">
    <ele>477.0</ele>
   </trkpt>
   <trkpt lat="-37.87608" lon="145.31889">
    <ele>482.03000000000003</ele>
   </trkpt>
   <trkpt lat="-37.87583" lon="145.31924">
    <ele>484.86</ele>
   </trkpt>
   <trkpt lat="-37.87547" lon="145.31965000000002">
    <ele>488.76</ele>
   </trkpt>
   <trkpt lat="-37.87536" lon="145.31973000000002">
    <ele>489.7</ele>
   </trkpt>
   <trkpt lat="-37.87518" lon="145.31997">
    <ele>491.09000000000003</ele>
   </trkpt>
   <trkpt lat="-37.875240000000005" lon="145.31989000000002">
    <ele>490.72</ele>
   </trkpt>
   <trkpt lat="-37.875020000000006" lon="145.32019000000003">
    <ele>492.42</ele>
   </trkpt>
   <trkpt lat="-37.87489" lon="145.3202">
    <ele>493.16</ele>
   </trkpt>
   <trkpt lat="-37.87473" lon="145.32017000000002">
    <ele>494.78000000000003</ele>
   </trkpt>
   <trkpt lat="-37.87442" lon="145.32003">
    <ele>498.40000000000003</ele>
   </trkpt>
   <trkpt lat="-37.87415" lon="145.32003">
    <ele>502.2300000000001</ele>
   </trkpt>
   <trkpt lat="-37.874010000000006" lon="145.32000000000002">
    <ele>503.21000000000004</ele>
   </trkpt>
   <trkpt lat="-37.87355" lon="145.31979">
    <ele>507.82000000000005</ele>
   </trkpt>
   <trkpt lat="-37.87328" lon="145.3197">
    <ele>510.69000000000005</ele>
   </trkpt>
   <trkpt lat="-37.87303" lon="145.31965000000002">
    <ele>513.1600000000001</ele>
   </trkpt>
   <trkpt lat="-37.872820000000004" lon="145.31964000000002">
    <ele>514.54</ele>
   </trkpt>
   <trkpt lat="-37.872800000000005" lon="145.31964000000002">
    <ele>514.5500000000001</ele>
   </trkpt>
   <trkpt lat="-37.872765013329314" lon="145.32066500145862">
    <ele>508.90000000000003</ele>
   </trkpt>
   <trkpt lat="-37.872730017772454" lon="145.3216900019436">
    <ele>488.8500000000001</ele>
   </trkpt>
   <trkpt lat="-37.872695013329434" lon="145.32271500145467">
    <ele>478.49</ele>
   </trkpt>
   <trkpt lat="-37.87266" lon="145.32374000000002">
    <ele>487.96000000000004</ele>
   </trkpt>
   <trkpt lat="-37.87229000264909" lon="145.3245200037567">
    <ele>492.75</ele>
   </trkpt>
   <trkpt lat="-37.87192" lon="145.3253">
    <ele>486.9100000000001</ele>
   </trkpt>
   <trkpt lat="-37.87189" lon="145.32535000000001">
    <ele>485.39000000000004</ele>
   </trkpt>
   <trkpt lat="-37.87171" lon="145.32545000000002">
    <ele>483.59000000000003</ele>
   </trkpt>
   <trkpt lat="-37.87176" lon="145.32558">
    <ele>483.2</ele>
   </trkpt>
   <trkpt lat="-37.87182" lon="145.3257">
    <ele>483.06000000000006</ele>
   </trkpt>
   <trkpt lat="-37.87238" lon="145.32607000000002">
    <ele>482.43</ele>
   </trkpt>
   <trkpt lat="-37.87261" lon="145.32628000000003">
    <ele>480.29</ele>
   </trkpt>
   <trkpt lat="-37.872870000000006" lon="145.32661000000002">
    <ele>476.17</ele>
   </trkpt>
   <trkpt lat="-37.87286" lon="145.3266">
    <ele>476.27000000000004</ele>
   </trkpt>
   <trkpt lat="-37.87322500116279" lon="145.32710999756102">
    <ele>470.5</ele>
   </trkpt>
   <trkpt lat="-37.87359" lon="145.32762000000002">
    <ele>464.69000000000005</ele>
   </trkpt>
   <trkpt lat="-37.87366" lon="145.32778000000002">
    <ele>462.14000000000004</ele>
   </trkpt>
   <trkpt lat="-37.87368" lon="145.32803">
    <ele>456.54</ele>
   </trkpt>
   <trkpt lat="-37.87382" lon="145.32833000000002">
    <ele>452.21000000000004</ele>
   </trkpt>
   <trkpt lat="-37.87435" lon="145.32887000000002">
    <ele>444.85</ele>
   </trkpt>
   <trkpt lat="-37.874570000000006" lon="145.32923000000002">
    <ele>442.6</ele>
   </trkpt>
   <trkpt lat="-37.87469" lon="145.32956000000001">
    <ele>440.37</ele>
   </trkpt>
   <trkpt lat="-37.8748" lon="145.32998">
    <ele>439.51</ele>
   </trkpt>
   <trkpt lat="-37.87491" lon="145.33029000000002">
    <ele>439.61000000000007</ele>
   </trkpt>
   <trkpt lat="-37.87514" lon="145.33068">
    <ele>439.43</ele>
   </trkpt>
   <trkpt lat="-37.875280000000004" lon="145.33083000000002">
    <ele>439.35</ele>
   </trkpt>
   <trkpt lat="-37.87541" lon="145.33097">
    <ele>439.21000000000004</ele>
   </trkpt>
   <trkpt lat="-37.87543" lon="145.33104">
    <ele>439.41</ele>
   </trkpt>
   <trkpt lat="-37.87545" lon="145.33118000000002">
    <ele>439.74</ele>
   </trkpt>
   <trkpt lat="-37.87543" lon="145.33131">
    <ele>440.22</ele>
   </trkpt>
   <trkpt lat="-37.87534" lon="145.33156000000002">
    <ele>442.96000000000004</ele>
   </trkpt>
   <trkpt lat="-37.87489" lon="145.33247">
    <ele>455.1</ele>
   </trkpt>
   <trkpt lat="-37.87465" lon="145.33307000000002">
    <ele>461.0</ele>
   </trkpt>
   <trkpt lat="-37.87443500200122" lon="145.33376000205305">
    <ele>468.15</ele>
   </trkpt>
   <trkpt lat="-37.87422" lon="145.33445">
    <ele>473.23</ele>
   </trkpt>
   <trkpt lat="-37.87414000144913" lon="145.33503500062184">
    <ele>477.49</ele>
   </trkpt>
   <trkpt lat="-37.87406" lon="145.33562">
    <ele>483.37</ele>
   </trkpt>
   <trkpt lat="-37.87406" lon="145.33563">
    <ele>483.37</ele>
   </trkpt>
   <trkpt lat="-37.87393" lon="145.33620000000002">
    <ele>487.47</ele>
   </trkpt>
   <trkpt lat="-37.87391" lon="145.33668">
    <ele>491.08</ele>
   </trkpt>
   <trkpt lat="-37.87397" lon="145.33701000000002">
    <ele>495.65000000000003</ele>
   </trkpt>
   <trkpt lat="-37.874120000000005" lon="145.33752">
    <ele>500.07</ele>
   </trkpt>
   <trkpt lat="-37.87411" lon="145.3375">
    <ele>495.44000000000005</ele>
   </trkpt>
   <trkpt lat="-37.87332750090004" lon="145.33776750852644">
    <ele>479.0</ele>
   </trkpt>
   <trkpt lat="-37.87254500119482" lon="145.33803501137015">
    <ele>449.19</ele>
   </trkpt>
   <trkpt lat="-37.87176250088439" lon="145.3383025085315">
    <ele>437.72</ele>
   </trkpt>
   <trkpt lat="-37.87098" lon="145.33857">
    <ele>446.95</ele>
   </trkpt>
   <trkpt lat="-37.870990000000006" lon="145.33854000000002">
    <ele>443.8</ele>
   </trkpt>
   <trkpt lat="-37.87091" lon="145.33863000000002">
    <ele>443.8</ele>
   </trkpt>
   <trkpt lat="-37.87075" lon="145.33874">
    <ele>452.34000000000003</ele>
   </trkpt>
   <trkpt lat="-37.87059" lon="145.33873">
    <ele>454.37000000000006</ele>
   </trkpt>
   <trkpt lat="-37.87035" lon="145.33879000000002">
    <ele>458.86</ele>
   </trkpt>
   <trkpt lat="-37.87026" lon="145.33888000000002">
    <ele>462.67</ele>
   </trkpt>
   <trkpt lat="-37.87037" lon="145.33894">
    <ele>463.91</ele>
   </trkpt>
   <trkpt lat="-37.87059" lon="145.33917000000002">
    <ele>465.0</ele>
   </trkpt>
   <trkpt lat="-37.87082" lon="145.33948">
    <ele>468.03000000000003</ele>
   </trkpt>
   <trkpt lat="-37.871100000000006" lon="145.33964">
    <ele>469.54</ele>
   </trkpt>
   <trkpt lat="-37.87131" lon="145.33968000000002">
    <ele>472.12</ele>
   </trkpt>
   <trkpt lat="-37.87153" lon="145.33975">
    <ele>473.29</ele>
   </trkpt>
   <trkpt lat="-37.87185" lon="145.33992">
    <ele>475.85</ele>
   </trkpt>
   <trkpt lat="-37.872020000000006" lon="145.34007000000003">
    <ele>477.98</ele>
   </trkpt>
   <trkpt lat="-37.87214" lon="145.34019">
    <ele>479.21000000000004</ele>
   </trkpt>
   <trkpt lat="-37.87241" lon="145.34055">
    <ele>481.63000000000005</ele>
   </trkpt>
   <trkpt lat="-37.87263" lon="145.34077000000002">
    <ele>483.95000000000005</ele>
   </trkpt>
   <trkpt lat="-37.87306" lon="145.34097">
    <ele>486.43</ele>
   </trkpt>
   <trkpt lat="-37.87375" lon="145.34154">
    <ele>493.28000000000003</ele>
   </trkpt>
   <trkpt lat="-37.8744" lon="145.34218">
    <ele>497.11</ele>
   </trkpt>
   <trkpt lat="-37.87496" lon="145.34279">
    <ele>502.25000000000006</ele>
   </trkpt>
   <trkpt lat="-37.874970000000005" lon="145.3428">
    <ele>502.32</ele>
   </trkpt>
   <trkpt lat="-37.87505" lon="145.34289">
    <ele>503.3500000000001</ele>
   </trkpt>
   <trkpt lat="-37.87511000000001" lon="145.34298">
    <ele>503.43</ele>
   </trkpt>
   <trkpt lat="-37.87536" lon="145.3428">
    <ele>503.16</ele>
   </trkpt>
   <trkpt lat="-37.87538" lon="145.34295">
    <ele>503.43</ele>
   </trkpt>
   <trkpt lat="-37.87552" lon="145.34301000000002">
    <ele>506.0800000000001</ele>
   </trkpt>
   <trkpt lat="-37.875510000000006" lon="145.34335000000002">
    <ele>510.38000000000005</ele>
   </trkpt>
   <trkpt lat="-37.87545" lon="145.3436">
    <ele>512.59</ele>
   </trkpt>
   <trkpt lat="-37.875510000000006" lon="145.34384">
    <ele>513.66</ele>
   </trkpt>
   <trkpt lat="-37.87556" lon="145.34399000000002">
    <ele>514.34</ele>
   </trkpt>
   <trkpt lat="-37.875690000000006" lon="145.34416000000002">
    <ele>515.02</ele>
   </trkpt>
   <trkpt lat="-37.8759" lon="145.34467">
    <ele>516.6800000000001</ele>
   </trkpt>
   <trkpt lat="-37.87599" lon="145.34493">
    <ele>518.14</ele>
   </trkpt>
   <trkpt lat="-37.87599" lon="145.3454">
    <ele>519.23</ele>
   </trkpt>
   <trkpt lat="-37.87603" lon="145.34573">
    <ele>519.7</ele>
   </trkpt>
   <trkpt lat="-37.87603" lon="145.34592">
    <ele>519.6500000000001</ele>
   </trkpt>
   <trkpt lat="-37.87615" lon="145.34678000000002">
    <ele>517.29</ele>
   </trkpt>
   <trkpt lat="-37.87621" lon="145.34698">
    <ele>515.22</ele>
   </trkpt>
   <trkpt lat="-37.8763" lon="145.34708">
    <ele>514.09</ele>
   </trkpt>
   <trkpt lat="-37.87648" lon="145.34716">
    <ele>513.85</ele>
   </trkpt>
   <trkpt lat="-37.8767" lon="145.34722000000002">
    <ele>514.0600000000001</ele>
   </trkpt>
   <trkpt lat="-37.876780000000004" lon="145.34721000000002">
    <ele>514.0100000000001</ele>
   </trkpt>
   <trkpt lat="-37.87677" lon="145.34721000000002">
    <ele>513.94</ele>
   </trkpt>
   <trkpt lat="-37.87688" lon="145.34705000000002">
    <ele>513.94</ele>
   </trkpt>
   <trkpt lat="-37.87702" lon="145.34689">
    <ele>509.75</ele>
   </trkpt>
   <trkpt lat="-37.87726" lon="145.34634">
    <ele>505.76</ele>
   </trkpt>
   <trkpt lat="-37.877570000000006" lon="145.34542000000002">
    <ele>501.56</ele>
   </trkpt>
   <trkpt lat="-37.87767" lon="145.34526000000002">
    <ele>500.85</ele>
   </trkpt>
   <trkpt lat="-37.87794" lon="145.34497000000002">
    <ele>498.48</ele>
   </trkpt>
   <trkpt lat="-37.878" lon="145.34487000000001">
    <ele>498.00000000000006</ele>
   </trkpt>
   <trkpt lat="-37.878040000000006" lon="145.34474">
    <ele>496.96000000000004</ele>
   </trkpt>
   <trkpt lat="-37.87805" lon="145.34458">
    <ele>494.74</ele>
   </trkpt>
   <trkpt lat="-37.87807" lon="145.34451">
    <ele>494.24000000000007</ele>
   </trkpt>
   <trkpt lat="-37.87814" lon="145.34448">
    <ele>493.37</ele>
   </trkpt>
   <trkpt lat="-37.87827" lon="145.34451">
    <ele>491.84000000000003</ele>
   </trkpt>
   <trkpt lat="-37.87836" lon="145.34455">
    <ele>491.51000000000005</ele>
   </trkpt>
   <trkpt lat="-37.87861" lon="145.34490000000002">
    <ele>490.66</ele>
   </trkpt>
   <trkpt lat="-37.87876" lon="145.34495">
    <ele>489.07000000000005</ele>
   </trkpt>
   <trkpt lat="-37.87888" lon="145.34482">
    <ele>490.59000000000003</ele>
   </trkpt>
   <trkpt lat="-37.8789" lon="145.34474">
    <ele>491.77000000000004</ele>
   </trkpt>
   <trkpt lat="-37.87914" lon="145.34452000000002">
    <ele>500.29</ele>
   </trkpt>
   <trkpt lat="-37.87919" lon="145.34452000000002">
    <ele>500.29</ele>
   </trkpt>
   <trkpt lat="-37.87944" lon="145.34486">
    <ele>502.38000000000005</ele>
   </trkpt>
   <trkpt lat="-37.87973" lon="145.34534000000002">
    <ele>500.25000000000006</ele>
   </trkpt>
   <trkpt lat="-37.8802" lon="145.34602">
    <ele>497.02</ele>
   </trkpt>
   <trkpt lat="-37.88042" lon="145.34634">
    <ele>494.83000000000004</ele>
   </trkpt>
   <trkpt lat="-37.88067" lon="145.34663">
    <ele>493.59000000000003</ele>
   </trkpt>
   <trkpt lat="-37.880860000000006" lon="145.34682">
    <ele>492.94000000000005</ele>
   </trkpt>
   <trkpt lat="-37.88105" lon="145.34695000000002">
    <ele>492.52</ele>
   </trkpt>
   <trkpt lat="-37.88154" lon="145.34723000000002">
    <ele>489.56000000000006</ele>
   </trkpt>
   <trkpt lat="-37.88167" lon="145.34744">
    <ele>488.53000000000003</ele>
   </trkpt>
   <trkpt lat="-37.88201" lon="145.34819000000002">
    <ele>482.54</ele>
   </trkpt>
   <trkpt lat="-37.88226" lon="145.34839000000002">
    <ele>481.49</ele>
   </trkpt>
   <trkpt lat="-37.88255" lon="145.34856000000002">
    <ele>480.84000000000003</ele>
   </trkpt>
   <trkpt lat="-37.88302" lon="145.3487">
    <ele>480.88</ele>
   </trkpt>
   <trkpt lat="-37.88311" lon="145.34876">
    <ele>480.83000000000004</ele>
   </trkpt>
   <trkpt lat="-37.8836" lon="145.34926000000002">
    <ele>480.03000000000003</ele>
   </trkpt>
   <trkpt lat="-37.88405" lon="145.34945000000002">
    <ele>479.0</ele>
   </trkpt>
   <trkpt lat="-37.88436" lon="145.34969">
    <ele>477.90000000000003</ele>
   </trkpt>
   <trkpt lat="-37.88456" lon="145.35004">
    <ele>475.88</ele>
   </trkpt>
   <trkpt lat="-37.88461" lon="145.35017000000002">
    <ele>474.25000000000006</ele>
   </trkpt>
   <trkpt lat="-37.88465" lon="145.35035000000002">
    <ele>473.56</ele>
   </trkpt>
   <trkpt lat="-37.884660000000004" lon="145.35034000000002">
    <ele>473.56</ele>
   </trkpt>
   <trkpt lat="-37.88465" lon="145.35035000000002">
    <ele>473.49</ele>
   </trkpt>
   <trkpt lat="-37.88461" lon="145.35046">
    <ele>472.36000000000007</ele>
   </trkpt>
   <trkpt lat="-37.88461" lon="145.35066">
    <ele>469.78000000000003</ele>
   </trkpt>
   <trkpt lat="-37.88472" lon="145.35090000000002">
    <ele>468.11</ele>
   </trkpt>
   <trkpt lat="-37.884780000000006" lon="145.35099000000002">
    <ele>470.69000000000005</ele>
   </trkpt>
   <trkpt lat="-37.8853" lon="145.3514">
    <ele>471.37</ele>
   </trkpt>
   <trkpt lat="-37.88552" lon="145.35153000000003">
    <ele>470.5</ele>
   </trkpt>
   <trkpt lat="-37.88584" lon="145.35157">
    <ele>468.23</ele>
   </trkpt>
   <trkpt lat="-37.88617" lon="145.35155">
    <ele>465.3</ele>
   </trkpt>
   <trkpt lat="-37.88653" lon="145.35164">
    <ele>464.62</ele>
   </trkpt>
   <trkpt lat="-37.88687" lon="145.35166">
    <ele>464.11</ele>
   </trkpt>
   <trkpt lat="-37.88734" lon="145.35173">
    <ele>457.63000000000005</ele>
   </trkpt>
   <trkpt lat="-37.887330000000006" lon="145.35177000000002">
    <ele>457.29</ele>
   </trkpt>
   <trkpt lat="-37.88727" lon="145.35185">
    <ele>457.22</ele>
   </trkpt>
   <trkpt lat="-37.88727" lon="145.35205000000002">
    <ele>457.21000000000004</ele>
   </trkpt>
   <trkpt lat="-37.88729" lon="145.35211">
    <ele>457.21000000000004</ele>
   </trkpt>
   <trkpt lat="-37.88725" lon="145.35214000000002">
    <ele>457.28000000000003</ele>
   </trkpt>
   <trkpt lat="-37.88711" lon="145.35207000000003">
    <ele>460.46000000000004</ele>
   </trkpt>
   <trkpt lat="-37.887100000000004" lon="145.35207000000003">
    <ele>460.46000000000004</ele>
   </trkpt>
   <trkpt lat="-37.88698" lon="145.35202">
    <ele>462.35</ele>
   </trkpt>
   <trkpt lat="-37.88678" lon="145.35202">
    <ele>464.90000000000003</ele>
   </trkpt>
   <trkpt lat="-37.88662" lon="145.352">
    <ele>466.11</ele>
   </trkpt>
   <trkpt lat="-37.88626" lon="145.35184">
    <ele>468.41</ele>
   </trkpt>
   <trkpt lat="-37.88615" lon="145.35176">
    <ele>468.68</ele>
   </trkpt>
   <trkpt lat="-37.886070000000004" lon="145.35201">
    <ele>472.73</ele>
   </trkpt>
   <trkpt lat="-37.88608" lon="145.35199">
    <ele>472.53000000000003</ele>
   </trkpt>
   <trkpt lat="-37.88588" lon="145.35242000000002">
    <ele>478.55</ele>
   </trkpt>
   <trkpt lat="-37.88555" lon="145.35296000000002">
    <ele>486.51000000000005</ele>
   </trkpt>
   <trkpt lat="-37.88544" lon="145.35307">
    <ele>486.51000000000005</ele>
   </trkpt>
   <trkpt lat="-37.88508" lon="145.35324">
    <ele>489.66</ele>
   </trkpt>
   <trkpt lat="-37.88497" lon="145.35328">
    <ele>490.39000000000004</ele>
   </trkpt>
   <trkpt lat="-37.88434" lon="145.35368000000003">
    <ele>491.62000000000006</ele>
   </trkpt>
   <trkpt lat="-37.88423" lon="145.35381">
    <ele>490.8500000000001</ele>
   </trkpt>
   <trkpt lat="-37.88371" lon="145.35464000000002">
    <ele>485.1</ele>
   </trkpt>
   <trkpt lat="-37.88351" lon="145.35512">
    <ele>486.46000000000004</ele>
   </trkpt>
   <trkpt lat="-37.88351" lon="145.3553">
    <ele>486.80000000000007</ele>
   </trkpt>
   <trkpt lat="-37.883190000000006" lon="145.3554">
    <ele>487.86</ele>
   </trkpt>
   <trkpt lat="-37.88302" lon="145.35574000000003">
    <ele>490.00000000000006</ele>
   </trkpt>
   <trkpt lat="-37.88288" lon="145.35593">
    <ele>490.86</ele>
   </trkpt>
   <trkpt lat="-37.88266" lon="145.35619">
    <ele>491.44000000000005</ele>
   </trkpt>
   <trkpt lat="-37.88244" lon="145.35639">
    <ele>491.1</ele>
   </trkpt>
   <trkpt lat="-37.88226" lon="145.35667">
    <ele>490.54</ele>
   </trkpt>
   <trkpt lat="-37.88212" lon="145.35702">
    <ele>491.40000000000003</ele>
   </trkpt>
   <trkpt lat="-37.88183" lon="145.35763">
    <ele>491.74000000000007</ele>
   </trkpt>
   <trkpt lat="-37.88161" lon="145.35798">
    <ele>488.49</ele>
   </trkpt>
   <trkpt lat="-37.8815" lon="145.35811">
    <ele>488.49</ele>
   </trkpt>
   <trkpt lat="-37.88138" lon="145.35829">
    <ele>487.2</ele>
   </trkpt>
   <trkpt lat="-37.88123" lon="145.35861">
    <ele>486.88000000000005</ele>
   </trkpt>
   <trkpt lat="-37.8812" lon="145.35876000000002">
    <ele>487.13000000000005</ele>
   </trkpt>
   <trkpt lat="-37.88103" lon="145.35904000000002">
    <ele>486.82</ele>
   </trkpt>
   <trkpt lat="-37.88098" lon="145.35905000000002">
    <ele>486.6</ele>
   </trkpt>
   <trkpt lat="-37.88096" lon="145.35906">
    <ele>486.56000000000006</ele>
   </trkpt>
   <trkpt lat="-37.88094" lon="145.35907">
    <ele>486.42</ele>
   </trkpt>
   <trkpt lat="-37.8808" lon="145.35903000000002">
    <ele>485.85</ele>
   </trkpt>
   <trkpt lat="-37.88051" lon="145.35909">
    <ele>481.45000000000005</ele>
   </trkpt>
   <trkpt lat="-37.88033" lon="145.3591">
    <ele>482.01000000000005</ele>
   </trkpt>
   <trkpt lat="-37.8802" lon="145.35908">
    <ele>482.07000000000005</ele>
   </trkpt>
   <trkpt lat="-37.88006" lon="145.35903000000002">
    <ele>481.95000000000005</ele>
   </trkpt>
   <trkpt lat="-37.87988" lon="145.35893000000002">
    <ele>481.44</ele>
   </trkpt>
   <trkpt lat="-37.87977" lon="145.35877000000002">
    <ele>480.71000000000004</ele>
   </trkpt>
   <trkpt lat="-37.87919" lon="145.35846">
    <ele>483.74000000000007</ele>
   </trkpt>
   <trkpt lat="-37.87876" lon="145.35838">
    <ele>485.34000000000003</ele>
   </trkpt>
   <trkpt lat="-37.878600000000006" lon="145.35829">
    <ele>485.39000000000004</ele>
   </trkpt>
   <trkpt lat="-37.87818" lon="145.35801">
    <ele>483.79</ele>
   </trkpt>
   <trkpt lat="-37.87798" lon="145.35797000000002">
    <ele>483.1</ele>
   </trkpt>
   <trkpt lat="-37.8778" lon="145.35791">
    <ele>482.80000000000007</ele>
   </trkpt>
   <trkpt lat="-37.87751" lon="145.35765">
    <ele>481.21000000000004</ele>
   </trkpt>
   <trkpt lat="-37.877210000000005" lon="145.35686">
    <ele>477.75000000000006</ele>
   </trkpt>
   <trkpt lat="-37.87709" lon="145.35653000000002">
    <ele>476.68000000000006</ele>
   </trkpt>
   <trkpt lat="-37.87682" lon="145.35661000000002">
    <ele>475.31000000000006</ele>
   </trkpt>
   <trkpt lat="-37.87675" lon="145.35661000000002">
    <ele>475.45000000000005</ele>
   </trkpt>
   <trkpt lat="-37.87646" lon="145.35667">
    <ele>476.04</ele>
   </trkpt>
   <trkpt lat="-37.8763" lon="145.35674">
    <ele>476.30000000000007</ele>
   </trkpt>
   <trkpt lat="-37.876160000000006" lon="145.35686">
    <ele>476.40000000000003</ele>
   </trkpt>
   <trkpt lat="-37.87594" lon="145.35714000000002">
    <ele>475.89000000000004</ele>
   </trkpt>
   <trkpt lat="-37.87585" lon="145.3574">
    <ele>474.56</ele>
   </trkpt>
   <trkpt lat="-37.87572" lon="145.35758">
    <ele>471.43</ele>
   </trkpt>
   <trkpt lat="-37.875600000000006" lon="145.35771000000003">
    <ele>470.32</ele>
   </trkpt>
   <trkpt lat="-37.87541" lon="145.35777000000002">
    <ele>469.38</ele>
   </trkpt>
   <trkpt lat="-37.87482" lon="145.35784">
    <ele>463.28000000000003</ele>
   </trkpt>
   <trkpt lat="-37.87473" lon="145.35783">
    <ele>463.1</ele>
   </trkpt>
   <trkpt lat="-37.87435" lon="145.35784">
    <ele>460.71000000000004</ele>
   </trkpt>
   <trkpt lat="-37.87413" lon="145.35781">
    <ele>459.19000000000005</ele>
   </trkpt>
   <trkpt lat="-37.87379" lon="145.35763">
    <ele>457.18</ele>
   </trkpt>
   <trkpt lat="-37.87353" lon="145.35718">
    <ele>453.43000000000006</ele>
   </trkpt>
   <trkpt lat="-37.87339" lon="145.35649">
    <ele>451.61</ele>
   </trkpt>
   <trkpt lat="-37.87335" lon="145.35644000000002">
    <ele>451.34000000000003</ele>
   </trkpt>
   <trkpt lat="-37.87332" lon="145.35644000000002">
    <ele>451.34000000000003</ele>
   </trkpt>
   <trkpt lat="-37.87328" lon="145.35648">
    <ele>450.77000000000004</ele>
   </trkpt>
   <trkpt lat="-37.87328" lon="145.35653000000002">
    <ele>450.77000000000004</ele>
   </trkpt>
   <trkpt lat="-37.87341" lon="145.357">
    <ele>448.11000000000007</ele>
   </trkpt>
   <trkpt lat="-37.87341" lon="145.3574">
    <ele>445.88000000000005</ele>
   </trkpt>
   <trkpt lat="-37.87346" lon="145.35765">
    <ele>444.65000000000003</ele>
   </trkpt>
   <trkpt lat="-37.87357" lon="145.35787000000002">
    <ele>442.51</ele>
   </trkpt>
   <trkpt lat="-37.873630000000006" lon="145.35801">
    <ele>440.34</ele>
   </trkpt>
   <trkpt lat="-37.87373" lon="145.3582">
    <ele>439.54</ele>
   </trkpt>
   <trkpt lat="-37.87402" lon="145.35849000000002">
    <ele>436.07</ele>
   </trkpt>
   <trkpt lat="-37.87433" lon="145.35864">
    <ele>432.71000000000004</ele>
   </trkpt>
   <trkpt lat="-37.87447" lon="145.35877000000002">
    <ele>429.91</ele>
   </trkpt>
   <trkpt lat="-37.87458" lon="145.35891">
    <ele>429.08</ele>
   </trkpt>
   <trkpt lat="-37.87478" lon="145.35926">
    <ele>424.00000000000006</ele>
   </trkpt>
   <trkpt lat="-37.87487" lon="145.35939000000002">
    <ele>424.06000000000006</ele>
   </trkpt>
   <trkpt lat="-37.87496" lon="145.35946">
    <ele>423.13000000000005</ele>
   </trkpt>
   <trkpt lat="-37.875130000000006" lon="145.35951">
    <ele>420.43</ele>
   </trkpt>
   <trkpt lat="-37.87521" lon="145.35967000000002">
    <ele>419.16</ele>
   </trkpt>
   <trkpt lat="-37.87516" lon="145.35986000000003">
    <ele>417.08000000000004</ele>
   </trkpt>
   <trkpt lat="-37.87494" lon="145.36006">
    <ele>413.58000000000004</ele>
   </trkpt>
   <trkpt lat="-37.87456" lon="145.36044">
    <ele>405.98</ele>
   </trkpt>
   <trkpt lat="-37.87406" lon="145.36083000000002">
    <ele>400.9200000000001</ele>
   </trkpt>
   <trkpt lat="-37.87391" lon="145.36107">
    <ele>397.25000000000006</ele>
   </trkpt>
   <trkpt lat="-37.87373" lon="145.36151">
    <ele>393.84000000000003</ele>
   </trkpt>
   <trkpt lat="-37.87373" lon="145.36161">
    <ele>393.66</ele>
   </trkpt>
   <trkpt lat="-37.87377" lon="145.36196">
    <ele>391.51</ele>
   </trkpt>
   <trkpt lat="-37.873670000000004" lon="145.36171000000002">
    <ele>397.0</ele>
   </trkpt>
   <trkpt lat="-37.87355" lon="145.36154000000002">
    <ele>400.5</ele>
   </trkpt>
   <trkpt lat="-37.87357" lon="145.36146000000002">
    <ele>415.16</ele>
   </trkpt>
   <trkpt lat="-37.87357" lon="145.36141">
    <ele>415.25</ele>
   </trkpt>
   <trkpt lat="-37.87355" lon="145.3614">
    <ele>415.43</ele>
   </trkpt>
   <trkpt lat="-37.8735" lon="145.36143">
    <ele>416.38</ele>
   </trkpt>
   <trkpt lat="-37.87346" lon="145.3614">
    <ele>416.38</ele>
   </trkpt>
   <trkpt lat="-37.87341" lon="145.36126000000002">
    <ele>402.07000000000005</ele>
   </trkpt>
   <trkpt lat="-37.87337" lon="145.36122">
    <ele>402.45000000000005</ele>
   </trkpt>
   <trkpt lat="-37.87323000000001" lon="145.36120000000003">
    <ele>403.73</ele>
   </trkpt>
   <trkpt lat="-37.87292" lon="145.36119000000002">
    <ele>406.33000000000004</ele>
   </trkpt>
   <trkpt lat="-37.87243" lon="145.36129000000003">
    <ele>408.01000000000005</ele>
   </trkpt>
   <trkpt lat="-37.87234" lon="145.36127000000002">
    <ele>408.81</ele>
   </trkpt>
   <trkpt lat="-37.87221" lon="145.36118000000002">
    <ele>409.66</ele>
   </trkpt>
   <trkpt lat="-37.87205" lon="145.36114">
    <ele>410.04</ele>
   </trkpt>
   <trkpt lat="-37.87182" lon="145.36126000000002">
    <ele>409.94</ele>
   </trkpt>
   <trkpt lat="-37.87113" lon="145.36123">
    <ele>409.73</ele>
   </trkpt>
   <trkpt lat="-37.87071" lon="145.36105">
    <ele>410.80000000000007</ele>
   </trkpt>
   <trkpt lat="-37.86999" lon="145.36083000000002">
    <ele>412.15000000000003</ele>
   </trkpt>
   <trkpt lat="-37.86972" lon="145.36065000000002">
    <ele>412.29</ele>
   </trkpt>
   <trkpt lat="-37.86963" lon="145.36053">
    <ele>412.57000000000005</ele>
   </trkpt>
   <trkpt lat="-37.8695" lon="145.36015">
    <ele>415.40000000000003</ele>
   </trkpt>
   <trkpt lat="-37.869220000000006" lon="145.35977000000003">
    <ele>415.49</ele>
   </trkpt>
   <trkpt lat="-37.86887" lon="145.35943">
    <ele>417.2</ele>
   </trkpt>
   <trkpt lat="-37.86871" lon="145.35917">
    <ele>418.86</ele>
   </trkpt>
   <trkpt lat="-37.8682" lon="145.35908">
    <ele>418.2</ele>
   </trkpt>
   <trkpt lat="-37.86806" lon="145.35901">
    <ele>418.50000000000006</ele>
   </trkpt>
   <trkpt lat="-37.86793" lon="145.35878000000002">
    <ele>418.97</ele>
   </trkpt>
   <trkpt lat="-37.86773" lon="145.35860000000002">
    <ele>417.74000000000007</ele>
   </trkpt>
   <trkpt lat="-37.86768" lon="145.35852">
    <ele>417.72</ele>
   </trkpt>
   <trkpt lat="-37.86771" lon="145.35824000000002">
    <ele>418.15000000000003</ele>
   </trkpt>
   <trkpt lat="-37.86766" lon="145.35817">
    <ele>418.15000000000003</ele>
   </trkpt>
   <trkpt lat="-37.86755" lon="145.35812">
    <ele>418.2</ele>
   </trkpt>
   <trkpt lat="-37.86748" lon="145.35804000000002">
    <ele>418.40000000000003</ele>
   </trkpt>
   <trkpt lat="-37.86737" lon="145.35797000000002">
    <ele>418.31</ele>
   </trkpt>
   <trkpt lat="-37.86728" lon="145.35787000000002">
    <ele>418.82</ele>
   </trkpt>
   <trkpt lat="-37.86715" lon="145.35776">
    <ele>419.59000000000003</ele>
   </trkpt>
   <trkpt lat="-37.8669" lon="145.35737">
    <ele>418.99</ele>
   </trkpt>
   <trkpt lat="-37.866760000000006" lon="145.35739">
    <ele>419.08</ele>
   </trkpt>
   <trkpt lat="-37.86672" lon="145.35738">
    <ele>419.08</ele>
   </trkpt>
   <trkpt lat="-37.86654" lon="145.35708000000002">
    <ele>421.62000000000006</ele>
   </trkpt>
   <trkpt lat="-37.86632" lon="145.35688000000002">
    <ele>424.55</ele>
   </trkpt>
   <trkpt lat="-37.86623" lon="145.35682">
    <ele>425.34000000000003</ele>
   </trkpt>
   <trkpt lat="-37.866" lon="145.35656">
    <ele>428.12000000000006</ele>
   </trkpt>
   <trkpt lat="-37.86585" lon="145.35607000000002">
    <ele>430.95000000000005</ele>
   </trkpt>
   <trkpt lat="-37.86589" lon="145.35592000000003">
    <ele>433.53000000000003</ele>
   </trkpt>
   <trkpt lat="-37.86587" lon="145.35572000000002">
    <ele>434.47</ele>
   </trkpt>
   <trkpt lat="-37.86596" lon="145.35572000000002">
    <ele>434.62000000000006</ele>
   </trkpt>
   <trkpt lat="-37.866" lon="145.35554000000002">
    <ele>434.66</ele>
   </trkpt>
   <trkpt lat="-37.86598" lon="145.35542">
    <ele>434.74</ele>
   </trkpt>
   <trkpt lat="-37.86592" lon="145.35539">
    <ele>434.74</ele>
   </trkpt>
   <trkpt lat="-37.86547" lon="145.35535000000002">
    <ele>438.87</ele>
   </trkpt>
   <trkpt lat="-37.8652" lon="145.35519000000002">
    <ele>444.52000000000004</ele>
   </trkpt>
   <trkpt lat="-37.86502" lon="145.35512">
    <ele>445.77000000000004</ele>
   </trkpt>
   <trkpt lat="-37.86486" lon="145.35513">
    <ele>447.04</ele>
   </trkpt>
   <trkpt lat="-37.8645" lon="145.35506">
    <ele>454.32000000000005</ele>
   </trkpt>
   <trkpt lat="-37.86435" lon="145.35499000000002">
    <ele>459.69000000000005</ele>
   </trkpt>
   <trkpt lat="-37.86415" lon="145.35496">
    <ele>463.89000000000004</ele>
   </trkpt>
   <trkpt lat="-37.86361" lon="145.35494">
    <ele>470.79</ele>
   </trkpt>
   <trkpt lat="-37.86345" lon="145.35489">
    <ele>472.91</ele>
   </trkpt>
   <trkpt lat="-37.86334" lon="145.35477">
    <ele>476.57000000000005</ele>
   </trkpt>
   <trkpt lat="-37.86316" lon="145.35444">
    <ele>482.30000000000007</ele>
   </trkpt>
  </trkseg>
 </trk>
</gpx>
