<?xml version="1.0" encoding="UTF-8"?>
<gpx creator="StravaGPX" version="1.1" xmlns="http://www.topografix.com/GPX/1/1" xmlns:xsi="http://www.w3.org/2001/XMLSchema-instance" xsi:schemaLocation="http://www.topografix.com/GPX/1/1 http://www.topografix.com/GPX/1/1/gpx.xsd">
 <metadata>
  <name>DTR - 23rd Nov - 14k</name>
  <author>
   <name>DTR  Runleaders</name>
   <link href="https://www.strava.com/athletes/194056408"/>
  </author>
  <copyright author="OpenStreetMap contributors">
   <year>2020</year>
   <license>https://www.openstreetmap.org/copyright</license>
  </copyright>
  <link href="https://www.strava.com/routes/3426523550715445744"/>
 </metadata>
 <trk>
  <name>DTR - 23rd Nov - 14k</name>
  <link href="https://www.strava.com/routes/3426523550715445744"/>
  <type>running</type>
  <trkseg>
   <trkpt lat="-37.887710000000006" lon="145.36994">
    <ele>360.61</ele>
   </trkpt>
   <trkpt lat="-37.887620000000005" lon="145.36993">
    <ele>360.51000000000005</ele>
   </trkpt>
   <trkpt lat="-37.88749" lon="145.36999">
    <ele>360.59000000000003</ele>
   </trkpt>
   <trkpt lat="-37.88738" lon="145.37008">
    <ele>362.61</ele>
   </trkpt>
   <trkpt lat="-37.88729" lon="145.37024000000002">
    <ele>363.92</ele>
   </trkpt>
   <trkpt lat="-37.886860000000006" lon="145.37055">
    <ele>367.48</ele>
   </trkpt>
   <trkpt lat="-37.88689" lon="145.37066000000002">
    <ele>370.8</ele>
   </trkpt>
   <trkpt lat="-37.88682" lon="145.37084000000002">
    <ele>370.64000000000004</ele>
   </trkpt>
   <trkpt lat="-37.886770000000006" lon="145.37092">
    <ele>370.64000000000004</ele>
   </trkpt>
   <trkpt lat="-37.8866" lon="145.37096000000003">
    <ele>370.71000000000004</ele>
   </trkpt>
   <trkpt lat="-37.88644" lon="145.37119">
    <ele>371.20000000000005</ele>
   </trkpt>
   <trkpt lat="-37.88635" lon="145.37127">
    <ele>372.27000000000004</ele>
   </trkpt>
   <trkpt lat="-37.88617" lon="145.37130000000002">
    <ele>372.93</ele>
   </trkpt>
   <trkpt lat="-37.88584" lon="145.37130000000002">
    <ele>374.3</ele>
   </trkpt>
   <trkpt lat="-37.88557" lon="145.37139000000002">
    <ele>375.23</ele>
   </trkpt>
   <trkpt lat="-37.88552" lon="145.37135">
    <ele>375.23</ele>
   </trkpt>
   <trkpt lat="-37.88543000000001" lon="145.37133">
    <ele>373.49</ele>
   </trkpt>
   <trkpt lat="-37.88537" lon="145.37118">
    <ele>372.63</ele>
   </trkpt>
   <trkpt lat="-37.8853" lon="145.37123000000003">
    <ele>374.33000000000004</ele>
   </trkpt>
   <trkpt lat="-37.88571" lon="145.37196">
    <ele>376.00000000000006</ele>
   </trkpt>
   <trkpt lat="-37.88613" lon="145.37255000000002">
    <ele>381.32000000000005</ele>
   </trkpt>
   <trkpt lat="-37.88655500196061" lon="145.37320999637433">
    <ele>385.78000000000003</ele>
   </trkpt>
   <trkpt lat="-37.88698" lon="145.37387">
    <ele>390.91</ele>
   </trkpt>
   <trkpt lat="-37.88709" lon="145.37441">
    <ele>394.03000000000003</ele>
   </trkpt>
   <trkpt lat="-37.88718" lon="145.37521">
    <ele>398.8</ele>
   </trkpt>
   <trkpt lat="-37.887170000000005" lon="145.37541000000002">
    <ele>398.8</ele>
   </trkpt>
   <trkpt lat="-37.887170000000005" lon="145.3754">
    <ele>398.89</ele>
   </trkpt>
   <trkpt lat="-37.88714" lon="145.37576">
    <ele>401.07000000000005</ele>
   </trkpt>
   <trkpt lat="-37.88696" lon="145.37626">
    <ele>402.55</ele>
   </trkpt>
   <trkpt lat="-37.88682" lon="145.37684000000002">
    <ele>404.31000000000006</ele>
   </trkpt>
   <trkpt lat="-37.88658" lon="145.37748000000002">
    <ele>404.75000000000006</ele>
   </trkpt>
   <trkpt lat="-37.88664" lon="145.3776">
    <ele>404.52000000000004</ele>
   </trkpt>
   <trkpt lat="-37.8866" lon="145.3778">
    <ele>404.36000000000007</ele>
   </trkpt>
   <trkpt lat="-37.886720000000004" lon="145.37794000000002">
    <ele>403.67</ele>
   </trkpt>
   <trkpt lat="-37.887240000000006" lon="145.3779">
    <ele>403.66</ele>
   </trkpt>
   <trkpt lat="-37.88747" lon="145.37802000000002">
    <ele>405.35</ele>
   </trkpt>
   <trkpt lat="-37.8877" lon="145.37814">
    <ele>408.25000000000006</ele>
   </trkpt>
   <trkpt lat="-37.888505000150154" lon="145.37797500179676">
    <ele>400.90000000000003</ele>
   </trkpt>
   <trkpt lat="-37.88931" lon="145.37781">
    <ele>394.47</ele>
   </trkpt>
   <trkpt lat="-37.89016" lon="145.37795">
    <ele>391.16</ele>
   </trkpt>
   <trkpt lat="-37.89085" lon="145.37794000000002">
    <ele>388.04</ele>
   </trkpt>
   <trkpt lat="-37.89112" lon="145.3779">
    <ele>386.41</ele>
   </trkpt>
   <trkpt lat="-37.89139" lon="145.37794000000002">
    <ele>384.96000000000004</ele>
   </trkpt>
   <trkpt lat="-37.89177" lon="145.37807">
    <ele>382.84000000000003</ele>
   </trkpt>
   <trkpt lat="-37.89222" lon="145.37835">
    <ele>381.03000000000003</ele>
   </trkpt>
   <trkpt lat="-37.89229" lon="145.37834">
    <ele>380.09000000000003</ele>
   </trkpt>
   <trkpt lat="-37.89235" lon="145.37830000000002">
    <ele>379.43000000000006</ele>
   </trkpt>
   <trkpt lat="-37.89249" lon="145.37814">
    <ele>375.1</ele>
   </trkpt>
   <trkpt lat="-37.89262" lon="145.37792000000002">
    <ele>371.69</ele>
   </trkpt>
   <trkpt lat="-37.89267" lon="145.37773">
    <ele>368.91</ele>
   </trkpt>
   <trkpt lat="-37.89264" lon="145.37733">
    <ele>364.69</ele>
   </trkpt>
   <trkpt lat="-37.892570000000006" lon="145.37707">
    <ele>362.75</ele>
   </trkpt>
   <trkpt lat="-37.89234500151732" lon="145.37649999862043">
    <ele>357.87</ele>
   </trkpt>
   <trkpt lat="-37.892120000000006" lon="145.37593">
    <ele>352.0</ele>
   </trkpt>
   <trkpt lat="-37.89166" lon="145.37524000000002">
    <ele>345.06</ele>
   </trkpt>
   <trkpt lat="-37.89146" lon="145.37505000000002">
    <ele>344.07000000000005</ele>
   </trkpt>
   <trkpt lat="-37.89137" lon="145.37499000000003">
    <ele>343.80000000000007</ele>
   </trkpt>
   <trkpt lat="-37.89114" lon="145.37492">
    <ele>344.30000000000007</ele>
   </trkpt>
   <trkpt lat="-37.89079" lon="145.37492">
    <ele>344.69000000000005</ele>
   </trkpt>
   <trkpt lat="-37.89112" lon="145.37477">
    <ele>341.04</ele>
   </trkpt>
   <trkpt lat="-37.891180000000006" lon="145.37476">
    <ele>340.57000000000005</ele>
   </trkpt>
   <trkpt lat="-37.89137" lon="145.37478000000002">
    <ele>337.47</ele>
   </trkpt>
   <trkpt lat="-37.89148" lon="145.37473">
    <ele>336.98</ele>
   </trkpt>
   <trkpt lat="-37.89157" lon="145.37466">
    <ele>336.05</ele>
   </trkpt>
   <trkpt lat="-37.89159" lon="145.37459">
    <ele>336.05</ele>
   </trkpt>
   <trkpt lat="-37.89159" lon="145.37401">
    <ele>341.54</ele>
   </trkpt>
   <trkpt lat="-37.89161" lon="145.37392">
    <ele>341.54</ele>
   </trkpt>
   <trkpt lat="-37.89166" lon="145.37383">
    <ele>341.54</ele>
   </trkpt>
   <trkpt lat="-37.89175" lon="145.37377">
    <ele>343.05</ele>
   </trkpt>
   <trkpt lat="-37.89193" lon="145.37368">
    <ele>345.39000000000004</ele>
   </trkpt>
   <trkpt lat="-37.89213" lon="145.37365">
    <ele>349.90000000000003</ele>
   </trkpt>
   <trkpt lat="-37.8924" lon="145.37368">
    <ele>352.33000000000004</ele>
   </trkpt>
   <trkpt lat="-37.89284" lon="145.37382000000002">
    <ele>356.92</ele>
   </trkpt>
   <trkpt lat="-37.89321" lon="145.37402">
    <ele>360.08</ele>
   </trkpt>
   <trkpt lat="-37.89321" lon="145.37403">
    <ele>360.22</ele>
   </trkpt>
   <trkpt lat="-37.89331" lon="145.37409000000002">
    <ele>361.09000000000003</ele>
   </trkpt>
   <trkpt lat="-37.89349" lon="145.37424000000001">
    <ele>363.44000000000005</ele>
   </trkpt>
   <trkpt lat="-37.89383" lon="145.37475">
    <ele>370.25</ele>
   </trkpt>
   <trkpt lat="-37.89392" lon="145.37482">
    <ele>371.58000000000004</ele>
   </trkpt>
   <trkpt lat="-37.89423" lon="145.37495">
    <ele>376.92</ele>
   </trkpt>
   <trkpt lat="-37.89437" lon="145.37505000000002">
    <ele>378.44000000000005</ele>
   </trkpt>
   <trkpt lat="-37.894560000000006" lon="145.37512">
    <ele>381.96000000000004</ele>
   </trkpt>
   <trkpt lat="-37.89479" lon="145.37516000000002">
    <ele>388.47</ele>
   </trkpt>
   <trkpt lat="-37.89513" lon="145.37514000000002">
    <ele>391.76000000000005</ele>
   </trkpt>
   <trkpt lat="-37.89549" lon="145.37521">
    <ele>396.14000000000004</ele>
   </trkpt>
   <trkpt lat="-37.8958" lon="145.37517000000003">
    <ele>397.62</ele>
   </trkpt>
   <trkpt lat="-37.896080000000005" lon="145.37524000000002">
    <ele>397.91</ele>
   </trkpt>
   <trkpt lat="-37.89636" lon="145.37518">
    <ele>398.18</ele>
   </trkpt>
   <trkpt lat="-37.89658" lon="145.37518">
    <ele>398.07000000000005</ele>
   </trkpt>
   <trkpt lat="-37.89676" lon="145.37524000000002">
    <ele>398.20000000000005</ele>
   </trkpt>
   <trkpt lat="-37.89701" lon="145.37541000000002">
    <ele>398.99</ele>
   </trkpt>
   <trkpt lat="-37.89723" lon="145.37565">
    <ele>398.99</ele>
   </trkpt>
   <trkpt lat="-37.89734" lon="145.37586000000002">
    <ele>399.69000000000005</ele>
   </trkpt>
   <trkpt lat="-37.897540000000006" lon="145.37663">
    <ele>398.83</ele>
   </trkpt>
   <trkpt lat="-37.89772" lon="145.37738000000002">
    <ele>396.94</ele>
   </trkpt>
   <trkpt lat="-37.89781" lon="145.3779">
    <ele>396.62</ele>
   </trkpt>
   <trkpt lat="-37.8979" lon="145.37899000000002">
    <ele>400.09000000000003</ele>
   </trkpt>
   <trkpt lat="-37.89793" lon="145.37910000000002">
    <ele>399.96000000000004</ele>
   </trkpt>
   <trkpt lat="-37.897980000000004" lon="145.37919000000002">
    <ele>398.72</ele>
   </trkpt>
   <trkpt lat="-37.89822" lon="145.37928000000002">
    <ele>398.92</ele>
   </trkpt>
   <trkpt lat="-37.8984" lon="145.3794">
    <ele>398.08000000000004</ele>
   </trkpt>
   <trkpt lat="-37.89904000000001" lon="145.37972000000002">
    <ele>392.21000000000004</ele>
   </trkpt>
   <trkpt lat="-37.89983" lon="145.38012">
    <ele>383.18</ele>
   </trkpt>
   <trkpt lat="-37.90025" lon="145.38027000000002">
    <ele>380.67</ele>
   </trkpt>
   <trkpt lat="-37.90095" lon="145.38066">
    <ele>375.78000000000003</ele>
   </trkpt>
   <trkpt lat="-37.90166" lon="145.38102">
    <ele>371.49</ele>
   </trkpt>
   <trkpt lat="-37.9022" lon="145.38132000000002">
    <ele>370.62</ele>
   </trkpt>
   <trkpt lat="-37.90243" lon="145.38138">
    <ele>370.42</ele>
   </trkpt>
   <trkpt lat="-37.9026" lon="145.38141000000002">
    <ele>369.68</ele>
   </trkpt>
   <trkpt lat="-37.90278" lon="145.38134000000002">
    <ele>368.00000000000006</ele>
   </trkpt>
   <trkpt lat="-37.90285" lon="145.38128">
    <ele>366.68</ele>
   </trkpt>
   <trkpt lat="-37.90307" lon="145.38094">
    <ele>359.44000000000005</ele>
   </trkpt>
   <trkpt lat="-37.90325" lon="145.38043000000002">
    <ele>349.06</ele>
   </trkpt>
   <trkpt lat="-37.90339" lon="145.38022">
    <ele>343.7</ele>
   </trkpt>
   <trkpt lat="-37.90368" lon="145.37987">
    <ele>336.17</ele>
   </trkpt>
   <trkpt lat="-37.90404" lon="145.37937000000002">
    <ele>324.65000000000003</ele>
   </trkpt>
   <trkpt lat="-37.904320000859784" lon="145.3788850020797">
    <ele>315.83</ele>
   </trkpt>
   <trkpt lat="-37.9046" lon="145.3784">
    <ele>306.24</ele>
   </trkpt>
   <trkpt lat="-37.90475" lon="145.37804">
    <ele>297.69</ele>
   </trkpt>
   <trkpt lat="-37.904970000000006" lon="145.37744">
    <ele>284.22</ele>
   </trkpt>
   <trkpt lat="-37.90523000176999" lon="145.3768050020867">
    <ele>274.31</ele>
   </trkpt>
   <trkpt lat="-37.90549" lon="145.37617">
    <ele>271.36</ele>
   </trkpt>
   <trkpt lat="-37.905910000000006" lon="145.37546">
    <ele>268.26</ele>
   </trkpt>
   <trkpt lat="-37.90643" lon="145.37461000000002">
    <ele>258.91</ele>
   </trkpt>
   <trkpt lat="-37.9069" lon="145.37378">
    <ele>249.49</ele>
   </trkpt>
   <trkpt lat="-37.90699" lon="145.37323">
    <ele>242.1</ele>
   </trkpt>
   <trkpt lat="-37.90713" lon="145.37263000000002">
    <ele>232.82000000000002</ele>
   </trkpt>
   <trkpt lat="-37.90713" lon="145.37253">
    <ele>231.45000000000002</ele>
   </trkpt>
   <trkpt lat="-37.90701" lon="145.37227000000001">
    <ele>227.95000000000002</ele>
   </trkpt>
   <trkpt lat="-37.90672" lon="145.37188">
    <ele>223.48000000000002</ele>
   </trkpt>
   <trkpt lat="-37.906530000000004" lon="145.37126">
    <ele>223.64000000000001</ele>
   </trkpt>
   <trkpt lat="-37.90713" lon="145.37074">
    <ele>215.92000000000002</ele>
   </trkpt>
   <trkpt lat="-37.90751" lon="145.36986000000002">
    <ele>217.39000000000001</ele>
   </trkpt>
   <trkpt lat="-37.90751" lon="145.36985">
    <ele>217.41000000000003</ele>
   </trkpt>
   <trkpt lat="-37.9076" lon="145.36964">
    <ele>217.55</ele>
   </trkpt>
   <trkpt lat="-37.90790000099566" lon="145.3691550019765">
    <ele>219.39000000000001</ele>
   </trkpt>
   <trkpt lat="-37.9082" lon="145.36867">
    <ele>219.22000000000003</ele>
   </trkpt>
   <trkpt lat="-37.90833000000001" lon="145.36857">
    <ele>218.33</ele>
   </trkpt>
   <trkpt lat="-37.90836" lon="145.36835000000002">
    <ele>216.58</ele>
   </trkpt>
   <trkpt lat="-37.90838500280756" lon="145.36753500035238">
    <ele>204.85</ele>
   </trkpt>
   <trkpt lat="-37.90841" lon="145.36672000000002">
    <ele>206.53</ele>
   </trkpt>
   <trkpt lat="-37.90854" lon="145.36628000000002">
    <ele>208.49</ele>
   </trkpt>
   <trkpt lat="-37.9086" lon="145.36622">
    <ele>208.49</ele>
   </trkpt>
   <trkpt lat="-37.90857000144612" lon="145.36563499973022">
    <ele>205.08</ele>
   </trkpt>
   <trkpt lat="-37.90854" lon="145.36505000000002">
    <ele>203.19</ele>
   </trkpt>
   <trkpt lat="-37.90854" lon="145.36483">
    <ele>202.49</ele>
   </trkpt>
   <trkpt lat="-37.908570000000005" lon="145.36465">
    <ele>202.49</ele>
   </trkpt>
   <trkpt lat="-37.9087" lon="145.36437">
    <ele>202.09</ele>
   </trkpt>
   <trkpt lat="-37.909040000000005" lon="145.36375">
    <ele>199.77</ele>
   </trkpt>
   <trkpt lat="-37.90908" lon="145.3638">
    <ele>202.82000000000002</ele>
   </trkpt>
   <trkpt lat="-37.90894" lon="145.36404000000002">
    <ele>204.24</ele>
   </trkpt>
   <trkpt lat="-37.908820000000006" lon="145.36431000000002">
    <ele>205.77</ele>
   </trkpt>
   <trkpt lat="-37.90874" lon="145.36463">
    <ele>209.26000000000002</ele>
   </trkpt>
   <trkpt lat="-37.90874" lon="145.36486000000002">
    <ele>212.31000000000003</ele>
   </trkpt>
   <trkpt lat="-37.90878" lon="145.36502000000002">
    <ele>212.71</ele>
   </trkpt>
   <trkpt lat="-37.90892" lon="145.36474">
    <ele>214.84000000000003</ele>
   </trkpt>
   <trkpt lat="-37.9091" lon="145.36446">
    <ele>215.05</ele>
   </trkpt>
   <trkpt lat="-37.90912" lon="145.36440000000002">
    <ele>214.96</ele>
   </trkpt>
   <trkpt lat="-37.9093" lon="145.36426">
    <ele>215.35000000000002</ele>
   </trkpt>
   <trkpt lat="-37.909380000000006" lon="145.36422000000002">
    <ele>216.02</ele>
   </trkpt>
   <trkpt lat="-37.909490000000005" lon="145.36424000000002">
    <ele>217.15</ele>
   </trkpt>
   <trkpt lat="-37.90957" lon="145.36426">
    <ele>218.32000000000002</ele>
   </trkpt>
   <trkpt lat="-37.90968" lon="145.36434">
    <ele>219.88000000000002</ele>
   </trkpt>
   <trkpt lat="-37.90968" lon="145.36437">
    <ele>220.2</ele>
   </trkpt>
   <trkpt lat="-37.90986" lon="145.36438">
    <ele>220.35000000000002</ele>
   </trkpt>
   <trkpt lat="-37.90992" lon="145.36431000000002">
    <ele>220.15</ele>
   </trkpt>
   <trkpt lat="-37.91015" lon="145.36435">
    <ele>219.49</ele>
   </trkpt>
   <trkpt lat="-37.91024" lon="145.36432000000002">
    <ele>219.64000000000001</ele>
   </trkpt>
   <trkpt lat="-37.91044" lon="145.36429">
    <ele>220.8</ele>
   </trkpt>
   <trkpt lat="-37.91055" lon="145.36424000000002">
    <ele>220.8</ele>
   </trkpt>
   <trkpt lat="-37.91066" lon="145.36424000000002">
    <ele>221.91000000000003</ele>
   </trkpt>
   <trkpt lat="-37.91084" lon="145.36417">
    <ele>221.91000000000003</ele>
   </trkpt>
   <trkpt lat="-37.911" lon="145.36418">
    <ele>223.26000000000002</ele>
   </trkpt>
   <trkpt lat="-37.91118" lon="145.36427">
    <ele>223.26000000000002</ele>
   </trkpt>
   <trkpt lat="-37.911260000000006" lon="145.36435">
    <ele>223.98000000000002</ele>
   </trkpt>
   <trkpt lat="-37.91151" lon="145.36447">
    <ele>225.21</ele>
   </trkpt>
   <trkpt lat="-37.911820000000006" lon="145.3648">
    <ele>225.58</ele>
   </trkpt>
   <trkpt lat="-37.91201" lon="145.3651">
    <ele>225.92000000000002</ele>
   </trkpt>
   <trkpt lat="-37.91225" lon="145.3657">
    <ele>226.99</ele>
   </trkpt>
   <trkpt lat="-37.9123" lon="145.36601000000002">
    <ele>227.61</ele>
   </trkpt>
   <trkpt lat="-37.9123" lon="145.36682000000002">
    <ele>229.39000000000001</ele>
   </trkpt>
   <trkpt lat="-37.91232" lon="145.36714">
    <ele>228.62</ele>
   </trkpt>
   <trkpt lat="-37.91237" lon="145.36712">
    <ele>228.29000000000002</ele>
   </trkpt>
   <trkpt lat="-37.91245" lon="145.36715">
    <ele>226.53</ele>
   </trkpt>
   <trkpt lat="-37.91257" lon="145.36723">
    <ele>222.47000000000003</ele>
   </trkpt>
   <trkpt lat="-37.912670000000006" lon="145.36723">
    <ele>217.85000000000002</ele>
   </trkpt>
   <trkpt lat="-37.91272" lon="145.36721">
    <ele>217.85000000000002</ele>
   </trkpt>
   <trkpt lat="-37.91274000000001" lon="145.36715">
    <ele>217.85000000000002</ele>
   </trkpt>
   <trkpt lat="-37.91286" lon="145.36711000000003">
    <ele>216.66000000000003</ele>
   </trkpt>
   <trkpt lat="-37.91355" lon="145.36676">
    <ele>212.17000000000002</ele>
   </trkpt>
   <trkpt lat="-37.91364" lon="145.36673000000002">
    <ele>209.54</ele>
   </trkpt>
   <trkpt lat="-37.913790000000006" lon="145.36672000000002">
    <ele>208.93</ele>
   </trkpt>
   <trkpt lat="-37.91402" lon="145.36676">
    <ele>207.62000000000003</ele>
   </trkpt>
   <trkpt lat="-37.914300000000004" lon="145.36688">
    <ele>206.3</ele>
   </trkpt>
   <trkpt lat="-37.91505500103922" lon="145.3673599951144">
    <ele>198.26000000000002</ele>
   </trkpt>
   <trkpt lat="-37.91581" lon="145.36784">
    <ele>192.54000000000002</ele>
   </trkpt>
   <trkpt lat="-37.9159" lon="145.36785">
    <ele>192.54000000000002</ele>
   </trkpt>
   <trkpt lat="-37.91602" lon="145.36781000000002">
    <ele>191.78</ele>
   </trkpt>
   <trkpt lat="-37.91588000122964" lon="145.36726499885776">
    <ele>187.34</ele>
   </trkpt>
   <trkpt lat="-37.91574" lon="145.36672000000002">
    <ele>185.92</ele>
   </trkpt>
   <trkpt lat="-37.91568" lon="145.36648000000002">
    <ele>185.58</ele>
   </trkpt>
   <trkpt lat="-37.915580000000006" lon="145.36569">
    <ele>183.43</ele>
   </trkpt>
   <trkpt lat="-37.915580000000006" lon="145.36542">
    <ele>183.43</ele>
   </trkpt>
   <trkpt lat="-37.91559" lon="145.36525">
    <ele>180.43</ele>
   </trkpt>
   <trkpt lat="-37.91563" lon="145.36511000000002">
    <ele>180.43</ele>
   </trkpt>
   <trkpt lat="-37.91601" lon="145.36441000000002">
    <ele>176.14000000000001</ele>
   </trkpt>
   <trkpt lat="-37.91622" lon="145.36419">
    <ele>175.1</ele>
   </trkpt>
   <trkpt lat="-37.91653" lon="145.3638">
    <ele>175.39000000000001</ele>
   </trkpt>
   <trkpt lat="-37.91671" lon="145.36311">
    <ele>175.16</ele>
   </trkpt>
   <trkpt lat="-37.91675" lon="145.36277">
    <ele>176.11</ele>
   </trkpt>
   <trkpt lat="-37.91673" lon="145.36255">
    <ele>175.86</ele>
   </trkpt>
   <trkpt lat="-37.91667" lon="145.36224">
    <ele>174.78</ele>
   </trkpt>
   <trkpt lat="-37.91668000000001" lon="145.36224">
    <ele>179.13</ele>
   </trkpt>
   <trkpt lat="-37.916545001252814" lon="145.36168999888076">
    <ele>176.64000000000001</ele>
   </trkpt>
   <trkpt lat="-37.916410000000006" lon="145.36114">
    <ele>175.01000000000002</ele>
   </trkpt>
   <trkpt lat="-37.916290000000004" lon="145.36036000000001">
    <ele>171.77</ele>
   </trkpt>
   <trkpt lat="-37.916290000000004" lon="145.35998">
    <ele>170.71</ele>
   </trkpt>
   <trkpt lat="-37.91606" lon="145.35981">
    <ele>169.33</ele>
   </trkpt>
   <trkpt lat="-37.91608" lon="145.35978">
    <ele>170.23000000000002</ele>
   </trkpt>
   <trkpt lat="-37.91597" lon="145.35976000000002">
    <ele>169.96000000000004</ele>
   </trkpt>
   <trkpt lat="-37.9159" lon="145.35979">
    <ele>169.96000000000004</ele>
   </trkpt>
   <trkpt lat="-37.915820000000004" lon="145.35975000000002">
    <ele>169.56</ele>
   </trkpt>
   <trkpt lat="-37.91581" lon="145.35963">
    <ele>169.28</ele>
   </trkpt>
   <trkpt lat="-37.91586" lon="145.35952">
    <ele>169.04000000000002</ele>
   </trkpt>
   <trkpt lat="-37.91597" lon="145.35938000000002">
    <ele>168.84</ele>
   </trkpt>
   <trkpt lat="-37.91597" lon="145.35897">
    <ele>168.71000000000004</ele>
   </trkpt>
   <trkpt lat="-37.91592" lon="145.35875000000001">
    <ele>168.57000000000002</ele>
   </trkpt>
   <trkpt lat="-37.91592" lon="145.35862">
    <ele>168.58</ele>
   </trkpt>
   <trkpt lat="-37.91586" lon="145.35841000000002">
    <ele>168.66</ele>
   </trkpt>
   <trkpt lat="-37.91586" lon="145.3583">
    <ele>168.66</ele>
   </trkpt>
   <trkpt lat="-37.91595" lon="145.35799">
    <ele>168.39000000000001</ele>
   </trkpt>
   <trkpt lat="-37.915980000000005" lon="145.35795000000002">
    <ele>168.39000000000001</ele>
   </trkpt>
   <trkpt lat="-37.91586" lon="145.35769000000002">
    <ele>168.02</ele>
   </trkpt>
   <trkpt lat="-37.91572" lon="145.35755">
    <ele>168.03</ele>
   </trkpt>
   <trkpt lat="-37.91568" lon="145.35749">
    <ele>168.0</ele>
   </trkpt>
   <trkpt lat="-37.9157" lon="145.35734000000002">
    <ele>168.04000000000002</ele>
   </trkpt>
   <trkpt lat="-37.91577" lon="145.3573">
    <ele>168.15</ele>
   </trkpt>
   <trkpt lat="-37.91588" lon="145.35714000000002">
    <ele>168.91</ele>
   </trkpt>
   <trkpt lat="-37.916000000000004" lon="145.35688000000002">
    <ele>170.47</ele>
   </trkpt>
   <trkpt lat="-37.91601" lon="145.35688000000002">
    <ele>170.62</ele>
   </trkpt>
   <trkpt lat="-37.91635" lon="145.35644000000002">
    <ele>172.55</ele>
   </trkpt>
   <trkpt lat="-37.91642" lon="145.35633">
    <ele>172.72</ele>
   </trkpt>
   <trkpt lat="-37.91673" lon="145.35586">
    <ele>171.8</ele>
   </trkpt>
   <trkpt lat="-37.91682" lon="145.35581000000002">
    <ele>171.51000000000002</ele>
   </trkpt>
   <trkpt lat="-37.91691" lon="145.35580000000002">
    <ele>170.56</ele>
   </trkpt>
   <trkpt lat="-37.917" lon="145.3557">
    <ele>169.74</ele>
   </trkpt>
   <trkpt lat="-37.91709" lon="145.35568">
    <ele>169.28</ele>
   </trkpt>
   <trkpt lat="-37.91718" lon="145.35537000000002">
    <ele>168.29000000000002</ele>
   </trkpt>
   <trkpt lat="-37.91731" lon="145.35522">
    <ele>168.20000000000002</ele>
   </trkpt>
   <trkpt lat="-37.91738" lon="145.35519000000002">
    <ele>168.33</ele>
   </trkpt>
   <trkpt lat="-37.91749" lon="145.35519000000002">
    <ele>169.11</ele>
   </trkpt>
   <trkpt lat="-37.91758" lon="145.35526000000002">
    <ele>169.56</ele>
   </trkpt>
   <trkpt lat="-37.91767" lon="145.35545000000002">
    <ele>169.66</ele>
   </trkpt>
   <trkpt lat="-37.9178" lon="145.35564000000002">
    <ele>169.04000000000002</ele>
   </trkpt>
   <trkpt lat="-37.91787" lon="145.35569">
    <ele>168.98000000000002</ele>
   </trkpt>
   <trkpt lat="-37.91794" lon="145.35571000000002">
    <ele>169.16</ele>
   </trkpt>
   <trkpt lat="-37.91803" lon="145.3557">
    <ele>169.87</ele>
   </trkpt>
   <trkpt lat="-37.91839" lon="145.35573000000002">
    <ele>174.43</ele>
   </trkpt>
   <trkpt lat="-37.9185" lon="145.35537000000002">
    <ele>181.78000000000003</ele>
   </trkpt>
   <trkpt lat="-37.91818" lon="145.35504">
    <ele>185.68</ele>
   </trkpt>
   <trkpt lat="-37.917770000000004" lon="145.35448000000002">
    <ele>189.12</ele>
   </trkpt>
   <trkpt lat="-37.91767" lon="145.35436">
    <ele>190.5</ele>
   </trkpt>
   <trkpt lat="-37.91747" lon="145.35415">
    <ele>191.83</ele>
   </trkpt>
   <trkpt lat="-37.91725" lon="145.35366000000002">
    <ele>197.27000000000004</ele>
   </trkpt>
   <trkpt lat="-37.91715000000001" lon="145.35374000000002">
    <ele>197.48000000000002</ele>
   </trkpt>
   <trkpt lat="-37.91704" lon="145.35357000000002">
    <ele>198.06</ele>
   </trkpt>
   <trkpt lat="-37.916970000000006" lon="145.35350000000003">
    <ele>198.51000000000002</ele>
   </trkpt>
   <trkpt lat="-37.91693" lon="145.35353">
    <ele>199.51000000000002</ele>
   </trkpt>
   <trkpt lat="-37.916920000000005" lon="145.35345">
    <ele>200.62</ele>
   </trkpt>
   <trkpt lat="-37.91682" lon="145.35345">
    <ele>202.73000000000002</ele>
   </trkpt>
   <trkpt lat="-37.91630000027539" lon="145.35353500056087">
    <ele>215.52</ele>
   </trkpt>
   <trkpt lat="-37.915780000000005" lon="145.35362">
    <ele>230.82000000000002</ele>
   </trkpt>
   <trkpt lat="-37.91509500005738" lon="145.35375500126105">
    <ele>247.00000000000003</ele>
   </trkpt>
   <trkpt lat="-37.914410000000004" lon="145.35389">
    <ele>240.07000000000002</ele>
   </trkpt>
   <trkpt lat="-37.914410000000004" lon="145.35409">
    <ele>240.08</ele>
   </trkpt>
   <trkpt lat="-37.91427" lon="145.35412000000002">
    <ele>239.83</ele>
   </trkpt>
   <trkpt lat="-37.914" lon="145.35401000000002">
    <ele>235.16</ele>
   </trkpt>
   <trkpt lat="-37.91387" lon="145.35403000000002">
    <ele>234.12</ele>
   </trkpt>
   <trkpt lat="-37.91389" lon="145.35402000000002">
    <ele>234.21000000000004</ele>
   </trkpt>
   <trkpt lat="-37.913200000171834" lon="145.35413500323526">
    <ele>227.28</ele>
   </trkpt>
   <trkpt lat="-37.91251000023176" lon="145.35425000431314">
    <ele>222.49</ele>
   </trkpt>
   <trkpt lat="-37.91182000017981" lon="145.3543650032338">
    <ele>216.41000000000003</ele>
   </trkpt>
   <trkpt lat="-37.91113" lon="145.35448000000002">
    <ele>216.23</ele>
   </trkpt>
   <trkpt lat="-37.91111" lon="145.35452">
    <ele>217.72000000000003</ele>
   </trkpt>
   <trkpt lat="-37.91084" lon="145.35457000000002">
    <ele>221.95000000000002</ele>
   </trkpt>
   <trkpt lat="-37.910520000000005" lon="145.35459">
    <ele>227.69000000000003</ele>
   </trkpt>
   <trkpt lat="-37.91042" lon="145.35476">
    <ele>228.93</ele>
   </trkpt>
   <trkpt lat="-37.91037" lon="145.35475000000002">
    <ele>229.57000000000002</ele>
   </trkpt>
   <trkpt lat="-37.91033" lon="145.35478">
    <ele>229.57000000000002</ele>
   </trkpt>
   <trkpt lat="-37.91011" lon="145.35462">
    <ele>230.76000000000002</ele>
   </trkpt>
   <trkpt lat="-37.91004" lon="145.35454000000001">
    <ele>231.72</ele>
   </trkpt>
   <trkpt lat="-37.909600001066394" lon="145.35503000287395">
    <ele>231.11</ele>
   </trkpt>
   <trkpt lat="-37.90916" lon="145.35552">
    <ele>235.85000000000002</ele>
   </trkpt>
   <trkpt lat="-37.90894" lon="145.35551">
    <ele>236.75</ele>
   </trkpt>
   <trkpt lat="-37.908770000000004" lon="145.35565000000003">
    <ele>238.79000000000002</ele>
   </trkpt>
   <trkpt lat="-37.90845" lon="145.35586">
    <ele>240.21</ele>
   </trkpt>
   <trkpt lat="-37.908500000000004" lon="145.35580000000002">
    <ele>237.62000000000003</ele>
   </trkpt>
   <trkpt lat="-37.90825" lon="145.35601">
    <ele>237.05</ele>
   </trkpt>
   <trkpt lat="-37.90822" lon="145.35618000000002">
    <ele>236.51000000000002</ele>
   </trkpt>
   <trkpt lat="-37.90816" lon="145.3561">
    <ele>235.3</ele>
   </trkpt>
   <trkpt lat="-37.90813" lon="145.35611">
    <ele>233.59</ele>
   </trkpt>
   <trkpt lat="-37.90813" lon="145.35622">
    <ele>233.59</ele>
   </trkpt>
   <trkpt lat="-37.90811" lon="145.35621">
    <ele>233.59</ele>
   </trkpt>
   <trkpt lat="-37.90804" lon="145.35612">
    <ele>232.77000000000004</ele>
   </trkpt>
   <trkpt lat="-37.90802" lon="145.35614">
    <ele>232.77000000000004</ele>
   </trkpt>
   <trkpt lat="-37.90807" lon="145.35625000000002">
    <ele>231.34</ele>
   </trkpt>
   <trkpt lat="-37.90802" lon="145.35627000000002">
    <ele>231.34</ele>
   </trkpt>
   <trkpt lat="-37.908030000000004" lon="145.35635000000002">
    <ele>231.38000000000002</ele>
   </trkpt>
   <trkpt lat="-37.90807" lon="145.35644000000002">
    <ele>231.46</ele>
   </trkpt>
   <trkpt lat="-37.90802" lon="145.35654000000002">
    <ele>231.46</ele>
   </trkpt>
   <trkpt lat="-37.907740000000004" lon="145.35728">
    <ele>219.25000000000003</ele>
   </trkpt>
   <trkpt lat="-37.907610000000005" lon="145.35768000000002">
    <ele>216.03000000000003</ele>
   </trkpt>
   <trkpt lat="-37.907610000000005" lon="145.35767">
    <ele>215.93</ele>
   </trkpt>
   <trkpt lat="-37.90755" lon="145.35775">
    <ele>215.11</ele>
   </trkpt>
   <trkpt lat="-37.90748" lon="145.35778000000002">
    <ele>214.36</ele>
   </trkpt>
   <trkpt lat="-37.90733" lon="145.35778000000002">
    <ele>213.72000000000003</ele>
   </trkpt>
   <trkpt lat="-37.90693" lon="145.35772">
    <ele>215.59</ele>
   </trkpt>
   <trkpt lat="-37.90684" lon="145.35777000000002">
    <ele>215.59</ele>
   </trkpt>
   <trkpt lat="-37.90679" lon="145.35785">
    <ele>219.99</ele>
   </trkpt>
   <trkpt lat="-37.906760000000006" lon="145.3582">
    <ele>223.05</ele>
   </trkpt>
   <trkpt lat="-37.9067" lon="145.35828">
    <ele>225.42000000000002</ele>
   </trkpt>
   <trkpt lat="-37.90666" lon="145.35832000000002">
    <ele>225.49</ele>
   </trkpt>
   <trkpt lat="-37.906310000000005" lon="145.35841000000002">
    <ele>232.02000000000004</ele>
   </trkpt>
   <trkpt lat="-37.90621" lon="145.35846">
    <ele>234.06</ele>
   </trkpt>
   <trkpt lat="-37.906060000000004" lon="145.35863">
    <ele>239.03</ele>
   </trkpt>
   <trkpt lat="-37.90607" lon="145.35863">
    <ele>238.82000000000002</ele>
   </trkpt>
   <trkpt lat="-37.90601" lon="145.35869000000002">
    <ele>238.82000000000002</ele>
   </trkpt>
   <trkpt lat="-37.90583" lon="145.35883">
    <ele>246.14000000000001</ele>
   </trkpt>
   <trkpt lat="-37.90563" lon="145.35919">
    <ele>253.73000000000002</ele>
   </trkpt>
   <trkpt lat="-37.90556" lon="145.35947000000002">
    <ele>257.89</ele>
   </trkpt>
   <trkpt lat="-37.90571667535244" lon="145.36048332900688">
    <ele>262.81000000000006</ele>
   </trkpt>
   <trkpt lat="-37.90587334201735" lon="145.3614966623288">
    <ele>264.84000000000003</ele>
   </trkpt>
   <trkpt lat="-37.90603" lon="145.36251000000001">
    <ele>277.2</ele>
   </trkpt>
   <trkpt lat="-37.90601" lon="145.36280000000002">
    <ele>279.6</ele>
   </trkpt>
   <trkpt lat="-37.90601" lon="145.36279000000002">
    <ele>279.45000000000005</ele>
   </trkpt>
   <trkpt lat="-37.905950000000004" lon="145.36354">
    <ele>286.08</ele>
   </trkpt>
   <trkpt lat="-37.90587" lon="145.36354">
    <ele>289.55</ele>
   </trkpt>
   <trkpt lat="-37.90565" lon="145.3634">
    <ele>297.12000000000006</ele>
   </trkpt>
   <trkpt lat="-37.90545" lon="145.36334000000002">
    <ele>302.64</ele>
   </trkpt>
   <trkpt lat="-37.905350000000006" lon="145.36324000000002">
    <ele>302.64</ele>
   </trkpt>
   <trkpt lat="-37.90522" lon="145.36309">
    <ele>306.3</ele>
   </trkpt>
   <trkpt lat="-37.904790000000006" lon="145.36280000000002">
    <ele>312.19</ele>
   </trkpt>
   <trkpt lat="-37.9046" lon="145.36269000000001">
    <ele>314.87</ele>
   </trkpt>
   <trkpt lat="-37.90442" lon="145.36266">
    <ele>316.64000000000004</ele>
   </trkpt>
   <trkpt lat="-37.90417" lon="145.36270000000002">
    <ele>318.09000000000003</ele>
   </trkpt>
   <trkpt lat="-37.90366" lon="145.36271000000002">
    <ele>322.29</ele>
   </trkpt>
   <trkpt lat="-37.90307" lon="145.36296000000002">
    <ele>326.57</ele>
   </trkpt>
   <trkpt lat="-37.90283" lon="145.36315000000002">
    <ele>329.63000000000005</ele>
   </trkpt>
   <trkpt lat="-37.90263" lon="145.36328">
    <ele>332.12</ele>
   </trkpt>
   <trkpt lat="-37.90216" lon="145.36339">
    <ele>339.07000000000005</ele>
   </trkpt>
   <trkpt lat="-37.90189" lon="145.36350000000002">
    <ele>342.12</ele>
   </trkpt>
   <trkpt lat="-37.901450000000004" lon="145.36383">
    <ele>346.79</ele>
   </trkpt>
   <trkpt lat="-37.90122" lon="145.36398">
    <ele>348.80000000000007</ele>
   </trkpt>
   <trkpt lat="-37.90095" lon="145.36405000000002">
    <ele>351.54</ele>
   </trkpt>
   <trkpt lat="-37.9007" lon="145.36419">
    <ele>354.11</ele>
   </trkpt>
   <trkpt lat="-37.90052" lon="145.36433000000002">
    <ele>355.1</ele>
   </trkpt>
   <trkpt lat="-37.90034" lon="145.36439000000001">
    <ele>356.98</ele>
   </trkpt>
   <trkpt lat="-37.9001" lon="145.36443">
    <ele>358.40000000000003</ele>
   </trkpt>
   <trkpt lat="-37.899530000000006" lon="145.36441000000002">
    <ele>360.97</ele>
   </trkpt>
   <trkpt lat="-37.89945" lon="145.3642">
    <ele>360.11</ele>
   </trkpt>
   <trkpt lat="-37.89936" lon="145.36412">
    <ele>359.52</ele>
   </trkpt>
   <trkpt lat="-37.899190000000004" lon="145.36389">
    <ele>358.52</ele>
   </trkpt>
   <trkpt lat="-37.89907" lon="145.36374">
    <ele>358.15000000000003</ele>
   </trkpt>
   <trkpt lat="-37.89898" lon="145.36370000000002">
    <ele>358.12000000000006</ele>
   </trkpt>
   <trkpt lat="-37.89878" lon="145.36367">
    <ele>358.18000000000006</ele>
   </trkpt>
   <trkpt lat="-37.89846" lon="145.36354">
    <ele>358.24</ele>
   </trkpt>
   <trkpt lat="-37.8984" lon="145.36349">
    <ele>357.86</ele>
   </trkpt>
   <trkpt lat="-37.89837" lon="145.36339">
    <ele>357.58</ele>
   </trkpt>
   <trkpt lat="-37.8984" lon="145.36321">
    <ele>356.04</ele>
   </trkpt>
   <trkpt lat="-37.89853" lon="145.36281000000002">
    <ele>352.66</ele>
   </trkpt>
   <trkpt lat="-37.8986" lon="145.36254000000002">
    <ele>350.59000000000003</ele>
   </trkpt>
   <trkpt lat="-37.89873" lon="145.36228">
    <ele>349.46999999999997</ele>
   </trkpt>
   <trkpt lat="-37.89871" lon="145.3621">
    <ele>349.04</ele>
   </trkpt>
   <trkpt lat="-37.89875" lon="145.36189000000002">
    <ele>348.07000000000005</ele>
   </trkpt>
   <trkpt lat="-37.89878" lon="145.36187">
    <ele>348.07000000000005</ele>
   </trkpt>
   <trkpt lat="-37.89878" lon="145.36186">
    <ele>348.1</ele>
   </trkpt>
   <trkpt lat="-37.89884" lon="145.36182000000002">
    <ele>348.1</ele>
   </trkpt>
   <trkpt lat="-37.89916" lon="145.36178">
    <ele>346.55</ele>
   </trkpt>
   <trkpt lat="-37.90001" lon="145.36191000000002">
    <ele>341.52000000000004</ele>
   </trkpt>
   <trkpt lat="-37.90012" lon="145.36187">
    <ele>340.18</ele>
   </trkpt>
   <trkpt lat="-37.90034" lon="145.36195">
    <ele>338.96000000000004</ele>
   </trkpt>
   <trkpt lat="-37.90039" lon="145.36194">
    <ele>338.62</ele>
   </trkpt>
   <trkpt lat="-37.90046" lon="145.36185">
    <ele>337.43</ele>
   </trkpt>
   <trkpt lat="-37.9005" lon="145.36184">
    <ele>337.43</ele>
   </trkpt>
   <trkpt lat="-37.90075" lon="145.36189000000002">
    <ele>335.19000000000005</ele>
   </trkpt>
   <trkpt lat="-37.900830000000006" lon="145.36186">
    <ele>333.76</ele>
   </trkpt>
   <trkpt lat="-37.90077" lon="145.36145000000002">
    <ele>334.37</ele>
   </trkpt>
   <trkpt lat="-37.90059" lon="145.36069">
    <ele>339.04</ele>
   </trkpt>
   <trkpt lat="-37.90057" lon="145.36046000000002">
    <ele>339.2</ele>
   </trkpt>
   <trkpt lat="-37.900380000000006" lon="145.35969">
    <ele>323.89</ele>
   </trkpt>
   <trkpt lat="-37.9003" lon="145.35946">
    <ele>315.95</ele>
   </trkpt>
   <trkpt lat="-37.9001" lon="145.35860000000002">
    <ele>302.16</ele>
   </trkpt>
   <trkpt lat="-37.9001" lon="145.35835">
    <ele>298.28000000000003</ele>
   </trkpt>
   <trkpt lat="-37.900000000000006" lon="145.35778000000002">
    <ele>284.28000000000003</ele>
   </trkpt>
   <trkpt lat="-37.89992" lon="145.35763">
    <ele>276.81</ele>
   </trkpt>
   <trkpt lat="-37.89992" lon="145.35755">
    <ele>275.02000000000004</ele>
   </trkpt>
   <trkpt lat="-37.900000000000006" lon="145.35732000000002">
    <ele>268.73</ele>
   </trkpt>
   <trkpt lat="-37.900000000000006" lon="145.35713">
    <ele>264.66</ele>
   </trkpt>
   <trkpt lat="-37.89981" lon="145.35703">
    <ele>268.47</ele>
   </trkpt>
   <trkpt lat="-37.89967" lon="145.35702">
    <ele>269.7</ele>
   </trkpt>
   <trkpt lat="-37.89956" lon="145.35691">
    <ele>270.31</ele>
   </trkpt>
   <trkpt lat="-37.899210000000004" lon="145.35672000000002">
    <ele>274.86000000000007</ele>
   </trkpt>
   <trkpt lat="-37.89916" lon="145.35669000000001">
    <ele>275.6</ele>
   </trkpt>
   <trkpt lat="-37.89905" lon="145.35671000000002">
    <ele>277.43</ele>
   </trkpt>
   <trkpt lat="-37.89878" lon="145.35686">
    <ele>283.51000000000005</ele>
   </trkpt>
   <trkpt lat="-37.89851" lon="145.35715000000002">
    <ele>286.23</ele>
   </trkpt>
   <trkpt lat="-37.89837" lon="145.35737">
    <ele>286.7</ele>
   </trkpt>
   <trkpt lat="-37.89831" lon="145.35755">
    <ele>287.49</ele>
   </trkpt>
   <trkpt lat="-37.89824" lon="145.35765">
    <ele>287.85</ele>
   </trkpt>
   <trkpt lat="-37.89817" lon="145.35786000000002">
    <ele>288.83000000000004</ele>
   </trkpt>
   <trkpt lat="-37.89781" lon="145.35814000000002">
    <ele>290.96</ele>
   </trkpt>
   <trkpt lat="-37.89768" lon="145.35815000000002">
    <ele>290.48</ele>
   </trkpt>
   <trkpt lat="-37.8975" lon="145.35823000000002">
    <ele>291.21000000000004</ele>
   </trkpt>
   <trkpt lat="-37.89741" lon="145.35832000000002">
    <ele>292.25</ele>
   </trkpt>
   <trkpt lat="-37.89728" lon="145.35854">
    <ele>293.66</ele>
   </trkpt>
   <trkpt lat="-37.89717" lon="145.35867000000002">
    <ele>294.1</ele>
   </trkpt>
   <trkpt lat="-37.897090000000006" lon="145.35867000000002">
    <ele>294.6</ele>
   </trkpt>
   <trkpt lat="-37.89699" lon="145.35877000000002">
    <ele>295.65000000000003</ele>
   </trkpt>
   <trkpt lat="-37.89696" lon="145.3589">
    <ele>296.13</ele>
   </trkpt>
   <trkpt lat="-37.89683" lon="145.35912000000002">
    <ele>296.85</ele>
   </trkpt>
   <trkpt lat="-37.89672" lon="145.35945">
    <ele>297.63</ele>
   </trkpt>
   <trkpt lat="-37.89665" lon="145.35958000000002">
    <ele>297.99</ele>
   </trkpt>
   <trkpt lat="-37.89661" lon="145.35992000000002">
    <ele>300.61</ele>
   </trkpt>
   <trkpt lat="-37.896440000000005" lon="145.36022">
    <ele>302.02</ele>
   </trkpt>
   <trkpt lat="-37.896440000000005" lon="145.36021000000002">
    <ele>301.98</ele>
   </trkpt>
   <trkpt lat="-37.89618" lon="145.36090000000002">
    <ele>305.03000000000003</ele>
   </trkpt>
   <trkpt lat="-37.89609" lon="145.36145000000002">
    <ele>307.98</ele>
   </trkpt>
   <trkpt lat="-37.89578" lon="145.36200000000002">
    <ele>313.08000000000004</ele>
   </trkpt>
   <trkpt lat="-37.8956" lon="145.36243000000002">
    <ele>315.21000000000004</ele>
   </trkpt>
   <trkpt lat="-37.895500000000006" lon="145.36281000000002">
    <ele>317.52000000000004</ele>
   </trkpt>
   <trkpt lat="-37.89537" lon="145.36299000000002">
    <ele>318.74</ele>
   </trkpt>
   <trkpt lat="-37.89537" lon="145.36316000000002">
    <ele>320.18</ele>
   </trkpt>
   <trkpt lat="-37.89546" lon="145.36337">
    <ele>324.02000000000004</ele>
   </trkpt>
   <trkpt lat="-37.89551" lon="145.36357">
    <ele>327.20000000000005</ele>
   </trkpt>
   <trkpt lat="-37.89558" lon="145.36450000000002">
    <ele>335.3</ele>
   </trkpt>
   <trkpt lat="-37.8956" lon="145.36513000000002">
    <ele>341.51000000000005</ele>
   </trkpt>
   <trkpt lat="-37.89566000000001" lon="145.36548000000002">
    <ele>347.83000000000004</ele>
   </trkpt>
   <trkpt lat="-37.89573" lon="145.36615">
    <ele>357.46000000000004</ele>
   </trkpt>
   <trkpt lat="-37.89587" lon="145.36672000000002">
    <ele>365.69</ele>
   </trkpt>
   <trkpt lat="-37.8959350014648" lon="145.36730999940988">
    <ele>371.56000000000006</ele>
   </trkpt>
   <trkpt lat="-37.896" lon="145.36790000000002">
    <ele>370.71000000000004</ele>
   </trkpt>
   <trkpt lat="-37.89578" lon="145.36797">
    <ele>370.36</ele>
   </trkpt>
   <trkpt lat="-37.89509" lon="145.36801">
    <ele>369.89000000000004</ele>
   </trkpt>
   <trkpt lat="-37.895100000000006" lon="145.36801">
    <ele>369.9</ele>
   </trkpt>
   <trkpt lat="-37.89464" lon="145.36809000000002">
    <ele>368.63</ele>
   </trkpt>
   <trkpt lat="-37.89439" lon="145.3681">
    <ele>367.9</ele>
   </trkpt>
   <trkpt lat="-37.89414" lon="145.36802">
    <ele>367.44000000000005</ele>
   </trkpt>
   <trkpt lat="-37.89349" lon="145.36792">
    <ele>365.46</ele>
   </trkpt>
   <trkpt lat="-37.89316" lon="145.36801">
    <ele>363.68</ele>
   </trkpt>
   <trkpt lat="-37.89269" lon="145.36831">
    <ele>362.74</ele>
   </trkpt>
   <trkpt lat="-37.89226" lon="145.36863000000002">
    <ele>363.06000000000006</ele>
   </trkpt>
   <trkpt lat="-37.89184" lon="145.36885">
    <ele>363.88000000000005</ele>
   </trkpt>
   <trkpt lat="-37.89146" lon="145.369">
    <ele>365.97</ele>
   </trkpt>
   <trkpt lat="-37.89101" lon="145.36944000000003">
    <ele>367.89000000000004</ele>
   </trkpt>
   <trkpt lat="-37.89074" lon="145.36965">
    <ele>370.01</ele>
   </trkpt>
   <trkpt lat="-37.89043" lon="145.36983">
    <ele>370.26000000000005</ele>
   </trkpt>
   <trkpt lat="-37.890440000000005" lon="145.36983">
    <ele>370.25</ele>
   </trkpt>
   <trkpt lat="-37.890150000000006" lon="145.36999">
    <ele>370.14000000000004</ele>
   </trkpt>
   <trkpt lat="-37.88996" lon="145.37003">
    <ele>369.91</ele>
   </trkpt>
   <trkpt lat="-37.889770000000006" lon="145.37002">
    <ele>369.43</ele>
   </trkpt>
   <trkpt lat="-37.889540000000004" lon="145.37005000000002">
    <ele>368.4</ele>
   </trkpt>
   <trkpt lat="-37.88904499995207" lon="145.37000499969233">
    <ele>365.37</ele>
   </trkpt>
   <trkpt lat="-37.88855" lon="145.36996000000002">
    <ele>362.78000000000003</ele>
   </trkpt>
   <trkpt lat="-37.88812" lon="145.36999">
    <ele>361.49</ele>
   </trkpt>
   <trkpt lat="-37.887910000000005" lon="145.36997000000002">
    <ele>360.99</ele>
   </trkpt>
  </trkseg>
 </trk>
</gpx>
