<?xml version="1.0" encoding="UTF-8"?>
<gpx creator="StravaGPX" version="1.1" xmlns="http://www.topografix.com/GPX/1/1" xmlns:xsi="http://www.w3.org/2001/XMLSchema-instance" xsi:schemaLocation="http://www.topografix.com/GPX/1/1 http://www.topografix.com/GPX/1/1/gpx.xsd">
 <metadata>
  <name>DTR 16th November 8k</name>
  <author>
   <name>DTR  Runleaders</name>
   <link href="https://www.strava.com/athletes/194056408"/>
  </author>
  <copyright author="OpenStreetMap contributors">
   <year>2020</year>
   <license>https://www.openstreetmap.org/copyright</license>
  </copyright>
  <link href="https://www.strava.com/routes/3424204435024678096"/>
 </metadata>
 <trk>
  <name>DTR 16th November 8k</name>
  <link href="https://www.strava.com/routes/3424204435024678096"/>
  <type>trail_running</type>
  <trkseg>
   <trkpt lat="-37.89094" lon="145.31734">
    <ele>174.25</ele>
   </trkpt>
   <trkpt lat="-37.8907" lon="145.3169">
    <ele>184.22000000000003</ele>
   </trkpt>
   <trkpt lat="-37.890980000000006" lon="145.31613000000002">
    <ele>187.51000000000002</ele>
   </trkpt>
   <trkpt lat="-37.89099" lon="145.31613000000002">
    <ele>182.17000000000002</ele>
   </trkpt>
   <trkpt lat="-37.89108" lon="145.31604000000002">
    <ele>180.32</ele>
   </trkpt>
   <trkpt lat="-37.89148" lon="145.31548">
    <ele>175.44</ele>
   </trkpt>
   <trkpt lat="-37.89159" lon="145.3153">
    <ele>174.41</ele>
   </trkpt>
   <trkpt lat="-37.89166" lon="145.31470000000002">
    <ele>177.72000000000003</ele>
   </trkpt>
   <trkpt lat="-37.8917" lon="145.3142">
    <ele>181.79</ele>
   </trkpt>
   <trkpt lat="-37.89168" lon="145.31405">
    <ele>182.6</ele>
   </trkpt>
   <trkpt lat="-37.89159" lon="145.31376">
    <ele>184.49</ele>
   </trkpt>
   <trkpt lat="-37.8915" lon="145.31358">
    <ele>186.53000000000003</ele>
   </trkpt>
   <trkpt lat="-37.89132" lon="145.3134">
    <ele>188.00000000000003</ele>
   </trkpt>
   <trkpt lat="-37.89092" lon="145.31309000000002">
    <ele>192.53</ele>
   </trkpt>
   <trkpt lat="-37.89074" lon="145.31299">
    <ele>193.95000000000002</ele>
   </trkpt>
   <trkpt lat="-37.890710000000006" lon="145.31292000000002">
    <ele>194.02</ele>
   </trkpt>
   <trkpt lat="-37.890710000000006" lon="145.31282000000002">
    <ele>194.06</ele>
   </trkpt>
   <trkpt lat="-37.89072" lon="145.31278">
    <ele>194.06</ele>
   </trkpt>
   <trkpt lat="-37.89101" lon="145.31248000000002">
    <ele>194.87</ele>
   </trkpt>
   <trkpt lat="-37.89105" lon="145.31242">
    <ele>195.37</ele>
   </trkpt>
   <trkpt lat="-37.891180000000006" lon="145.31198">
    <ele>198.49000000000004</ele>
   </trkpt>
   <trkpt lat="-37.89121" lon="145.31161">
    <ele>201.43000000000004</ele>
   </trkpt>
   <trkpt lat="-37.89119" lon="145.31122000000002">
    <ele>206.67000000000002</ele>
   </trkpt>
   <trkpt lat="-37.89092" lon="145.31052000000003">
    <ele>215.69000000000003</ele>
   </trkpt>
   <trkpt lat="-37.89038" lon="145.30998000000002">
    <ele>228.4</ele>
   </trkpt>
   <trkpt lat="-37.890330000000006" lon="145.30995000000001">
    <ele>228.4</ele>
   </trkpt>
   <trkpt lat="-37.89027" lon="145.30997000000002">
    <ele>229.94</ele>
   </trkpt>
   <trkpt lat="-37.89025" lon="145.31002">
    <ele>229.94</ele>
   </trkpt>
   <trkpt lat="-37.89027" lon="145.31046">
    <ele>235.23000000000002</ele>
   </trkpt>
   <trkpt lat="-37.89025" lon="145.31066">
    <ele>237.05</ele>
   </trkpt>
   <trkpt lat="-37.89016" lon="145.31092">
    <ele>239.36</ele>
   </trkpt>
   <trkpt lat="-37.89002" lon="145.31111">
    <ele>243.28000000000003</ele>
   </trkpt>
   <trkpt lat="-37.88993" lon="145.31119">
    <ele>244.46</ele>
   </trkpt>
   <trkpt lat="-37.889680000000006" lon="145.31134">
    <ele>247.76</ele>
   </trkpt>
   <trkpt lat="-37.8896" lon="145.31134">
    <ele>251.54000000000005</ele>
   </trkpt>
   <trkpt lat="-37.88958" lon="145.31130000000002">
    <ele>251.54000000000005</ele>
   </trkpt>
   <trkpt lat="-37.88955" lon="145.31122000000002">
    <ele>251.54000000000005</ele>
   </trkpt>
   <trkpt lat="-37.88958" lon="145.31101">
    <ele>255.23000000000002</ele>
   </trkpt>
   <trkpt lat="-37.88958" lon="145.3109">
    <ele>255.23000000000002</ele>
   </trkpt>
   <trkpt lat="-37.88951" lon="145.31074">
    <ele>258.39</ele>
   </trkpt>
   <trkpt lat="-37.88931" lon="145.31038">
    <ele>264.92</ele>
   </trkpt>
   <trkpt lat="-37.889210000000006" lon="145.31025000000002">
    <ele>266.40000000000003</ele>
   </trkpt>
   <trkpt lat="-37.88908" lon="145.31016000000002">
    <ele>267.96000000000004</ele>
   </trkpt>
   <trkpt lat="-37.88902" lon="145.31014000000002">
    <ele>270.35</ele>
   </trkpt>
   <trkpt lat="-37.88893" lon="145.31018">
    <ele>270.35</ele>
   </trkpt>
   <trkpt lat="-37.88868" lon="145.31060000000002">
    <ele>279.41</ele>
   </trkpt>
   <trkpt lat="-37.88859" lon="145.31071">
    <ele>281.02000000000004</ele>
   </trkpt>
   <trkpt lat="-37.888450000000006" lon="145.31074">
    <ele>283.89000000000004</ele>
   </trkpt>
   <trkpt lat="-37.88794" lon="145.31068000000002">
    <ele>293.92</ele>
   </trkpt>
   <trkpt lat="-37.88779" lon="145.31063">
    <ele>299.46</ele>
   </trkpt>
   <trkpt lat="-37.887330000000006" lon="145.31040000000002">
    <ele>311.41</ele>
   </trkpt>
   <trkpt lat="-37.88705" lon="145.31019">
    <ele>315.55000000000007</ele>
   </trkpt>
   <trkpt lat="-37.88696" lon="145.31015000000002">
    <ele>316.31</ele>
   </trkpt>
   <trkpt lat="-37.88687" lon="145.31014000000002">
    <ele>316.31</ele>
   </trkpt>
   <trkpt lat="-37.88673" lon="145.31015000000002">
    <ele>317.69</ele>
   </trkpt>
   <trkpt lat="-37.8866" lon="145.3102">
    <ele>319.18</ele>
   </trkpt>
   <trkpt lat="-37.88629" lon="145.31038">
    <ele>326.07</ele>
   </trkpt>
   <trkpt lat="-37.8862" lon="145.31044">
    <ele>326.07</ele>
   </trkpt>
   <trkpt lat="-37.88611" lon="145.31055">
    <ele>329.61</ele>
   </trkpt>
   <trkpt lat="-37.88579500178934" lon="145.31120500285434">
    <ele>339.85</ele>
   </trkpt>
   <trkpt lat="-37.88548" lon="145.31186000000002">
    <ele>349.02000000000004</ele>
   </trkpt>
   <trkpt lat="-37.88541" lon="145.31207">
    <ele>355.81</ele>
   </trkpt>
   <trkpt lat="-37.8853" lon="145.31255000000002">
    <ele>364.42</ele>
   </trkpt>
   <trkpt lat="-37.885270000000006" lon="145.31266000000002">
    <ele>364.42</ele>
   </trkpt>
   <trkpt lat="-37.88519" lon="145.31273000000002">
    <ele>366.19</ele>
   </trkpt>
   <trkpt lat="-37.88501" lon="145.31279">
    <ele>373.05000000000007</ele>
   </trkpt>
   <trkpt lat="-37.88488" lon="145.3128">
    <ele>373.05000000000007</ele>
   </trkpt>
   <trkpt lat="-37.884640000000005" lon="145.31277">
    <ele>378.68</ele>
   </trkpt>
   <trkpt lat="-37.88461" lon="145.31262">
    <ele>378.07</ele>
   </trkpt>
   <trkpt lat="-37.88436000109947" lon="145.3121049982058">
    <ele>373.32000000000005</ele>
   </trkpt>
   <trkpt lat="-37.88411" lon="145.31159000000002">
    <ele>369.29</ele>
   </trkpt>
   <trkpt lat="-37.884" lon="145.31125">
    <ele>366.22</ele>
   </trkpt>
   <trkpt lat="-37.88394" lon="145.31089">
    <ele>363.62000000000006</ele>
   </trkpt>
   <trkpt lat="-37.88391" lon="145.31067000000002">
    <ele>360.93</ele>
   </trkpt>
   <trkpt lat="-37.88398" lon="145.30967">
    <ele>354.24000000000007</ele>
   </trkpt>
   <trkpt lat="-37.88398" lon="145.3095">
    <ele>353.40000000000003</ele>
   </trkpt>
   <trkpt lat="-37.883950000000006" lon="145.30926000000002">
    <ele>351.8</ele>
   </trkpt>
   <trkpt lat="-37.883860000000006" lon="145.30907000000002">
    <ele>349.31</ele>
   </trkpt>
   <trkpt lat="-37.88353" lon="145.3086">
    <ele>346.29</ele>
   </trkpt>
   <trkpt lat="-37.88333" lon="145.30835000000002">
    <ele>344.96000000000004</ele>
   </trkpt>
   <trkpt lat="-37.88313" lon="145.30817000000002">
    <ele>341.89000000000004</ele>
   </trkpt>
   <trkpt lat="-37.88284" lon="145.30795">
    <ele>338.49</ele>
   </trkpt>
   <trkpt lat="-37.88268" lon="145.30786">
    <ele>336.21</ele>
   </trkpt>
   <trkpt lat="-37.88232" lon="145.30774000000002">
    <ele>333.89</ele>
   </trkpt>
   <trkpt lat="-37.88208" lon="145.30768">
    <ele>331.94</ele>
   </trkpt>
   <trkpt lat="-37.881800000000005" lon="145.30764000000002">
    <ele>329.24</ele>
   </trkpt>
   <trkpt lat="-37.88152" lon="145.30794">
    <ele>326.01</ele>
   </trkpt>
   <trkpt lat="-37.88145" lon="145.30807000000001">
    <ele>325.29</ele>
   </trkpt>
   <trkpt lat="-37.88127" lon="145.30875">
    <ele>321.35</ele>
   </trkpt>
   <trkpt lat="-37.8812" lon="145.30912">
    <ele>319.02000000000004</ele>
   </trkpt>
   <trkpt lat="-37.88114" lon="145.30981">
    <ele>311.01</ele>
   </trkpt>
   <trkpt lat="-37.881040000000006" lon="145.31008">
    <ele>310.13</ele>
   </trkpt>
   <trkpt lat="-37.88096" lon="145.31012">
    <ele>310.17</ele>
   </trkpt>
   <trkpt lat="-37.88089" lon="145.31011">
    <ele>310.16</ele>
   </trkpt>
   <trkpt lat="-37.88082" lon="145.31005000000002">
    <ele>309.93</ele>
   </trkpt>
   <trkpt lat="-37.88035" lon="145.30939">
    <ele>299.21000000000004</ele>
   </trkpt>
   <trkpt lat="-37.87979" lon="145.30893">
    <ele>287.81</ele>
   </trkpt>
   <trkpt lat="-37.87921" lon="145.30859">
    <ele>281.85</ele>
   </trkpt>
   <trkpt lat="-37.87863" lon="145.30831">
    <ele>271.97</ele>
   </trkpt>
   <trkpt lat="-37.87816" lon="145.30803">
    <ele>264.13000000000005</ele>
   </trkpt>
   <trkpt lat="-37.87787" lon="145.30791000000002">
    <ele>260.38</ele>
   </trkpt>
   <trkpt lat="-37.87744" lon="145.30784">
    <ele>255.79000000000002</ele>
   </trkpt>
   <trkpt lat="-37.87729" lon="145.30784">
    <ele>255.02</ele>
   </trkpt>
   <trkpt lat="-37.87686" lon="145.30793">
    <ele>250.68</ele>
   </trkpt>
   <trkpt lat="-37.876470000000005" lon="145.30795">
    <ele>247.44000000000003</ele>
   </trkpt>
   <trkpt lat="-37.876200000000004" lon="145.30781000000002">
    <ele>242.16</ele>
   </trkpt>
   <trkpt lat="-37.87597" lon="145.30773000000002">
    <ele>239.70000000000002</ele>
   </trkpt>
   <trkpt lat="-37.87561" lon="145.30773000000002">
    <ele>235.46000000000004</ele>
   </trkpt>
   <trkpt lat="-37.87525" lon="145.30781000000002">
    <ele>229.72</ele>
   </trkpt>
   <trkpt lat="-37.87498" lon="145.30769">
    <ele>228.03</ele>
   </trkpt>
   <trkpt lat="-37.87483" lon="145.30766">
    <ele>228.15</ele>
   </trkpt>
   <trkpt lat="-37.87478" lon="145.3082">
    <ele>234.96000000000004</ele>
   </trkpt>
   <trkpt lat="-37.87473" lon="145.30829">
    <ele>238.93000000000004</ele>
   </trkpt>
   <trkpt lat="-37.87458" lon="145.30846000000003">
    <ele>241.43000000000004</ele>
   </trkpt>
   <trkpt lat="-37.87424" lon="145.30875">
    <ele>250.32000000000005</ele>
   </trkpt>
   <trkpt lat="-37.87411" lon="145.30882000000003">
    <ele>252.56</ele>
   </trkpt>
   <trkpt lat="-37.87369" lon="145.30894">
    <ele>258.93</ele>
   </trkpt>
   <trkpt lat="-37.87357" lon="145.30935000000002">
    <ele>269.48</ele>
   </trkpt>
   <trkpt lat="-37.87353" lon="145.30943000000002">
    <ele>272.04</ele>
   </trkpt>
   <trkpt lat="-37.87326" lon="145.30966">
    <ele>280.33000000000004</ele>
   </trkpt>
   <trkpt lat="-37.87317" lon="145.30980000000002">
    <ele>284.53</ele>
   </trkpt>
   <trkpt lat="-37.87306" lon="145.31023000000002">
    <ele>296.06000000000006</ele>
   </trkpt>
   <trkpt lat="-37.87299" lon="145.31035">
    <ele>300.06000000000006</ele>
   </trkpt>
   <trkpt lat="-37.872890000000005" lon="145.31049000000002">
    <ele>302.81</ele>
   </trkpt>
   <trkpt lat="-37.872890000000005" lon="145.31048">
    <ele>302.56000000000006</ele>
   </trkpt>
   <trkpt lat="-37.8727" lon="145.31074">
    <ele>314.05000000000007</ele>
   </trkpt>
   <trkpt lat="-37.87236" lon="145.31108">
    <ele>328.36</ele>
   </trkpt>
   <trkpt lat="-37.872130000000006" lon="145.31118">
    <ele>334.46000000000004</ele>
   </trkpt>
   <trkpt lat="-37.87205" lon="145.31123000000002">
    <ele>337.27</ele>
   </trkpt>
   <trkpt lat="-37.872" lon="145.31129">
    <ele>340.52000000000004</ele>
   </trkpt>
   <trkpt lat="-37.871930000000006" lon="145.31158000000002">
    <ele>349.09000000000003</ele>
   </trkpt>
   <trkpt lat="-37.87201" lon="145.31204000000002">
    <ele>360.75</ele>
   </trkpt>
   <trkpt lat="-37.87182" lon="145.31231000000002">
    <ele>369.23</ele>
   </trkpt>
   <trkpt lat="-37.87174" lon="145.31253">
    <ele>376.9</ele>
   </trkpt>
   <trkpt lat="-37.87165" lon="145.31262">
    <ele>376.9</ele>
   </trkpt>
   <trkpt lat="-37.87133" lon="145.3128">
    <ele>387.35</ele>
   </trkpt>
   <trkpt lat="-37.87122" lon="145.31293000000002">
    <ele>390.33</ele>
   </trkpt>
   <trkpt lat="-37.87088500168487" lon="145.3135600028525">
    <ele>393.1</ele>
   </trkpt>
   <trkpt lat="-37.87055" lon="145.31419000000002">
    <ele>388.40000000000003</ele>
   </trkpt>
   <trkpt lat="-37.87064" lon="145.31427000000002">
    <ele>389.1</ele>
   </trkpt>
   <trkpt lat="-37.871" lon="145.31480000000002">
    <ele>396.26000000000005</ele>
   </trkpt>
   <trkpt lat="-37.871190000000006" lon="145.31547">
    <ele>404.30000000000007</ele>
   </trkpt>
   <trkpt lat="-37.871" lon="145.31558">
    <ele>402.9200000000001</ele>
   </trkpt>
   <trkpt lat="-37.87059" lon="145.31573">
    <ele>398.15000000000003</ele>
   </trkpt>
   <trkpt lat="-37.8705" lon="145.31583">
    <ele>397.34000000000003</ele>
   </trkpt>
   <trkpt lat="-37.87041" lon="145.31596000000002">
    <ele>397.02000000000004</ele>
   </trkpt>
   <trkpt lat="-37.87006" lon="145.31660000000002">
    <ele>397.93</ele>
   </trkpt>
   <trkpt lat="-37.869730000000004" lon="145.31739000000002">
    <ele>410.27000000000004</ele>
   </trkpt>
   <trkpt lat="-37.869730000000004" lon="145.31738">
    <ele>409.82</ele>
   </trkpt>
   <trkpt lat="-37.86954" lon="145.31789">
    <ele>413.26</ele>
   </trkpt>
   <trkpt lat="-37.86943" lon="145.31849000000003">
    <ele>416.59000000000003</ele>
   </trkpt>
   <trkpt lat="-37.86947" lon="145.31873000000002">
    <ele>417.74000000000007</ele>
   </trkpt>
   <trkpt lat="-37.86965" lon="145.31935000000001">
    <ele>422.64</ele>
   </trkpt>
   <trkpt lat="-37.86974" lon="145.3196">
    <ele>424.93</ele>
   </trkpt>
   <trkpt lat="-37.86992" lon="145.31986">
    <ele>431.05</ele>
   </trkpt>
   <trkpt lat="-37.87001" lon="145.32003">
    <ele>433.43</ele>
   </trkpt>
   <trkpt lat="-37.87012" lon="145.32062000000002">
    <ele>439.19</ele>
   </trkpt>
   <trkpt lat="-37.87019" lon="145.32089000000002">
    <ele>444.45</ele>
   </trkpt>
   <trkpt lat="-37.870250000000006" lon="145.32102">
    <ele>445.6</ele>
   </trkpt>
   <trkpt lat="-37.87046" lon="145.3213">
    <ele>448.90000000000003</ele>
   </trkpt>
   <trkpt lat="-37.87086" lon="145.32168000000001">
    <ele>452.94000000000005</ele>
   </trkpt>
   <trkpt lat="-37.87127" lon="145.32199">
    <ele>455.99000000000007</ele>
   </trkpt>
   <trkpt lat="-37.87169" lon="145.32248">
    <ele>459.29</ele>
   </trkpt>
   <trkpt lat="-37.87178" lon="145.32256">
    <ele>460.42</ele>
   </trkpt>
   <trkpt lat="-37.871840000000006" lon="145.32255">
    <ele>461.69000000000005</ele>
   </trkpt>
   <trkpt lat="-37.87191" lon="145.32233000000002">
    <ele>465.12</ele>
   </trkpt>
   <trkpt lat="-37.87203" lon="145.32209">
    <ele>472.59000000000003</ele>
   </trkpt>
   <trkpt lat="-37.87207" lon="145.32187000000002">
    <ele>476.66</ele>
   </trkpt>
   <trkpt lat="-37.872" lon="145.32135000000002">
    <ele>484.86</ele>
   </trkpt>
   <trkpt lat="-37.872" lon="145.32119">
    <ele>486.77000000000004</ele>
   </trkpt>
   <trkpt lat="-37.87203" lon="145.32099000000002">
    <ele>490.02000000000004</ele>
   </trkpt>
   <trkpt lat="-37.87223" lon="145.32034000000002">
    <ele>505.95</ele>
   </trkpt>
   <trkpt lat="-37.8723" lon="145.31999000000002">
    <ele>511.2300000000001</ele>
   </trkpt>
   <trkpt lat="-37.872310000000006" lon="145.31996">
    <ele>511.9100000000001</ele>
   </trkpt>
   <trkpt lat="-37.87232" lon="145.31989000000002">
    <ele>512.72</ele>
   </trkpt>
   <trkpt lat="-37.87241" lon="145.31979">
    <ele>514.59</ele>
   </trkpt>
   <trkpt lat="-37.87243" lon="145.31962000000001">
    <ele>515.36</ele>
   </trkpt>
   <trkpt lat="-37.87303" lon="145.31965000000002">
    <ele>513.97</ele>
   </trkpt>
   <trkpt lat="-37.87328" lon="145.3197">
    <ele>511.21000000000004</ele>
   </trkpt>
   <trkpt lat="-37.87355" lon="145.31979">
    <ele>509.2000000000001</ele>
   </trkpt>
   <trkpt lat="-37.874" lon="145.32000000000002">
    <ele>504.31</ele>
   </trkpt>
   <trkpt lat="-37.87415" lon="145.32003">
    <ele>502.33000000000004</ele>
   </trkpt>
   <trkpt lat="-37.87442" lon="145.32003">
    <ele>499.41</ele>
   </trkpt>
   <trkpt lat="-37.87473" lon="145.32017000000002">
    <ele>495.41</ele>
   </trkpt>
   <trkpt lat="-37.874880000000005" lon="145.3202">
    <ele>494.21000000000004</ele>
   </trkpt>
   <trkpt lat="-37.87501" lon="145.32019000000003">
    <ele>493.50000000000006</ele>
   </trkpt>
   <trkpt lat="-37.87536" lon="145.31973000000002">
    <ele>490.74000000000007</ele>
   </trkpt>
   <trkpt lat="-37.87547" lon="145.31965000000002">
    <ele>489.79</ele>
   </trkpt>
   <trkpt lat="-37.87583" lon="145.31924">
    <ele>485.62000000000006</ele>
   </trkpt>
   <trkpt lat="-37.87612" lon="145.31882000000002">
    <ele>482.63000000000005</ele>
   </trkpt>
   <trkpt lat="-37.87613" lon="145.31882000000002">
    <ele>482.54</ele>
   </trkpt>
   <trkpt lat="-37.87641" lon="145.31827">
    <ele>477.91</ele>
   </trkpt>
   <trkpt lat="-37.87668" lon="145.31728">
    <ele>465.28000000000003</ele>
   </trkpt>
   <trkpt lat="-37.87682" lon="145.31683">
    <ele>460.70000000000005</ele>
   </trkpt>
   <trkpt lat="-37.87693" lon="145.31661000000003">
    <ele>457.17</ele>
   </trkpt>
   <trkpt lat="-37.87735" lon="145.31589000000002">
    <ele>447.86</ele>
   </trkpt>
   <trkpt lat="-37.87744" lon="145.31578000000002">
    <ele>447.86</ele>
   </trkpt>
   <trkpt lat="-37.87753" lon="145.31569000000002">
    <ele>446.95</ele>
   </trkpt>
   <trkpt lat="-37.87778" lon="145.31557">
    <ele>444.25</ele>
   </trkpt>
   <trkpt lat="-37.87791" lon="145.31546">
    <ele>442.31</ele>
   </trkpt>
   <trkpt lat="-37.87829" lon="145.31506000000002">
    <ele>437.34000000000003</ele>
   </trkpt>
   <trkpt lat="-37.878600000000006" lon="145.31485">
    <ele>432.6</ele>
   </trkpt>
   <trkpt lat="-37.87885" lon="145.31461000000002">
    <ele>429.92</ele>
   </trkpt>
   <trkpt lat="-37.87915" lon="145.31446000000003">
    <ele>427.75</ele>
   </trkpt>
   <trkpt lat="-37.87924" lon="145.31446000000003">
    <ele>427.74</ele>
   </trkpt>
   <trkpt lat="-37.87932" lon="145.31458">
    <ele>427.53000000000003</ele>
   </trkpt>
   <trkpt lat="-37.87948" lon="145.31471000000002">
    <ele>426.8</ele>
   </trkpt>
   <trkpt lat="-37.87955" lon="145.31474">
    <ele>426.2900000000001</ele>
   </trkpt>
   <trkpt lat="-37.879540000000006" lon="145.31483">
    <ele>426.2900000000001</ele>
   </trkpt>
   <trkpt lat="-37.87942" lon="145.31502">
    <ele>423.38000000000005</ele>
   </trkpt>
   <trkpt lat="-37.879430000000006" lon="145.31502">
    <ele>423.47</ele>
   </trkpt>
   <trkpt lat="-37.87907333649478" lon="145.31563000588366">
    <ele>418.15000000000003</ele>
   </trkpt>
   <trkpt lat="-37.878716669842134" lon="145.3162400058596">
    <ele>418.57000000000005</ele>
   </trkpt>
   <trkpt lat="-37.87836" lon="145.31685000000002">
    <ele>418.87</ele>
   </trkpt>
   <trkpt lat="-37.87827" lon="145.31706">
    <ele>417.81</ele>
   </trkpt>
   <trkpt lat="-37.87888" lon="145.31655">
    <ele>407.11</ele>
   </trkpt>
   <trkpt lat="-37.87932" lon="145.31608">
    <ele>399.32</ele>
   </trkpt>
   <trkpt lat="-37.87955" lon="145.31595000000002">
    <ele>393.76000000000005</ele>
   </trkpt>
   <trkpt lat="-37.87964" lon="145.31593">
    <ele>390.62</ele>
   </trkpt>
   <trkpt lat="-37.87979" lon="145.31594">
    <ele>388.63</ele>
   </trkpt>
   <trkpt lat="-37.88031" lon="145.3161">
    <ele>377.6</ele>
   </trkpt>
   <trkpt lat="-37.88031" lon="145.31611">
    <ele>377.32000000000005</ele>
   </trkpt>
   <trkpt lat="-37.88067" lon="145.31623000000002">
    <ele>369.4</ele>
   </trkpt>
   <trkpt lat="-37.88085" lon="145.31625000000003">
    <ele>365.86</ele>
   </trkpt>
   <trkpt lat="-37.88111" lon="145.31625000000003">
    <ele>361.07</ele>
   </trkpt>
   <trkpt lat="-37.88163" lon="145.31638">
    <ele>350.82</ele>
   </trkpt>
   <trkpt lat="-37.88203" lon="145.31637">
    <ele>343.28000000000003</ele>
   </trkpt>
   <trkpt lat="-37.88268" lon="145.31621">
    <ele>325.45</ele>
   </trkpt>
   <trkpt lat="-37.883010000000006" lon="145.31627">
    <ele>319.87000000000006</ele>
   </trkpt>
   <trkpt lat="-37.88338" lon="145.31629">
    <ele>309.83000000000004</ele>
   </trkpt>
   <trkpt lat="-37.88405" lon="145.31654">
    <ele>296.18</ele>
   </trkpt>
   <trkpt lat="-37.88454" lon="145.31663">
    <ele>282.86</ele>
   </trkpt>
   <trkpt lat="-37.884980000000006" lon="145.31674">
    <ele>270.34000000000003</ele>
   </trkpt>
   <trkpt lat="-37.88532" lon="145.3168">
    <ele>265.22</ele>
   </trkpt>
   <trkpt lat="-37.88608" lon="145.31701">
    <ele>247.85000000000002</ele>
   </trkpt>
   <trkpt lat="-37.88642" lon="145.31715">
    <ele>237.69</ele>
   </trkpt>
   <trkpt lat="-37.88655" lon="145.31725">
    <ele>230.47</ele>
   </trkpt>
   <trkpt lat="-37.88667" lon="145.31742">
    <ele>228.17000000000002</ele>
   </trkpt>
   <trkpt lat="-37.886880000000005" lon="145.31755">
    <ele>225.49</ele>
   </trkpt>
   <trkpt lat="-37.88691" lon="145.31741000000002">
    <ele>225.47000000000003</ele>
   </trkpt>
   <trkpt lat="-37.88698" lon="145.31721000000002">
    <ele>226.86</ele>
   </trkpt>
   <trkpt lat="-37.88707" lon="145.31704000000002">
    <ele>227.89000000000001</ele>
   </trkpt>
   <trkpt lat="-37.88725" lon="145.31685000000002">
    <ele>227.58000000000004</ele>
   </trkpt>
   <trkpt lat="-37.88786" lon="145.31674">
    <ele>223.13000000000002</ele>
   </trkpt>
   <trkpt lat="-37.8883" lon="145.31667000000002">
    <ele>219.68</ele>
   </trkpt>
   <trkpt lat="-37.88843" lon="145.31668000000002">
    <ele>218.00000000000003</ele>
   </trkpt>
   <trkpt lat="-37.88868" lon="145.31682">
    <ele>213.11</ele>
   </trkpt>
   <trkpt lat="-37.88897" lon="145.317">
    <ele>204.47</ele>
   </trkpt>
   <trkpt lat="-37.889250000000004" lon="145.31707">
    <ele>201.5</ele>
   </trkpt>
   <trkpt lat="-37.889610000000005" lon="145.31694000000002">
    <ele>199.14000000000001</ele>
   </trkpt>
   <trkpt lat="-37.88962" lon="145.31694000000002">
    <ele>199.08</ele>
   </trkpt>
   <trkpt lat="-37.8902" lon="145.31674">
    <ele>193.57000000000002</ele>
   </trkpt>
   <trkpt lat="-37.890710000000006" lon="145.31638">
    <ele>186.43</ele>
   </trkpt>
   <trkpt lat="-37.890570000000004" lon="145.31696000000002">
    <ele>185.66000000000003</ele>
   </trkpt>
   <trkpt lat="-37.890800000000006" lon="145.31746">
    <ele>174.91</ele>
   </trkpt>
  </trkseg>
 </trk>
</gpx>
