<?xml version="1.0" encoding="UTF-8"?>
<gpx creator="StravaGPX" version="1.1" xmlns="http://www.topografix.com/GPX/1/1" xmlns:xsi="http://www.w3.org/2001/XMLSchema-instance" xsi:schemaLocation="http://www.topografix.com/GPX/1/1 http://www.topografix.com/GPX/1/1/gpx.xsd">
 <metadata>
  <name>DTR 20km 02 Nov</name>
  <author>
   <name>Geoff Markley</name>
   <link href="https://www.strava.com/athletes/775202"/>
  </author>
  <copyright author="OpenStreetMap contributors">
   <year>2020</year>
   <license>https://www.openstreetmap.org/copyright</license>
  </copyright>
  <link href="https://www.strava.com/routes/3418523474089182424"/>
 </metadata>
 <trk>
  <name>DTR 20km 02 Nov</name>
  <link href="https://www.strava.com/routes/3418523474089182424"/>
  <type>running</type>
  <trkseg>
   <trkpt lat="-37.85215" lon="145.3683">
    <ele>570.1</ele>
   </trkpt>
   <trkpt lat="-37.852070000000005" lon="145.36833000000001">
    <ele>569.6300000000001</ele>
   </trkpt>
   <trkpt lat="-37.851760000000006" lon="145.36859">
    <ele>565.6600000000001</ele>
   </trkpt>
   <trkpt lat="-37.85159" lon="145.36880000000002">
    <ele>564.19</ele>
   </trkpt>
   <trkpt lat="-37.85105" lon="145.36917000000003">
    <ele>562.1700000000001</ele>
   </trkpt>
   <trkpt lat="-37.85072" lon="145.36927">
    <ele>560.4800000000001</ele>
   </trkpt>
   <trkpt lat="-37.850370000000005" lon="145.36927">
    <ele>557.76</ele>
   </trkpt>
   <trkpt lat="-37.850280000000005" lon="145.36921">
    <ele>556.86</ele>
   </trkpt>
   <trkpt lat="-37.8496540035359" lon="145.36875198443784">
    <ele>550.23</ele>
   </trkpt>
   <trkpt lat="-37.8490280052979" lon="145.36829397665275">
    <ele>539.39</ele>
   </trkpt>
   <trkpt lat="-37.848402005286054" lon="145.36783597664444">
    <ele>534.82</ele>
   </trkpt>
   <trkpt lat="-37.84777600350045" lon="145.3673779844126">
    <ele>534.96</ele>
   </trkpt>
   <trkpt lat="-37.847150000000006" lon="145.36692000000002">
    <ele>533.0</ele>
   </trkpt>
   <trkpt lat="-37.84709" lon="145.36679">
    <ele>532.42</ele>
   </trkpt>
   <trkpt lat="-37.84700000200787" lon="145.36609499888638">
    <ele>526.27</ele>
   </trkpt>
   <trkpt lat="-37.84691" lon="145.36540000000002">
    <ele>517.57</ele>
   </trkpt>
   <trkpt lat="-37.84693" lon="145.36513000000002">
    <ele>513.02</ele>
   </trkpt>
   <trkpt lat="-37.84687" lon="145.36482">
    <ele>510.15</ele>
   </trkpt>
   <trkpt lat="-37.84678000163085" lon="145.36420499946612">
    <ele>499.96</ele>
   </trkpt>
   <trkpt lat="-37.84669" lon="145.36359000000002">
    <ele>487.55</ele>
   </trkpt>
   <trkpt lat="-37.84655000177262" lon="145.36294499883846">
    <ele>486.7</ele>
   </trkpt>
   <trkpt lat="-37.846410000000006" lon="145.3623">
    <ele>499.44000000000005</ele>
   </trkpt>
   <trkpt lat="-37.84630000000001" lon="145.3617">
    <ele>507.38000000000005</ele>
   </trkpt>
   <trkpt lat="-37.8462" lon="145.36071">
    <ele>512.41</ele>
   </trkpt>
   <trkpt lat="-37.84560500016017" lon="145.36085000111143">
    <ele>513.7900000000001</ele>
   </trkpt>
   <trkpt lat="-37.84501" lon="145.36099000000002">
    <ele>513.1600000000001</ele>
   </trkpt>
   <trkpt lat="-37.844950000000004" lon="145.36097">
    <ele>512.72</ele>
   </trkpt>
   <trkpt lat="-37.844245000461235" lon="145.36116250552305">
    <ele>505.84000000000003</ele>
   </trkpt>
   <trkpt lat="-37.8435400006091" lon="145.36135500736555">
    <ele>494.34000000000003</ele>
   </trkpt>
   <trkpt lat="-37.842835000443635" lon="145.36154750552768">
    <ele>482.37</ele>
   </trkpt>
   <trkpt lat="-37.842130000000004" lon="145.36174000000003">
    <ele>477.02000000000004</ele>
   </trkpt>
   <trkpt lat="-37.842110000000005" lon="145.36229">
    <ele>473.14000000000004</ele>
   </trkpt>
   <trkpt lat="-37.842110000000005" lon="145.36228">
    <ele>473.19000000000005</ele>
   </trkpt>
   <trkpt lat="-37.8421" lon="145.36245000000002">
    <ele>471.53000000000003</ele>
   </trkpt>
   <trkpt lat="-37.84223" lon="145.36280000000002">
    <ele>465.36</ele>
   </trkpt>
   <trkpt lat="-37.84281" lon="145.36349">
    <ele>457.81000000000006</ele>
   </trkpt>
   <trkpt lat="-37.84288" lon="145.36368000000002">
    <ele>457.88000000000005</ele>
   </trkpt>
   <trkpt lat="-37.84286" lon="145.36383">
    <ele>458.71000000000004</ele>
   </trkpt>
   <trkpt lat="-37.84281" lon="145.36392">
    <ele>459.6000000000001</ele>
   </trkpt>
   <trkpt lat="-37.842455000747556" lon="145.36434000201953">
    <ele>466.59000000000003</ele>
   </trkpt>
   <trkpt lat="-37.8421" lon="145.36476000000002">
    <ele>472.52000000000004</ele>
   </trkpt>
   <trkpt lat="-37.84199" lon="145.36499">
    <ele>474.30000000000007</ele>
   </trkpt>
   <trkpt lat="-37.841910000000006" lon="145.36531000000002">
    <ele>476.97</ele>
   </trkpt>
   <trkpt lat="-37.84192" lon="145.36546">
    <ele>476.97</ele>
   </trkpt>
   <trkpt lat="-37.84234" lon="145.36639000000002">
    <ele>477.73</ele>
   </trkpt>
   <trkpt lat="-37.8425" lon="145.36689">
    <ele>474.65000000000003</ele>
   </trkpt>
   <trkpt lat="-37.8425" lon="145.36701000000002">
    <ele>474.74000000000007</ele>
   </trkpt>
   <trkpt lat="-37.842470000000006" lon="145.36715">
    <ele>475.22</ele>
   </trkpt>
   <trkpt lat="-37.842290000000006" lon="145.36720000000003">
    <ele>477.26</ele>
   </trkpt>
   <trkpt lat="-37.84219" lon="145.36729000000003">
    <ele>481.2</ele>
   </trkpt>
   <trkpt lat="-37.84181" lon="145.36819">
    <ele>486.05</ele>
   </trkpt>
   <trkpt lat="-37.84169" lon="145.36817000000002">
    <ele>484.43</ele>
   </trkpt>
   <trkpt lat="-37.84096" lon="145.36811">
    <ele>476.02000000000004</ele>
   </trkpt>
   <trkpt lat="-37.840970000000006" lon="145.36842000000001">
    <ele>474.70000000000005</ele>
   </trkpt>
   <trkpt lat="-37.84087" lon="145.36892">
    <ele>472.16</ele>
   </trkpt>
   <trkpt lat="-37.84057" lon="145.36894">
    <ele>468.94</ele>
   </trkpt>
   <trkpt lat="-37.84022" lon="145.36902">
    <ele>463.3</ele>
   </trkpt>
   <trkpt lat="-37.83999" lon="145.36903">
    <ele>461.03000000000003</ele>
   </trkpt>
   <trkpt lat="-37.839940000000006" lon="145.36906000000002">
    <ele>460.48</ele>
   </trkpt>
   <trkpt lat="-37.83975" lon="145.36926000000003">
    <ele>455.98</ele>
   </trkpt>
   <trkpt lat="-37.839560000000006" lon="145.36941000000002">
    <ele>454.52000000000004</ele>
   </trkpt>
   <trkpt lat="-37.8391" lon="145.36968000000002">
    <ele>446.43000000000006</ele>
   </trkpt>
   <trkpt lat="-37.83885" lon="145.3698">
    <ele>443.36</ele>
   </trkpt>
   <trkpt lat="-37.83869" lon="145.36991">
    <ele>440.3</ele>
   </trkpt>
   <trkpt lat="-37.83849" lon="145.36997000000002">
    <ele>436.43</ele>
   </trkpt>
   <trkpt lat="-37.83798" lon="145.37023000000002">
    <ele>430.52</ele>
   </trkpt>
   <trkpt lat="-37.83769" lon="145.37040000000002">
    <ele>430.38000000000005</ele>
   </trkpt>
   <trkpt lat="-37.83737" lon="145.37053">
    <ele>433.83000000000004</ele>
   </trkpt>
   <trkpt lat="-37.83701000000001" lon="145.37063">
    <ele>434.2300000000001</ele>
   </trkpt>
   <trkpt lat="-37.837030000000006" lon="145.37094000000002">
    <ele>432.49</ele>
   </trkpt>
   <trkpt lat="-37.83699" lon="145.37133">
    <ele>429.45000000000005</ele>
   </trkpt>
   <trkpt lat="-37.837030000000006" lon="145.3719">
    <ele>427.08</ele>
   </trkpt>
   <trkpt lat="-37.83699" lon="145.37235">
    <ele>423.21000000000004</ele>
   </trkpt>
   <trkpt lat="-37.83708" lon="145.37331">
    <ele>413.23</ele>
   </trkpt>
   <trkpt lat="-37.83719" lon="145.37388">
    <ele>409.26</ele>
   </trkpt>
   <trkpt lat="-37.83719" lon="145.37407000000002">
    <ele>408.84000000000003</ele>
   </trkpt>
   <trkpt lat="-37.83735" lon="145.37466">
    <ele>407.28000000000003</ele>
   </trkpt>
   <trkpt lat="-37.83738" lon="145.37475">
    <ele>407.11</ele>
   </trkpt>
   <trkpt lat="-37.83735" lon="145.37466">
    <ele>407.28000000000003</ele>
   </trkpt>
   <trkpt lat="-37.83746" lon="145.37449">
    <ele>406.90000000000003</ele>
   </trkpt>
   <trkpt lat="-37.83764" lon="145.37427000000002">
    <ele>404.78000000000003</ele>
   </trkpt>
   <trkpt lat="-37.83784" lon="145.37368">
    <ele>395.40000000000003</ele>
   </trkpt>
   <trkpt lat="-37.83791" lon="145.37358">
    <ele>393.34000000000003</ele>
   </trkpt>
   <trkpt lat="-37.83805" lon="145.37351">
    <ele>390.16</ele>
   </trkpt>
   <trkpt lat="-37.83822" lon="145.37348">
    <ele>384.19</ele>
   </trkpt>
   <trkpt lat="-37.83847" lon="145.37354000000002">
    <ele>381.20000000000005</ele>
   </trkpt>
   <trkpt lat="-37.83858" lon="145.37359">
    <ele>380.40000000000003</ele>
   </trkpt>
   <trkpt lat="-37.83883" lon="145.37376">
    <ele>380.22</ele>
   </trkpt>
   <trkpt lat="-37.8391" lon="145.37399000000002">
    <ele>379.45</ele>
   </trkpt>
   <trkpt lat="-37.83921" lon="145.37414">
    <ele>378.51</ele>
   </trkpt>
   <trkpt lat="-37.83948000278583" lon="145.374949997071">
    <ele>371.04</ele>
   </trkpt>
   <trkpt lat="-37.83975" lon="145.37576">
    <ele>361.90000000000003</ele>
   </trkpt>
   <trkpt lat="-37.839995001151586" lon="145.37628499822682">
    <ele>355.12000000000006</ele>
   </trkpt>
   <trkpt lat="-37.84024" lon="145.37681">
    <ele>346.15000000000003</ele>
   </trkpt>
   <trkpt lat="-37.84046" lon="145.37711000000002">
    <ele>343.31</ele>
   </trkpt>
   <trkpt lat="-37.84089" lon="145.37754">
    <ele>335.05</ele>
   </trkpt>
   <trkpt lat="-37.840970000000006" lon="145.37764">
    <ele>333.83</ele>
   </trkpt>
   <trkpt lat="-37.840990000000005" lon="145.37779">
    <ele>333.16</ele>
   </trkpt>
   <trkpt lat="-37.84103" lon="145.37786">
    <ele>333.12</ele>
   </trkpt>
   <trkpt lat="-37.84122" lon="145.37847000000002">
    <ele>330.04</ele>
   </trkpt>
   <trkpt lat="-37.84154" lon="145.37922">
    <ele>328.14000000000004</ele>
   </trkpt>
   <trkpt lat="-37.84185" lon="145.37971000000002">
    <ele>325.70000000000005</ele>
   </trkpt>
   <trkpt lat="-37.84201" lon="145.38002">
    <ele>324.90000000000003</ele>
   </trkpt>
   <trkpt lat="-37.84205" lon="145.38012">
    <ele>324.90000000000003</ele>
   </trkpt>
   <trkpt lat="-37.8423" lon="145.38066">
    <ele>319.99000000000007</ele>
   </trkpt>
   <trkpt lat="-37.84243" lon="145.38109">
    <ele>318.47</ele>
   </trkpt>
   <trkpt lat="-37.84248" lon="145.38133000000002">
    <ele>312.11</ele>
   </trkpt>
   <trkpt lat="-37.84248" lon="145.38167">
    <ele>310.59000000000003</ele>
   </trkpt>
   <trkpt lat="-37.84263" lon="145.38217">
    <ele>305.37</ele>
   </trkpt>
   <trkpt lat="-37.84272" lon="145.38237">
    <ele>304.12</ele>
   </trkpt>
   <trkpt lat="-37.84279" lon="145.38266000000002">
    <ele>299.56000000000006</ele>
   </trkpt>
   <trkpt lat="-37.84281" lon="145.38304000000002">
    <ele>296.25</ele>
   </trkpt>
   <trkpt lat="-37.84281" lon="145.38357000000002">
    <ele>292.49</ele>
   </trkpt>
   <trkpt lat="-37.8434" lon="145.38323000000003">
    <ele>303.23</ele>
   </trkpt>
   <trkpt lat="-37.84394000302081" lon="145.38383332443397">
    <ele>295.13</ele>
   </trkpt>
   <trkpt lat="-37.84448000296368" lon="145.38443665770333">
    <ele>303.82000000000005</ele>
   </trkpt>
   <trkpt lat="-37.845020000000005" lon="145.38504">
    <ele>315.8</ele>
   </trkpt>
   <trkpt lat="-37.845040000000004" lon="145.38504">
    <ele>320.65999999999997</ele>
   </trkpt>
   <trkpt lat="-37.84512" lon="145.38515">
    <ele>320.44</ele>
   </trkpt>
   <trkpt lat="-37.8451" lon="145.38520000000003">
    <ele>320.44</ele>
   </trkpt>
   <trkpt lat="-37.84512" lon="145.38515">
    <ele>320.44</ele>
   </trkpt>
   <trkpt lat="-37.845040000000004" lon="145.38504">
    <ele>320.65999999999997</ele>
   </trkpt>
   <trkpt lat="-37.84528" lon="145.38482000000002">
    <ele>322.18</ele>
   </trkpt>
   <trkpt lat="-37.84557" lon="145.38465000000002">
    <ele>322.99</ele>
   </trkpt>
   <trkpt lat="-37.84566" lon="145.38462">
    <ele>322.94</ele>
   </trkpt>
   <trkpt lat="-37.84608" lon="145.38455000000002">
    <ele>320.95</ele>
   </trkpt>
   <trkpt lat="-37.84637" lon="145.38448000000002">
    <ele>318.08000000000004</ele>
   </trkpt>
   <trkpt lat="-37.84684" lon="145.38444">
    <ele>316.62</ele>
   </trkpt>
   <trkpt lat="-37.84702" lon="145.3844">
    <ele>317.54</ele>
   </trkpt>
   <trkpt lat="-37.847170000000006" lon="145.38441">
    <ele>319.05</ele>
   </trkpt>
   <trkpt lat="-37.84758" lon="145.38437000000002">
    <ele>324.43000000000006</ele>
   </trkpt>
   <trkpt lat="-37.84796" lon="145.38426">
    <ele>328.76000000000005</ele>
   </trkpt>
   <trkpt lat="-37.84836" lon="145.38422">
    <ele>332.8</ele>
   </trkpt>
   <trkpt lat="-37.84848" lon="145.38417">
    <ele>333.92</ele>
   </trkpt>
   <trkpt lat="-37.8487" lon="145.38395">
    <ele>337.11</ele>
   </trkpt>
   <trkpt lat="-37.84877" lon="145.38364">
    <ele>341.64000000000004</ele>
   </trkpt>
   <trkpt lat="-37.84879" lon="145.38341">
    <ele>343.35</ele>
   </trkpt>
   <trkpt lat="-37.84879" lon="145.38340000000002">
    <ele>343.72</ele>
   </trkpt>
   <trkpt lat="-37.84879" lon="145.38334">
    <ele>343.72</ele>
   </trkpt>
   <trkpt lat="-37.848730001359534" lon="145.38276999940166">
    <ele>351.71000000000004</ele>
   </trkpt>
   <trkpt lat="-37.848670000000006" lon="145.3822">
    <ele>362.45000000000005</ele>
   </trkpt>
   <trkpt lat="-37.84861" lon="145.38208">
    <ele>363.35</ele>
   </trkpt>
   <trkpt lat="-37.84852" lon="145.38196000000002">
    <ele>365.6</ele>
   </trkpt>
   <trkpt lat="-37.848290000000006" lon="145.38188000000002">
    <ele>368.92</ele>
   </trkpt>
   <trkpt lat="-37.84807" lon="145.38186000000002">
    <ele>370.88000000000005</ele>
   </trkpt>
   <trkpt lat="-37.84776" lon="145.3819">
    <ele>373.04</ele>
   </trkpt>
   <trkpt lat="-37.8476" lon="145.38195000000002">
    <ele>374.6</ele>
   </trkpt>
   <trkpt lat="-37.8474" lon="145.38206000000002">
    <ele>377.54</ele>
   </trkpt>
   <trkpt lat="-37.84702" lon="145.38219">
    <ele>382.88000000000005</ele>
   </trkpt>
   <trkpt lat="-37.8468" lon="145.38217">
    <ele>385.43000000000006</ele>
   </trkpt>
   <trkpt lat="-37.846700000000006" lon="145.38214000000002">
    <ele>387.0</ele>
   </trkpt>
   <trkpt lat="-37.84642" lon="145.3819">
    <ele>392.58000000000004</ele>
   </trkpt>
   <trkpt lat="-37.84619" lon="145.38119">
    <ele>404.67</ele>
   </trkpt>
   <trkpt lat="-37.84611000555022" lon="145.38037999826554">
    <ele>421.45000000000005</ele>
   </trkpt>
   <trkpt lat="-37.8460300055525" lon="145.3795699982885">
    <ele>432.12000000000006</ele>
   </trkpt>
   <trkpt lat="-37.84595" lon="145.37876">
    <ele>441.19</ele>
   </trkpt>
   <trkpt lat="-37.845870000000005" lon="145.37841">
    <ele>445.00000000000006</ele>
   </trkpt>
   <trkpt lat="-37.84575" lon="145.37785000000002">
    <ele>449.71000000000004</ele>
   </trkpt>
   <trkpt lat="-37.84575" lon="145.37768">
    <ele>451.04</ele>
   </trkpt>
   <trkpt lat="-37.84582" lon="145.37730000000002">
    <ele>455.78000000000003</ele>
   </trkpt>
   <trkpt lat="-37.8459" lon="145.37727">
    <ele>455.78000000000003</ele>
   </trkpt>
   <trkpt lat="-37.8461" lon="145.37725">
    <ele>459.43000000000006</ele>
   </trkpt>
   <trkpt lat="-37.84633" lon="145.37718">
    <ele>467.32</ele>
   </trkpt>
   <trkpt lat="-37.84646" lon="145.37716">
    <ele>468.94</ele>
   </trkpt>
   <trkpt lat="-37.84666" lon="145.37718">
    <ele>468.94</ele>
   </trkpt>
   <trkpt lat="-37.8468" lon="145.37722000000002">
    <ele>475.07000000000005</ele>
   </trkpt>
   <trkpt lat="-37.84729" lon="145.37757000000002">
    <ele>483.30000000000007</ele>
   </trkpt>
   <trkpt lat="-37.84742" lon="145.3778">
    <ele>484.48</ele>
   </trkpt>
   <trkpt lat="-37.84747" lon="145.37811000000002">
    <ele>484.34000000000003</ele>
   </trkpt>
   <trkpt lat="-37.8476" lon="145.37832">
    <ele>483.59000000000003</ele>
   </trkpt>
   <trkpt lat="-37.84774" lon="145.37846000000002">
    <ele>483.66</ele>
   </trkpt>
   <trkpt lat="-37.84794" lon="145.37849">
    <ele>485.12000000000006</ele>
   </trkpt>
   <trkpt lat="-37.84825" lon="145.37846000000002">
    <ele>486.23</ele>
   </trkpt>
   <trkpt lat="-37.84848" lon="145.3784">
    <ele>487.37</ele>
   </trkpt>
   <trkpt lat="-37.8491" lon="145.37814">
    <ele>492.65000000000003</ele>
   </trkpt>
   <trkpt lat="-37.84951" lon="145.37792000000002">
    <ele>500.31</ele>
   </trkpt>
   <trkpt lat="-37.84964" lon="145.37782">
    <ele>500.31</ele>
   </trkpt>
   <trkpt lat="-37.85029" lon="145.3775">
    <ele>508.14000000000004</ele>
   </trkpt>
   <trkpt lat="-37.85047" lon="145.37738000000002">
    <ele>509.62000000000006</ele>
   </trkpt>
   <trkpt lat="-37.85085" lon="145.37730000000002">
    <ele>512.1600000000001</ele>
   </trkpt>
   <trkpt lat="-37.85121" lon="145.37741000000003">
    <ele>512.57</ele>
   </trkpt>
   <trkpt lat="-37.85157" lon="145.3776">
    <ele>510.53000000000003</ele>
   </trkpt>
   <trkpt lat="-37.85172" lon="145.37773">
    <ele>508.9600000000001</ele>
   </trkpt>
   <trkpt lat="-37.85188" lon="145.37808">
    <ele>505.81000000000006</ele>
   </trkpt>
   <trkpt lat="-37.85201" lon="145.37857000000002">
    <ele>503.9800000000001</ele>
   </trkpt>
   <trkpt lat="-37.85228" lon="145.37909000000002">
    <ele>505.53999999999996</ele>
   </trkpt>
   <trkpt lat="-37.85251" lon="145.37935000000002">
    <ele>507.68</ele>
   </trkpt>
   <trkpt lat="-37.85282" lon="145.3796">
    <ele>510.0</ele>
   </trkpt>
   <trkpt lat="-37.85293" lon="145.37962000000002">
    <ele>510.88</ele>
   </trkpt>
   <trkpt lat="-37.853080000000006" lon="145.37959">
    <ele>511.27</ele>
   </trkpt>
   <trkpt lat="-37.85313" lon="145.37953000000002">
    <ele>511.31000000000006</ele>
   </trkpt>
   <trkpt lat="-37.85314" lon="145.37953000000002">
    <ele>511.31000000000006</ele>
   </trkpt>
   <trkpt lat="-37.853350000000006" lon="145.37931">
    <ele>511.53000000000003</ele>
   </trkpt>
   <trkpt lat="-37.85349" lon="145.3795">
    <ele>508.21999999999997</ele>
   </trkpt>
   <trkpt lat="-37.85383" lon="145.37978">
    <ele>497.42</ele>
   </trkpt>
   <trkpt lat="-37.85412" lon="145.37995">
    <ele>491.28000000000003</ele>
   </trkpt>
   <trkpt lat="-37.85434" lon="145.38005">
    <ele>486.39000000000004</ele>
   </trkpt>
   <trkpt lat="-37.85479" lon="145.38022">
    <ele>479.76</ele>
   </trkpt>
   <trkpt lat="-37.8552150001196" lon="145.38042999875628">
    <ele>473.96000000000004</ele>
   </trkpt>
   <trkpt lat="-37.85564" lon="145.38064">
    <ele>468.0</ele>
   </trkpt>
   <trkpt lat="-37.85575" lon="145.38047">
    <ele>470.9200000000001</ele>
   </trkpt>
   <trkpt lat="-37.85609" lon="145.38024000000001">
    <ele>473.89000000000004</ele>
   </trkpt>
   <trkpt lat="-37.85636" lon="145.37995">
    <ele>476.87</ele>
   </trkpt>
   <trkpt lat="-37.85642" lon="145.3796">
    <ele>482.62000000000006</ele>
   </trkpt>
   <trkpt lat="-37.85642" lon="145.37924">
    <ele>484.90000000000003</ele>
   </trkpt>
   <trkpt lat="-37.85642" lon="145.37923">
    <ele>484.94000000000005</ele>
   </trkpt>
   <trkpt lat="-37.85642" lon="145.37909000000002">
    <ele>485.52000000000004</ele>
   </trkpt>
   <trkpt lat="-37.85647" lon="145.37894">
    <ele>486.26</ele>
   </trkpt>
   <trkpt lat="-37.85656" lon="145.37885">
    <ele>486.44000000000005</ele>
   </trkpt>
   <trkpt lat="-37.8568" lon="145.37876">
    <ele>488.34000000000003</ele>
   </trkpt>
   <trkpt lat="-37.85687" lon="145.37876">
    <ele>488.96000000000004</ele>
   </trkpt>
   <trkpt lat="-37.857110000000006" lon="145.37887">
    <ele>493.22</ele>
   </trkpt>
   <trkpt lat="-37.85734" lon="145.37910000000002">
    <ele>495.71000000000004</ele>
   </trkpt>
   <trkpt lat="-37.85761" lon="145.3793">
    <ele>496.82000000000005</ele>
   </trkpt>
   <trkpt lat="-37.85792" lon="145.37946000000002">
    <ele>497.53000000000003</ele>
   </trkpt>
   <trkpt lat="-37.8583" lon="145.3796">
    <ele>498.43</ele>
   </trkpt>
   <trkpt lat="-37.85862" lon="145.37993">
    <ele>501.3500000000001</ele>
   </trkpt>
   <trkpt lat="-37.85895" lon="145.38031">
    <ele>505.77000000000004</ele>
   </trkpt>
   <trkpt lat="-37.859550000000006" lon="145.38082">
    <ele>515.44</ele>
   </trkpt>
   <trkpt lat="-37.86007" lon="145.38119">
    <ele>519.73</ele>
   </trkpt>
   <trkpt lat="-37.860020000000006" lon="145.38135000000003">
    <ele>520.4300000000001</ele>
   </trkpt>
   <trkpt lat="-37.85998" lon="145.38159000000002">
    <ele>520.2800000000001</ele>
   </trkpt>
   <trkpt lat="-37.859930000000006" lon="145.38259000000002">
    <ele>519.66</ele>
   </trkpt>
   <trkpt lat="-37.85983" lon="145.38273">
    <ele>517.87</ele>
   </trkpt>
   <trkpt lat="-37.859770000000005" lon="145.38287000000003">
    <ele>516.1800000000001</ele>
   </trkpt>
   <trkpt lat="-37.8598" lon="145.38292">
    <ele>516.1800000000001</ele>
   </trkpt>
   <trkpt lat="-37.85987" lon="145.38334">
    <ele>512.37</ele>
   </trkpt>
   <trkpt lat="-37.8598" lon="145.38387">
    <ele>509.21999999999997</ele>
   </trkpt>
   <trkpt lat="-37.85974" lon="145.38416">
    <ele>506.21000000000004</ele>
   </trkpt>
   <trkpt lat="-37.85974" lon="145.38429000000002">
    <ele>505.16</ele>
   </trkpt>
   <trkpt lat="-37.85971" lon="145.38439000000002">
    <ele>504.02000000000004</ele>
   </trkpt>
   <trkpt lat="-37.85965" lon="145.38445000000002">
    <ele>502.77000000000004</ele>
   </trkpt>
   <trkpt lat="-37.8594" lon="145.38458">
    <ele>499.69</ele>
   </trkpt>
   <trkpt lat="-37.85927" lon="145.38478">
    <ele>494.26000000000005</ele>
   </trkpt>
   <trkpt lat="-37.85924" lon="145.38524">
    <ele>487.42</ele>
   </trkpt>
   <trkpt lat="-37.8592" lon="145.3854">
    <ele>485.74000000000007</ele>
   </trkpt>
   <trkpt lat="-37.85891" lon="145.38586">
    <ele>477.15000000000003</ele>
   </trkpt>
   <trkpt lat="-37.85875" lon="145.38605">
    <ele>474.80000000000007</ele>
   </trkpt>
   <trkpt lat="-37.85875" lon="145.38604">
    <ele>474.85</ele>
   </trkpt>
   <trkpt lat="-37.85871" lon="145.38611">
    <ele>473.81000000000006</ele>
   </trkpt>
   <trkpt lat="-37.8586" lon="145.3862">
    <ele>472.81000000000006</ele>
   </trkpt>
   <trkpt lat="-37.85839" lon="145.38625000000002">
    <ele>469.06</ele>
   </trkpt>
   <trkpt lat="-37.85821" lon="145.38625000000002">
    <ele>463.59000000000003</ele>
   </trkpt>
   <trkpt lat="-37.85819" lon="145.38623">
    <ele>463.59000000000003</ele>
   </trkpt>
   <trkpt lat="-37.85817" lon="145.38619">
    <ele>463.59000000000003</ele>
   </trkpt>
   <trkpt lat="-37.85821" lon="145.38609000000002">
    <ele>461.53000000000003</ele>
   </trkpt>
   <trkpt lat="-37.85821" lon="145.38587">
    <ele>456.81000000000006</ele>
   </trkpt>
   <trkpt lat="-37.85815" lon="145.38567">
    <ele>453.91</ele>
   </trkpt>
   <trkpt lat="-37.858050000000006" lon="145.38551">
    <ele>450.38000000000005</ele>
   </trkpt>
   <trkpt lat="-37.85797" lon="145.38532">
    <ele>449.5</ele>
   </trkpt>
   <trkpt lat="-37.8575" lon="145.38472000000002">
    <ele>445.90000000000003</ele>
   </trkpt>
   <trkpt lat="-37.85741" lon="145.38446000000002">
    <ele>444.77000000000004</ele>
   </trkpt>
   <trkpt lat="-37.85739" lon="145.38424">
    <ele>444.42</ele>
   </trkpt>
   <trkpt lat="-37.85739" lon="145.38403000000002">
    <ele>442.88000000000005</ele>
   </trkpt>
   <trkpt lat="-37.8575" lon="145.38337">
    <ele>441.16</ele>
   </trkpt>
   <trkpt lat="-37.85752" lon="145.38283">
    <ele>439.86</ele>
   </trkpt>
   <trkpt lat="-37.857510000000005" lon="145.38262">
    <ele>439.49000000000007</ele>
   </trkpt>
   <trkpt lat="-37.8575" lon="145.38250000000002">
    <ele>439.20000000000005</ele>
   </trkpt>
   <trkpt lat="-37.857440000000004" lon="145.38230000000001">
    <ele>438.99000000000007</ele>
   </trkpt>
   <trkpt lat="-37.85707" lon="145.38234">
    <ele>430.72</ele>
   </trkpt>
   <trkpt lat="-37.85674" lon="145.38225">
    <ele>423.18000000000006</ele>
   </trkpt>
   <trkpt lat="-37.856640000000006" lon="145.38234">
    <ele>420.68000000000006</ele>
   </trkpt>
   <trkpt lat="-37.85665" lon="145.38234">
    <ele>420.47</ele>
   </trkpt>
   <trkpt lat="-37.8566" lon="145.38243">
    <ele>418.81</ele>
   </trkpt>
   <trkpt lat="-37.85667" lon="145.38279">
    <ele>412.64</ele>
   </trkpt>
   <trkpt lat="-37.85663" lon="145.38306">
    <ele>410.0</ele>
   </trkpt>
   <trkpt lat="-37.85654" lon="145.38322000000002">
    <ele>408.74000000000007</ele>
   </trkpt>
   <trkpt lat="-37.85638" lon="145.38374000000002">
    <ele>410.26</ele>
   </trkpt>
   <trkpt lat="-37.85636" lon="145.38406">
    <ele>413.15000000000003</ele>
   </trkpt>
   <trkpt lat="-37.85636" lon="145.38443">
    <ele>415.64</ele>
   </trkpt>
   <trkpt lat="-37.85642" lon="145.38466000000003">
    <ele>417.72</ele>
   </trkpt>
   <trkpt lat="-37.85651" lon="145.38478">
    <ele>420.24000000000007</ele>
   </trkpt>
   <trkpt lat="-37.85705" lon="145.38525">
    <ele>424.73</ele>
   </trkpt>
   <trkpt lat="-37.85712" lon="145.38534">
    <ele>425.50000000000006</ele>
   </trkpt>
   <trkpt lat="-37.85712" lon="145.38546000000002">
    <ele>425.74</ele>
   </trkpt>
   <trkpt lat="-37.85694" lon="145.38588000000001">
    <ele>430.48</ele>
   </trkpt>
   <trkpt lat="-37.85667" lon="145.38628">
    <ele>433.32000000000005</ele>
   </trkpt>
   <trkpt lat="-37.85656" lon="145.38636000000002">
    <ele>432.92</ele>
   </trkpt>
   <trkpt lat="-37.85645" lon="145.38638">
    <ele>432.21000000000004</ele>
   </trkpt>
   <trkpt lat="-37.85618" lon="145.38636000000002">
    <ele>428.36</ele>
   </trkpt>
   <trkpt lat="-37.856030000000004" lon="145.38623">
    <ele>426.1</ele>
   </trkpt>
   <trkpt lat="-37.856" lon="145.38617000000002">
    <ele>424.37</ele>
   </trkpt>
   <trkpt lat="-37.85586" lon="145.38612">
    <ele>422.78000000000003</ele>
   </trkpt>
   <trkpt lat="-37.85575" lon="145.38613">
    <ele>422.54</ele>
   </trkpt>
   <trkpt lat="-37.855610000000006" lon="145.3861">
    <ele>422.83000000000004</ele>
   </trkpt>
   <trkpt lat="-37.85501" lon="145.38577">
    <ele>415.19000000000005</ele>
   </trkpt>
   <trkpt lat="-37.854490000000006" lon="145.38562000000002">
    <ele>404.32</ele>
   </trkpt>
   <trkpt lat="-37.85396" lon="145.38551">
    <ele>393.40000000000003</ele>
   </trkpt>
   <trkpt lat="-37.85309" lon="145.38565">
    <ele>376.05000000000007</ele>
   </trkpt>
   <trkpt lat="-37.85275" lon="145.38578">
    <ele>369.26000000000005</ele>
   </trkpt>
   <trkpt lat="-37.85233" lon="145.38585">
    <ele>360.83000000000004</ele>
   </trkpt>
   <trkpt lat="-37.8519" lon="145.38586">
    <ele>353.18000000000006</ele>
   </trkpt>
   <trkpt lat="-37.85116" lon="145.38566">
    <ele>343.62</ele>
   </trkpt>
   <trkpt lat="-37.850460000000005" lon="145.38531">
    <ele>331.13000000000005</ele>
   </trkpt>
   <trkpt lat="-37.84995" lon="145.38541">
    <ele>324.31000000000006</ele>
   </trkpt>
   <trkpt lat="-37.849920000000004" lon="145.38544000000002">
    <ele>324.31000000000006</ele>
   </trkpt>
   <trkpt lat="-37.849920000000004" lon="145.38543">
    <ele>324.39</ele>
   </trkpt>
   <trkpt lat="-37.849500000000006" lon="145.38575">
    <ele>319.04</ele>
   </trkpt>
   <trkpt lat="-37.84904" lon="145.38596">
    <ele>312.27000000000004</ele>
   </trkpt>
   <trkpt lat="-37.84854" lon="145.38608000000002">
    <ele>306.32000000000005</ele>
   </trkpt>
   <trkpt lat="-37.84834" lon="145.38619">
    <ele>304.35</ele>
   </trkpt>
   <trkpt lat="-37.84812" lon="145.38636000000002">
    <ele>301.71000000000004</ele>
   </trkpt>
   <trkpt lat="-37.84751" lon="145.38669000000002">
    <ele>294.71000000000004</ele>
   </trkpt>
   <trkpt lat="-37.84736" lon="145.38680000000002">
    <ele>293.91</ele>
   </trkpt>
   <trkpt lat="-37.8472" lon="145.38689000000002">
    <ele>292.88</ele>
   </trkpt>
   <trkpt lat="-37.84691" lon="145.38723000000002">
    <ele>288.81</ele>
   </trkpt>
   <trkpt lat="-37.84671" lon="145.38737">
    <ele>287.36</ele>
   </trkpt>
   <trkpt lat="-37.84651" lon="145.38742000000002">
    <ele>286.77000000000004</ele>
   </trkpt>
   <trkpt lat="-37.84628" lon="145.38743000000002">
    <ele>286.42</ele>
   </trkpt>
   <trkpt lat="-37.84613" lon="145.38748">
    <ele>286.02</ele>
   </trkpt>
   <trkpt lat="-37.84577" lon="145.38776000000001">
    <ele>283.77000000000004</ele>
   </trkpt>
   <trkpt lat="-37.84557" lon="145.388">
    <ele>282.35</ele>
   </trkpt>
   <trkpt lat="-37.84539" lon="145.38825">
    <ele>282.03</ele>
   </trkpt>
   <trkpt lat="-37.84523" lon="145.38868000000002">
    <ele>282.46000000000004</ele>
   </trkpt>
   <trkpt lat="-37.84487" lon="145.38931000000002">
    <ele>282.87</ele>
   </trkpt>
   <trkpt lat="-37.84478" lon="145.38966000000002">
    <ele>283.36</ele>
   </trkpt>
   <trkpt lat="-37.84474" lon="145.39010000000002">
    <ele>284.85</ele>
   </trkpt>
   <trkpt lat="-37.84463000167539" lon="145.39072500079666">
    <ele>288.38</ele>
   </trkpt>
   <trkpt lat="-37.84452" lon="145.39135000000002">
    <ele>290.37</ele>
   </trkpt>
   <trkpt lat="-37.84454" lon="145.39234000000002">
    <ele>294.47</ele>
   </trkpt>
   <trkpt lat="-37.844440000000006" lon="145.39273">
    <ele>295.78000000000003</ele>
   </trkpt>
   <trkpt lat="-37.84436" lon="145.39276">
    <ele>296.13</ele>
   </trkpt>
   <trkpt lat="-37.84355" lon="145.39252000000002">
    <ele>296.78000000000003</ele>
   </trkpt>
   <trkpt lat="-37.84326" lon="145.39248">
    <ele>296.95000000000005</ele>
   </trkpt>
   <trkpt lat="-37.8429" lon="145.39254000000003">
    <ele>297.57</ele>
   </trkpt>
   <trkpt lat="-37.8421" lon="145.39290000000003">
    <ele>298.68</ele>
   </trkpt>
   <trkpt lat="-37.84192" lon="145.39305000000002">
    <ele>298.69</ele>
   </trkpt>
   <trkpt lat="-37.84183" lon="145.3933">
    <ele>298.57</ele>
   </trkpt>
   <trkpt lat="-37.841820000000006" lon="145.39352000000002">
    <ele>298.59000000000003</ele>
   </trkpt>
   <trkpt lat="-37.84176" lon="145.39351000000002">
    <ele>298.16</ele>
   </trkpt>
   <trkpt lat="-37.84167" lon="145.39354">
    <ele>297.16</ele>
   </trkpt>
   <trkpt lat="-37.841530000000006" lon="145.39354">
    <ele>294.05</ele>
   </trkpt>
   <trkpt lat="-37.8414" lon="145.39349">
    <ele>294.05</ele>
   </trkpt>
   <trkpt lat="-37.84093" lon="145.39345">
    <ele>284.69</ele>
   </trkpt>
   <trkpt lat="-37.84064" lon="145.39347">
    <ele>281.13000000000005</ele>
   </trkpt>
   <trkpt lat="-37.84024" lon="145.39342000000002">
    <ele>275.64</ele>
   </trkpt>
   <trkpt lat="-37.83995" lon="145.39344">
    <ele>270.15</ele>
   </trkpt>
   <trkpt lat="-37.83981" lon="145.39339">
    <ele>268.89</ele>
   </trkpt>
   <trkpt lat="-37.8397" lon="145.39325000000002">
    <ele>267.01000000000005</ele>
   </trkpt>
   <trkpt lat="-37.83966" lon="145.39313">
    <ele>265.93</ele>
   </trkpt>
   <trkpt lat="-37.83937" lon="145.39282">
    <ele>261.46000000000004</ele>
   </trkpt>
   <trkpt lat="-37.83894" lon="145.39235000000002">
    <ele>256.21</ele>
   </trkpt>
   <trkpt lat="-37.838860000000004" lon="145.39228">
    <ele>255.01000000000002</ele>
   </trkpt>
   <trkpt lat="-37.83872" lon="145.39218000000002">
    <ele>253.74</ele>
   </trkpt>
   <trkpt lat="-37.83858" lon="145.39221">
    <ele>253.12</ele>
   </trkpt>
   <trkpt lat="-37.83784" lon="145.3922">
    <ele>252.3</ele>
   </trkpt>
   <trkpt lat="-37.83766" lon="145.39217000000002">
    <ele>251.84</ele>
   </trkpt>
   <trkpt lat="-37.83737" lon="145.39208000000002">
    <ele>250.8</ele>
   </trkpt>
   <trkpt lat="-37.83697" lon="145.39235000000002">
    <ele>249.38000000000002</ele>
   </trkpt>
   <trkpt lat="-37.83679" lon="145.39245000000003">
    <ele>248.97000000000003</ele>
   </trkpt>
   <trkpt lat="-37.83657" lon="145.39263000000003">
    <ele>248.67000000000002</ele>
   </trkpt>
   <trkpt lat="-37.83614500089606" lon="145.39308500259907">
    <ele>246.93</ele>
   </trkpt>
   <trkpt lat="-37.83572" lon="145.39354">
    <ele>243.02</ele>
   </trkpt>
   <trkpt lat="-37.83549" lon="145.39381">
    <ele>244.27</ele>
   </trkpt>
   <trkpt lat="-37.83545" lon="145.39387000000002">
    <ele>244.91000000000003</ele>
   </trkpt>
   <trkpt lat="-37.835420000000006" lon="145.394">
    <ele>246.07</ele>
   </trkpt>
   <trkpt lat="-37.83541" lon="145.39405000000002">
    <ele>246.52</ele>
   </trkpt>
   <trkpt lat="-37.83554" lon="145.39486000000002">
    <ele>253.32000000000005</ele>
   </trkpt>
   <trkpt lat="-37.83563" lon="145.39524">
    <ele>254.94</ele>
   </trkpt>
   <trkpt lat="-37.83572" lon="145.39546">
    <ele>255.28</ele>
   </trkpt>
   <trkpt lat="-37.83585" lon="145.39565000000002">
    <ele>256.05</ele>
   </trkpt>
   <trkpt lat="-37.83623" lon="145.39608">
    <ele>259.36</ele>
   </trkpt>
   <trkpt lat="-37.83666" lon="145.39669">
    <ele>264.06</ele>
   </trkpt>
   <trkpt lat="-37.837030000000006" lon="145.39711">
    <ele>268.14000000000004</ele>
   </trkpt>
   <trkpt lat="-37.83733" lon="145.39727000000002">
    <ele>272.45000000000005</ele>
   </trkpt>
   <trkpt lat="-37.83753" lon="145.39747">
    <ele>274.64</ele>
   </trkpt>
   <trkpt lat="-37.83771" lon="145.39768">
    <ele>277.44</ele>
   </trkpt>
   <trkpt lat="-37.8379450010296" lon="145.39816499852745">
    <ele>281.42</ele>
   </trkpt>
   <trkpt lat="-37.83818" lon="145.39865">
    <ele>287.03000000000003</ele>
   </trkpt>
   <trkpt lat="-37.8384" lon="145.3992">
    <ele>293.04</ele>
   </trkpt>
   <trkpt lat="-37.83854" lon="145.39981">
    <ele>302.12</ele>
   </trkpt>
   <trkpt lat="-37.83854" lon="145.40035">
    <ele>305.84</ele>
   </trkpt>
   <trkpt lat="-37.83849" lon="145.40053">
    <ele>308.01</ele>
   </trkpt>
   <trkpt lat="-37.83812000125378" lon="145.4010600025636">
    <ele>314.67</ele>
   </trkpt>
   <trkpt lat="-37.83775" lon="145.40159">
    <ele>319.37000000000006</ele>
   </trkpt>
   <trkpt lat="-37.83737" lon="145.40184000000002">
    <ele>318.84000000000003</ele>
   </trkpt>
   <trkpt lat="-37.83724" lon="145.40179">
    <ele>317.98</ele>
   </trkpt>
   <trkpt lat="-37.83724" lon="145.4018">
    <ele>318.02000000000004</ele>
   </trkpt>
   <trkpt lat="-37.83755" lon="145.40191000000002">
    <ele>320.13</ele>
   </trkpt>
   <trkpt lat="-37.83771" lon="145.40193000000002">
    <ele>321.53000000000003</ele>
   </trkpt>
   <trkpt lat="-37.83827" lon="145.40192000000002">
    <ele>327.64000000000004</ele>
   </trkpt>
   <trkpt lat="-37.83869" lon="145.40181">
    <ele>332.66</ele>
   </trkpt>
   <trkpt lat="-37.8389" lon="145.40179">
    <ele>335.53000000000003</ele>
   </trkpt>
   <trkpt lat="-37.83934" lon="145.40165000000002">
    <ele>344.23</ele>
   </trkpt>
   <trkpt lat="-37.83997" lon="145.4015">
    <ele>350.58</ele>
   </trkpt>
   <trkpt lat="-37.8406" lon="145.40145">
    <ele>359.86</ele>
   </trkpt>
   <trkpt lat="-37.84084" lon="145.40148000000002">
    <ele>361.75</ele>
   </trkpt>
   <trkpt lat="-37.84107" lon="145.4016">
    <ele>362.52</ele>
   </trkpt>
   <trkpt lat="-37.84145" lon="145.40198">
    <ele>364.91</ele>
   </trkpt>
   <trkpt lat="-37.8421" lon="145.40249">
    <ele>365.86</ele>
   </trkpt>
   <trkpt lat="-37.8425" lon="145.40276">
    <ele>364.73</ele>
   </trkpt>
   <trkpt lat="-37.84301" lon="145.40322">
    <ele>360.83000000000004</ele>
   </trkpt>
   <trkpt lat="-37.8432" lon="145.40332">
    <ele>357.15000000000003</ele>
   </trkpt>
   <trkpt lat="-37.84366" lon="145.4036">
    <ele>352.0</ele>
   </trkpt>
   <trkpt lat="-37.84389" lon="145.40371000000002">
    <ele>351.06000000000006</ele>
   </trkpt>
   <trkpt lat="-37.84398" lon="145.40373000000002">
    <ele>346.03</ele>
   </trkpt>
   <trkpt lat="-37.84409" lon="145.40373000000002">
    <ele>346.03</ele>
   </trkpt>
   <trkpt lat="-37.8444" lon="145.40363000000002">
    <ele>343.23</ele>
   </trkpt>
   <trkpt lat="-37.84469" lon="145.40369">
    <ele>337.69000000000005</ele>
   </trkpt>
   <trkpt lat="-37.84501" lon="145.40368">
    <ele>333.55</ele>
   </trkpt>
   <trkpt lat="-37.84584" lon="145.40354000000002">
    <ele>323.21000000000004</ele>
   </trkpt>
   <trkpt lat="-37.84608" lon="145.40344000000002">
    <ele>321.87000000000006</ele>
   </trkpt>
   <trkpt lat="-37.84653" lon="145.40338">
    <ele>322.21000000000004</ele>
   </trkpt>
   <trkpt lat="-37.847170000000006" lon="145.40322">
    <ele>327.20000000000005</ele>
   </trkpt>
   <trkpt lat="-37.84749" lon="145.40317000000002">
    <ele>331.35</ele>
   </trkpt>
   <trkpt lat="-37.84794" lon="145.40304">
    <ele>334.3</ele>
   </trkpt>
   <trkpt lat="-37.84841" lon="145.40299000000002">
    <ele>337.01000000000005</ele>
   </trkpt>
   <trkpt lat="-37.84924" lon="145.40299000000002">
    <ele>347.37</ele>
   </trkpt>
   <trkpt lat="-37.84946" lon="145.40290000000002">
    <ele>349.56</ele>
   </trkpt>
   <trkpt lat="-37.8498" lon="145.40269">
    <ele>353.71000000000004</ele>
   </trkpt>
   <trkpt lat="-37.850170000000006" lon="145.40238000000002">
    <ele>355.22</ele>
   </trkpt>
   <trkpt lat="-37.85018" lon="145.40238000000002">
    <ele>355.21000000000004</ele>
   </trkpt>
   <trkpt lat="-37.85036" lon="145.40219000000002">
    <ele>354.51000000000005</ele>
   </trkpt>
   <trkpt lat="-37.8504" lon="145.40211000000002">
    <ele>354.06000000000006</ele>
   </trkpt>
   <trkpt lat="-37.85047" lon="145.40185000000002">
    <ele>352.68000000000006</ele>
   </trkpt>
   <trkpt lat="-37.85045" lon="145.40128">
    <ele>349.24000000000007</ele>
   </trkpt>
   <trkpt lat="-37.85033" lon="145.40046">
    <ele>346.79</ele>
   </trkpt>
   <trkpt lat="-37.85017500190039" lon="145.39978499846757">
    <ele>348.53</ele>
   </trkpt>
   <trkpt lat="-37.85002" lon="145.39911">
    <ele>354.93</ele>
   </trkpt>
   <trkpt lat="-37.84993" lon="145.39878000000002">
    <ele>358.25</ele>
   </trkpt>
   <trkpt lat="-37.84974000132641" lon="145.39822499864007">
    <ele>367.55</ele>
   </trkpt>
   <trkpt lat="-37.84955" lon="145.39767">
    <ele>377.73</ele>
   </trkpt>
   <trkpt lat="-37.849320000000006" lon="145.39689">
    <ele>391.09000000000003</ele>
   </trkpt>
   <trkpt lat="-37.84881" lon="145.39606">
    <ele>401.4800000000001</ele>
   </trkpt>
   <trkpt lat="-37.84879" lon="145.39585000000002">
    <ele>401.36</ele>
   </trkpt>
   <trkpt lat="-37.84886" lon="145.39548000000002">
    <ele>398.90000000000003</ele>
   </trkpt>
   <trkpt lat="-37.84900000169548" lon="145.39485000111813">
    <ele>393.04</ele>
   </trkpt>
   <trkpt lat="-37.849140000000006" lon="145.39422000000002">
    <ele>387.17</ele>
   </trkpt>
   <trkpt lat="-37.849230000000006" lon="145.39391">
    <ele>385.97</ele>
   </trkpt>
   <trkpt lat="-37.84933" lon="145.39366">
    <ele>385.16</ele>
   </trkpt>
   <trkpt lat="-37.84944" lon="145.39347">
    <ele>384.47</ele>
   </trkpt>
   <trkpt lat="-37.8498" lon="145.39302">
    <ele>381.78</ele>
   </trkpt>
   <trkpt lat="-37.850030000000004" lon="145.39259">
    <ele>381.73</ele>
   </trkpt>
   <trkpt lat="-37.85049" lon="145.39207000000002">
    <ele>387.51</ele>
   </trkpt>
   <trkpt lat="-37.851000000000006" lon="145.39146000000002">
    <ele>399.83</ele>
   </trkpt>
   <trkpt lat="-37.85161" lon="145.39067">
    <ele>419.40000000000003</ele>
   </trkpt>
   <trkpt lat="-37.851620000000004" lon="145.39067">
    <ele>419.54</ele>
   </trkpt>
   <trkpt lat="-37.852160002008915" lon="145.3899700052086">
    <ele>436.83000000000004</ele>
   </trkpt>
   <trkpt lat="-37.852700000000006" lon="145.38927">
    <ele>446.12</ele>
   </trkpt>
   <trkpt lat="-37.8533100002333" lon="145.38902000208125">
    <ele>451.84000000000003</ele>
   </trkpt>
   <trkpt lat="-37.85392" lon="145.38877000000002">
    <ele>455.70000000000005</ele>
   </trkpt>
   <trkpt lat="-37.854499999939016" lon="145.3887749999602">
    <ele>458.98</ele>
   </trkpt>
   <trkpt lat="-37.85508" lon="145.38878000000003">
    <ele>461.88</ele>
   </trkpt>
   <trkpt lat="-37.85582" lon="145.38917">
    <ele>466.28000000000003</ele>
   </trkpt>
   <trkpt lat="-37.85656999991615" lon="145.3892499991742">
    <ele>472.66</ele>
   </trkpt>
   <trkpt lat="-37.85732" lon="145.38933">
    <ele>482.47</ele>
   </trkpt>
   <trkpt lat="-37.85801499999899" lon="145.38933499995287">
    <ele>490.47</ele>
   </trkpt>
   <trkpt lat="-37.85871" lon="145.38934">
    <ele>501.65999999999997</ele>
   </trkpt>
   <trkpt lat="-37.8592" lon="145.38929000000002">
    <ele>507.70000000000005</ele>
   </trkpt>
   <trkpt lat="-37.859210000000004" lon="145.38929000000002">
    <ele>507.75</ele>
   </trkpt>
   <trkpt lat="-37.85938" lon="145.38928">
    <ele>510.06000000000006</ele>
   </trkpt>
   <trkpt lat="-37.85965" lon="145.3891">
    <ele>512.21</ele>
   </trkpt>
   <trkpt lat="-37.85994" lon="145.38885000000002">
    <ele>515.3000000000001</ele>
   </trkpt>
   <trkpt lat="-37.86054" lon="145.38838">
    <ele>520.33</ele>
   </trkpt>
   <trkpt lat="-37.86086" lon="145.38804000000002">
    <ele>521.59</ele>
   </trkpt>
   <trkpt lat="-37.860870000000006" lon="145.3879">
    <ele>520.9100000000001</ele>
   </trkpt>
   <trkpt lat="-37.86086" lon="145.38764">
    <ele>520.21</ele>
   </trkpt>
   <trkpt lat="-37.860825005262754" lon="145.38652499965318">
    <ele>510.77000000000004</ele>
   </trkpt>
   <trkpt lat="-37.86079" lon="145.38541">
    <ele>504.56</ele>
   </trkpt>
   <trkpt lat="-37.860580000000006" lon="145.38432">
    <ele>503.8</ele>
   </trkpt>
   <trkpt lat="-37.860460001716454" lon="145.38367999887507">
    <ele>507.0300000000001</ele>
   </trkpt>
   <trkpt lat="-37.86034" lon="145.38304000000002">
    <ele>512.66</ele>
   </trkpt>
   <trkpt lat="-37.86027" lon="145.38273">
    <ele>514.4300000000001</ele>
   </trkpt>
   <trkpt lat="-37.86023" lon="145.38234">
    <ele>515.5300000000001</ele>
   </trkpt>
   <trkpt lat="-37.86023" lon="145.38201">
    <ele>516.19</ele>
   </trkpt>
   <trkpt lat="-37.86027" lon="145.38124000000002">
    <ele>516.98</ele>
   </trkpt>
   <trkpt lat="-37.86032" lon="145.38089000000002">
    <ele>517.6200000000001</ele>
   </trkpt>
   <trkpt lat="-37.860330000000005" lon="145.38052000000002">
    <ele>518.93</ele>
   </trkpt>
   <trkpt lat="-37.86027" lon="145.38038">
    <ele>520.25</ele>
   </trkpt>
   <trkpt lat="-37.859935000757986" lon="145.37999499840095">
    <ele>523.78</ele>
   </trkpt>
   <trkpt lat="-37.8596" lon="145.37961">
    <ele>525.73</ele>
   </trkpt>
   <trkpt lat="-37.85918" lon="145.37899000000002">
    <ele>530.61</ele>
   </trkpt>
   <trkpt lat="-37.85884333708155" lon="145.37832666066046">
    <ele>537.95</ele>
   </trkpt>
   <trkpt lat="-37.858506670441926" lon="145.37766332738047">
    <ele>543.58</ele>
   </trkpt>
   <trkpt lat="-37.85817" lon="145.377">
    <ele>549.0</ele>
   </trkpt>
   <trkpt lat="-37.85804" lon="145.3767">
    <ele>552.2</ele>
   </trkpt>
   <trkpt lat="-37.8579" lon="145.37639000000001">
    <ele>555.2900000000001</ele>
   </trkpt>
   <trkpt lat="-37.85743" lon="145.37563">
    <ele>563.24</ele>
   </trkpt>
   <trkpt lat="-37.85714" lon="145.37533000000002">
    <ele>565.45</ele>
   </trkpt>
   <trkpt lat="-37.85669" lon="145.37504">
    <ele>570.1</ele>
   </trkpt>
   <trkpt lat="-37.856260000000006" lon="145.37480000000002">
    <ele>573.86</ele>
   </trkpt>
   <trkpt lat="-37.856" lon="145.37456">
    <ele>576.64</ele>
   </trkpt>
   <trkpt lat="-37.8556750005453" lon="145.37416499811948">
    <ele>578.2700000000001</ele>
   </trkpt>
   <trkpt lat="-37.85535" lon="145.37377">
    <ele>577.95</ele>
   </trkpt>
   <trkpt lat="-37.85515" lon="145.37389000000002">
    <ele>578.19</ele>
   </trkpt>
   <trkpt lat="-37.85492" lon="145.37389000000002">
    <ele>578.2</ele>
   </trkpt>
   <trkpt lat="-37.85479" lon="145.37378">
    <ele>578.1800000000001</ele>
   </trkpt>
   <trkpt lat="-37.85472" lon="145.37377">
    <ele>578.1800000000001</ele>
   </trkpt>
   <trkpt lat="-37.85483" lon="145.37394">
    <ele>578.5</ele>
   </trkpt>
   <trkpt lat="-37.85495" lon="145.37419">
    <ele>578.8100000000001</ele>
   </trkpt>
   <trkpt lat="-37.85499" lon="145.37442000000001">
    <ele>578.8100000000001</ele>
   </trkpt>
   <trkpt lat="-37.85495" lon="145.37466">
    <ele>578.9200000000001</ele>
   </trkpt>
   <trkpt lat="-37.85486" lon="145.37485">
    <ele>578.94</ele>
   </trkpt>
   <trkpt lat="-37.85474" lon="145.37503">
    <ele>578.91</ele>
   </trkpt>
   <trkpt lat="-37.85461" lon="145.3751">
    <ele>578.91</ele>
   </trkpt>
   <trkpt lat="-37.85439" lon="145.37514000000002">
    <ele>578.71</ele>
   </trkpt>
   <trkpt lat="-37.85419" lon="145.37507000000002">
    <ele>578.58</ele>
   </trkpt>
   <trkpt lat="-37.853970000000004" lon="145.37491">
    <ele>578.34</ele>
   </trkpt>
   <trkpt lat="-37.853950000000005" lon="145.37490000000003">
    <ele>578.34</ele>
   </trkpt>
   <trkpt lat="-37.85374" lon="145.37467">
    <ele>577.99</ele>
   </trkpt>
   <trkpt lat="-37.85365" lon="145.37448">
    <ele>577.99</ele>
   </trkpt>
   <trkpt lat="-37.8536" lon="145.37425000000002">
    <ele>577.9300000000001</ele>
   </trkpt>
   <trkpt lat="-37.85358" lon="145.37405">
    <ele>578.01</ele>
   </trkpt>
   <trkpt lat="-37.85365" lon="145.37381000000002">
    <ele>578.1200000000001</ele>
   </trkpt>
   <trkpt lat="-37.85374" lon="145.37365">
    <ele>578.26</ele>
   </trkpt>
   <trkpt lat="-37.85383" lon="145.37355000000002">
    <ele>578.26</ele>
   </trkpt>
   <trkpt lat="-37.854020000000006" lon="145.37349">
    <ele>578.59</ele>
   </trkpt>
   <trkpt lat="-37.854240000000004" lon="145.37345000000002">
    <ele>578.9300000000001</ele>
   </trkpt>
   <trkpt lat="-37.8541" lon="145.37316">
    <ele>578.6999999999999</ele>
   </trkpt>
   <trkpt lat="-37.854020000000006" lon="145.37249">
    <ele>578.8100000000001</ele>
   </trkpt>
   <trkpt lat="-37.853840000000005" lon="145.37207">
    <ele>578.21</ele>
   </trkpt>
   <trkpt lat="-37.85385" lon="145.37194000000002">
    <ele>578.4100000000001</ele>
   </trkpt>
   <trkpt lat="-37.85389" lon="145.37181">
    <ele>578.89</ele>
   </trkpt>
   <trkpt lat="-37.853910000000006" lon="145.37178">
    <ele>578.89</ele>
   </trkpt>
   <trkpt lat="-37.854020000000006" lon="145.3717">
    <ele>579.2</ele>
   </trkpt>
   <trkpt lat="-37.8541050050113" lon="145.3706100014149">
    <ele>576.5400000000001</ele>
   </trkpt>
   <trkpt lat="-37.85419" lon="145.36952000000002">
    <ele>573.08</ele>
   </trkpt>
   <trkpt lat="-37.85421" lon="145.36937">
    <ele>573.08</ele>
   </trkpt>
   <trkpt lat="-37.854380000000006" lon="145.36914000000002">
    <ele>572.61</ele>
   </trkpt>
   <trkpt lat="-37.854240000000004" lon="145.36903">
    <ele>574.43</ele>
   </trkpt>
   <trkpt lat="-37.85423" lon="145.36903">
    <ele>574.46</ele>
   </trkpt>
   <trkpt lat="-37.854380000000006" lon="145.36914000000002">
    <ele>572.61</ele>
   </trkpt>
   <trkpt lat="-37.85441" lon="145.36911">
    <ele>572.46</ele>
   </trkpt>
   <trkpt lat="-37.85409000000001" lon="145.36882">
    <ele>576.21</ele>
   </trkpt>
   <trkpt lat="-37.8538" lon="145.36865">
    <ele>578.88</ele>
   </trkpt>
   <trkpt lat="-37.85314" lon="145.36833000000001">
    <ele>578.43</ele>
   </trkpt>
   <trkpt lat="-37.85295" lon="145.36823">
    <ele>577.04</ele>
   </trkpt>
   <trkpt lat="-37.85275" lon="145.3682">
    <ele>576.04</ele>
   </trkpt>
  </trkseg>
 </trk>
</gpx>
