<?xml version="1.0" encoding="UTF-8"?>
<gpx creator="StravaGPX" version="1.1" xmlns="http://www.topografix.com/GPX/1/1" xmlns:xsi="http://www.w3.org/2001/XMLSchema-instance" xsi:schemaLocation="http://www.topografix.com/GPX/1/1 http://www.topografix.com/GPX/1/1/gpx.xsd">
 <metadata>
  <name>DTR 8km 2nd Nov</name>
  <author>
   <name>Geoff Markley</name>
   <link href="https://www.strava.com/athletes/775202"/>
  </author>
  <copyright author="OpenStreetMap contributors">
   <year>2020</year>
   <license>https://www.openstreetmap.org/copyright</license>
  </copyright>
  <link href="https://www.strava.com/routes/3418504642155065238"/>
 </metadata>
 <trk>
  <name>DTR 8km 2nd Nov</name>
  <link href="https://www.strava.com/routes/3418504642155065238"/>
  <type>running</type>
  <trkseg>
   <trkpt lat="-37.85215" lon="145.3683">
    <ele>570.1</ele>
   </trkpt>
   <trkpt lat="-37.852070000000005" lon="145.36833000000001">
    <ele>569.6300000000001</ele>
   </trkpt>
   <trkpt lat="-37.851760000000006" lon="145.36859">
    <ele>565.6600000000001</ele>
   </trkpt>
   <trkpt lat="-37.85159" lon="145.36880000000002">
    <ele>564.19</ele>
   </trkpt>
   <trkpt lat="-37.85105" lon="145.36917000000003">
    <ele>562.1700000000001</ele>
   </trkpt>
   <trkpt lat="-37.85072" lon="145.36927">
    <ele>560.4800000000001</ele>
   </trkpt>
   <trkpt lat="-37.850370000000005" lon="145.36927">
    <ele>557.76</ele>
   </trkpt>
   <trkpt lat="-37.84974000355335" lon="145.36880998426014">
    <ele>550.23</ele>
   </trkpt>
   <trkpt lat="-37.84911000531727" lon="145.36834997638124">
    <ele>540.8000000000001</ele>
   </trkpt>
   <trkpt lat="-37.848480005291826" lon="145.367889976363">
    <ele>535.12</ele>
   </trkpt>
   <trkpt lat="-37.8478500034771" lon="145.36742998420516">
    <ele>534.42</ele>
   </trkpt>
   <trkpt lat="-37.84722" lon="145.36697">
    <ele>533.45</ele>
   </trkpt>
   <trkpt lat="-37.847150000000006" lon="145.36692000000002">
    <ele>533.0</ele>
   </trkpt>
   <trkpt lat="-37.84709" lon="145.36679">
    <ele>532.42</ele>
   </trkpt>
   <trkpt lat="-37.84700000200787" lon="145.36609499888638">
    <ele>526.27</ele>
   </trkpt>
   <trkpt lat="-37.84691" lon="145.36540000000002">
    <ele>517.57</ele>
   </trkpt>
   <trkpt lat="-37.84693" lon="145.36513000000002">
    <ele>513.02</ele>
   </trkpt>
   <trkpt lat="-37.84687" lon="145.36482">
    <ele>510.15</ele>
   </trkpt>
   <trkpt lat="-37.84676" lon="145.3641">
    <ele>498.68000000000006</ele>
   </trkpt>
   <trkpt lat="-37.84669" lon="145.36359000000002">
    <ele>487.55</ele>
   </trkpt>
   <trkpt lat="-37.84655000177262" lon="145.36294499883846">
    <ele>486.7</ele>
   </trkpt>
   <trkpt lat="-37.846410000000006" lon="145.3623">
    <ele>499.44000000000005</ele>
   </trkpt>
   <trkpt lat="-37.84630000000001" lon="145.3617">
    <ele>507.38000000000005</ele>
   </trkpt>
   <trkpt lat="-37.8462" lon="145.36071">
    <ele>512.41</ele>
   </trkpt>
   <trkpt lat="-37.84611" lon="145.36073000000002">
    <ele>512.51</ele>
   </trkpt>
   <trkpt lat="-37.8462" lon="145.36071">
    <ele>512.41</ele>
   </trkpt>
   <trkpt lat="-37.84560500016017" lon="145.36085000111143">
    <ele>513.7900000000001</ele>
   </trkpt>
   <trkpt lat="-37.84501" lon="145.36099000000002">
    <ele>513.1600000000001</ele>
   </trkpt>
   <trkpt lat="-37.844950000000004" lon="145.36097">
    <ele>512.72</ele>
   </trkpt>
   <trkpt lat="-37.844245000461235" lon="145.36116250552305">
    <ele>505.84000000000003</ele>
   </trkpt>
   <trkpt lat="-37.8435400006091" lon="145.36135500736555">
    <ele>494.34000000000003</ele>
   </trkpt>
   <trkpt lat="-37.842835000443635" lon="145.36154750552768">
    <ele>482.37</ele>
   </trkpt>
   <trkpt lat="-37.842130000000004" lon="145.36174000000003">
    <ele>477.02000000000004</ele>
   </trkpt>
   <trkpt lat="-37.84212" lon="145.36197">
    <ele>475.57000000000005</ele>
   </trkpt>
   <trkpt lat="-37.84212" lon="145.36196">
    <ele>475.58000000000004</ele>
   </trkpt>
   <trkpt lat="-37.8421" lon="145.36245000000002">
    <ele>471.53000000000003</ele>
   </trkpt>
   <trkpt lat="-37.84223" lon="145.36280000000002">
    <ele>465.36</ele>
   </trkpt>
   <trkpt lat="-37.84281" lon="145.36349">
    <ele>457.81000000000006</ele>
   </trkpt>
   <trkpt lat="-37.84288" lon="145.36368000000002">
    <ele>457.88000000000005</ele>
   </trkpt>
   <trkpt lat="-37.84286" lon="145.36383">
    <ele>458.71000000000004</ele>
   </trkpt>
   <trkpt lat="-37.84281" lon="145.36392">
    <ele>459.6000000000001</ele>
   </trkpt>
   <trkpt lat="-37.842455000747556" lon="145.36434000201953">
    <ele>466.59000000000003</ele>
   </trkpt>
   <trkpt lat="-37.8421" lon="145.36476000000002">
    <ele>472.52000000000004</ele>
   </trkpt>
   <trkpt lat="-37.84199" lon="145.36499">
    <ele>474.30000000000007</ele>
   </trkpt>
   <trkpt lat="-37.841910000000006" lon="145.36531000000002">
    <ele>476.97</ele>
   </trkpt>
   <trkpt lat="-37.84192" lon="145.36546">
    <ele>476.97</ele>
   </trkpt>
   <trkpt lat="-37.84234" lon="145.36639000000002">
    <ele>477.73</ele>
   </trkpt>
   <trkpt lat="-37.8425" lon="145.36689">
    <ele>474.65000000000003</ele>
   </trkpt>
   <trkpt lat="-37.8425" lon="145.36701000000002">
    <ele>474.74000000000007</ele>
   </trkpt>
   <trkpt lat="-37.842470000000006" lon="145.36715">
    <ele>475.22</ele>
   </trkpt>
   <trkpt lat="-37.842290000000006" lon="145.36720000000003">
    <ele>477.26</ele>
   </trkpt>
   <trkpt lat="-37.84219" lon="145.36729000000003">
    <ele>481.2</ele>
   </trkpt>
   <trkpt lat="-37.84203" lon="145.36766">
    <ele>483.78000000000003</ele>
   </trkpt>
   <trkpt lat="-37.842040000000004" lon="145.36766">
    <ele>483.79</ele>
   </trkpt>
   <trkpt lat="-37.84181" lon="145.36819">
    <ele>486.05</ele>
   </trkpt>
   <trkpt lat="-37.84169" lon="145.36817000000002">
    <ele>484.43</ele>
   </trkpt>
   <trkpt lat="-37.84096" lon="145.36811">
    <ele>476.02000000000004</ele>
   </trkpt>
   <trkpt lat="-37.840970000000006" lon="145.36842000000001">
    <ele>474.70000000000005</ele>
   </trkpt>
   <trkpt lat="-37.84087" lon="145.36892">
    <ele>472.16</ele>
   </trkpt>
   <trkpt lat="-37.84057" lon="145.36894">
    <ele>467.67</ele>
   </trkpt>
   <trkpt lat="-37.840390000000006" lon="145.36898000000002">
    <ele>465.73</ele>
   </trkpt>
   <trkpt lat="-37.84022" lon="145.36902">
    <ele>463.3</ele>
   </trkpt>
   <trkpt lat="-37.83999" lon="145.36903">
    <ele>461.03000000000003</ele>
   </trkpt>
   <trkpt lat="-37.839940000000006" lon="145.36906000000002">
    <ele>460.48</ele>
   </trkpt>
   <trkpt lat="-37.83975" lon="145.36926000000003">
    <ele>455.98</ele>
   </trkpt>
   <trkpt lat="-37.839560000000006" lon="145.36941000000002">
    <ele>454.52000000000004</ele>
   </trkpt>
   <trkpt lat="-37.8391" lon="145.36968000000002">
    <ele>446.43000000000006</ele>
   </trkpt>
   <trkpt lat="-37.83885" lon="145.3698">
    <ele>443.36</ele>
   </trkpt>
   <trkpt lat="-37.83869" lon="145.36991">
    <ele>440.3</ele>
   </trkpt>
   <trkpt lat="-37.83849" lon="145.36997000000002">
    <ele>436.43</ele>
   </trkpt>
   <trkpt lat="-37.83798" lon="145.37023000000002">
    <ele>430.52</ele>
   </trkpt>
   <trkpt lat="-37.83769" lon="145.37040000000002">
    <ele>430.38000000000005</ele>
   </trkpt>
   <trkpt lat="-37.83737" lon="145.37053">
    <ele>433.83000000000004</ele>
   </trkpt>
   <trkpt lat="-37.83701000000001" lon="145.37063">
    <ele>434.2300000000001</ele>
   </trkpt>
   <trkpt lat="-37.83704" lon="145.37035">
    <ele>435.64000000000004</ele>
   </trkpt>
   <trkpt lat="-37.83704" lon="145.37034">
    <ele>435.70000000000005</ele>
   </trkpt>
   <trkpt lat="-37.83701000000001" lon="145.37063">
    <ele>434.2300000000001</ele>
   </trkpt>
   <trkpt lat="-37.837030000000006" lon="145.37094000000002">
    <ele>432.49</ele>
   </trkpt>
   <trkpt lat="-37.83699" lon="145.37133">
    <ele>429.45000000000005</ele>
   </trkpt>
   <trkpt lat="-37.837030000000006" lon="145.3719">
    <ele>427.08</ele>
   </trkpt>
   <trkpt lat="-37.83699" lon="145.37235">
    <ele>423.21000000000004</ele>
   </trkpt>
   <trkpt lat="-37.83708" lon="145.37331">
    <ele>413.23</ele>
   </trkpt>
   <trkpt lat="-37.83719" lon="145.37388">
    <ele>409.26</ele>
   </trkpt>
   <trkpt lat="-37.83719" lon="145.37407000000002">
    <ele>408.84000000000003</ele>
   </trkpt>
   <trkpt lat="-37.837300000000006" lon="145.37447">
    <ele>407.56</ele>
   </trkpt>
   <trkpt lat="-37.83735" lon="145.37466">
    <ele>407.28000000000003</ele>
   </trkpt>
   <trkpt lat="-37.83746" lon="145.37449">
    <ele>406.90000000000003</ele>
   </trkpt>
   <trkpt lat="-37.83764" lon="145.37427000000002">
    <ele>404.78000000000003</ele>
   </trkpt>
   <trkpt lat="-37.83784" lon="145.37368">
    <ele>395.40000000000003</ele>
   </trkpt>
   <trkpt lat="-37.837880000000006" lon="145.37362000000002">
    <ele>393.51</ele>
   </trkpt>
   <trkpt lat="-37.83791" lon="145.37358">
    <ele>393.34000000000003</ele>
   </trkpt>
   <trkpt lat="-37.83805" lon="145.37351">
    <ele>390.16</ele>
   </trkpt>
   <trkpt lat="-37.83822" lon="145.37348">
    <ele>384.19</ele>
   </trkpt>
   <trkpt lat="-37.83847" lon="145.37354000000002">
    <ele>381.20000000000005</ele>
   </trkpt>
   <trkpt lat="-37.83858" lon="145.37359">
    <ele>380.56</ele>
   </trkpt>
   <trkpt lat="-37.83883" lon="145.37376">
    <ele>380.22</ele>
   </trkpt>
   <trkpt lat="-37.8391" lon="145.37399000000002">
    <ele>379.45</ele>
   </trkpt>
   <trkpt lat="-37.83921" lon="145.37414">
    <ele>378.51</ele>
   </trkpt>
   <trkpt lat="-37.83925" lon="145.37425000000002">
    <ele>377.76000000000005</ele>
   </trkpt>
   <trkpt lat="-37.83950000240526" lon="145.37500499742703">
    <ele>371.04</ele>
   </trkpt>
   <trkpt lat="-37.83975" lon="145.37576">
    <ele>361.90000000000003</ele>
   </trkpt>
   <trkpt lat="-37.839995001151586" lon="145.37628499822682">
    <ele>355.12000000000006</ele>
   </trkpt>
   <trkpt lat="-37.84024" lon="145.37681">
    <ele>350.83000000000004</ele>
   </trkpt>
   <trkpt lat="-37.84046" lon="145.37711000000002">
    <ele>343.31</ele>
   </trkpt>
   <trkpt lat="-37.84089" lon="145.37754">
    <ele>335.05</ele>
   </trkpt>
   <trkpt lat="-37.840970000000006" lon="145.37764">
    <ele>334.19000000000005</ele>
   </trkpt>
   <trkpt lat="-37.840990000000005" lon="145.37779">
    <ele>333.16</ele>
   </trkpt>
   <trkpt lat="-37.84103" lon="145.37786">
    <ele>333.12</ele>
   </trkpt>
   <trkpt lat="-37.84122" lon="145.37847000000002">
    <ele>330.04</ele>
   </trkpt>
   <trkpt lat="-37.84154" lon="145.37922">
    <ele>328.37000000000006</ele>
   </trkpt>
   <trkpt lat="-37.84185" lon="145.37971000000002">
    <ele>325.70000000000005</ele>
   </trkpt>
   <trkpt lat="-37.84201" lon="145.38002">
    <ele>324.90000000000003</ele>
   </trkpt>
   <trkpt lat="-37.84205" lon="145.38012">
    <ele>324.90000000000003</ele>
   </trkpt>
   <trkpt lat="-37.8423" lon="145.38066">
    <ele>319.99000000000007</ele>
   </trkpt>
   <trkpt lat="-37.84243" lon="145.38109">
    <ele>318.47</ele>
   </trkpt>
   <trkpt lat="-37.84248" lon="145.38136">
    <ele>313.65000000000003</ele>
   </trkpt>
   <trkpt lat="-37.84248" lon="145.38167">
    <ele>310.59000000000003</ele>
   </trkpt>
   <trkpt lat="-37.84263" lon="145.38217">
    <ele>306.53000000000003</ele>
   </trkpt>
   <trkpt lat="-37.84272" lon="145.38237">
    <ele>304.12</ele>
   </trkpt>
   <trkpt lat="-37.84279" lon="145.38266000000002">
    <ele>300.18</ele>
   </trkpt>
   <trkpt lat="-37.84281" lon="145.38304000000002">
    <ele>296.25</ele>
   </trkpt>
   <trkpt lat="-37.84281" lon="145.38343">
    <ele>292.8</ele>
   </trkpt>
   <trkpt lat="-37.84347" lon="145.38325">
    <ele>302.23</ele>
   </trkpt>
   <trkpt lat="-37.8439966696179" lon="145.38384332483">
    <ele>295.63</ele>
   </trkpt>
   <trkpt lat="-37.84452333625901" lon="145.38443665813443">
    <ele>304.21000000000004</ele>
   </trkpt>
   <trkpt lat="-37.84505" lon="145.38503">
    <ele>316.14000000000004</ele>
   </trkpt>
   <trkpt lat="-37.845040000000004" lon="145.38504">
    <ele>320.65999999999997</ele>
   </trkpt>
   <trkpt lat="-37.84528" lon="145.38482000000002">
    <ele>322.18</ele>
   </trkpt>
   <trkpt lat="-37.84557" lon="145.38465000000002">
    <ele>322.99</ele>
   </trkpt>
   <trkpt lat="-37.84566" lon="145.38462">
    <ele>322.94</ele>
   </trkpt>
   <trkpt lat="-37.84608" lon="145.38455000000002">
    <ele>320.95</ele>
   </trkpt>
   <trkpt lat="-37.84637" lon="145.38448000000002">
    <ele>318.08000000000004</ele>
   </trkpt>
   <trkpt lat="-37.84684" lon="145.38444">
    <ele>316.62</ele>
   </trkpt>
   <trkpt lat="-37.84702" lon="145.3844">
    <ele>317.54</ele>
   </trkpt>
   <trkpt lat="-37.847170000000006" lon="145.38441">
    <ele>319.05</ele>
   </trkpt>
   <trkpt lat="-37.84758" lon="145.38437000000002">
    <ele>324.43000000000006</ele>
   </trkpt>
   <trkpt lat="-37.84796" lon="145.38426">
    <ele>328.76000000000005</ele>
   </trkpt>
   <trkpt lat="-37.84836" lon="145.38422">
    <ele>332.8</ele>
   </trkpt>
   <trkpt lat="-37.84848" lon="145.38417">
    <ele>333.92</ele>
   </trkpt>
   <trkpt lat="-37.848670000000006" lon="145.38397">
    <ele>337.13000000000005</ele>
   </trkpt>
   <trkpt lat="-37.84868" lon="145.38397">
    <ele>337.43</ele>
   </trkpt>
   <trkpt lat="-37.8487" lon="145.38395">
    <ele>337.43</ele>
   </trkpt>
   <trkpt lat="-37.84877" lon="145.38364">
    <ele>340.45000000000005</ele>
   </trkpt>
   <trkpt lat="-37.84879" lon="145.38334">
    <ele>342.94</ele>
   </trkpt>
   <trkpt lat="-37.848730001359534" lon="145.38276999940166">
    <ele>351.71000000000004</ele>
   </trkpt>
   <trkpt lat="-37.848670000000006" lon="145.3822">
    <ele>362.45000000000005</ele>
   </trkpt>
   <trkpt lat="-37.84861" lon="145.38208">
    <ele>363.35</ele>
   </trkpt>
   <trkpt lat="-37.84852" lon="145.38196000000002">
    <ele>365.6</ele>
   </trkpt>
   <trkpt lat="-37.848290000000006" lon="145.38188000000002">
    <ele>368.92</ele>
   </trkpt>
   <trkpt lat="-37.84807" lon="145.38186000000002">
    <ele>370.88000000000005</ele>
   </trkpt>
   <trkpt lat="-37.84776" lon="145.3819">
    <ele>373.04</ele>
   </trkpt>
   <trkpt lat="-37.8476" lon="145.38195000000002">
    <ele>374.6</ele>
   </trkpt>
   <trkpt lat="-37.8474" lon="145.38206000000002">
    <ele>377.54</ele>
   </trkpt>
   <trkpt lat="-37.84702" lon="145.38219">
    <ele>382.88000000000005</ele>
   </trkpt>
   <trkpt lat="-37.8468" lon="145.38217">
    <ele>385.43000000000006</ele>
   </trkpt>
   <trkpt lat="-37.846700000000006" lon="145.38214000000002">
    <ele>387.0</ele>
   </trkpt>
   <trkpt lat="-37.84642" lon="145.3819">
    <ele>392.58000000000004</ele>
   </trkpt>
   <trkpt lat="-37.84619" lon="145.38119">
    <ele>404.67</ele>
   </trkpt>
   <trkpt lat="-37.84611000555022" lon="145.38037999826554">
    <ele>421.45000000000005</ele>
   </trkpt>
   <trkpt lat="-37.8460300055525" lon="145.3795699982885">
    <ele>432.12000000000006</ele>
   </trkpt>
   <trkpt lat="-37.84595" lon="145.37876">
    <ele>441.19</ele>
   </trkpt>
   <trkpt lat="-37.845850000000006" lon="145.37832">
    <ele>445.74</ele>
   </trkpt>
   <trkpt lat="-37.84575" lon="145.37785000000002">
    <ele>449.71000000000004</ele>
   </trkpt>
   <trkpt lat="-37.84575" lon="145.37768">
    <ele>451.04</ele>
   </trkpt>
   <trkpt lat="-37.84582" lon="145.37730000000002">
    <ele>455.78000000000003</ele>
   </trkpt>
   <trkpt lat="-37.8459" lon="145.37727">
    <ele>455.78000000000003</ele>
   </trkpt>
   <trkpt lat="-37.8461" lon="145.37725">
    <ele>459.43000000000006</ele>
   </trkpt>
   <trkpt lat="-37.84633" lon="145.37718">
    <ele>467.32</ele>
   </trkpt>
   <trkpt lat="-37.84646" lon="145.37716">
    <ele>468.94</ele>
   </trkpt>
   <trkpt lat="-37.84666" lon="145.37718">
    <ele>468.94</ele>
   </trkpt>
   <trkpt lat="-37.8468" lon="145.37722000000002">
    <ele>475.07000000000005</ele>
   </trkpt>
   <trkpt lat="-37.84729" lon="145.37757000000002">
    <ele>483.30000000000007</ele>
   </trkpt>
   <trkpt lat="-37.84731" lon="145.37754">
    <ele>483.29</ele>
   </trkpt>
   <trkpt lat="-37.84729" lon="145.37757000000002">
    <ele>483.30000000000007</ele>
   </trkpt>
   <trkpt lat="-37.84742" lon="145.3778">
    <ele>484.48</ele>
   </trkpt>
   <trkpt lat="-37.84747" lon="145.37811000000002">
    <ele>484.2</ele>
   </trkpt>
   <trkpt lat="-37.8476" lon="145.37832">
    <ele>483.59000000000003</ele>
   </trkpt>
   <trkpt lat="-37.84774" lon="145.37846000000002">
    <ele>483.66</ele>
   </trkpt>
   <trkpt lat="-37.84794" lon="145.37849">
    <ele>485.12000000000006</ele>
   </trkpt>
   <trkpt lat="-37.84825" lon="145.37846000000002">
    <ele>486.23</ele>
   </trkpt>
   <trkpt lat="-37.84848" lon="145.3784">
    <ele>487.37</ele>
   </trkpt>
   <trkpt lat="-37.8491" lon="145.37814">
    <ele>493.18000000000006</ele>
   </trkpt>
   <trkpt lat="-37.84951" lon="145.37792000000002">
    <ele>500.31</ele>
   </trkpt>
   <trkpt lat="-37.84964" lon="145.37782">
    <ele>501.4700000000001</ele>
   </trkpt>
   <trkpt lat="-37.85029" lon="145.3775">
    <ele>508.14000000000004</ele>
   </trkpt>
   <trkpt lat="-37.85047" lon="145.37738000000002">
    <ele>509.62000000000006</ele>
   </trkpt>
   <trkpt lat="-37.85085" lon="145.37730000000002">
    <ele>512.1600000000001</ele>
   </trkpt>
   <trkpt lat="-37.85121" lon="145.37741000000003">
    <ele>512.57</ele>
   </trkpt>
   <trkpt lat="-37.85157" lon="145.3776">
    <ele>510.53000000000003</ele>
   </trkpt>
   <trkpt lat="-37.85172" lon="145.37773">
    <ele>508.9600000000001</ele>
   </trkpt>
   <trkpt lat="-37.85188" lon="145.37808">
    <ele>505.81000000000006</ele>
   </trkpt>
   <trkpt lat="-37.85201" lon="145.37857000000002">
    <ele>503.9800000000001</ele>
   </trkpt>
   <trkpt lat="-37.85228" lon="145.37909000000002">
    <ele>505.53999999999996</ele>
   </trkpt>
   <trkpt lat="-37.85251" lon="145.37935000000002">
    <ele>507.87000000000006</ele>
   </trkpt>
   <trkpt lat="-37.85282" lon="145.3796">
    <ele>510.36</ele>
   </trkpt>
   <trkpt lat="-37.85293" lon="145.37962000000002">
    <ele>510.88</ele>
   </trkpt>
   <trkpt lat="-37.85302" lon="145.3796">
    <ele>511.16</ele>
   </trkpt>
   <trkpt lat="-37.853030000000004" lon="145.3796">
    <ele>511.16</ele>
   </trkpt>
   <trkpt lat="-37.853080000000006" lon="145.37959">
    <ele>511.27</ele>
   </trkpt>
   <trkpt lat="-37.853350000000006" lon="145.37931">
    <ele>511.53000000000003</ele>
   </trkpt>
   <trkpt lat="-37.85351" lon="145.37909000000002">
    <ele>513.47</ele>
   </trkpt>
   <trkpt lat="-37.85387" lon="145.37866000000002">
    <ele>520.6800000000001</ele>
   </trkpt>
   <trkpt lat="-37.85427" lon="145.37793000000002">
    <ele>532.0</ele>
   </trkpt>
   <trkpt lat="-37.85468" lon="145.37728">
    <ele>544.79</ele>
   </trkpt>
   <trkpt lat="-37.85501" lon="145.37684000000002">
    <ele>551.76</ele>
   </trkpt>
   <trkpt lat="-37.85533" lon="145.37614000000002">
    <ele>562.3900000000001</ele>
   </trkpt>
   <trkpt lat="-37.85571" lon="145.37552000000002">
    <ele>569.1400000000001</ele>
   </trkpt>
   <trkpt lat="-37.85604" lon="145.37508000000003">
    <ele>572.1500000000001</ele>
   </trkpt>
   <trkpt lat="-37.85622" lon="145.37490000000003">
    <ele>573.91</ele>
   </trkpt>
   <trkpt lat="-37.856260000000006" lon="145.37480000000002">
    <ele>573.86</ele>
   </trkpt>
   <trkpt lat="-37.856" lon="145.37456">
    <ele>576.64</ele>
   </trkpt>
   <trkpt lat="-37.8556750005453" lon="145.37416499811948">
    <ele>578.2700000000001</ele>
   </trkpt>
   <trkpt lat="-37.85535" lon="145.37377">
    <ele>577.95</ele>
   </trkpt>
   <trkpt lat="-37.85531" lon="145.37379">
    <ele>578.1500000000001</ele>
   </trkpt>
   <trkpt lat="-37.85521" lon="145.37367">
    <ele>578.07</ele>
   </trkpt>
   <trkpt lat="-37.854845000635606" lon="145.37326999797466">
    <ele>578.23</ele>
   </trkpt>
   <trkpt lat="-37.85448" lon="145.37287">
    <ele>579.0300000000001</ele>
   </trkpt>
   <trkpt lat="-37.8543" lon="145.37263000000002">
    <ele>579.34</ele>
   </trkpt>
   <trkpt lat="-37.85414" lon="145.37239000000002">
    <ele>579.6600000000001</ele>
   </trkpt>
   <trkpt lat="-37.85405" lon="145.37220000000002">
    <ele>579.73</ele>
   </trkpt>
   <trkpt lat="-37.854020000000006" lon="145.37182">
    <ele>579.26</ele>
   </trkpt>
   <trkpt lat="-37.854020000000006" lon="145.3717">
    <ele>579.26</ele>
   </trkpt>
   <trkpt lat="-37.8541050050113" lon="145.3706100014149">
    <ele>576.5400000000001</ele>
   </trkpt>
   <trkpt lat="-37.85419" lon="145.36952000000002">
    <ele>573.08</ele>
   </trkpt>
   <trkpt lat="-37.85421" lon="145.36937">
    <ele>572.69</ele>
   </trkpt>
   <trkpt lat="-37.854380000000006" lon="145.36914000000002">
    <ele>572.61</ele>
   </trkpt>
   <trkpt lat="-37.85441" lon="145.36911">
    <ele>572.46</ele>
   </trkpt>
   <trkpt lat="-37.85409000000001" lon="145.36882">
    <ele>576.21</ele>
   </trkpt>
   <trkpt lat="-37.853660000000005" lon="145.36857">
    <ele>578.96</ele>
   </trkpt>
   <trkpt lat="-37.85314" lon="145.36833000000001">
    <ele>578.43</ele>
   </trkpt>
   <trkpt lat="-37.85295" lon="145.36823">
    <ele>577.04</ele>
   </trkpt>
   <trkpt lat="-37.85264" lon="145.36819">
    <ele>574.95</ele>
   </trkpt>
   <trkpt lat="-37.85228" lon="145.36824000000001">
    <ele>571.01</ele>
   </trkpt>
  </trkseg>
 </trk>
</gpx>
