<?xml version="1.0" encoding="UTF-8"?>
<gpx creator="StravaGPX" version="1.1" xmlns="http://www.topografix.com/GPX/1/1" xmlns:xsi="http://www.w3.org/2001/XMLSchema-instance" xsi:schemaLocation="http://www.topografix.com/GPX/1/1 http://www.topografix.com/GPX/1/1/gpx.xsd">
 <metadata>
  <name>DTR 20k - 16th Nov</name>
  <author>
   <name>DTR  Runleaders</name>
   <link href="https://www.strava.com/athletes/194056408"/>
  </author>
  <copyright author="OpenStreetMap contributors">
   <year>2020</year>
   <license>https://www.openstreetmap.org/copyright</license>
  </copyright>
  <link href="https://www.strava.com/routes/3424224468021344806"/>
 </metadata>
 <trk>
  <name>DTR 20k - 16th Nov</name>
  <link href="https://www.strava.com/routes/3424224468021344806"/>
  <type>running</type>
  <trkseg>
   <trkpt lat="-37.89092" lon="145.31735">
    <ele>174.25</ele>
   </trkpt>
   <trkpt lat="-37.89074" lon="145.31685000000002">
    <ele>184.17000000000002</ele>
   </trkpt>
   <trkpt lat="-37.891040000000004" lon="145.31607000000002">
    <ele>187.22000000000003</ele>
   </trkpt>
   <trkpt lat="-37.89099" lon="145.31613000000002">
    <ele>182.17000000000002</ele>
   </trkpt>
   <trkpt lat="-37.89108" lon="145.31604000000002">
    <ele>180.32</ele>
   </trkpt>
   <trkpt lat="-37.89148" lon="145.31548">
    <ele>175.44</ele>
   </trkpt>
   <trkpt lat="-37.89159" lon="145.3153">
    <ele>174.41</ele>
   </trkpt>
   <trkpt lat="-37.89166" lon="145.31470000000002">
    <ele>177.72000000000003</ele>
   </trkpt>
   <trkpt lat="-37.8917" lon="145.3142">
    <ele>181.79</ele>
   </trkpt>
   <trkpt lat="-37.89168" lon="145.31405">
    <ele>182.6</ele>
   </trkpt>
   <trkpt lat="-37.89159" lon="145.31376">
    <ele>184.49</ele>
   </trkpt>
   <trkpt lat="-37.8915" lon="145.31358">
    <ele>186.53000000000003</ele>
   </trkpt>
   <trkpt lat="-37.89132" lon="145.3134">
    <ele>188.00000000000003</ele>
   </trkpt>
   <trkpt lat="-37.89092" lon="145.31309000000002">
    <ele>192.53</ele>
   </trkpt>
   <trkpt lat="-37.89074" lon="145.31299">
    <ele>193.95000000000002</ele>
   </trkpt>
   <trkpt lat="-37.890710000000006" lon="145.31292000000002">
    <ele>194.02</ele>
   </trkpt>
   <trkpt lat="-37.890710000000006" lon="145.31282000000002">
    <ele>194.06</ele>
   </trkpt>
   <trkpt lat="-37.89072" lon="145.31278">
    <ele>194.06</ele>
   </trkpt>
   <trkpt lat="-37.89101" lon="145.31248000000002">
    <ele>194.87</ele>
   </trkpt>
   <trkpt lat="-37.89105" lon="145.31242">
    <ele>195.37</ele>
   </trkpt>
   <trkpt lat="-37.891180000000006" lon="145.31198">
    <ele>198.49000000000004</ele>
   </trkpt>
   <trkpt lat="-37.89121" lon="145.31161">
    <ele>201.43000000000004</ele>
   </trkpt>
   <trkpt lat="-37.89119" lon="145.31122000000002">
    <ele>206.67000000000002</ele>
   </trkpt>
   <trkpt lat="-37.89092" lon="145.31052000000003">
    <ele>215.69000000000003</ele>
   </trkpt>
   <trkpt lat="-37.89038" lon="145.30998000000002">
    <ele>228.4</ele>
   </trkpt>
   <trkpt lat="-37.890330000000006" lon="145.30995000000001">
    <ele>228.4</ele>
   </trkpt>
   <trkpt lat="-37.89027" lon="145.30997000000002">
    <ele>229.94</ele>
   </trkpt>
   <trkpt lat="-37.89025" lon="145.31002">
    <ele>229.94</ele>
   </trkpt>
   <trkpt lat="-37.89027" lon="145.31046">
    <ele>235.23000000000002</ele>
   </trkpt>
   <trkpt lat="-37.89025" lon="145.31066">
    <ele>237.05</ele>
   </trkpt>
   <trkpt lat="-37.89016" lon="145.31092">
    <ele>239.36</ele>
   </trkpt>
   <trkpt lat="-37.89002" lon="145.31111">
    <ele>243.28000000000003</ele>
   </trkpt>
   <trkpt lat="-37.88993" lon="145.31119">
    <ele>244.46</ele>
   </trkpt>
   <trkpt lat="-37.889680000000006" lon="145.31134">
    <ele>247.76</ele>
   </trkpt>
   <trkpt lat="-37.8896" lon="145.31134">
    <ele>251.54000000000005</ele>
   </trkpt>
   <trkpt lat="-37.88958" lon="145.31130000000002">
    <ele>251.54000000000005</ele>
   </trkpt>
   <trkpt lat="-37.88955" lon="145.31122000000002">
    <ele>251.54000000000005</ele>
   </trkpt>
   <trkpt lat="-37.88958" lon="145.31101">
    <ele>255.23000000000002</ele>
   </trkpt>
   <trkpt lat="-37.88958" lon="145.3109">
    <ele>255.23000000000002</ele>
   </trkpt>
   <trkpt lat="-37.88951" lon="145.31074">
    <ele>258.39</ele>
   </trkpt>
   <trkpt lat="-37.88931" lon="145.31038">
    <ele>264.92</ele>
   </trkpt>
   <trkpt lat="-37.889210000000006" lon="145.31025000000002">
    <ele>266.40000000000003</ele>
   </trkpt>
   <trkpt lat="-37.88908" lon="145.31016000000002">
    <ele>267.96000000000004</ele>
   </trkpt>
   <trkpt lat="-37.88902" lon="145.31014000000002">
    <ele>270.35</ele>
   </trkpt>
   <trkpt lat="-37.88893" lon="145.31018">
    <ele>270.35</ele>
   </trkpt>
   <trkpt lat="-37.88868" lon="145.31060000000002">
    <ele>279.41</ele>
   </trkpt>
   <trkpt lat="-37.88859" lon="145.31071">
    <ele>281.02000000000004</ele>
   </trkpt>
   <trkpt lat="-37.888450000000006" lon="145.31074">
    <ele>283.89000000000004</ele>
   </trkpt>
   <trkpt lat="-37.88794" lon="145.31068000000002">
    <ele>293.92</ele>
   </trkpt>
   <trkpt lat="-37.88779" lon="145.31063">
    <ele>299.46</ele>
   </trkpt>
   <trkpt lat="-37.887330000000006" lon="145.31040000000002">
    <ele>311.41</ele>
   </trkpt>
   <trkpt lat="-37.88705" lon="145.31019">
    <ele>315.55000000000007</ele>
   </trkpt>
   <trkpt lat="-37.88696" lon="145.31015000000002">
    <ele>316.31</ele>
   </trkpt>
   <trkpt lat="-37.88687" lon="145.31014000000002">
    <ele>316.31</ele>
   </trkpt>
   <trkpt lat="-37.88673" lon="145.31015000000002">
    <ele>317.69</ele>
   </trkpt>
   <trkpt lat="-37.8866" lon="145.3102">
    <ele>319.18</ele>
   </trkpt>
   <trkpt lat="-37.88629" lon="145.31038">
    <ele>326.07</ele>
   </trkpt>
   <trkpt lat="-37.8862" lon="145.31044">
    <ele>326.07</ele>
   </trkpt>
   <trkpt lat="-37.88611" lon="145.31055">
    <ele>329.61</ele>
   </trkpt>
   <trkpt lat="-37.88579500178934" lon="145.31120500285434">
    <ele>339.85</ele>
   </trkpt>
   <trkpt lat="-37.88548" lon="145.31186000000002">
    <ele>349.02000000000004</ele>
   </trkpt>
   <trkpt lat="-37.88541" lon="145.31207">
    <ele>355.81</ele>
   </trkpt>
   <trkpt lat="-37.8853" lon="145.31255000000002">
    <ele>364.42</ele>
   </trkpt>
   <trkpt lat="-37.885270000000006" lon="145.31266000000002">
    <ele>364.42</ele>
   </trkpt>
   <trkpt lat="-37.88519" lon="145.31273000000002">
    <ele>366.19</ele>
   </trkpt>
   <trkpt lat="-37.88501" lon="145.31279">
    <ele>373.05000000000007</ele>
   </trkpt>
   <trkpt lat="-37.884800000000006" lon="145.31279">
    <ele>375.48</ele>
   </trkpt>
   <trkpt lat="-37.884640000000005" lon="145.31277">
    <ele>378.68</ele>
   </trkpt>
   <trkpt lat="-37.88461" lon="145.31262">
    <ele>378.07</ele>
   </trkpt>
   <trkpt lat="-37.88436000109947" lon="145.3121049982058">
    <ele>373.32000000000005</ele>
   </trkpt>
   <trkpt lat="-37.88411" lon="145.31159000000002">
    <ele>369.75</ele>
   </trkpt>
   <trkpt lat="-37.884" lon="145.31125">
    <ele>366.22</ele>
   </trkpt>
   <trkpt lat="-37.88394" lon="145.31089">
    <ele>363.62000000000006</ele>
   </trkpt>
   <trkpt lat="-37.88391" lon="145.31067000000002">
    <ele>360.93</ele>
   </trkpt>
   <trkpt lat="-37.88398" lon="145.30967">
    <ele>354.24000000000007</ele>
   </trkpt>
   <trkpt lat="-37.88398" lon="145.3095">
    <ele>353.40000000000003</ele>
   </trkpt>
   <trkpt lat="-37.883950000000006" lon="145.30926000000002">
    <ele>351.8</ele>
   </trkpt>
   <trkpt lat="-37.883860000000006" lon="145.30907000000002">
    <ele>350.12000000000006</ele>
   </trkpt>
   <trkpt lat="-37.88353" lon="145.3086">
    <ele>346.29</ele>
   </trkpt>
   <trkpt lat="-37.88333" lon="145.30835000000002">
    <ele>344.96000000000004</ele>
   </trkpt>
   <trkpt lat="-37.88313" lon="145.30817000000002">
    <ele>341.89000000000004</ele>
   </trkpt>
   <trkpt lat="-37.88268" lon="145.30786">
    <ele>336.21</ele>
   </trkpt>
   <trkpt lat="-37.88232" lon="145.30774000000002">
    <ele>332.70000000000005</ele>
   </trkpt>
   <trkpt lat="-37.88208" lon="145.30768">
    <ele>331.94</ele>
   </trkpt>
   <trkpt lat="-37.881640000000004" lon="145.30761">
    <ele>323.67</ele>
   </trkpt>
   <trkpt lat="-37.88156" lon="145.30758">
    <ele>323.67</ele>
   </trkpt>
   <trkpt lat="-37.88109" lon="145.30728000000002">
    <ele>312.16</ele>
   </trkpt>
   <trkpt lat="-37.88089" lon="145.30704">
    <ele>305.00000000000006</ele>
   </trkpt>
   <trkpt lat="-37.880860000000006" lon="145.30694000000003">
    <ele>305.00000000000006</ele>
   </trkpt>
   <trkpt lat="-37.88083" lon="145.30677">
    <ele>305.00000000000006</ele>
   </trkpt>
   <trkpt lat="-37.880840000000006" lon="145.30677">
    <ele>303.27000000000004</ele>
   </trkpt>
   <trkpt lat="-37.880435001167584" lon="145.3062499971714">
    <ele>288.90000000000003</ele>
   </trkpt>
   <trkpt lat="-37.880030000000005" lon="145.30573">
    <ele>275.89000000000004</ele>
   </trkpt>
   <trkpt lat="-37.8795" lon="145.30555">
    <ele>260.17</ele>
   </trkpt>
   <trkpt lat="-37.87937" lon="145.30623">
    <ele>256.82000000000005</ele>
   </trkpt>
   <trkpt lat="-37.87941" lon="145.30619000000002">
    <ele>254.82000000000005</ele>
   </trkpt>
   <trkpt lat="-37.87964" lon="145.30682000000002">
    <ele>256.63</ele>
   </trkpt>
   <trkpt lat="-37.87982" lon="145.30745000000002">
    <ele>255.43000000000004</ele>
   </trkpt>
   <trkpt lat="-37.87982" lon="145.30782000000002">
    <ele>253.29000000000002</ele>
   </trkpt>
   <trkpt lat="-37.87975" lon="145.30798000000001">
    <ele>253.92000000000002</ele>
   </trkpt>
   <trkpt lat="-37.87968" lon="145.30800000000002">
    <ele>254.37000000000003</ele>
   </trkpt>
   <trkpt lat="-37.87955" lon="145.30796">
    <ele>255.73000000000002</ele>
   </trkpt>
   <trkpt lat="-37.8791" lon="145.3076">
    <ele>251.8</ele>
   </trkpt>
   <trkpt lat="-37.87897" lon="145.30756000000002">
    <ele>250.32999999999998</ele>
   </trkpt>
   <trkpt lat="-37.8785" lon="145.30751">
    <ele>242.41</ele>
   </trkpt>
   <trkpt lat="-37.87805" lon="145.30732">
    <ele>238.28</ele>
   </trkpt>
   <trkpt lat="-37.8778" lon="145.30725">
    <ele>237.37000000000003</ele>
   </trkpt>
   <trkpt lat="-37.87751" lon="145.30726">
    <ele>238.33</ele>
   </trkpt>
   <trkpt lat="-37.87685500049677" lon="145.30753500237103">
    <ele>241.48000000000002</ele>
   </trkpt>
   <trkpt lat="-37.876200000000004" lon="145.30781000000002">
    <ele>242.16</ele>
   </trkpt>
   <trkpt lat="-37.87597" lon="145.30773000000002">
    <ele>239.70000000000002</ele>
   </trkpt>
   <trkpt lat="-37.87561" lon="145.30773000000002">
    <ele>235.46000000000004</ele>
   </trkpt>
   <trkpt lat="-37.87525" lon="145.30781000000002">
    <ele>230.24</ele>
   </trkpt>
   <trkpt lat="-37.87498" lon="145.30769">
    <ele>228.03</ele>
   </trkpt>
   <trkpt lat="-37.87483" lon="145.30766">
    <ele>228.15</ele>
   </trkpt>
   <trkpt lat="-37.87478" lon="145.3082">
    <ele>234.96000000000004</ele>
   </trkpt>
   <trkpt lat="-37.87473" lon="145.30829">
    <ele>238.93000000000004</ele>
   </trkpt>
   <trkpt lat="-37.87458" lon="145.30846000000003">
    <ele>241.43000000000004</ele>
   </trkpt>
   <trkpt lat="-37.87424" lon="145.30875">
    <ele>250.32000000000005</ele>
   </trkpt>
   <trkpt lat="-37.87411" lon="145.30882000000003">
    <ele>252.56</ele>
   </trkpt>
   <trkpt lat="-37.87369" lon="145.30894">
    <ele>258.93</ele>
   </trkpt>
   <trkpt lat="-37.87357" lon="145.30935000000002">
    <ele>269.48</ele>
   </trkpt>
   <trkpt lat="-37.87353" lon="145.30943000000002">
    <ele>272.04</ele>
   </trkpt>
   <trkpt lat="-37.87326" lon="145.30966">
    <ele>280.33000000000004</ele>
   </trkpt>
   <trkpt lat="-37.87317" lon="145.30980000000002">
    <ele>284.53</ele>
   </trkpt>
   <trkpt lat="-37.87306" lon="145.31023000000002">
    <ele>296.06000000000006</ele>
   </trkpt>
   <trkpt lat="-37.87299" lon="145.31035">
    <ele>300.06000000000006</ele>
   </trkpt>
   <trkpt lat="-37.87265" lon="145.31079000000003">
    <ele>314.43000000000006</ele>
   </trkpt>
   <trkpt lat="-37.872690000000006" lon="145.31075">
    <ele>313.14000000000004</ele>
   </trkpt>
   <trkpt lat="-37.87236" lon="145.31108">
    <ele>328.36</ele>
   </trkpt>
   <trkpt lat="-37.872130000000006" lon="145.31118">
    <ele>334.46000000000004</ele>
   </trkpt>
   <trkpt lat="-37.87205" lon="145.31123000000002">
    <ele>337.27</ele>
   </trkpt>
   <trkpt lat="-37.872" lon="145.31129">
    <ele>340.52000000000004</ele>
   </trkpt>
   <trkpt lat="-37.871930000000006" lon="145.31158000000002">
    <ele>349.09000000000003</ele>
   </trkpt>
   <trkpt lat="-37.87201" lon="145.31204000000002">
    <ele>360.75</ele>
   </trkpt>
   <trkpt lat="-37.87182" lon="145.31231000000002">
    <ele>369.23</ele>
   </trkpt>
   <trkpt lat="-37.87174" lon="145.31253">
    <ele>376.9</ele>
   </trkpt>
   <trkpt lat="-37.87165" lon="145.31262">
    <ele>376.9</ele>
   </trkpt>
   <trkpt lat="-37.87133" lon="145.3128">
    <ele>387.35</ele>
   </trkpt>
   <trkpt lat="-37.87122" lon="145.31293000000002">
    <ele>390.33</ele>
   </trkpt>
   <trkpt lat="-37.87088500168487" lon="145.3135600028525">
    <ele>393.1</ele>
   </trkpt>
   <trkpt lat="-37.87055" lon="145.31419000000002">
    <ele>388.40000000000003</ele>
   </trkpt>
   <trkpt lat="-37.87041" lon="145.31411">
    <ele>386.52000000000004</ele>
   </trkpt>
   <trkpt lat="-37.870340000000006" lon="145.31408000000002">
    <ele>385.98</ele>
   </trkpt>
   <trkpt lat="-37.87026" lon="145.31409000000002">
    <ele>384.77000000000004</ele>
   </trkpt>
   <trkpt lat="-37.87017" lon="145.31414">
    <ele>382.67</ele>
   </trkpt>
   <trkpt lat="-37.86997" lon="145.31447">
    <ele>376.76000000000005</ele>
   </trkpt>
   <trkpt lat="-37.86988" lon="145.31455000000003">
    <ele>374.73</ele>
   </trkpt>
   <trkpt lat="-37.86972" lon="145.31458">
    <ele>374.02000000000004</ele>
   </trkpt>
   <trkpt lat="-37.869020000000006" lon="145.31414">
    <ele>361.31</ele>
   </trkpt>
   <trkpt lat="-37.86878" lon="145.31396">
    <ele>358.95000000000005</ele>
   </trkpt>
   <trkpt lat="-37.86856" lon="145.31388">
    <ele>356.23</ele>
   </trkpt>
   <trkpt lat="-37.86833" lon="145.31385">
    <ele>354.57000000000005</ele>
   </trkpt>
   <trkpt lat="-37.86777" lon="145.31386">
    <ele>354.14</ele>
   </trkpt>
   <trkpt lat="-37.86695" lon="145.31375">
    <ele>346.30000000000007</ele>
   </trkpt>
   <trkpt lat="-37.866960000000006" lon="145.31375">
    <ele>352.90999999999997</ele>
   </trkpt>
   <trkpt lat="-37.86649000105241" lon="145.31426000330444">
    <ele>339.56</ele>
   </trkpt>
   <trkpt lat="-37.866020000000006" lon="145.31477">
    <ele>335.85</ele>
   </trkpt>
   <trkpt lat="-37.865990000000004" lon="145.31471000000002">
    <ele>328.49</ele>
   </trkpt>
   <trkpt lat="-37.86603" lon="145.31467">
    <ele>328.67</ele>
   </trkpt>
   <trkpt lat="-37.86605" lon="145.31453000000002">
    <ele>329.07000000000005</ele>
   </trkpt>
   <trkpt lat="-37.86603" lon="145.31443000000002">
    <ele>329.07000000000005</ele>
   </trkpt>
   <trkpt lat="-37.86605" lon="145.31453000000002">
    <ele>328.67</ele>
   </trkpt>
   <trkpt lat="-37.86603" lon="145.31467">
    <ele>328.49</ele>
   </trkpt>
   <trkpt lat="-37.865990000000004" lon="145.31471000000002">
    <ele>328.29</ele>
   </trkpt>
   <trkpt lat="-37.8658" lon="145.31502">
    <ele>328.31000000000006</ele>
   </trkpt>
   <trkpt lat="-37.865480000000005" lon="145.31546">
    <ele>330.57000000000005</ele>
   </trkpt>
   <trkpt lat="-37.86536" lon="145.31595000000002">
    <ele>329.05</ele>
   </trkpt>
   <trkpt lat="-37.86515" lon="145.31638">
    <ele>327.44</ele>
   </trkpt>
   <trkpt lat="-37.864900000000006" lon="145.31666">
    <ele>322.34000000000003</ele>
   </trkpt>
   <trkpt lat="-37.86509000306377" lon="145.31751499767174">
    <ele>308.1</ele>
   </trkpt>
   <trkpt lat="-37.865280000000006" lon="145.31837000000002">
    <ele>281.42</ele>
   </trkpt>
   <trkpt lat="-37.865730000000006" lon="145.31851">
    <ele>278.61</ele>
   </trkpt>
   <trkpt lat="-37.86618000295286" lon="145.3176700051874">
    <ele>292.37</ele>
   </trkpt>
   <trkpt lat="-37.86663" lon="145.31683">
    <ele>306.37</ele>
   </trkpt>
   <trkpt lat="-37.86739" lon="145.3168">
    <ele>330.26000000000005</ele>
   </trkpt>
   <trkpt lat="-37.86759" lon="145.31755">
    <ele>340.96000000000004</ele>
   </trkpt>
   <trkpt lat="-37.86769" lon="145.3176">
    <ele>340.45000000000005</ele>
   </trkpt>
   <trkpt lat="-37.86759" lon="145.31787">
    <ele>339.5</ele>
   </trkpt>
   <trkpt lat="-37.86741" lon="145.31875000000002">
    <ele>336.23</ele>
   </trkpt>
   <trkpt lat="-37.86744" lon="145.31893000000002">
    <ele>335.47</ele>
   </trkpt>
   <trkpt lat="-37.86762" lon="145.31942">
    <ele>330.66</ele>
   </trkpt>
   <trkpt lat="-37.86782" lon="145.31976">
    <ele>329.08000000000004</ele>
   </trkpt>
   <trkpt lat="-37.86786" lon="145.31989000000002">
    <ele>328.87000000000006</ele>
   </trkpt>
   <trkpt lat="-37.86786" lon="145.31999000000002">
    <ele>328.86</ele>
   </trkpt>
   <trkpt lat="-37.867720000000006" lon="145.32028000000003">
    <ele>329.42</ele>
   </trkpt>
   <trkpt lat="-37.86737" lon="145.32079000000002">
    <ele>330.32</ele>
   </trkpt>
   <trkpt lat="-37.86712" lon="145.32127">
    <ele>329.29</ele>
   </trkpt>
   <trkpt lat="-37.86706" lon="145.32158">
    <ele>327.41</ele>
   </trkpt>
   <trkpt lat="-37.86715" lon="145.32185">
    <ele>326.12</ele>
   </trkpt>
   <trkpt lat="-37.86741" lon="145.32231000000002">
    <ele>322.11</ele>
   </trkpt>
   <trkpt lat="-37.86782500160754" lon="145.32293999634422">
    <ele>319.09000000000003</ele>
   </trkpt>
   <trkpt lat="-37.86824" lon="145.32357000000002">
    <ele>317.18</ele>
   </trkpt>
   <trkpt lat="-37.868280000000006" lon="145.32366000000002">
    <ele>317.18</ele>
   </trkpt>
   <trkpt lat="-37.86827" lon="145.32377000000002">
    <ele>316.49000000000007</ele>
   </trkpt>
   <trkpt lat="-37.868170000000006" lon="145.32392000000002">
    <ele>316.08000000000004</ele>
   </trkpt>
   <trkpt lat="-37.867715001552334" lon="145.32454000392826">
    <ele>310.66</ele>
   </trkpt>
   <trkpt lat="-37.86726" lon="145.32516">
    <ele>303.02</ele>
   </trkpt>
   <trkpt lat="-37.866920001763475" lon="145.32582500327686">
    <ele>297.9</ele>
   </trkpt>
   <trkpt lat="-37.866580000000006" lon="145.32649">
    <ele>291.73</ele>
   </trkpt>
   <trkpt lat="-37.866490000000006" lon="145.32756">
    <ele>303.62</ele>
   </trkpt>
   <trkpt lat="-37.866130000000005" lon="145.32692">
    <ele>287.43</ele>
   </trkpt>
   <trkpt lat="-37.86558000024425" lon="145.32718500200326">
    <ele>265.08000000000004</ele>
   </trkpt>
   <trkpt lat="-37.865030000000004" lon="145.32745">
    <ele>257.07</ele>
   </trkpt>
   <trkpt lat="-37.864257500306586" lon="145.3276100050353">
    <ele>249.08</ele>
   </trkpt>
   <trkpt lat="-37.86348500039665" lon="145.32777000671612">
    <ele>250.71000000000004</ele>
   </trkpt>
   <trkpt lat="-37.862712500270206" lon="145.32793000504265">
    <ele>251.5</ele>
   </trkpt>
   <trkpt lat="-37.861940000000004" lon="145.32809">
    <ele>246.94000000000003</ele>
   </trkpt>
   <trkpt lat="-37.86241666992524" lon="145.32870665874475">
    <ele>263.11</ele>
   </trkpt>
   <trkpt lat="-37.86289333663442" lon="145.32932332546633">
    <ele>289.69</ele>
   </trkpt>
   <trkpt lat="-37.86337" lon="145.32994000000002">
    <ele>310.76000000000005</ele>
   </trkpt>
   <trkpt lat="-37.86338000000001" lon="145.32994000000002">
    <ele>311.39</ele>
   </trkpt>
   <trkpt lat="-37.86404" lon="145.32975000000002">
    <ele>308.96</ele>
   </trkpt>
   <trkpt lat="-37.86449499999984" lon="145.3299349987989">
    <ele>309.29</ele>
   </trkpt>
   <trkpt lat="-37.86495" lon="145.33012000000002">
    <ele>304.64000000000004</ele>
   </trkpt>
   <trkpt lat="-37.8655100026174" lon="145.3309049940508">
    <ele>323.72</ele>
   </trkpt>
   <trkpt lat="-37.86607" lon="145.33169">
    <ele>344.1</ele>
   </trkpt>
   <trkpt lat="-37.86693000013364" lon="145.33156500144906">
    <ele>340.88</ele>
   </trkpt>
   <trkpt lat="-37.86779000000001" lon="145.33144000000001">
    <ele>340.56</ele>
   </trkpt>
   <trkpt lat="-37.86779000000001" lon="145.33143">
    <ele>340.56</ele>
   </trkpt>
   <trkpt lat="-37.86836500082603" lon="145.33180999717698">
    <ele>345.09</ele>
   </trkpt>
   <trkpt lat="-37.86894" lon="145.33219000000003">
    <ele>344.57000000000005</ele>
   </trkpt>
   <trkpt lat="-37.868940004061386" lon="145.33317000023425">
    <ele>354.40000000000003</ele>
   </trkpt>
   <trkpt lat="-37.86894" lon="145.33415000000002">
    <ele>362.03000000000003</ele>
   </trkpt>
   <trkpt lat="-37.869510000294056" lon="145.334274999083">
    <ele>354.1</ele>
   </trkpt>
   <trkpt lat="-37.87008" lon="145.33440000000002">
    <ele>353.59000000000003</ele>
   </trkpt>
   <trkpt lat="-37.87048" lon="145.33483">
    <ele>372.81</ele>
   </trkpt>
   <trkpt lat="-37.87055" lon="145.33518">
    <ele>364.63</ele>
   </trkpt>
   <trkpt lat="-37.87035" lon="145.3356">
    <ele>377.69</ele>
   </trkpt>
   <trkpt lat="-37.8701" lon="145.33595000000003">
    <ele>384.21999999999997</ele>
   </trkpt>
   <trkpt lat="-37.87001" lon="145.33628000000002">
    <ele>389.89</ele>
   </trkpt>
   <trkpt lat="-37.86983" lon="145.33668">
    <ele>396.85</ele>
   </trkpt>
   <trkpt lat="-37.86968" lon="145.33686">
    <ele>397.24</ele>
   </trkpt>
   <trkpt lat="-37.86927" lon="145.33711000000002">
    <ele>396.9800000000001</ele>
   </trkpt>
   <trkpt lat="-37.86914" lon="145.33722">
    <ele>398.96000000000004</ele>
   </trkpt>
   <trkpt lat="-37.86905" lon="145.33726000000001">
    <ele>399.70000000000005</ele>
   </trkpt>
   <trkpt lat="-37.86891" lon="145.33724">
    <ele>399.5</ele>
   </trkpt>
   <trkpt lat="-37.8686" lon="145.33698">
    <ele>396.14000000000004</ele>
   </trkpt>
   <trkpt lat="-37.86831" lon="145.3368">
    <ele>396.38</ele>
   </trkpt>
   <trkpt lat="-37.86813" lon="145.33664000000002">
    <ele>397.28000000000003</ele>
   </trkpt>
   <trkpt lat="-37.867900000000006" lon="145.33622000000003">
    <ele>398.39</ele>
   </trkpt>
   <trkpt lat="-37.86762" lon="145.33587">
    <ele>399.38</ele>
   </trkpt>
   <trkpt lat="-37.86748" lon="145.33566000000002">
    <ele>400.36</ele>
   </trkpt>
   <trkpt lat="-37.86741" lon="145.33546">
    <ele>401.34000000000003</ele>
   </trkpt>
   <trkpt lat="-37.86735" lon="145.33513000000002">
    <ele>403.4200000000001</ele>
   </trkpt>
   <trkpt lat="-37.86735" lon="145.33496000000002">
    <ele>403.4200000000001</ele>
   </trkpt>
   <trkpt lat="-37.86744" lon="145.33439">
    <ele>406.58000000000004</ele>
   </trkpt>
   <trkpt lat="-37.86741" lon="145.33403">
    <ele>408.40000000000003</ele>
   </trkpt>
   <trkpt lat="-37.86737" lon="145.33386000000002">
    <ele>409.64000000000004</ele>
   </trkpt>
   <trkpt lat="-37.8673" lon="145.33371000000002">
    <ele>410.31</ele>
   </trkpt>
   <trkpt lat="-37.867200000000004" lon="145.33355">
    <ele>411.42</ele>
   </trkpt>
   <trkpt lat="-37.86724" lon="145.33364">
    <ele>412.05</ele>
   </trkpt>
   <trkpt lat="-37.867250000000006" lon="145.33384">
    <ele>413.21000000000004</ele>
   </trkpt>
   <trkpt lat="-37.86721" lon="145.33406000000002">
    <ele>414.64</ele>
   </trkpt>
   <trkpt lat="-37.86688" lon="145.33481">
    <ele>421.09000000000003</ele>
   </trkpt>
   <trkpt lat="-37.866690000000006" lon="145.33556000000002">
    <ele>425.06000000000006</ele>
   </trkpt>
   <trkpt lat="-37.86652" lon="145.33642">
    <ele>431.14</ele>
   </trkpt>
   <trkpt lat="-37.86656" lon="145.33645">
    <ele>431.14</ele>
   </trkpt>
   <trkpt lat="-37.86663" lon="145.33656000000002">
    <ele>432.3</ele>
   </trkpt>
   <trkpt lat="-37.866820000000004" lon="145.33697">
    <ele>434.9</ele>
   </trkpt>
   <trkpt lat="-37.86688" lon="145.33713">
    <ele>436.03000000000003</ele>
   </trkpt>
   <trkpt lat="-37.86717" lon="145.33795">
    <ele>440.50000000000006</ele>
   </trkpt>
   <trkpt lat="-37.86739" lon="145.33831">
    <ele>443.38000000000005</ele>
   </trkpt>
   <trkpt lat="-37.86755" lon="145.33847">
    <ele>444.64000000000004</ele>
   </trkpt>
   <trkpt lat="-37.86771" lon="145.33857">
    <ele>445.66</ele>
   </trkpt>
   <trkpt lat="-37.86786" lon="145.33862000000002">
    <ele>448.20000000000005</ele>
   </trkpt>
   <trkpt lat="-37.86822" lon="145.33868">
    <ele>450.56</ele>
   </trkpt>
   <trkpt lat="-37.86849" lon="145.33881000000002">
    <ele>453.05000000000007</ele>
   </trkpt>
   <trkpt lat="-37.86891" lon="145.33893">
    <ele>456.20000000000005</ele>
   </trkpt>
   <trkpt lat="-37.86918" lon="145.33896000000001">
    <ele>457.64000000000004</ele>
   </trkpt>
   <trkpt lat="-37.86941" lon="145.33893">
    <ele>459.31000000000006</ele>
   </trkpt>
   <trkpt lat="-37.86954" lon="145.33893">
    <ele>461.06</ele>
   </trkpt>
   <trkpt lat="-37.8701" lon="145.33884">
    <ele>462.46000000000004</ele>
   </trkpt>
   <trkpt lat="-37.87019" lon="145.33884">
    <ele>462.46000000000004</ele>
   </trkpt>
   <trkpt lat="-37.87037" lon="145.33894">
    <ele>463.72</ele>
   </trkpt>
   <trkpt lat="-37.87059" lon="145.33917000000002">
    <ele>464.82</ele>
   </trkpt>
   <trkpt lat="-37.87082" lon="145.33948">
    <ele>466.86000000000007</ele>
   </trkpt>
   <trkpt lat="-37.87109" lon="145.33964">
    <ele>469.26000000000005</ele>
   </trkpt>
   <trkpt lat="-37.87131" lon="145.33968000000002">
    <ele>471.77000000000004</ele>
   </trkpt>
   <trkpt lat="-37.87153" lon="145.33975">
    <ele>472.54</ele>
   </trkpt>
   <trkpt lat="-37.87185" lon="145.33992">
    <ele>475.31000000000006</ele>
   </trkpt>
   <trkpt lat="-37.87214" lon="145.34019">
    <ele>478.61</ele>
   </trkpt>
   <trkpt lat="-37.87241" lon="145.34055">
    <ele>481.65000000000003</ele>
   </trkpt>
   <trkpt lat="-37.87263" lon="145.34077000000002">
    <ele>484.27000000000004</ele>
   </trkpt>
   <trkpt lat="-37.87306" lon="145.34097">
    <ele>486.32</ele>
   </trkpt>
   <trkpt lat="-37.87375" lon="145.34154">
    <ele>492.36</ele>
   </trkpt>
   <trkpt lat="-37.874210000000005" lon="145.34199">
    <ele>495.59000000000003</ele>
   </trkpt>
   <trkpt lat="-37.8744" lon="145.34218">
    <ele>496.35</ele>
   </trkpt>
   <trkpt lat="-37.87505" lon="145.34289">
    <ele>502.21000000000004</ele>
   </trkpt>
   <trkpt lat="-37.8751" lon="145.34298">
    <ele>502.05</ele>
   </trkpt>
   <trkpt lat="-37.875350000000005" lon="145.3428">
    <ele>502.41</ele>
   </trkpt>
   <trkpt lat="-37.875370000000004" lon="145.34295">
    <ele>502.83</ele>
   </trkpt>
   <trkpt lat="-37.875510000000006" lon="145.34301000000002">
    <ele>504.25000000000006</ele>
   </trkpt>
   <trkpt lat="-37.8755" lon="145.34335000000002">
    <ele>509.95</ele>
   </trkpt>
   <trkpt lat="-37.87545" lon="145.3436">
    <ele>512.0400000000001</ele>
   </trkpt>
   <trkpt lat="-37.875510000000006" lon="145.34384">
    <ele>512.78</ele>
   </trkpt>
   <trkpt lat="-37.87556" lon="145.34399000000002">
    <ele>513.41</ele>
   </trkpt>
   <trkpt lat="-37.875690000000006" lon="145.34416000000002">
    <ele>514.0600000000001</ele>
   </trkpt>
   <trkpt lat="-37.8759" lon="145.34467">
    <ele>516.0</ele>
   </trkpt>
   <trkpt lat="-37.87599" lon="145.34493">
    <ele>517.45</ele>
   </trkpt>
   <trkpt lat="-37.87599" lon="145.3454">
    <ele>518.48</ele>
   </trkpt>
   <trkpt lat="-37.87603" lon="145.34573">
    <ele>518.9100000000001</ele>
   </trkpt>
   <trkpt lat="-37.87603" lon="145.34592">
    <ele>518.9</ele>
   </trkpt>
   <trkpt lat="-37.87615" lon="145.34678000000002">
    <ele>516.54</ele>
   </trkpt>
   <trkpt lat="-37.87621" lon="145.34698">
    <ele>514.49</ele>
   </trkpt>
   <trkpt lat="-37.8763" lon="145.34708">
    <ele>513.7400000000001</ele>
   </trkpt>
   <trkpt lat="-37.87648" lon="145.34716">
    <ele>513.3100000000001</ele>
   </trkpt>
   <trkpt lat="-37.876760000000004" lon="145.34722000000002">
    <ele>513.49</ele>
   </trkpt>
   <trkpt lat="-37.87688" lon="145.34705000000002">
    <ele>511.70000000000005</ele>
   </trkpt>
   <trkpt lat="-37.87702" lon="145.34689">
    <ele>508.73</ele>
   </trkpt>
   <trkpt lat="-37.87722" lon="145.34643">
    <ele>506.27</ele>
   </trkpt>
   <trkpt lat="-37.877230000000004" lon="145.34643">
    <ele>506.21999999999997</ele>
   </trkpt>
   <trkpt lat="-37.877570000000006" lon="145.34542000000002">
    <ele>502.82000000000005</ele>
   </trkpt>
   <trkpt lat="-37.87767" lon="145.34526000000002">
    <ele>502.29</ele>
   </trkpt>
   <trkpt lat="-37.87794" lon="145.34497000000002">
    <ele>500.63</ele>
   </trkpt>
   <trkpt lat="-37.878" lon="145.34487000000001">
    <ele>499.76000000000005</ele>
   </trkpt>
   <trkpt lat="-37.878040000000006" lon="145.34474">
    <ele>497.74</ele>
   </trkpt>
   <trkpt lat="-37.87805" lon="145.34458">
    <ele>497.26000000000005</ele>
   </trkpt>
   <trkpt lat="-37.87807" lon="145.34451">
    <ele>496.41</ele>
   </trkpt>
   <trkpt lat="-37.87814" lon="145.34448">
    <ele>496.04</ele>
   </trkpt>
   <trkpt lat="-37.87827" lon="145.34451">
    <ele>495.09000000000003</ele>
   </trkpt>
   <trkpt lat="-37.87836" lon="145.34455">
    <ele>494.53000000000003</ele>
   </trkpt>
   <trkpt lat="-37.87861" lon="145.34490000000002">
    <ele>493.95000000000005</ele>
   </trkpt>
   <trkpt lat="-37.878750000000004" lon="145.34495">
    <ele>492.66</ele>
   </trkpt>
   <trkpt lat="-37.87888" lon="145.34482">
    <ele>493.71000000000004</ele>
   </trkpt>
   <trkpt lat="-37.8789" lon="145.34474">
    <ele>494.72</ele>
   </trkpt>
   <trkpt lat="-37.87914" lon="145.34452000000002">
    <ele>502.85</ele>
   </trkpt>
   <trkpt lat="-37.87919" lon="145.34452000000002">
    <ele>502.85</ele>
   </trkpt>
   <trkpt lat="-37.87944" lon="145.34486">
    <ele>504.8</ele>
   </trkpt>
   <trkpt lat="-37.87973" lon="145.34534000000002">
    <ele>502.95</ele>
   </trkpt>
   <trkpt lat="-37.880045000765804" lon="145.34578999794599">
    <ele>499.92</ele>
   </trkpt>
   <trkpt lat="-37.88036" lon="145.34624000000002">
    <ele>498.00000000000006</ele>
   </trkpt>
   <trkpt lat="-37.88067" lon="145.34663">
    <ele>495.90000000000003</ele>
   </trkpt>
   <trkpt lat="-37.880860000000006" lon="145.34682">
    <ele>494.77000000000004</ele>
   </trkpt>
   <trkpt lat="-37.88105" lon="145.34695000000002">
    <ele>493.7300000000001</ele>
   </trkpt>
   <trkpt lat="-37.88154" lon="145.34723000000002">
    <ele>491.49</ele>
   </trkpt>
   <trkpt lat="-37.88167" lon="145.34744">
    <ele>490.48</ele>
   </trkpt>
   <trkpt lat="-37.88201" lon="145.34819000000002">
    <ele>483.94000000000005</ele>
   </trkpt>
   <trkpt lat="-37.88226" lon="145.34839000000002">
    <ele>483.13000000000005</ele>
   </trkpt>
   <trkpt lat="-37.88255" lon="145.34856000000002">
    <ele>482.11</ele>
   </trkpt>
   <trkpt lat="-37.88302" lon="145.3487">
    <ele>482.03000000000003</ele>
   </trkpt>
   <trkpt lat="-37.88311" lon="145.34876">
    <ele>482.01000000000005</ele>
   </trkpt>
   <trkpt lat="-37.8836" lon="145.34926000000002">
    <ele>481.01000000000005</ele>
   </trkpt>
   <trkpt lat="-37.88405" lon="145.34945000000002">
    <ele>479.83000000000004</ele>
   </trkpt>
   <trkpt lat="-37.88436" lon="145.34969">
    <ele>478.89000000000004</ele>
   </trkpt>
   <trkpt lat="-37.88456" lon="145.35004">
    <ele>476.76</ele>
   </trkpt>
   <trkpt lat="-37.88461" lon="145.35017000000002">
    <ele>475.05</ele>
   </trkpt>
   <trkpt lat="-37.884640000000005" lon="145.35035000000002">
    <ele>474.24000000000007</ele>
   </trkpt>
   <trkpt lat="-37.88461" lon="145.35046">
    <ele>473.31000000000006</ele>
   </trkpt>
   <trkpt lat="-37.88461" lon="145.35066">
    <ele>471.06</ele>
   </trkpt>
   <trkpt lat="-37.884710000000005" lon="145.35090000000002">
    <ele>469.66</ele>
   </trkpt>
   <trkpt lat="-37.88477" lon="145.35099000000002">
    <ele>469.91</ele>
   </trkpt>
   <trkpt lat="-37.8853" lon="145.3514">
    <ele>470.28000000000003</ele>
   </trkpt>
   <trkpt lat="-37.88552" lon="145.35153000000003">
    <ele>469.09000000000003</ele>
   </trkpt>
   <trkpt lat="-37.88584" lon="145.35157">
    <ele>466.40000000000003</ele>
   </trkpt>
   <trkpt lat="-37.88617" lon="145.35155">
    <ele>463.93000000000006</ele>
   </trkpt>
   <trkpt lat="-37.886410000000005" lon="145.35162000000003">
    <ele>462.74</ele>
   </trkpt>
   <trkpt lat="-37.88687" lon="145.35166">
    <ele>462.21000000000004</ele>
   </trkpt>
   <trkpt lat="-37.88736" lon="145.35174">
    <ele>455.41</ele>
   </trkpt>
   <trkpt lat="-37.88783" lon="145.35185">
    <ele>449.47</ele>
   </trkpt>
   <trkpt lat="-37.88812" lon="145.35205000000002">
    <ele>446.69</ele>
   </trkpt>
   <trkpt lat="-37.88841" lon="145.35235">
    <ele>443.74</ele>
   </trkpt>
   <trkpt lat="-37.88882" lon="145.35269000000002">
    <ele>437.95000000000005</ele>
   </trkpt>
   <trkpt lat="-37.88915" lon="145.35287000000002">
    <ele>436.53000000000003</ele>
   </trkpt>
   <trkpt lat="-37.88935" lon="145.35294000000002">
    <ele>434.06000000000006</ele>
   </trkpt>
   <trkpt lat="-37.88985" lon="145.35299">
    <ele>431.05</ele>
   </trkpt>
   <trkpt lat="-37.89022000000001" lon="145.35305000000002">
    <ele>427.04</ele>
   </trkpt>
   <trkpt lat="-37.890730000000005" lon="145.35311000000002">
    <ele>422.37</ele>
   </trkpt>
   <trkpt lat="-37.8909" lon="145.35308">
    <ele>421.15000000000003</ele>
   </trkpt>
   <trkpt lat="-37.89101" lon="145.35302000000001">
    <ele>420.09000000000003</ele>
   </trkpt>
   <trkpt lat="-37.89128" lon="145.35273">
    <ele>417.91</ele>
   </trkpt>
   <trkpt lat="-37.89139" lon="145.35214000000002">
    <ele>414.69000000000005</ele>
   </trkpt>
   <trkpt lat="-37.89137" lon="145.35187000000002">
    <ele>411.55</ele>
   </trkpt>
   <trkpt lat="-37.89120000210858" lon="145.35115999826206">
    <ele>407.43</ele>
   </trkpt>
   <trkpt lat="-37.89103" lon="145.35045000000002">
    <ele>403.57000000000005</ele>
   </trkpt>
   <trkpt lat="-37.89067" lon="145.34957">
    <ele>396.55</ele>
   </trkpt>
   <trkpt lat="-37.890620000000006" lon="145.34932">
    <ele>395.73</ele>
   </trkpt>
   <trkpt lat="-37.89054" lon="145.34882000000002">
    <ele>391.52000000000004</ele>
   </trkpt>
   <trkpt lat="-37.89054" lon="145.34848000000002">
    <ele>389.53000000000003</ele>
   </trkpt>
   <trkpt lat="-37.89052" lon="145.34830000000002">
    <ele>386.61</ele>
   </trkpt>
   <trkpt lat="-37.89043" lon="145.34805">
    <ele>384.6</ele>
   </trkpt>
   <trkpt lat="-37.89052" lon="145.34785000000002">
    <ele>384.6</ele>
   </trkpt>
   <trkpt lat="-37.890800000000006" lon="145.34763">
    <ele>380.25</ele>
   </trkpt>
   <trkpt lat="-37.89126" lon="145.34735">
    <ele>375.73</ele>
   </trkpt>
   <trkpt lat="-37.89173" lon="145.347">
    <ele>370.28000000000003</ele>
   </trkpt>
   <trkpt lat="-37.891740000000006" lon="145.347">
    <ele>370.23</ele>
   </trkpt>
   <trkpt lat="-37.89235" lon="145.34657">
    <ele>363.8</ele>
   </trkpt>
   <trkpt lat="-37.89208" lon="145.34649000000002">
    <ele>369.70000000000005</ele>
   </trkpt>
   <trkpt lat="-37.891870000000004" lon="145.34645">
    <ele>371.91</ele>
   </trkpt>
   <trkpt lat="-37.89222" lon="145.34632000000002">
    <ele>350.18000000000006</ele>
   </trkpt>
   <trkpt lat="-37.892590000000006" lon="145.34641000000002">
    <ele>345.03</ele>
   </trkpt>
   <trkpt lat="-37.89332" lon="145.34669000000002">
    <ele>338.0</ele>
   </trkpt>
   <trkpt lat="-37.89392" lon="145.34698">
    <ele>336.27</ele>
   </trkpt>
   <trkpt lat="-37.89408" lon="145.34712000000002">
    <ele>335.25000000000006</ele>
   </trkpt>
   <trkpt lat="-37.894130000000004" lon="145.34721000000002">
    <ele>334.65</ele>
   </trkpt>
   <trkpt lat="-37.89441" lon="145.34697">
    <ele>331.08000000000004</ele>
   </trkpt>
   <trkpt lat="-37.89477000053905" lon="145.34662500165308">
    <ele>325.12</ele>
   </trkpt>
   <trkpt lat="-37.89513" lon="145.34628">
    <ele>314.38000000000005</ele>
   </trkpt>
   <trkpt lat="-37.89550500059672" lon="145.34594000163437">
    <ele>309.73</ele>
   </trkpt>
   <trkpt lat="-37.895880000000005" lon="145.34560000000002">
    <ele>301.85</ele>
   </trkpt>
   <trkpt lat="-37.89589" lon="145.34560000000002">
    <ele>301.76000000000005</ele>
   </trkpt>
   <trkpt lat="-37.895970000000005" lon="145.34553000000002">
    <ele>300.27000000000004</ele>
   </trkpt>
   <trkpt lat="-37.89616" lon="145.34542000000002">
    <ele>297.02</ele>
   </trkpt>
   <trkpt lat="-37.89625" lon="145.34538">
    <ele>297.02</ele>
   </trkpt>
   <trkpt lat="-37.89683" lon="145.3453">
    <ele>284.48</ele>
   </trkpt>
   <trkpt lat="-37.89688" lon="145.3453">
    <ele>283.34000000000003</ele>
   </trkpt>
   <trkpt lat="-37.89694" lon="145.34536">
    <ele>283.34000000000003</ele>
   </trkpt>
   <trkpt lat="-37.89699" lon="145.34545">
    <ele>282.55</ele>
   </trkpt>
   <trkpt lat="-37.89705" lon="145.34578000000002">
    <ele>279.7</ele>
   </trkpt>
   <trkpt lat="-37.8971" lon="145.34587000000002">
    <ele>277.44</ele>
   </trkpt>
   <trkpt lat="-37.89716000000001" lon="145.34593">
    <ele>276.0</ele>
   </trkpt>
   <trkpt lat="-37.89725" lon="145.34596000000002">
    <ele>273.89000000000004</ele>
   </trkpt>
   <trkpt lat="-37.89734" lon="145.34595000000002">
    <ele>273.89000000000004</ele>
   </trkpt>
   <trkpt lat="-37.89748" lon="145.34586000000002">
    <ele>271.69000000000005</ele>
   </trkpt>
   <trkpt lat="-37.89759" lon="145.34573">
    <ele>270.27</ele>
   </trkpt>
   <trkpt lat="-37.8977" lon="145.34528">
    <ele>267.59</ele>
   </trkpt>
   <trkpt lat="-37.89775" lon="145.34472000000002">
    <ele>262.83</ele>
   </trkpt>
   <trkpt lat="-37.89773" lon="145.34448">
    <ele>259.09999999999997</ele>
   </trkpt>
   <trkpt lat="-37.898010000000006" lon="145.34448">
    <ele>253.29000000000002</ele>
   </trkpt>
   <trkpt lat="-37.89778000387729" lon="145.34352499709675">
    <ele>247.24</ele>
   </trkpt>
   <trkpt lat="-37.89755" lon="145.34257000000002">
    <ele>246.68</ele>
   </trkpt>
   <trkpt lat="-37.89739500213776" lon="145.34186999881996">
    <ele>244.83</ele>
   </trkpt>
   <trkpt lat="-37.897240000000004" lon="145.34117">
    <ele>244.72000000000003</ele>
   </trkpt>
   <trkpt lat="-37.89685" lon="145.34120000000001">
    <ele>246.28000000000003</ele>
   </trkpt>
   <trkpt lat="-37.89681" lon="145.34119">
    <ele>248.31000000000003</ele>
   </trkpt>
   <trkpt lat="-37.89676" lon="145.34115">
    <ele>248.31000000000003</ele>
   </trkpt>
   <trkpt lat="-37.8967" lon="145.34093000000001">
    <ele>248.87</ele>
   </trkpt>
   <trkpt lat="-37.89658" lon="145.34044">
    <ele>252.57000000000002</ele>
   </trkpt>
   <trkpt lat="-37.89658" lon="145.34031000000002">
    <ele>253.45000000000002</ele>
   </trkpt>
   <trkpt lat="-37.89665" lon="145.34015000000002">
    <ele>254.48000000000005</ele>
   </trkpt>
   <trkpt lat="-37.89685" lon="145.34004000000002">
    <ele>255.39000000000001</ele>
   </trkpt>
   <trkpt lat="-37.89721" lon="145.33989000000003">
    <ele>256.85</ele>
   </trkpt>
   <trkpt lat="-37.8975" lon="145.33979000000002">
    <ele>260.25000000000006</ele>
   </trkpt>
   <trkpt lat="-37.897470000000006" lon="145.33973">
    <ele>261.12</ele>
   </trkpt>
   <trkpt lat="-37.89719" lon="145.33964">
    <ele>262.94</ele>
   </trkpt>
   <trkpt lat="-37.89687" lon="145.33957">
    <ele>267.14000000000004</ele>
   </trkpt>
   <trkpt lat="-37.89663" lon="145.33955">
    <ele>268.53000000000003</ele>
   </trkpt>
   <trkpt lat="-37.89598" lon="145.33959000000002">
    <ele>275.27</ele>
   </trkpt>
   <trkpt lat="-37.89574" lon="145.33956">
    <ele>278.27000000000004</ele>
   </trkpt>
   <trkpt lat="-37.896440000000005" lon="145.33894">
    <ele>286.84000000000003</ele>
   </trkpt>
   <trkpt lat="-37.89645" lon="145.33894">
    <ele>286.86</ele>
   </trkpt>
   <trkpt lat="-37.89682500040539" lon="145.3386050017686">
    <ele>290.74</ele>
   </trkpt>
   <trkpt lat="-37.897200000000005" lon="145.33827000000002">
    <ele>292.34999999999997</ele>
   </trkpt>
   <trkpt lat="-37.896635000126516" lon="145.33831500033602">
    <ele>293.54</ele>
   </trkpt>
   <trkpt lat="-37.89607" lon="145.33836000000002">
    <ele>294.55</ele>
   </trkpt>
   <trkpt lat="-37.89542" lon="145.33843000000002">
    <ele>296.81</ele>
   </trkpt>
   <trkpt lat="-37.89524667192404" lon="145.33763999617804">
    <ele>286.24000000000007</ele>
   </trkpt>
   <trkpt lat="-37.895073338568395" lon="145.33684999607638">
    <ele>273.98</ele>
   </trkpt>
   <trkpt lat="-37.8949" lon="145.33606">
    <ele>254.15000000000003</ele>
   </trkpt>
   <trkpt lat="-37.89488" lon="145.33594000000002">
    <ele>252.46</ele>
   </trkpt>
   <trkpt lat="-37.894890000000004" lon="145.33581">
    <ele>250.79000000000002</ele>
   </trkpt>
   <trkpt lat="-37.89457" lon="145.33536">
    <ele>244.56000000000003</ele>
   </trkpt>
   <trkpt lat="-37.894330000000004" lon="145.33485000000002">
    <ele>245.00000000000003</ele>
   </trkpt>
   <trkpt lat="-37.89426000137059" lon="145.33428499962687">
    <ele>243.94000000000003</ele>
   </trkpt>
   <trkpt lat="-37.89419" lon="145.33372">
    <ele>240.29000000000002</ele>
   </trkpt>
   <trkpt lat="-37.89414" lon="145.33335000000002">
    <ele>241.28000000000003</ele>
   </trkpt>
   <trkpt lat="-37.8941" lon="145.33280000000002">
    <ele>246.02</ele>
   </trkpt>
   <trkpt lat="-37.89399" lon="145.33176">
    <ele>274.27</ele>
   </trkpt>
   <trkpt lat="-37.89396" lon="145.33088">
    <ele>296.97</ele>
   </trkpt>
   <trkpt lat="-37.89391500137277" lon="145.33030999963296">
    <ele>307.11000000000007</ele>
   </trkpt>
   <trkpt lat="-37.89387" lon="145.32974000000002">
    <ele>322.28000000000003</ele>
   </trkpt>
   <trkpt lat="-37.89392" lon="145.32936">
    <ele>330.79</ele>
   </trkpt>
   <trkpt lat="-37.89401" lon="145.32906">
    <ele>335.69000000000005</ele>
   </trkpt>
   <trkpt lat="-37.89405" lon="145.32898">
    <ele>337.21</ele>
   </trkpt>
   <trkpt lat="-37.89408" lon="145.32879">
    <ele>338.84000000000003</ele>
   </trkpt>
   <trkpt lat="-37.893980000000006" lon="145.32856">
    <ele>339.05</ele>
   </trkpt>
   <trkpt lat="-37.89358" lon="145.32855">
    <ele>338.3</ele>
   </trkpt>
   <trkpt lat="-37.89338" lon="145.32843000000003">
    <ele>338.1</ele>
   </trkpt>
   <trkpt lat="-37.89293" lon="145.32827">
    <ele>338.25000000000006</ele>
   </trkpt>
   <trkpt lat="-37.8926" lon="145.32804000000002">
    <ele>341.59</ele>
   </trkpt>
   <trkpt lat="-37.89258" lon="145.32797000000002">
    <ele>341.59</ele>
   </trkpt>
   <trkpt lat="-37.89237" lon="145.32783">
    <ele>343.96000000000004</ele>
   </trkpt>
   <trkpt lat="-37.89218" lon="145.32775">
    <ele>346.13000000000005</ele>
   </trkpt>
   <trkpt lat="-37.89213" lon="145.32768000000002">
    <ele>347.03</ele>
   </trkpt>
   <trkpt lat="-37.89184" lon="145.32737">
    <ele>356.87</ele>
   </trkpt>
   <trkpt lat="-37.89168" lon="145.32727">
    <ele>360.09000000000003</ele>
   </trkpt>
   <trkpt lat="-37.89162" lon="145.32724000000002">
    <ele>360.09000000000003</ele>
   </trkpt>
   <trkpt lat="-37.89143" lon="145.32718">
    <ele>363.79</ele>
   </trkpt>
   <trkpt lat="-37.8911" lon="145.3271">
    <ele>370.46</ele>
   </trkpt>
   <trkpt lat="-37.89085" lon="145.32713">
    <ele>373.53000000000003</ele>
   </trkpt>
   <trkpt lat="-37.89052" lon="145.327">
    <ele>376.9</ele>
   </trkpt>
   <trkpt lat="-37.890330000000006" lon="145.32711">
    <ele>381.0</ele>
   </trkpt>
   <trkpt lat="-37.89025" lon="145.32712">
    <ele>381.5</ele>
   </trkpt>
   <trkpt lat="-37.89011" lon="145.32706000000002">
    <ele>382.39</ele>
   </trkpt>
   <trkpt lat="-37.88969" lon="145.32715000000002">
    <ele>386.98</ele>
   </trkpt>
   <trkpt lat="-37.88944" lon="145.32715000000002">
    <ele>389.77</ele>
   </trkpt>
   <trkpt lat="-37.88904" lon="145.32707000000002">
    <ele>396.3</ele>
   </trkpt>
   <trkpt lat="-37.88873" lon="145.32696">
    <ele>398.09000000000003</ele>
   </trkpt>
   <trkpt lat="-37.88837" lon="145.32678">
    <ele>400.01000000000005</ele>
   </trkpt>
   <trkpt lat="-37.88828" lon="145.32675">
    <ele>400.18</ele>
   </trkpt>
   <trkpt lat="-37.88763" lon="145.32669">
    <ele>400.47</ele>
   </trkpt>
   <trkpt lat="-37.88754" lon="145.32671000000002">
    <ele>400.16</ele>
   </trkpt>
   <trkpt lat="-37.88736" lon="145.32690000000002">
    <ele>397.21</ele>
   </trkpt>
   <trkpt lat="-37.88725" lon="145.32695">
    <ele>395.58000000000004</ele>
   </trkpt>
   <trkpt lat="-37.88714" lon="145.32724000000002">
    <ele>390.21000000000004</ele>
   </trkpt>
   <trkpt lat="-37.88705" lon="145.32759000000001">
    <ele>384.14000000000004</ele>
   </trkpt>
   <trkpt lat="-37.886970000000005" lon="145.32777000000002">
    <ele>382.75</ele>
   </trkpt>
   <trkpt lat="-37.88655" lon="145.32825000000003">
    <ele>380.73</ele>
   </trkpt>
   <trkpt lat="-37.886390000000006" lon="145.32833000000002">
    <ele>380.93000000000006</ele>
   </trkpt>
   <trkpt lat="-37.88638" lon="145.32786000000002">
    <ele>378.02000000000004</ele>
   </trkpt>
   <trkpt lat="-37.88624" lon="145.32771000000002">
    <ele>377.51</ele>
   </trkpt>
   <trkpt lat="-37.8862" lon="145.3274">
    <ele>376.91</ele>
   </trkpt>
   <trkpt lat="-37.886190000000006" lon="145.32696">
    <ele>377.14000000000004</ele>
   </trkpt>
   <trkpt lat="-37.88608" lon="145.32707000000002">
    <ele>375.55000000000007</ele>
   </trkpt>
   <trkpt lat="-37.8857" lon="145.3273">
    <ele>372.06000000000006</ele>
   </trkpt>
   <trkpt lat="-37.88559" lon="145.32723000000001">
    <ele>370.45000000000005</ele>
   </trkpt>
   <trkpt lat="-37.88555" lon="145.32716000000002">
    <ele>369.52</ele>
   </trkpt>
   <trkpt lat="-37.88546" lon="145.32689000000002">
    <ele>367.25</ele>
   </trkpt>
   <trkpt lat="-37.88539" lon="145.32682">
    <ele>365.66</ele>
   </trkpt>
   <trkpt lat="-37.88532" lon="145.32677">
    <ele>364.24</ele>
   </trkpt>
   <trkpt lat="-37.88517" lon="145.32679000000002">
    <ele>362.73</ele>
   </trkpt>
   <trkpt lat="-37.8851" lon="145.32674">
    <ele>362.73</ele>
   </trkpt>
   <trkpt lat="-37.88503" lon="145.32657">
    <ele>360.79</ele>
   </trkpt>
   <trkpt lat="-37.88501" lon="145.32641">
    <ele>359.66</ele>
   </trkpt>
   <trkpt lat="-37.88481" lon="145.32615">
    <ele>355.89000000000004</ele>
   </trkpt>
   <trkpt lat="-37.88472" lon="145.32611">
    <ele>354.69</ele>
   </trkpt>
   <trkpt lat="-37.8847" lon="145.32606">
    <ele>354.69</ele>
   </trkpt>
   <trkpt lat="-37.88467" lon="145.32594">
    <ele>353.61</ele>
   </trkpt>
   <trkpt lat="-37.88472" lon="145.32581000000002">
    <ele>352.79</ele>
   </trkpt>
   <trkpt lat="-37.88483" lon="145.32566">
    <ele>350.21000000000004</ele>
   </trkpt>
   <trkpt lat="-37.8849" lon="145.32534">
    <ele>347.06</ele>
   </trkpt>
   <trkpt lat="-37.88494" lon="145.32500000000002">
    <ele>341.33000000000004</ele>
   </trkpt>
   <trkpt lat="-37.88494" lon="145.32475000000002">
    <ele>338.90000000000003</ele>
   </trkpt>
   <trkpt lat="-37.8849" lon="145.32459">
    <ele>336.33</ele>
   </trkpt>
   <trkpt lat="-37.88481" lon="145.32436">
    <ele>334.06</ele>
   </trkpt>
   <trkpt lat="-37.88481" lon="145.32417">
    <ele>331.79</ele>
   </trkpt>
   <trkpt lat="-37.88483" lon="145.32404000000002">
    <ele>329.62</ele>
   </trkpt>
   <trkpt lat="-37.88481" lon="145.32355">
    <ele>318.51</ele>
   </trkpt>
   <trkpt lat="-37.8849" lon="145.32336">
    <ele>315.73</ele>
   </trkpt>
   <trkpt lat="-37.88488" lon="145.32315">
    <ele>314.96000000000004</ele>
   </trkpt>
   <trkpt lat="-37.88479" lon="145.32282">
    <ele>309.42</ele>
   </trkpt>
   <trkpt lat="-37.88465" lon="145.32261000000003">
    <ele>305.23</ele>
   </trkpt>
   <trkpt lat="-37.884570000000004" lon="145.32260000000002">
    <ele>305.21000000000004</ele>
   </trkpt>
   <trkpt lat="-37.88447" lon="145.32227">
    <ele>303.06000000000006</ele>
   </trkpt>
   <trkpt lat="-37.88443" lon="145.32186000000002">
    <ele>297.91</ele>
   </trkpt>
   <trkpt lat="-37.88432" lon="145.32141000000001">
    <ele>294.1</ele>
   </trkpt>
   <trkpt lat="-37.88423" lon="145.32127">
    <ele>291.87</ele>
   </trkpt>
   <trkpt lat="-37.88416" lon="145.3211">
    <ele>289.54</ele>
   </trkpt>
   <trkpt lat="-37.88416" lon="145.32099000000002">
    <ele>288.32</ele>
   </trkpt>
   <trkpt lat="-37.88425" lon="145.32069">
    <ele>284.76</ele>
   </trkpt>
   <trkpt lat="-37.88429" lon="145.32048">
    <ele>283.18000000000006</ele>
   </trkpt>
   <trkpt lat="-37.88425" lon="145.3202">
    <ele>279.88</ele>
   </trkpt>
   <trkpt lat="-37.88416" lon="145.31998000000002">
    <ele>278.25</ele>
   </trkpt>
   <trkpt lat="-37.88416" lon="145.31972000000002">
    <ele>276.75</ele>
   </trkpt>
   <trkpt lat="-37.88409" lon="145.31915">
    <ele>269.49</ele>
   </trkpt>
   <trkpt lat="-37.884" lon="145.31884000000002">
    <ele>267.09000000000003</ele>
   </trkpt>
   <trkpt lat="-37.88378" lon="145.31852">
    <ele>264.53000000000003</ele>
   </trkpt>
   <trkpt lat="-37.88373" lon="145.31835">
    <ele>262.53000000000003</ele>
   </trkpt>
   <trkpt lat="-37.88396" lon="145.31833">
    <ele>258.44</ele>
   </trkpt>
   <trkpt lat="-37.88429" lon="145.31839000000002">
    <ele>254.98999999999998</ele>
   </trkpt>
   <trkpt lat="-37.88479" lon="145.31835">
    <ele>248.28000000000003</ele>
   </trkpt>
   <trkpt lat="-37.885040000000004" lon="145.31827">
    <ele>242.3</ele>
   </trkpt>
   <trkpt lat="-37.88506" lon="145.31827">
    <ele>242.03000000000003</ele>
   </trkpt>
   <trkpt lat="-37.88528" lon="145.31820000000002">
    <ele>237.59000000000003</ele>
   </trkpt>
   <trkpt lat="-37.88537" lon="145.31811000000002">
    <ele>236.78</ele>
   </trkpt>
   <trkpt lat="-37.88546" lon="145.31806">
    <ele>235.47</ele>
   </trkpt>
   <trkpt lat="-37.88553" lon="145.31806">
    <ele>235.33</ele>
   </trkpt>
   <trkpt lat="-37.885740000000006" lon="145.31805">
    <ele>232.71000000000004</ele>
   </trkpt>
   <trkpt lat="-37.885830000000006" lon="145.31797">
    <ele>231.55</ele>
   </trkpt>
   <trkpt lat="-37.88611" lon="145.31784000000002">
    <ele>229.70000000000002</ele>
   </trkpt>
   <trkpt lat="-37.88667" lon="145.31742">
    <ele>228.17000000000002</ele>
   </trkpt>
   <trkpt lat="-37.88671" lon="145.31736">
    <ele>227.28</ele>
   </trkpt>
   <trkpt lat="-37.88678" lon="145.31734">
    <ele>227.28</ele>
   </trkpt>
   <trkpt lat="-37.88691" lon="145.31741000000002">
    <ele>225.47000000000003</ele>
   </trkpt>
   <trkpt lat="-37.88698" lon="145.31721000000002">
    <ele>226.86</ele>
   </trkpt>
   <trkpt lat="-37.88707" lon="145.31704000000002">
    <ele>227.74</ele>
   </trkpt>
   <trkpt lat="-37.88723" lon="145.31688000000003">
    <ele>227.76000000000002</ele>
   </trkpt>
   <trkpt lat="-37.887240000000006" lon="145.31687000000002">
    <ele>227.68</ele>
   </trkpt>
   <trkpt lat="-37.88725" lon="145.31685000000002">
    <ele>227.58000000000004</ele>
   </trkpt>
   <trkpt lat="-37.88786" lon="145.31674">
    <ele>223.13000000000002</ele>
   </trkpt>
   <trkpt lat="-37.8883" lon="145.31667000000002">
    <ele>219.68</ele>
   </trkpt>
   <trkpt lat="-37.88843" lon="145.31668000000002">
    <ele>218.00000000000003</ele>
   </trkpt>
   <trkpt lat="-37.88897" lon="145.317">
    <ele>204.47</ele>
   </trkpt>
   <trkpt lat="-37.889250000000004" lon="145.31707">
    <ele>201.5</ele>
   </trkpt>
   <trkpt lat="-37.889680000000006" lon="145.31692">
    <ele>198.55</ele>
   </trkpt>
   <trkpt lat="-37.89005" lon="145.3168">
    <ele>193.57000000000002</ele>
   </trkpt>
   <trkpt lat="-37.8902" lon="145.31674">
    <ele>193.57000000000002</ele>
   </trkpt>
   <trkpt lat="-37.890260000000005" lon="145.31670000000003">
    <ele>192.34</ele>
   </trkpt>
   <trkpt lat="-37.89027" lon="145.31669000000002">
    <ele>192.34</ele>
   </trkpt>
   <trkpt lat="-37.89072" lon="145.31638">
    <ele>184.39000000000001</ele>
   </trkpt>
   <trkpt lat="-37.890840000000004" lon="145.31626">
    <ele>184.39000000000001</ele>
   </trkpt>
   <trkpt lat="-37.890640000000005" lon="145.31699">
    <ele>184.07000000000002</ele>
   </trkpt>
   <trkpt lat="-37.89081" lon="145.31740000000002">
    <ele>174.90000000000003</ele>
   </trkpt>
  </trkseg>
 </trk>
</gpx>
