<?xml version="1.0" encoding="UTF-8"?>
<gpx creator="StravaGPX" version="1.1" xmlns="http://www.topografix.com/GPX/1/1" xmlns:xsi="http://www.w3.org/2001/XMLSchema-instance" xsi:schemaLocation="http://www.topografix.com/GPX/1/1 http://www.topografix.com/GPX/1/1/gpx.xsd">
 <metadata>
  <name>DTR Thurs 11/12/25, Birdsland</name>
  <author>
   <name>Peter Bignell</name>
   <link href="https://www.strava.com/athletes/56607054"/>
  </author>
  <copyright author="OpenStreetMap contributors">
   <year>2020</year>
   <license>https://www.openstreetmap.org/copyright</license>
  </copyright>
  <link href="https://www.strava.com/routes/3433339595808053668"/>
 </metadata>
 <trk>
  <name>DTR Thurs 11/12/25, Birdsland</name>
  <link href="https://www.strava.com/routes/3433339595808053668"/>
  <type>trail_running</type>
  <trkseg>
   <trkpt lat="-37.92349" lon="145.33677">
    <ele>136.88</ele>
   </trkpt>
   <trkpt lat="-37.92367" lon="145.33674000000002">
    <ele>137.09</ele>
   </trkpt>
   <trkpt lat="-37.92374" lon="145.33674000000002">
    <ele>137.09</ele>
   </trkpt>
   <trkpt lat="-37.92376" lon="145.33677">
    <ele>137.09</ele>
   </trkpt>
   <trkpt lat="-37.92394" lon="145.33645">
    <ele>137.07</ele>
   </trkpt>
   <trkpt lat="-37.92398" lon="145.33628000000002">
    <ele>137.0</ele>
   </trkpt>
   <trkpt lat="-37.92414" lon="145.33566000000002">
    <ele>136.73000000000002</ele>
   </trkpt>
   <trkpt lat="-37.92445" lon="145.33514000000002">
    <ele>144.23000000000002</ele>
   </trkpt>
   <trkpt lat="-37.924670000000006" lon="145.33454">
    <ele>149.69000000000003</ele>
   </trkpt>
   <trkpt lat="-37.92474" lon="145.33451000000002">
    <ele>150.57</ele>
   </trkpt>
   <trkpt lat="-37.92483" lon="145.33452">
    <ele>151.06</ele>
   </trkpt>
   <trkpt lat="-37.92501" lon="145.33460000000002">
    <ele>154.52</ele>
   </trkpt>
   <trkpt lat="-37.924960000000006" lon="145.33477000000002">
    <ele>156.96</ele>
   </trkpt>
   <trkpt lat="-37.92521" lon="145.3348">
    <ele>158.9</ele>
   </trkpt>
   <trkpt lat="-37.92568" lon="145.33457">
    <ele>163.0</ele>
   </trkpt>
   <trkpt lat="-37.92595" lon="145.33428">
    <ele>168.73000000000002</ele>
   </trkpt>
   <trkpt lat="-37.92604" lon="145.33425000000003">
    <ele>170.70000000000002</ele>
   </trkpt>
   <trkpt lat="-37.92606" lon="145.33432000000002">
    <ele>170.70000000000002</ele>
   </trkpt>
   <trkpt lat="-37.92606" lon="145.3343">
    <ele>170.70000000000002</ele>
   </trkpt>
   <trkpt lat="-37.92631" lon="145.33414000000002">
    <ele>175.12000000000003</ele>
   </trkpt>
   <trkpt lat="-37.92629" lon="145.33441000000002">
    <ele>179.39000000000001</ele>
   </trkpt>
   <trkpt lat="-37.92633" lon="145.33445">
    <ele>179.54</ele>
   </trkpt>
   <trkpt lat="-37.92662" lon="145.3343">
    <ele>184.82000000000002</ele>
   </trkpt>
   <trkpt lat="-37.92671" lon="145.3343">
    <ele>186.51000000000002</ele>
   </trkpt>
   <trkpt lat="-37.92685" lon="145.33438">
    <ele>189.23000000000002</ele>
   </trkpt>
   <trkpt lat="-37.92685" lon="145.33447">
    <ele>192.06</ele>
   </trkpt>
   <trkpt lat="-37.92683" lon="145.33479">
    <ele>196.95000000000002</ele>
   </trkpt>
   <trkpt lat="-37.927" lon="145.33511000000001">
    <ele>200.73000000000002</ele>
   </trkpt>
   <trkpt lat="-37.92707" lon="145.33555">
    <ele>204.5</ele>
   </trkpt>
   <trkpt lat="-37.92712" lon="145.33561">
    <ele>205.40000000000003</ele>
   </trkpt>
   <trkpt lat="-37.92714" lon="145.3357">
    <ele>206.17000000000002</ele>
   </trkpt>
   <trkpt lat="-37.92732" lon="145.33586000000003">
    <ele>207.20000000000002</ele>
   </trkpt>
   <trkpt lat="-37.92779" lon="145.33616">
    <ele>204.34</ele>
   </trkpt>
   <trkpt lat="-37.92838000145321" lon="145.33656999344123">
    <ele>201.42000000000002</ele>
   </trkpt>
   <trkpt lat="-37.92897000148397" lon="145.33697999346253">
    <ele>203.45000000000002</ele>
   </trkpt>
   <trkpt lat="-37.92956" lon="145.33739">
    <ele>209.47</ele>
   </trkpt>
   <trkpt lat="-37.93013000110258" lon="145.33788499621943">
    <ele>218.00000000000003</ele>
   </trkpt>
   <trkpt lat="-37.9307" lon="145.33838">
    <ele>223.67000000000002</ele>
   </trkpt>
   <trkpt lat="-37.93099" lon="145.33843000000002">
    <ele>226.45000000000002</ele>
   </trkpt>
   <trkpt lat="-37.9309000061611" lon="145.33757666456822">
    <ele>212.74</ele>
   </trkpt>
   <trkpt lat="-37.930810006160115" lon="145.33672333122567">
    <ele>193.51000000000002</ele>
   </trkpt>
   <trkpt lat="-37.93072" lon="145.33587">
    <ele>176.20000000000002</ele>
   </trkpt>
   <trkpt lat="-37.93057500421754" lon="145.33486999793385">
    <ele>171.02</ele>
   </trkpt>
   <trkpt lat="-37.93043" lon="145.33387000000002">
    <ele>164.59</ele>
   </trkpt>
   <trkpt lat="-37.93009" lon="145.33375">
    <ele>161.74</ele>
   </trkpt>
   <trkpt lat="-37.92989" lon="145.33355">
    <ele>158.97</ele>
   </trkpt>
   <trkpt lat="-37.92978" lon="145.33335000000002">
    <ele>156.57000000000002</ele>
   </trkpt>
   <trkpt lat="-37.92971" lon="145.33301">
    <ele>154.84</ele>
   </trkpt>
   <trkpt lat="-37.92953" lon="145.33258">
    <ele>151.38000000000002</ele>
   </trkpt>
   <trkpt lat="-37.92944" lon="145.33246000000003">
    <ele>149.9</ele>
   </trkpt>
   <trkpt lat="-37.92893" lon="145.33212">
    <ele>146.32</ele>
   </trkpt>
   <trkpt lat="-37.92886" lon="145.33203">
    <ele>146.06000000000003</ele>
   </trkpt>
   <trkpt lat="-37.928790000000006" lon="145.33164000000002">
    <ele>145.78000000000003</ele>
   </trkpt>
   <trkpt lat="-37.92826" lon="145.33073000000002">
    <ele>148.28000000000003</ele>
   </trkpt>
   <trkpt lat="-37.92821" lon="145.33067">
    <ele>148.61</ele>
   </trkpt>
   <trkpt lat="-37.9283" lon="145.33062">
    <ele>149.79</ele>
   </trkpt>
   <trkpt lat="-37.92862" lon="145.33038000000002">
    <ele>155.82000000000002</ele>
   </trkpt>
   <trkpt lat="-37.928810000000006" lon="145.33014">
    <ele>162.07000000000002</ele>
   </trkpt>
   <trkpt lat="-37.92884" lon="145.33003000000002">
    <ele>163.93</ele>
   </trkpt>
   <trkpt lat="-37.92886" lon="145.32989">
    <ele>165.93</ele>
   </trkpt>
   <trkpt lat="-37.92882" lon="145.32973">
    <ele>169.14000000000001</ele>
   </trkpt>
   <trkpt lat="-37.92882" lon="145.32944">
    <ele>173.89000000000001</ele>
   </trkpt>
   <trkpt lat="-37.92891" lon="145.32922000000002">
    <ele>177.63</ele>
   </trkpt>
   <trkpt lat="-37.92891" lon="145.32912000000002">
    <ele>177.63</ele>
   </trkpt>
   <trkpt lat="-37.92886" lon="145.32893">
    <ele>180.68</ele>
   </trkpt>
   <trkpt lat="-37.92891" lon="145.32868000000002">
    <ele>181.6</ele>
   </trkpt>
   <trkpt lat="-37.92891" lon="145.32798000000003">
    <ele>194.03</ele>
   </trkpt>
   <trkpt lat="-37.92891" lon="145.32788000000002">
    <ele>195.81</ele>
   </trkpt>
   <trkpt lat="-37.92895" lon="145.32780000000002">
    <ele>195.81</ele>
   </trkpt>
   <trkpt lat="-37.9292" lon="145.32784">
    <ele>198.94</ele>
   </trkpt>
   <trkpt lat="-37.929280000000006" lon="145.32781">
    <ele>200.06</ele>
   </trkpt>
   <trkpt lat="-37.929370000000006" lon="145.32774">
    <ele>201.23000000000002</ele>
   </trkpt>
   <trkpt lat="-37.9298" lon="145.32719">
    <ele>211.05</ele>
   </trkpt>
   <trkpt lat="-37.92991" lon="145.32731">
    <ele>210.19</ele>
   </trkpt>
   <trkpt lat="-37.93012" lon="145.32745">
    <ele>207.49</ele>
   </trkpt>
   <trkpt lat="-37.93043" lon="145.32778000000002">
    <ele>203.77</ele>
   </trkpt>
   <trkpt lat="-37.93054" lon="145.32793">
    <ele>203.07000000000002</ele>
   </trkpt>
   <trkpt lat="-37.9307" lon="145.32804000000002">
    <ele>203.48000000000002</ele>
   </trkpt>
   <trkpt lat="-37.93088" lon="145.32808">
    <ele>204.85</ele>
   </trkpt>
   <trkpt lat="-37.93108" lon="145.32808">
    <ele>206.78</ele>
   </trkpt>
   <trkpt lat="-37.931250000000006" lon="145.32812">
    <ele>209.09000000000003</ele>
   </trkpt>
   <trkpt lat="-37.93137" lon="145.3281">
    <ele>209.87000000000003</ele>
   </trkpt>
   <trkpt lat="-37.93148" lon="145.32811">
    <ele>210.42000000000002</ele>
   </trkpt>
   <trkpt lat="-37.93164" lon="145.32816000000003">
    <ele>211.09000000000003</ele>
   </trkpt>
   <trkpt lat="-37.93206" lon="145.32819">
    <ele>213.05</ele>
   </trkpt>
   <trkpt lat="-37.93229" lon="145.32819">
    <ele>214.06000000000003</ele>
   </trkpt>
   <trkpt lat="-37.93242" lon="145.32815000000002">
    <ele>214.48</ele>
   </trkpt>
   <trkpt lat="-37.93253" lon="145.32816000000003">
    <ele>214.48</ele>
   </trkpt>
   <trkpt lat="-37.93274" lon="145.32829">
    <ele>215.4</ele>
   </trkpt>
   <trkpt lat="-37.93279500245497" lon="145.3275300004164">
    <ele>221.98000000000002</ele>
   </trkpt>
   <trkpt lat="-37.93285" lon="145.32677">
    <ele>227.25</ele>
   </trkpt>
   <trkpt lat="-37.93278" lon="145.32626000000002">
    <ele>228.64000000000001</ele>
   </trkpt>
   <trkpt lat="-37.93289" lon="145.32601000000003">
    <ele>228.4</ele>
   </trkpt>
   <trkpt lat="-37.93307" lon="145.32579">
    <ele>227.31</ele>
   </trkpt>
   <trkpt lat="-37.93309" lon="145.32579">
    <ele>227.33000000000004</ele>
   </trkpt>
   <trkpt lat="-37.933440000890094" lon="145.32535500196">
    <ele>226.59</ele>
   </trkpt>
   <trkpt lat="-37.93379" lon="145.32492000000002">
    <ele>227.15</ele>
   </trkpt>
   <trkpt lat="-37.934160000000006" lon="145.3247">
    <ele>228.46</ele>
   </trkpt>
   <trkpt lat="-37.93477" lon="145.32454">
    <ele>231.76000000000002</ele>
   </trkpt>
   <trkpt lat="-37.935" lon="145.32445">
    <ele>232.33</ele>
   </trkpt>
   <trkpt lat="-37.93551" lon="145.32403000000002">
    <ele>235.72</ele>
   </trkpt>
   <trkpt lat="-37.93565" lon="145.32385000000002">
    <ele>236.37000000000003</ele>
   </trkpt>
   <trkpt lat="-37.935750000000006" lon="145.3238">
    <ele>236.57000000000002</ele>
   </trkpt>
   <trkpt lat="-37.93594" lon="145.32374000000002">
    <ele>236.65000000000003</ele>
   </trkpt>
   <trkpt lat="-37.936040000000006" lon="145.32374000000002">
    <ele>236.59</ele>
   </trkpt>
   <trkpt lat="-37.936510000000006" lon="145.32403000000002">
    <ele>235.69</ele>
   </trkpt>
   <trkpt lat="-37.9367" lon="145.32428000000002">
    <ele>235.71000000000004</ele>
   </trkpt>
   <trkpt lat="-37.93688" lon="145.32438000000002">
    <ele>235.48000000000002</ele>
   </trkpt>
   <trkpt lat="-37.9371" lon="145.32445">
    <ele>235.46000000000004</ele>
   </trkpt>
   <trkpt lat="-37.937630000000006" lon="145.32467000000003">
    <ele>236.3</ele>
   </trkpt>
   <trkpt lat="-37.93804" lon="145.32476">
    <ele>236.32000000000002</ele>
   </trkpt>
   <trkpt lat="-37.9382" lon="145.32482000000002">
    <ele>235.42000000000002</ele>
   </trkpt>
   <trkpt lat="-37.93844" lon="145.32482000000002">
    <ele>233.72</ele>
   </trkpt>
   <trkpt lat="-37.93853" lon="145.32478">
    <ele>232.73000000000002</ele>
   </trkpt>
   <trkpt lat="-37.93858" lon="145.32475000000002">
    <ele>232.73000000000002</ele>
   </trkpt>
   <trkpt lat="-37.93869" lon="145.32464000000002">
    <ele>230.84</ele>
   </trkpt>
   <trkpt lat="-37.93887" lon="145.32442">
    <ele>226.11</ele>
   </trkpt>
   <trkpt lat="-37.93914" lon="145.32432">
    <ele>223.32000000000002</ele>
   </trkpt>
   <trkpt lat="-37.93941" lon="145.32428000000002">
    <ele>220.26000000000002</ele>
   </trkpt>
   <trkpt lat="-37.9397" lon="145.32430000000002">
    <ele>219.50000000000003</ele>
   </trkpt>
   <trkpt lat="-37.9399" lon="145.32429000000002">
    <ele>220.15</ele>
   </trkpt>
   <trkpt lat="-37.94008" lon="145.32426">
    <ele>221.44000000000003</ele>
   </trkpt>
   <trkpt lat="-37.94023" lon="145.32420000000002">
    <ele>221.79000000000002</ele>
   </trkpt>
   <trkpt lat="-37.9405" lon="145.32417">
    <ele>220.92</ele>
   </trkpt>
   <trkpt lat="-37.94057" lon="145.32413000000003">
    <ele>219.9</ele>
   </trkpt>
   <trkpt lat="-37.940630000000006" lon="145.32403000000002">
    <ele>218.27</ele>
   </trkpt>
   <trkpt lat="-37.94064" lon="145.32402000000002">
    <ele>218.12</ele>
   </trkpt>
   <trkpt lat="-37.94075" lon="145.32364">
    <ele>212.50000000000003</ele>
   </trkpt>
   <trkpt lat="-37.94084" lon="145.32297">
    <ele>201.05</ele>
   </trkpt>
   <trkpt lat="-37.94093" lon="145.32262">
    <ele>196.01000000000002</ele>
   </trkpt>
   <trkpt lat="-37.94117" lon="145.3219">
    <ele>188.04000000000002</ele>
   </trkpt>
   <trkpt lat="-37.9412" lon="145.32173">
    <ele>187.21</ele>
   </trkpt>
   <trkpt lat="-37.94117" lon="145.32141000000001">
    <ele>184.59</ele>
   </trkpt>
   <trkpt lat="-37.94122" lon="145.32128">
    <ele>183.21</ele>
   </trkpt>
   <trkpt lat="-37.94138" lon="145.32113">
    <ele>179.47000000000003</ele>
   </trkpt>
   <trkpt lat="-37.94167" lon="145.32015">
    <ele>169.99</ele>
   </trkpt>
   <trkpt lat="-37.94167" lon="145.32000000000002">
    <ele>169.34</ele>
   </trkpt>
   <trkpt lat="-37.9416" lon="145.31982000000002">
    <ele>167.88</ele>
   </trkpt>
   <trkpt lat="-37.94151" lon="145.31968">
    <ele>167.88</ele>
   </trkpt>
   <trkpt lat="-37.94111" lon="145.31929000000002">
    <ele>163.99</ele>
   </trkpt>
   <trkpt lat="-37.94082" lon="145.3189">
    <ele>161.01000000000002</ele>
   </trkpt>
   <trkpt lat="-37.94055" lon="145.3186">
    <ele>159.34</ele>
   </trkpt>
   <trkpt lat="-37.94028" lon="145.31840000000003">
    <ele>157.19000000000003</ele>
   </trkpt>
   <trkpt lat="-37.93994" lon="145.31841">
    <ele>152.63000000000002</ele>
   </trkpt>
   <trkpt lat="-37.93976" lon="145.31838000000002">
    <ele>150.96</ele>
   </trkpt>
   <trkpt lat="-37.93941" lon="145.31804000000002">
    <ele>149.78000000000003</ele>
   </trkpt>
   <trkpt lat="-37.93923" lon="145.31794000000002">
    <ele>149.41000000000003</ele>
   </trkpt>
   <trkpt lat="-37.938790000326854" lon="145.31781499932575">
    <ele>147.81000000000003</ele>
   </trkpt>
   <trkpt lat="-37.93835" lon="145.31769">
    <ele>145.28000000000003</ele>
   </trkpt>
   <trkpt lat="-37.93813" lon="145.31776000000002">
    <ele>142.91</ele>
   </trkpt>
   <trkpt lat="-37.93795" lon="145.31774000000001">
    <ele>141.15</ele>
   </trkpt>
   <trkpt lat="-37.93737" lon="145.31731000000002">
    <ele>137.5</ele>
   </trkpt>
   <trkpt lat="-37.93708" lon="145.31722000000002">
    <ele>134.84</ele>
   </trkpt>
   <trkpt lat="-37.93703" lon="145.31715">
    <ele>134.45000000000002</ele>
   </trkpt>
   <trkpt lat="-37.93697" lon="145.3171">
    <ele>134.05</ele>
   </trkpt>
   <trkpt lat="-37.93672" lon="145.31665">
    <ele>132.09</ele>
   </trkpt>
   <trkpt lat="-37.93665" lon="145.31647">
    <ele>131.73000000000002</ele>
   </trkpt>
   <trkpt lat="-37.9367" lon="145.31633000000002">
    <ele>131.43</ele>
   </trkpt>
   <trkpt lat="-37.93703" lon="145.31557">
    <ele>129.02</ele>
   </trkpt>
   <trkpt lat="-37.93699" lon="145.31544000000002">
    <ele>128.18</ele>
   </trkpt>
   <trkpt lat="-37.93688" lon="145.31532">
    <ele>127.66000000000003</ele>
   </trkpt>
   <trkpt lat="-37.93672" lon="145.31529">
    <ele>127.76</ele>
   </trkpt>
   <trkpt lat="-37.93663" lon="145.31533000000002">
    <ele>128.01000000000002</ele>
   </trkpt>
   <trkpt lat="-37.93607" lon="145.31596000000002">
    <ele>130.74</ele>
   </trkpt>
   <trkpt lat="-37.93585" lon="145.31614000000002">
    <ele>132.34</ele>
   </trkpt>
   <trkpt lat="-37.93576" lon="145.31612">
    <ele>132.91</ele>
   </trkpt>
   <trkpt lat="-37.93549" lon="145.31586000000001">
    <ele>135.18</ele>
   </trkpt>
   <trkpt lat="-37.93538" lon="145.31585">
    <ele>136.99</ele>
   </trkpt>
   <trkpt lat="-37.93522" lon="145.31586000000001">
    <ele>137.99</ele>
   </trkpt>
   <trkpt lat="-37.93484" lon="145.31599">
    <ele>139.6</ele>
   </trkpt>
   <trkpt lat="-37.934720000000006" lon="145.31598000000002">
    <ele>140.46</ele>
   </trkpt>
   <trkpt lat="-37.93464" lon="145.31595000000002">
    <ele>141.38</ele>
   </trkpt>
   <trkpt lat="-37.93459" lon="145.31580000000002">
    <ele>143.25</ele>
   </trkpt>
   <trkpt lat="-37.93451500181063" lon="145.3151449992907">
    <ele>150.33</ele>
   </trkpt>
   <trkpt lat="-37.93444" lon="145.31449">
    <ele>155.44000000000003</ele>
   </trkpt>
   <trkpt lat="-37.93437" lon="145.31424">
    <ele>157.63000000000002</ele>
   </trkpt>
   <trkpt lat="-37.93428" lon="145.31411">
    <ele>159.15</ele>
   </trkpt>
   <trkpt lat="-37.93385" lon="145.31465">
    <ele>163.08</ele>
   </trkpt>
   <trkpt lat="-37.93379" lon="145.31472000000002">
    <ele>163.83</ele>
   </trkpt>
   <trkpt lat="-37.93363" lon="145.31478">
    <ele>163.83</ele>
   </trkpt>
   <trkpt lat="-37.9335" lon="145.31481000000002">
    <ele>164.41</ele>
   </trkpt>
   <trkpt lat="-37.93338" lon="145.31481000000002">
    <ele>164.92000000000002</ele>
   </trkpt>
   <trkpt lat="-37.93327" lon="145.31478">
    <ele>164.92000000000002</ele>
   </trkpt>
   <trkpt lat="-37.93287" lon="145.3145">
    <ele>166.4</ele>
   </trkpt>
   <trkpt lat="-37.93278" lon="145.3145">
    <ele>166.38</ele>
   </trkpt>
   <trkpt lat="-37.93271" lon="145.31452000000002">
    <ele>166.38</ele>
   </trkpt>
   <trkpt lat="-37.93249" lon="145.31515000000002">
    <ele>168.23000000000002</ele>
   </trkpt>
   <trkpt lat="-37.93251" lon="145.31515000000002">
    <ele>168.24</ele>
   </trkpt>
   <trkpt lat="-37.93235" lon="145.31551000000002">
    <ele>170.22</ele>
   </trkpt>
   <trkpt lat="-37.93229" lon="145.31578000000002">
    <ele>171.81</ele>
   </trkpt>
   <trkpt lat="-37.93224" lon="145.31632000000002">
    <ele>173.57</ele>
   </trkpt>
   <trkpt lat="-37.93186" lon="145.31553000000002">
    <ele>179.37</ele>
   </trkpt>
   <trkpt lat="-37.93177" lon="145.31512">
    <ele>181.56000000000003</ele>
   </trkpt>
   <trkpt lat="-37.93179500162436" lon="145.31450000026322">
    <ele>183.09</ele>
   </trkpt>
   <trkpt lat="-37.93182" lon="145.31388">
    <ele>185.81</ele>
   </trkpt>
   <trkpt lat="-37.93179500211133" lon="145.31317499999494">
    <ele>193.15</ele>
   </trkpt>
   <trkpt lat="-37.93177" lon="145.31247000000002">
    <ele>200.87</ele>
   </trkpt>
   <trkpt lat="-37.93182" lon="145.31184000000002">
    <ele>212.92000000000002</ele>
   </trkpt>
   <trkpt lat="-37.93182" lon="145.31131000000002">
    <ele>216.27</ele>
   </trkpt>
   <trkpt lat="-37.93175" lon="145.31091">
    <ele>218.09</ele>
   </trkpt>
   <trkpt lat="-37.93182" lon="145.31131000000002">
    <ele>216.27</ele>
   </trkpt>
   <trkpt lat="-37.93182" lon="145.31184000000002">
    <ele>212.92000000000002</ele>
   </trkpt>
   <trkpt lat="-37.93177" lon="145.31247000000002">
    <ele>200.87</ele>
   </trkpt>
   <trkpt lat="-37.93179500209469" lon="145.31317499952561">
    <ele>193.15</ele>
   </trkpt>
   <trkpt lat="-37.93182" lon="145.31388">
    <ele>185.81</ele>
   </trkpt>
   <trkpt lat="-37.931795001628586" lon="145.3145000001585">
    <ele>183.09</ele>
   </trkpt>
   <trkpt lat="-37.93177" lon="145.31512">
    <ele>181.56000000000003</ele>
   </trkpt>
   <trkpt lat="-37.93186" lon="145.31553000000002">
    <ele>179.37</ele>
   </trkpt>
   <trkpt lat="-37.93224" lon="145.31632000000002">
    <ele>173.57</ele>
   </trkpt>
   <trkpt lat="-37.93229" lon="145.31657">
    <ele>172.94</ele>
   </trkpt>
   <trkpt lat="-37.93247" lon="145.31724">
    <ele>169.6</ele>
   </trkpt>
   <trkpt lat="-37.93256" lon="145.3177">
    <ele>170.26000000000002</ele>
   </trkpt>
   <trkpt lat="-37.93262333911631" lon="145.31852666524136">
    <ele>174.36</ele>
   </trkpt>
   <trkpt lat="-37.932686672449584" lon="145.3193533319072">
    <ele>183.07</ele>
   </trkpt>
   <trkpt lat="-37.932750000000006" lon="145.32018000000002">
    <ele>194.43</ele>
   </trkpt>
   <trkpt lat="-37.93276" lon="145.32027000000002">
    <ele>194.95000000000002</ele>
   </trkpt>
   <trkpt lat="-37.9328" lon="145.32032">
    <ele>195.43</ele>
   </trkpt>
   <trkpt lat="-37.93336" lon="145.32051">
    <ele>200.58</ele>
   </trkpt>
   <trkpt lat="-37.93363" lon="145.32068">
    <ele>206.46</ele>
   </trkpt>
   <trkpt lat="-37.93394" lon="145.32071000000002">
    <ele>210.27</ele>
   </trkpt>
   <trkpt lat="-37.93401" lon="145.32075">
    <ele>211.33</ele>
   </trkpt>
   <trkpt lat="-37.93457" lon="145.32154">
    <ele>222.64</ele>
   </trkpt>
   <trkpt lat="-37.93486" lon="145.32174">
    <ele>226.25</ele>
   </trkpt>
   <trkpt lat="-37.935" lon="145.3219">
    <ele>228.38000000000002</ele>
   </trkpt>
   <trkpt lat="-37.93522" lon="145.3223">
    <ele>231.19</ele>
   </trkpt>
   <trkpt lat="-37.93538" lon="145.32265">
    <ele>232.28</ele>
   </trkpt>
   <trkpt lat="-37.93547" lon="145.3229">
    <ele>232.49000000000004</ele>
   </trkpt>
   <trkpt lat="-37.9356" lon="145.32356000000001">
    <ele>235.72</ele>
   </trkpt>
   <trkpt lat="-37.935660000000006" lon="145.32369">
    <ele>236.12000000000003</ele>
   </trkpt>
   <trkpt lat="-37.93565" lon="145.32385000000002">
    <ele>236.37000000000003</ele>
   </trkpt>
   <trkpt lat="-37.93551" lon="145.32403000000002">
    <ele>235.72</ele>
   </trkpt>
   <trkpt lat="-37.93529" lon="145.32422000000003">
    <ele>234.82000000000002</ele>
   </trkpt>
   <trkpt lat="-37.935" lon="145.32445">
    <ele>232.33</ele>
   </trkpt>
   <trkpt lat="-37.93477" lon="145.32454">
    <ele>231.76000000000002</ele>
   </trkpt>
   <trkpt lat="-37.934160000000006" lon="145.3247">
    <ele>228.46</ele>
   </trkpt>
   <trkpt lat="-37.93363" lon="145.32502000000002">
    <ele>226.94000000000003</ele>
   </trkpt>
   <trkpt lat="-37.93314" lon="145.32518000000002">
    <ele>226.29000000000002</ele>
   </trkpt>
   <trkpt lat="-37.93291" lon="145.32520000000002">
    <ele>226.33</ele>
   </trkpt>
   <trkpt lat="-37.93235" lon="145.32535000000001">
    <ele>225.61</ele>
   </trkpt>
   <trkpt lat="-37.93173" lon="145.32561">
    <ele>226.32000000000002</ele>
   </trkpt>
   <trkpt lat="-37.93157" lon="145.32563000000002">
    <ele>226.39000000000001</ele>
   </trkpt>
   <trkpt lat="-37.93112" lon="145.32552">
    <ele>225.99</ele>
   </trkpt>
   <trkpt lat="-37.93083" lon="145.32539">
    <ele>226.82000000000002</ele>
   </trkpt>
   <trkpt lat="-37.93063" lon="145.32533">
    <ele>227.99</ele>
   </trkpt>
   <trkpt lat="-37.930400000000006" lon="145.32521">
    <ele>228.77</ele>
   </trkpt>
   <trkpt lat="-37.9303" lon="145.32521">
    <ele>229.18</ele>
   </trkpt>
   <trkpt lat="-37.93007" lon="145.32498">
    <ele>229.81</ele>
   </trkpt>
   <trkpt lat="-37.92994" lon="145.32479">
    <ele>229.84</ele>
   </trkpt>
   <trkpt lat="-37.92987" lon="145.32465000000002">
    <ele>229.81</ele>
   </trkpt>
   <trkpt lat="-37.92985" lon="145.32425">
    <ele>228.89000000000001</ele>
   </trkpt>
   <trkpt lat="-37.929750000000006" lon="145.32398">
    <ele>228.43</ele>
   </trkpt>
   <trkpt lat="-37.92962" lon="145.32386000000002">
    <ele>228.10000000000002</ele>
   </trkpt>
   <trkpt lat="-37.92944" lon="145.32372">
    <ele>226.49</ele>
   </trkpt>
   <trkpt lat="-37.92933" lon="145.32356000000001">
    <ele>224.96</ele>
   </trkpt>
   <trkpt lat="-37.92909" lon="145.32319">
    <ele>219.26000000000002</ele>
   </trkpt>
   <trkpt lat="-37.9288650015008" lon="145.3225799979338">
    <ele>211.91</ele>
   </trkpt>
   <trkpt lat="-37.92864" lon="145.32197000000002">
    <ele>203.54000000000002</ele>
   </trkpt>
   <trkpt lat="-37.92853" lon="145.32150000000001">
    <ele>202.09</ele>
   </trkpt>
   <trkpt lat="-37.92844" lon="145.32133000000002">
    <ele>202.64000000000001</ele>
   </trkpt>
   <trkpt lat="-37.92835" lon="145.32121">
    <ele>202.84</ele>
   </trkpt>
   <trkpt lat="-37.92815" lon="145.32109">
    <ele>203.0</ele>
   </trkpt>
   <trkpt lat="-37.92803" lon="145.32097000000002">
    <ele>202.90000000000003</ele>
   </trkpt>
   <trkpt lat="-37.92781" lon="145.32068">
    <ele>202.03</ele>
   </trkpt>
   <trkpt lat="-37.92774" lon="145.32062000000002">
    <ele>201.81</ele>
   </trkpt>
   <trkpt lat="-37.92741" lon="145.32044000000002">
    <ele>198.44</ele>
   </trkpt>
   <trkpt lat="-37.927310000000006" lon="145.32036000000002">
    <ele>197.59</ele>
   </trkpt>
   <trkpt lat="-37.92694" lon="145.31989000000002">
    <ele>193.22</ele>
   </trkpt>
   <trkpt lat="-37.92685" lon="145.31980000000001">
    <ele>191.13000000000002</ele>
   </trkpt>
   <trkpt lat="-37.9264" lon="145.31961">
    <ele>180.89000000000001</ele>
   </trkpt>
   <trkpt lat="-37.92629" lon="145.31952">
    <ele>175.58</ele>
   </trkpt>
   <trkpt lat="-37.92615" lon="145.31948">
    <ele>175.58</ele>
   </trkpt>
   <trkpt lat="-37.92609" lon="145.31949">
    <ele>172.45000000000002</ele>
   </trkpt>
   <trkpt lat="-37.92584" lon="145.31964000000002">
    <ele>167.51000000000002</ele>
   </trkpt>
   <trkpt lat="-37.92557" lon="145.31975">
    <ele>155.29000000000002</ele>
   </trkpt>
   <trkpt lat="-37.92553" lon="145.31983000000002">
    <ele>154.22000000000003</ele>
   </trkpt>
   <trkpt lat="-37.92544" lon="145.32019000000003">
    <ele>146.53000000000003</ele>
   </trkpt>
   <trkpt lat="-37.92526" lon="145.32034000000002">
    <ele>143.86</ele>
   </trkpt>
   <trkpt lat="-37.92517" lon="145.32047">
    <ele>141.14000000000001</ele>
   </trkpt>
   <trkpt lat="-37.92512" lon="145.32061000000002">
    <ele>140.14000000000001</ele>
   </trkpt>
   <trkpt lat="-37.92519" lon="145.32107000000002">
    <ele>139.39000000000001</ele>
   </trkpt>
   <trkpt lat="-37.92526" lon="145.32178000000002">
    <ele>138.85</ele>
   </trkpt>
   <trkpt lat="-37.92539" lon="145.32231000000002">
    <ele>138.59</ele>
   </trkpt>
   <trkpt lat="-37.92559" lon="145.32293">
    <ele>138.85</ele>
   </trkpt>
   <trkpt lat="-37.92566" lon="145.32325">
    <ele>138.47</ele>
   </trkpt>
   <trkpt lat="-37.92566" lon="145.32339000000002">
    <ele>138.01000000000002</ele>
   </trkpt>
   <trkpt lat="-37.92562" lon="145.3237">
    <ele>137.70000000000002</ele>
   </trkpt>
   <trkpt lat="-37.925715003180414" lon="145.32456999867446">
    <ele>136.77</ele>
   </trkpt>
   <trkpt lat="-37.925810000000006" lon="145.32544000000001">
    <ele>136.53</ele>
   </trkpt>
   <trkpt lat="-37.9258" lon="145.32544000000001">
    <ele>136.53</ele>
   </trkpt>
   <trkpt lat="-37.92591" lon="145.32629">
    <ele>136.6</ele>
   </trkpt>
   <trkpt lat="-37.92611" lon="145.32739">
    <ele>136.62</ele>
   </trkpt>
   <trkpt lat="-37.9262" lon="145.32766">
    <ele>136.71</ele>
   </trkpt>
   <trkpt lat="-37.92633" lon="145.32796000000002">
    <ele>136.94</ele>
   </trkpt>
   <trkpt lat="-37.92671" lon="145.32845">
    <ele>136.94</ele>
   </trkpt>
   <trkpt lat="-37.92707" lon="145.32931000000002">
    <ele>137.35</ele>
   </trkpt>
   <trkpt lat="-37.92723" lon="145.32977000000002">
    <ele>137.47</ele>
   </trkpt>
   <trkpt lat="-37.92732" lon="145.32992000000002">
    <ele>137.94</ele>
   </trkpt>
   <trkpt lat="-37.92741" lon="145.33002000000002">
    <ele>138.94</ele>
   </trkpt>
   <trkpt lat="-37.92806" lon="145.33058000000003">
    <ele>146.75000000000003</ele>
   </trkpt>
   <trkpt lat="-37.92826" lon="145.33073000000002">
    <ele>148.28000000000003</ele>
   </trkpt>
   <trkpt lat="-37.92877" lon="145.33162000000002">
    <ele>145.93</ele>
   </trkpt>
   <trkpt lat="-37.92886" lon="145.33203">
    <ele>146.06000000000003</ele>
   </trkpt>
   <trkpt lat="-37.92853" lon="145.33242">
    <ele>150.96</ele>
   </trkpt>
   <trkpt lat="-37.92839" lon="145.33275">
    <ele>153.37</ele>
   </trkpt>
   <trkpt lat="-37.92837" lon="145.33297000000002">
    <ele>155.06</ele>
   </trkpt>
   <trkpt lat="-37.92821" lon="145.33317000000002">
    <ele>157.81</ele>
   </trkpt>
   <trkpt lat="-37.9279" lon="145.33315000000002">
    <ele>158.91000000000003</ele>
   </trkpt>
   <trkpt lat="-37.92734" lon="145.33245000000002">
    <ele>162.19</ele>
   </trkpt>
   <trkpt lat="-37.92732" lon="145.33232">
    <ele>163.73000000000002</ele>
   </trkpt>
   <trkpt lat="-37.92671" lon="145.33256">
    <ele>171.39000000000001</ele>
   </trkpt>
   <trkpt lat="-37.92674" lon="145.33262000000002">
    <ele>171.83</ele>
   </trkpt>
   <trkpt lat="-37.926750000000006" lon="145.33262000000002">
    <ele>164.64000000000001</ele>
   </trkpt>
   <trkpt lat="-37.92649" lon="145.33254000000002">
    <ele>158.29000000000002</ele>
   </trkpt>
   <trkpt lat="-37.92631" lon="145.33252000000002">
    <ele>155.25</ele>
   </trkpt>
   <trkpt lat="-37.926" lon="145.33278">
    <ele>155.02</ele>
   </trkpt>
   <trkpt lat="-37.92584" lon="145.3331">
    <ele>152.59</ele>
   </trkpt>
   <trkpt lat="-37.9258" lon="145.33327">
    <ele>151.64000000000001</ele>
   </trkpt>
   <trkpt lat="-37.92571" lon="145.33349">
    <ele>150.97000000000003</ele>
   </trkpt>
   <trkpt lat="-37.92564" lon="145.33375">
    <ele>151.52</ele>
   </trkpt>
   <trkpt lat="-37.92562" lon="145.33381">
    <ele>151.52</ele>
   </trkpt>
   <trkpt lat="-37.92555" lon="145.33383">
    <ele>153.43</ele>
   </trkpt>
   <trkpt lat="-37.925430000000006" lon="145.33404000000002">
    <ele>150.88000000000002</ele>
   </trkpt>
   <trkpt lat="-37.925320000000006" lon="145.33396000000002">
    <ele>149.05</ele>
   </trkpt>
   <trkpt lat="-37.92519" lon="145.33399">
    <ele>146.68</ele>
   </trkpt>
   <trkpt lat="-37.92521" lon="145.33395000000002">
    <ele>146.42000000000002</ele>
   </trkpt>
   <trkpt lat="-37.92519" lon="145.33386000000002">
    <ele>145.21</ele>
   </trkpt>
   <trkpt lat="-37.92501" lon="145.33381">
    <ele>142.74</ele>
   </trkpt>
   <trkpt lat="-37.92497" lon="145.33374">
    <ele>142.74</ele>
   </trkpt>
   <trkpt lat="-37.924960000000006" lon="145.33363">
    <ele>141.55</ele>
   </trkpt>
   <trkpt lat="-37.9249" lon="145.33357">
    <ele>141.55</ele>
   </trkpt>
   <trkpt lat="-37.92474" lon="145.33364">
    <ele>137.76000000000002</ele>
   </trkpt>
   <trkpt lat="-37.9247" lon="145.33360000000002">
    <ele>137.76000000000002</ele>
   </trkpt>
   <trkpt lat="-37.92468" lon="145.33346">
    <ele>136.28</ele>
   </trkpt>
   <trkpt lat="-37.92474" lon="145.33305000000001">
    <ele>134.09</ele>
   </trkpt>
   <trkpt lat="-37.9247" lon="145.33303">
    <ele>133.67000000000002</ele>
   </trkpt>
   <trkpt lat="-37.92461" lon="145.33306000000002">
    <ele>132.72</ele>
   </trkpt>
   <trkpt lat="-37.92452" lon="145.33299000000002">
    <ele>132.4</ele>
   </trkpt>
   <trkpt lat="-37.92445" lon="145.33299000000002">
    <ele>132.32000000000002</ele>
   </trkpt>
   <trkpt lat="-37.924380000000006" lon="145.33295">
    <ele>132.44</ele>
   </trkpt>
   <trkpt lat="-37.92425" lon="145.33282">
    <ele>132.75</ele>
   </trkpt>
   <trkpt lat="-37.92421" lon="145.33282">
    <ele>133.01000000000002</ele>
   </trkpt>
   <trkpt lat="-37.92409" lon="145.33288000000002">
    <ele>133.85000000000002</ele>
   </trkpt>
   <trkpt lat="-37.92405" lon="145.33284">
    <ele>133.97</ele>
   </trkpt>
   <trkpt lat="-37.92403" lon="145.33277">
    <ele>133.97</ele>
   </trkpt>
   <trkpt lat="-37.924020000000006" lon="145.33277">
    <ele>133.88</ele>
   </trkpt>
   <trkpt lat="-37.924020000000006" lon="145.33302">
    <ele>133.88</ele>
   </trkpt>
   <trkpt lat="-37.92403" lon="145.33321">
    <ele>134.29000000000002</ele>
   </trkpt>
   <trkpt lat="-37.92414" lon="145.33352000000002">
    <ele>134.59</ele>
   </trkpt>
   <trkpt lat="-37.92405" lon="145.33388000000002">
    <ele>135.03</ele>
   </trkpt>
   <trkpt lat="-37.92405" lon="145.33412">
    <ele>135.71</ele>
   </trkpt>
   <trkpt lat="-37.92412" lon="145.33436">
    <ele>135.86</ele>
   </trkpt>
   <trkpt lat="-37.92412" lon="145.33463">
    <ele>135.51000000000002</ele>
   </trkpt>
   <trkpt lat="-37.92403" lon="145.33507">
    <ele>135.6</ele>
   </trkpt>
   <trkpt lat="-37.924020000000006" lon="145.33559000000002">
    <ele>136.14000000000001</ele>
   </trkpt>
   <trkpt lat="-37.92405" lon="145.33593000000002">
    <ele>136.86</ele>
   </trkpt>
   <trkpt lat="-37.92394" lon="145.33645">
    <ele>137.07</ele>
   </trkpt>
   <trkpt lat="-37.92376" lon="145.33677">
    <ele>137.09</ele>
   </trkpt>
   <trkpt lat="-37.92374" lon="145.33674000000002">
    <ele>137.09</ele>
   </trkpt>
   <trkpt lat="-37.92349" lon="145.33677">
    <ele>136.88</ele>
   </trkpt>
  </trkseg>
 </trk>
</gpx>
