<?xml version="1.0" encoding="UTF-8"?>
<gpx creator="StravaGPX" version="1.1" xmlns="http://www.topografix.com/GPX/1/1" xmlns:xsi="http://www.w3.org/2001/XMLSchema-instance" xsi:schemaLocation="http://www.topografix.com/GPX/1/1 http://www.topografix.com/GPX/1/1/gpx.xsd">
 <metadata>
  <name>DTR 16th November - 14k</name>
  <author>
   <name>DTR  Runleaders</name>
   <link href="https://www.strava.com/athletes/194056408"/>
  </author>
  <copyright author="OpenStreetMap contributors">
   <year>2020</year>
   <license>https://www.openstreetmap.org/copyright</license>
  </copyright>
  <link href="https://www.strava.com/routes/3424224468019889702"/>
 </metadata>
 <trk>
  <name>DTR 16th November - 14k</name>
  <link href="https://www.strava.com/routes/3424224468019889702"/>
  <type>running</type>
  <trkseg>
   <trkpt lat="-37.89097" lon="145.31734">
    <ele>174.11</ele>
   </trkpt>
   <trkpt lat="-37.89072" lon="145.3169">
    <ele>183.42000000000002</ele>
   </trkpt>
   <trkpt lat="-37.890980000000006" lon="145.31658000000002">
    <ele>183.39000000000001</ele>
   </trkpt>
   <trkpt lat="-37.89101" lon="145.31612">
    <ele>187.19000000000003</ele>
   </trkpt>
   <trkpt lat="-37.89099" lon="145.31613000000002">
    <ele>182.17000000000002</ele>
   </trkpt>
   <trkpt lat="-37.89108" lon="145.31604000000002">
    <ele>180.32</ele>
   </trkpt>
   <trkpt lat="-37.89148" lon="145.31548">
    <ele>175.44</ele>
   </trkpt>
   <trkpt lat="-37.89159" lon="145.3153">
    <ele>174.41</ele>
   </trkpt>
   <trkpt lat="-37.89166" lon="145.31470000000002">
    <ele>177.72000000000003</ele>
   </trkpt>
   <trkpt lat="-37.8917" lon="145.3142">
    <ele>181.79</ele>
   </trkpt>
   <trkpt lat="-37.89168" lon="145.31405">
    <ele>182.6</ele>
   </trkpt>
   <trkpt lat="-37.89159" lon="145.31376">
    <ele>184.49</ele>
   </trkpt>
   <trkpt lat="-37.8915" lon="145.31358">
    <ele>186.53000000000003</ele>
   </trkpt>
   <trkpt lat="-37.89132" lon="145.3134">
    <ele>188.00000000000003</ele>
   </trkpt>
   <trkpt lat="-37.89092" lon="145.31309000000002">
    <ele>192.53</ele>
   </trkpt>
   <trkpt lat="-37.89074" lon="145.31299">
    <ele>193.95000000000002</ele>
   </trkpt>
   <trkpt lat="-37.890710000000006" lon="145.31292000000002">
    <ele>194.02</ele>
   </trkpt>
   <trkpt lat="-37.890710000000006" lon="145.31282000000002">
    <ele>194.06</ele>
   </trkpt>
   <trkpt lat="-37.89072" lon="145.31278">
    <ele>194.06</ele>
   </trkpt>
   <trkpt lat="-37.89101" lon="145.31248000000002">
    <ele>194.87</ele>
   </trkpt>
   <trkpt lat="-37.89105" lon="145.31242">
    <ele>195.37</ele>
   </trkpt>
   <trkpt lat="-37.891180000000006" lon="145.31198">
    <ele>198.49000000000004</ele>
   </trkpt>
   <trkpt lat="-37.89121" lon="145.31161">
    <ele>201.43000000000004</ele>
   </trkpt>
   <trkpt lat="-37.89119" lon="145.31122000000002">
    <ele>206.67000000000002</ele>
   </trkpt>
   <trkpt lat="-37.89092" lon="145.31052000000003">
    <ele>215.69000000000003</ele>
   </trkpt>
   <trkpt lat="-37.89038" lon="145.30998000000002">
    <ele>228.4</ele>
   </trkpt>
   <trkpt lat="-37.890330000000006" lon="145.30995000000001">
    <ele>228.4</ele>
   </trkpt>
   <trkpt lat="-37.89027" lon="145.30997000000002">
    <ele>229.94</ele>
   </trkpt>
   <trkpt lat="-37.89025" lon="145.31002">
    <ele>229.94</ele>
   </trkpt>
   <trkpt lat="-37.89027" lon="145.31046">
    <ele>235.23000000000002</ele>
   </trkpt>
   <trkpt lat="-37.89025" lon="145.31066">
    <ele>237.05</ele>
   </trkpt>
   <trkpt lat="-37.89016" lon="145.31092">
    <ele>239.36</ele>
   </trkpt>
   <trkpt lat="-37.89002" lon="145.31111">
    <ele>243.28000000000003</ele>
   </trkpt>
   <trkpt lat="-37.88993" lon="145.31119">
    <ele>244.46</ele>
   </trkpt>
   <trkpt lat="-37.889680000000006" lon="145.31134">
    <ele>247.76</ele>
   </trkpt>
   <trkpt lat="-37.8896" lon="145.31134">
    <ele>251.54000000000005</ele>
   </trkpt>
   <trkpt lat="-37.88958" lon="145.31130000000002">
    <ele>251.54000000000005</ele>
   </trkpt>
   <trkpt lat="-37.88955" lon="145.31122000000002">
    <ele>251.54000000000005</ele>
   </trkpt>
   <trkpt lat="-37.88958" lon="145.31101">
    <ele>255.23000000000002</ele>
   </trkpt>
   <trkpt lat="-37.88958" lon="145.3109">
    <ele>255.23000000000002</ele>
   </trkpt>
   <trkpt lat="-37.88951" lon="145.31074">
    <ele>258.39</ele>
   </trkpt>
   <trkpt lat="-37.88931" lon="145.31038">
    <ele>264.92</ele>
   </trkpt>
   <trkpt lat="-37.889210000000006" lon="145.31025000000002">
    <ele>266.40000000000003</ele>
   </trkpt>
   <trkpt lat="-37.88908" lon="145.31016000000002">
    <ele>267.96000000000004</ele>
   </trkpt>
   <trkpt lat="-37.88902" lon="145.31014000000002">
    <ele>270.35</ele>
   </trkpt>
   <trkpt lat="-37.88893" lon="145.31018">
    <ele>270.35</ele>
   </trkpt>
   <trkpt lat="-37.88868" lon="145.31060000000002">
    <ele>279.41</ele>
   </trkpt>
   <trkpt lat="-37.88859" lon="145.31071">
    <ele>281.02000000000004</ele>
   </trkpt>
   <trkpt lat="-37.888450000000006" lon="145.31074">
    <ele>283.89000000000004</ele>
   </trkpt>
   <trkpt lat="-37.88794" lon="145.31068000000002">
    <ele>293.92</ele>
   </trkpt>
   <trkpt lat="-37.88779" lon="145.31063">
    <ele>299.46</ele>
   </trkpt>
   <trkpt lat="-37.887330000000006" lon="145.31040000000002">
    <ele>311.41</ele>
   </trkpt>
   <trkpt lat="-37.88705" lon="145.31019">
    <ele>315.55000000000007</ele>
   </trkpt>
   <trkpt lat="-37.88696" lon="145.31015000000002">
    <ele>316.31</ele>
   </trkpt>
   <trkpt lat="-37.88687" lon="145.31014000000002">
    <ele>316.31</ele>
   </trkpt>
   <trkpt lat="-37.88673" lon="145.31015000000002">
    <ele>317.69</ele>
   </trkpt>
   <trkpt lat="-37.8866" lon="145.3102">
    <ele>319.18</ele>
   </trkpt>
   <trkpt lat="-37.88629" lon="145.31038">
    <ele>326.07</ele>
   </trkpt>
   <trkpt lat="-37.8862" lon="145.31044">
    <ele>326.07</ele>
   </trkpt>
   <trkpt lat="-37.88611" lon="145.31055">
    <ele>329.61</ele>
   </trkpt>
   <trkpt lat="-37.88579500178934" lon="145.31120500285434">
    <ele>339.85</ele>
   </trkpt>
   <trkpt lat="-37.88548" lon="145.31186000000002">
    <ele>349.02000000000004</ele>
   </trkpt>
   <trkpt lat="-37.88541" lon="145.31207">
    <ele>355.81</ele>
   </trkpt>
   <trkpt lat="-37.8853" lon="145.31255000000002">
    <ele>364.42</ele>
   </trkpt>
   <trkpt lat="-37.885270000000006" lon="145.31266000000002">
    <ele>364.42</ele>
   </trkpt>
   <trkpt lat="-37.88519" lon="145.31273000000002">
    <ele>366.19</ele>
   </trkpt>
   <trkpt lat="-37.88501" lon="145.31279">
    <ele>373.05000000000007</ele>
   </trkpt>
   <trkpt lat="-37.88488" lon="145.3128">
    <ele>373.05000000000007</ele>
   </trkpt>
   <trkpt lat="-37.884640000000005" lon="145.31277">
    <ele>378.68</ele>
   </trkpt>
   <trkpt lat="-37.88461" lon="145.31262">
    <ele>378.07</ele>
   </trkpt>
   <trkpt lat="-37.88448" lon="145.31234">
    <ele>376.04</ele>
   </trkpt>
   <trkpt lat="-37.88411" lon="145.31159000000002">
    <ele>369.75</ele>
   </trkpt>
   <trkpt lat="-37.884" lon="145.31125">
    <ele>366.22</ele>
   </trkpt>
   <trkpt lat="-37.88394" lon="145.31089">
    <ele>363.62000000000006</ele>
   </trkpt>
   <trkpt lat="-37.88391" lon="145.31067000000002">
    <ele>360.93</ele>
   </trkpt>
   <trkpt lat="-37.88398" lon="145.30967">
    <ele>354.24000000000007</ele>
   </trkpt>
   <trkpt lat="-37.88398" lon="145.3095">
    <ele>353.40000000000003</ele>
   </trkpt>
   <trkpt lat="-37.883950000000006" lon="145.30926000000002">
    <ele>351.8</ele>
   </trkpt>
   <trkpt lat="-37.883860000000006" lon="145.30907000000002">
    <ele>350.12000000000006</ele>
   </trkpt>
   <trkpt lat="-37.88353" lon="145.3086">
    <ele>346.29</ele>
   </trkpt>
   <trkpt lat="-37.88333" lon="145.30835000000002">
    <ele>344.96000000000004</ele>
   </trkpt>
   <trkpt lat="-37.88313" lon="145.30817000000002">
    <ele>341.89000000000004</ele>
   </trkpt>
   <trkpt lat="-37.88268" lon="145.30786">
    <ele>336.21</ele>
   </trkpt>
   <trkpt lat="-37.88232" lon="145.30774000000002">
    <ele>332.70000000000005</ele>
   </trkpt>
   <trkpt lat="-37.88208" lon="145.30768">
    <ele>331.94</ele>
   </trkpt>
   <trkpt lat="-37.881800000000005" lon="145.30764000000002">
    <ele>329.24</ele>
   </trkpt>
   <trkpt lat="-37.88152" lon="145.30794">
    <ele>326.01</ele>
   </trkpt>
   <trkpt lat="-37.88145" lon="145.30807000000001">
    <ele>325.29</ele>
   </trkpt>
   <trkpt lat="-37.88127" lon="145.30875">
    <ele>321.35</ele>
   </trkpt>
   <trkpt lat="-37.8812" lon="145.30912">
    <ele>319.02000000000004</ele>
   </trkpt>
   <trkpt lat="-37.88114" lon="145.30981">
    <ele>311.01</ele>
   </trkpt>
   <trkpt lat="-37.881040000000006" lon="145.31008">
    <ele>310.13</ele>
   </trkpt>
   <trkpt lat="-37.88096" lon="145.31012">
    <ele>310.17</ele>
   </trkpt>
   <trkpt lat="-37.88089" lon="145.31011">
    <ele>310.09000000000003</ele>
   </trkpt>
   <trkpt lat="-37.88082" lon="145.31005000000002">
    <ele>309.67</ele>
   </trkpt>
   <trkpt lat="-37.88035" lon="145.30939">
    <ele>297.65000000000003</ele>
   </trkpt>
   <trkpt lat="-37.87979" lon="145.30893">
    <ele>287.81</ele>
   </trkpt>
   <trkpt lat="-37.87921" lon="145.30859">
    <ele>281.18</ele>
   </trkpt>
   <trkpt lat="-37.87863" lon="145.30831">
    <ele>271.97</ele>
   </trkpt>
   <trkpt lat="-37.87816" lon="145.30803">
    <ele>263.52000000000004</ele>
   </trkpt>
   <trkpt lat="-37.87787" lon="145.30791000000002">
    <ele>260.38</ele>
   </trkpt>
   <trkpt lat="-37.87744" lon="145.30784">
    <ele>255.79000000000002</ele>
   </trkpt>
   <trkpt lat="-37.87729" lon="145.30784">
    <ele>255.02</ele>
   </trkpt>
   <trkpt lat="-37.87686" lon="145.30793">
    <ele>250.68</ele>
   </trkpt>
   <trkpt lat="-37.876470000000005" lon="145.30795">
    <ele>247.44000000000003</ele>
   </trkpt>
   <trkpt lat="-37.876200000000004" lon="145.30781000000002">
    <ele>242.16</ele>
   </trkpt>
   <trkpt lat="-37.87604" lon="145.30775">
    <ele>240.47</ele>
   </trkpt>
   <trkpt lat="-37.87597" lon="145.30773000000002">
    <ele>239.70000000000002</ele>
   </trkpt>
   <trkpt lat="-37.87561" lon="145.30773000000002">
    <ele>235.46000000000004</ele>
   </trkpt>
   <trkpt lat="-37.87525" lon="145.30781000000002">
    <ele>230.24</ele>
   </trkpt>
   <trkpt lat="-37.87498" lon="145.30769">
    <ele>228.12</ele>
   </trkpt>
   <trkpt lat="-37.87483" lon="145.30766">
    <ele>228.15</ele>
   </trkpt>
   <trkpt lat="-37.87478" lon="145.3082">
    <ele>234.96000000000004</ele>
   </trkpt>
   <trkpt lat="-37.87473" lon="145.30829">
    <ele>238.93000000000004</ele>
   </trkpt>
   <trkpt lat="-37.87458" lon="145.30846000000003">
    <ele>240.57</ele>
   </trkpt>
   <trkpt lat="-37.87424" lon="145.30875">
    <ele>249.43</ele>
   </trkpt>
   <trkpt lat="-37.87411" lon="145.30882000000003">
    <ele>251.88000000000005</ele>
   </trkpt>
   <trkpt lat="-37.87369" lon="145.30894">
    <ele>257.88</ele>
   </trkpt>
   <trkpt lat="-37.87357" lon="145.30935000000002">
    <ele>269.48</ele>
   </trkpt>
   <trkpt lat="-37.87353" lon="145.30943000000002">
    <ele>269.48</ele>
   </trkpt>
   <trkpt lat="-37.87326" lon="145.30966">
    <ele>277.84000000000003</ele>
   </trkpt>
   <trkpt lat="-37.87317" lon="145.30980000000002">
    <ele>284.53</ele>
   </trkpt>
   <trkpt lat="-37.87306" lon="145.31023000000002">
    <ele>294.68</ele>
   </trkpt>
   <trkpt lat="-37.87299" lon="145.31035">
    <ele>300.06000000000006</ele>
   </trkpt>
   <trkpt lat="-37.8727" lon="145.31074">
    <ele>314.05000000000007</ele>
   </trkpt>
   <trkpt lat="-37.87236" lon="145.31108">
    <ele>328.36</ele>
   </trkpt>
   <trkpt lat="-37.872130000000006" lon="145.31118">
    <ele>334.46000000000004</ele>
   </trkpt>
   <trkpt lat="-37.87205" lon="145.31123000000002">
    <ele>337.27</ele>
   </trkpt>
   <trkpt lat="-37.872" lon="145.31129">
    <ele>340.52000000000004</ele>
   </trkpt>
   <trkpt lat="-37.871930000000006" lon="145.31158000000002">
    <ele>349.09000000000003</ele>
   </trkpt>
   <trkpt lat="-37.871970000000005" lon="145.31184000000002">
    <ele>355.98</ele>
   </trkpt>
   <trkpt lat="-37.87201" lon="145.31204000000002">
    <ele>360.75</ele>
   </trkpt>
   <trkpt lat="-37.87182" lon="145.31231000000002">
    <ele>369.23</ele>
   </trkpt>
   <trkpt lat="-37.87174" lon="145.31253">
    <ele>376.9</ele>
   </trkpt>
   <trkpt lat="-37.87165" lon="145.31262">
    <ele>376.9</ele>
   </trkpt>
   <trkpt lat="-37.87133" lon="145.3128">
    <ele>387.35</ele>
   </trkpt>
   <trkpt lat="-37.87127" lon="145.31286">
    <ele>389.27</ele>
   </trkpt>
   <trkpt lat="-37.87091000185914" lon="145.31352500326963">
    <ele>393.27</ele>
   </trkpt>
   <trkpt lat="-37.87055" lon="145.31419000000002">
    <ele>388.40000000000003</ele>
   </trkpt>
   <trkpt lat="-37.87041" lon="145.31411">
    <ele>386.52000000000004</ele>
   </trkpt>
   <trkpt lat="-37.870340000000006" lon="145.31408000000002">
    <ele>385.98</ele>
   </trkpt>
   <trkpt lat="-37.87026" lon="145.31409000000002">
    <ele>384.77000000000004</ele>
   </trkpt>
   <trkpt lat="-37.87017" lon="145.31414">
    <ele>382.67</ele>
   </trkpt>
   <trkpt lat="-37.86997" lon="145.31447">
    <ele>378.15000000000003</ele>
   </trkpt>
   <trkpt lat="-37.86988" lon="145.31455000000003">
    <ele>376.76000000000005</ele>
   </trkpt>
   <trkpt lat="-37.86972" lon="145.31458">
    <ele>374.02000000000004</ele>
   </trkpt>
   <trkpt lat="-37.869020000000006" lon="145.31414">
    <ele>361.31</ele>
   </trkpt>
   <trkpt lat="-37.86878" lon="145.31396">
    <ele>358.95000000000005</ele>
   </trkpt>
   <trkpt lat="-37.86856" lon="145.31388">
    <ele>356.23</ele>
   </trkpt>
   <trkpt lat="-37.86833" lon="145.31385">
    <ele>354.57000000000005</ele>
   </trkpt>
   <trkpt lat="-37.86777" lon="145.31386">
    <ele>354.14</ele>
   </trkpt>
   <trkpt lat="-37.86729500000908" lon="145.3137949995798">
    <ele>348.26</ele>
   </trkpt>
   <trkpt lat="-37.866820000000004" lon="145.31373000000002">
    <ele>346.03</ele>
   </trkpt>
   <trkpt lat="-37.86641000123328" lon="145.31425000277937">
    <ele>339.88</ele>
   </trkpt>
   <trkpt lat="-37.866" lon="145.31477">
    <ele>335.85</ele>
   </trkpt>
   <trkpt lat="-37.86598" lon="145.31474">
    <ele>328.29</ele>
   </trkpt>
   <trkpt lat="-37.8658" lon="145.31502">
    <ele>328.20000000000005</ele>
   </trkpt>
   <trkpt lat="-37.865480000000005" lon="145.31546">
    <ele>330.57000000000005</ele>
   </trkpt>
   <trkpt lat="-37.86536" lon="145.31595000000002">
    <ele>329.42</ele>
   </trkpt>
   <trkpt lat="-37.86515" lon="145.31638">
    <ele>327.44</ele>
   </trkpt>
   <trkpt lat="-37.86491" lon="145.31664">
    <ele>322.53000000000003</ele>
   </trkpt>
   <trkpt lat="-37.865120002529345" lon="145.3174149977527">
    <ele>313.58000000000004</ele>
   </trkpt>
   <trkpt lat="-37.86533" lon="145.31819000000002">
    <ele>287.62000000000006</ele>
   </trkpt>
   <trkpt lat="-37.86554" lon="145.31854">
    <ele>276.5</ele>
   </trkpt>
   <trkpt lat="-37.86589" lon="145.31827">
    <ele>282.34000000000003</ele>
   </trkpt>
   <trkpt lat="-37.86619" lon="145.31784000000002">
    <ele>292.28000000000003</ele>
   </trkpt>
   <trkpt lat="-37.866440000000004" lon="145.31706">
    <ele>302.33000000000004</ele>
   </trkpt>
   <trkpt lat="-37.86712" lon="145.31683">
    <ele>319.6</ele>
   </trkpt>
   <trkpt lat="-37.867490000000004" lon="145.3169">
    <ele>333.82</ele>
   </trkpt>
   <trkpt lat="-37.867650000000005" lon="145.31757000000002">
    <ele>344.09</ele>
   </trkpt>
   <trkpt lat="-37.867700000000006" lon="145.31759000000002">
    <ele>340.49</ele>
   </trkpt>
   <trkpt lat="-37.86759" lon="145.31787">
    <ele>339.5</ele>
   </trkpt>
   <trkpt lat="-37.86741" lon="145.31875000000002">
    <ele>336.23</ele>
   </trkpt>
   <trkpt lat="-37.86744" lon="145.31893000000002">
    <ele>335.47</ele>
   </trkpt>
   <trkpt lat="-37.86762" lon="145.31942">
    <ele>330.66</ele>
   </trkpt>
   <trkpt lat="-37.86782" lon="145.31976">
    <ele>329.08000000000004</ele>
   </trkpt>
   <trkpt lat="-37.86786" lon="145.31989000000002">
    <ele>328.87000000000006</ele>
   </trkpt>
   <trkpt lat="-37.86786" lon="145.31999000000002">
    <ele>328.86</ele>
   </trkpt>
   <trkpt lat="-37.867720000000006" lon="145.32028000000003">
    <ele>329.42</ele>
   </trkpt>
   <trkpt lat="-37.86737" lon="145.32079000000002">
    <ele>330.32</ele>
   </trkpt>
   <trkpt lat="-37.86712" lon="145.32127">
    <ele>329.29</ele>
   </trkpt>
   <trkpt lat="-37.86706" lon="145.32158">
    <ele>327.41</ele>
   </trkpt>
   <trkpt lat="-37.86715" lon="145.32185">
    <ele>326.12</ele>
   </trkpt>
   <trkpt lat="-37.86741" lon="145.32231000000002">
    <ele>322.11</ele>
   </trkpt>
   <trkpt lat="-37.86782500160754" lon="145.32293999634422">
    <ele>319.09000000000003</ele>
   </trkpt>
   <trkpt lat="-37.86824" lon="145.32357000000002">
    <ele>317.18</ele>
   </trkpt>
   <trkpt lat="-37.868280000000006" lon="145.32366000000002">
    <ele>317.18</ele>
   </trkpt>
   <trkpt lat="-37.86827" lon="145.32377000000002">
    <ele>316.49000000000007</ele>
   </trkpt>
   <trkpt lat="-37.868170000000006" lon="145.32392000000002">
    <ele>316.08000000000004</ele>
   </trkpt>
   <trkpt lat="-37.867715001552334" lon="145.32454000392826">
    <ele>310.66</ele>
   </trkpt>
   <trkpt lat="-37.86726" lon="145.32516">
    <ele>303.02</ele>
   </trkpt>
   <trkpt lat="-37.86685000000001" lon="145.32596">
    <ele>296.50000000000006</ele>
   </trkpt>
   <trkpt lat="-37.866660002443375" lon="145.32672000195626">
    <ele>309.13</ele>
   </trkpt>
   <trkpt lat="-37.86647" lon="145.32748">
    <ele>302.15000000000003</ele>
   </trkpt>
   <trkpt lat="-37.86619" lon="145.32715000000002">
    <ele>293.39000000000004</ele>
   </trkpt>
   <trkpt lat="-37.8655200003007" lon="145.32731500145448">
    <ele>268.03000000000003</ele>
   </trkpt>
   <trkpt lat="-37.864850000000004" lon="145.32748">
    <ele>254.43000000000004</ele>
   </trkpt>
   <trkpt lat="-37.86453" lon="145.32795000000002">
    <ele>258.29</ele>
   </trkpt>
   <trkpt lat="-37.86415" lon="145.32757">
    <ele>248.09000000000003</ele>
   </trkpt>
   <trkpt lat="-37.86343000009093" lon="145.32766000175576">
    <ele>246.98000000000002</ele>
   </trkpt>
   <trkpt lat="-37.862710000113346" lon="145.32775000175292">
    <ele>247.10000000000002</ele>
   </trkpt>
   <trkpt lat="-37.861990000000006" lon="145.32784">
    <ele>242.42000000000002</ele>
   </trkpt>
   <trkpt lat="-37.862550000000006" lon="145.32850000000002">
    <ele>263.15</ele>
   </trkpt>
   <trkpt lat="-37.862995001757106" lon="145.329154995961">
    <ele>283.83000000000004</ele>
   </trkpt>
   <trkpt lat="-37.863440000000004" lon="145.32981">
    <ele>310.25</ele>
   </trkpt>
   <trkpt lat="-37.86433" lon="145.32981">
    <ele>308.99</ele>
   </trkpt>
   <trkpt lat="-37.86475500057543" lon="145.3302149975517">
    <ele>312.29</ele>
   </trkpt>
   <trkpt lat="-37.86518" lon="145.33062">
    <ele>319.3</ele>
   </trkpt>
   <trkpt lat="-37.865665000582986" lon="145.33102999719347">
    <ele>323.27</ele>
   </trkpt>
   <trkpt lat="-37.866150000000005" lon="145.33144000000001">
    <ele>336.86</ele>
   </trkpt>
   <trkpt lat="-37.866960000000006" lon="145.33155000000002">
    <ele>340.87</ele>
   </trkpt>
   <trkpt lat="-37.867720000000006" lon="145.33149">
    <ele>342.46000000000004</ele>
   </trkpt>
   <trkpt lat="-37.86820500035056" lon="145.33179999792387">
    <ele>349.37</ele>
   </trkpt>
   <trkpt lat="-37.86869" lon="145.33211">
    <ele>348.34000000000003</ele>
   </trkpt>
   <trkpt lat="-37.869020000000006" lon="145.33274">
    <ele>353.84000000000003</ele>
   </trkpt>
   <trkpt lat="-37.868990000000004" lon="145.33343000000002">
    <ele>354.69</ele>
   </trkpt>
   <trkpt lat="-37.869020000000006" lon="145.33388000000002">
    <ele>360.00000000000006</ele>
   </trkpt>
   <trkpt lat="-37.86921" lon="145.33409">
    <ele>356.96000000000004</ele>
   </trkpt>
   <trkpt lat="-37.869785000436636" lon="145.3343049984123">
    <ele>350.96000000000004</ele>
   </trkpt>
   <trkpt lat="-37.870360000000005" lon="145.33452">
    <ele>362.8</ele>
   </trkpt>
   <trkpt lat="-37.870450000000005" lon="145.33465">
    <ele>355.50000000000006</ele>
   </trkpt>
   <trkpt lat="-37.87066" lon="145.33478000000002">
    <ele>357.25</ele>
   </trkpt>
   <trkpt lat="-37.87075" lon="145.33478000000002">
    <ele>357.25</ele>
   </trkpt>
   <trkpt lat="-37.870810000000006" lon="145.3347">
    <ele>359.1</ele>
   </trkpt>
   <trkpt lat="-37.870810000000006" lon="145.33446">
    <ele>360.06000000000006</ele>
   </trkpt>
   <trkpt lat="-37.87075" lon="145.33419">
    <ele>361.16</ele>
   </trkpt>
   <trkpt lat="-37.87082" lon="145.33339">
    <ele>366.75</ele>
   </trkpt>
   <trkpt lat="-37.87091" lon="145.33315000000002">
    <ele>368.12</ele>
   </trkpt>
   <trkpt lat="-37.871010000000005" lon="145.33295">
    <ele>368.19</ele>
   </trkpt>
   <trkpt lat="-37.871010000000005" lon="145.33294">
    <ele>368.19</ele>
   </trkpt>
   <trkpt lat="-37.87102" lon="145.33292">
    <ele>368.19</ele>
   </trkpt>
   <trkpt lat="-37.87113" lon="145.33284">
    <ele>368.13</ele>
   </trkpt>
   <trkpt lat="-37.871280000000006" lon="145.33282">
    <ele>368.37</ele>
   </trkpt>
   <trkpt lat="-37.87167" lon="145.33290000000002">
    <ele>371.91</ele>
   </trkpt>
   <trkpt lat="-37.87207" lon="145.33307000000002">
    <ele>376.72</ele>
   </trkpt>
   <trkpt lat="-37.87238" lon="145.33305000000001">
    <ele>381.84000000000003</ele>
   </trkpt>
   <trkpt lat="-37.87268" lon="145.33283">
    <ele>383.59000000000003</ele>
   </trkpt>
   <trkpt lat="-37.872890000000005" lon="145.3325">
    <ele>385.16</ele>
   </trkpt>
   <trkpt lat="-37.87301" lon="145.33226000000002">
    <ele>384.97</ele>
   </trkpt>
   <trkpt lat="-37.87301" lon="145.33218000000002">
    <ele>385.12</ele>
   </trkpt>
   <trkpt lat="-37.87297" lon="145.33206">
    <ele>385.66</ele>
   </trkpt>
   <trkpt lat="-37.87279" lon="145.33183000000002">
    <ele>387.55</ele>
   </trkpt>
   <trkpt lat="-37.87263" lon="145.33171000000002">
    <ele>388.94</ele>
   </trkpt>
   <trkpt lat="-37.87236" lon="145.33138000000002">
    <ele>390.69000000000005</ele>
   </trkpt>
   <trkpt lat="-37.87225" lon="145.33113">
    <ele>391.21000000000004</ele>
   </trkpt>
   <trkpt lat="-37.87223" lon="145.3309">
    <ele>391.45</ele>
   </trkpt>
   <trkpt lat="-37.87221" lon="145.33038000000002">
    <ele>394.75000000000006</ele>
   </trkpt>
   <trkpt lat="-37.87223" lon="145.33017">
    <ele>397.51000000000005</ele>
   </trkpt>
   <trkpt lat="-37.87227" lon="145.33004000000003">
    <ele>398.28000000000003</ele>
   </trkpt>
   <trkpt lat="-37.8725" lon="145.32989">
    <ele>402.35</ele>
   </trkpt>
   <trkpt lat="-37.87292" lon="145.32993000000002">
    <ele>408.27000000000004</ele>
   </trkpt>
   <trkpt lat="-37.87341" lon="145.33013000000003">
    <ele>414.81</ele>
   </trkpt>
   <trkpt lat="-37.87384" lon="145.33040000000003">
    <ele>419.08</ele>
   </trkpt>
   <trkpt lat="-37.873960000000004" lon="145.33053">
    <ele>421.6</ele>
   </trkpt>
   <trkpt lat="-37.87415" lon="145.33067">
    <ele>423.59000000000003</ele>
   </trkpt>
   <trkpt lat="-37.87444" lon="145.33082000000002">
    <ele>429.25</ele>
   </trkpt>
   <trkpt lat="-37.87465" lon="145.33086">
    <ele>432.12000000000006</ele>
   </trkpt>
   <trkpt lat="-37.875" lon="145.33088">
    <ele>435.83000000000004</ele>
   </trkpt>
   <trkpt lat="-37.875400000000006" lon="145.33097">
    <ele>440.24</ele>
   </trkpt>
   <trkpt lat="-37.87514" lon="145.33068">
    <ele>440.46000000000004</ele>
   </trkpt>
   <trkpt lat="-37.87491" lon="145.33029000000002">
    <ele>440.57</ele>
   </trkpt>
   <trkpt lat="-37.8748" lon="145.32998">
    <ele>440.54</ele>
   </trkpt>
   <trkpt lat="-37.87469" lon="145.32956000000001">
    <ele>441.78000000000003</ele>
   </trkpt>
   <trkpt lat="-37.87456" lon="145.32923000000002">
    <ele>443.90000000000003</ele>
   </trkpt>
   <trkpt lat="-37.87435" lon="145.32887000000002">
    <ele>447.36</ele>
   </trkpt>
   <trkpt lat="-37.87382" lon="145.32833000000002">
    <ele>453.16</ele>
   </trkpt>
   <trkpt lat="-37.87368" lon="145.32803">
    <ele>458.47</ele>
   </trkpt>
   <trkpt lat="-37.87366" lon="145.32778000000002">
    <ele>463.11</ele>
   </trkpt>
   <trkpt lat="-37.87359" lon="145.32762000000002">
    <ele>465.75000000000006</ele>
   </trkpt>
   <trkpt lat="-37.87315500148315" lon="145.32701999640304">
    <ele>472.02000000000004</ele>
   </trkpt>
   <trkpt lat="-37.87272" lon="145.32642">
    <ele>480.47</ele>
   </trkpt>
   <trkpt lat="-37.87248" lon="145.32616000000002">
    <ele>482.74000000000007</ele>
   </trkpt>
   <trkpt lat="-37.87238" lon="145.32607000000002">
    <ele>483.59000000000003</ele>
   </trkpt>
   <trkpt lat="-37.87182" lon="145.3257">
    <ele>484.03000000000003</ele>
   </trkpt>
   <trkpt lat="-37.87171" lon="145.32548">
    <ele>484.48</ele>
   </trkpt>
   <trkpt lat="-37.87171" lon="145.32545000000002">
    <ele>484.48</ele>
   </trkpt>
   <trkpt lat="-37.871880000000004" lon="145.32536000000002">
    <ele>485.76</ele>
   </trkpt>
   <trkpt lat="-37.87187" lon="145.32511000000002">
    <ele>486.16</ele>
   </trkpt>
   <trkpt lat="-37.87194" lon="145.32494">
    <ele>486.23</ele>
   </trkpt>
   <trkpt lat="-37.872260000000004" lon="145.32457000000002">
    <ele>486.57000000000005</ele>
   </trkpt>
   <trkpt lat="-37.87227" lon="145.32457000000002">
    <ele>486.63000000000005</ele>
   </trkpt>
   <trkpt lat="-37.87259" lon="145.32422000000003">
    <ele>485.90000000000003</ele>
   </trkpt>
   <trkpt lat="-37.8727" lon="145.3239">
    <ele>482.51000000000005</ele>
   </trkpt>
   <trkpt lat="-37.872690000000006" lon="145.32358000000002">
    <ele>480.26</ele>
   </trkpt>
   <trkpt lat="-37.87261" lon="145.32311">
    <ele>476.26</ele>
   </trkpt>
   <trkpt lat="-37.87263" lon="145.32264">
    <ele>476.67</ele>
   </trkpt>
   <trkpt lat="-37.87256" lon="145.32212">
    <ele>481.50000000000006</ele>
   </trkpt>
   <trkpt lat="-37.87261" lon="145.32164">
    <ele>487.50000000000006</ele>
   </trkpt>
   <trkpt lat="-37.8727" lon="145.32129">
    <ele>493.96000000000004</ele>
   </trkpt>
   <trkpt lat="-37.87259" lon="145.32068">
    <ele>502.46</ele>
   </trkpt>
   <trkpt lat="-37.87259" lon="145.32046000000003">
    <ele>507.53999999999996</ele>
   </trkpt>
   <trkpt lat="-37.872690000000006" lon="145.31988">
    <ele>514.38</ele>
   </trkpt>
   <trkpt lat="-37.87261" lon="145.31986">
    <ele>514.38</ele>
   </trkpt>
   <trkpt lat="-37.87263" lon="145.3197">
    <ele>515.51</ele>
   </trkpt>
   <trkpt lat="-37.872640000000004" lon="145.31964000000002">
    <ele>515.6200000000001</ele>
   </trkpt>
   <trkpt lat="-37.87303" lon="145.31965000000002">
    <ele>513.97</ele>
   </trkpt>
   <trkpt lat="-37.87328" lon="145.3197">
    <ele>511.21000000000004</ele>
   </trkpt>
   <trkpt lat="-37.87355" lon="145.31979">
    <ele>509.2000000000001</ele>
   </trkpt>
   <trkpt lat="-37.874" lon="145.32000000000002">
    <ele>504.31</ele>
   </trkpt>
   <trkpt lat="-37.87415" lon="145.32003">
    <ele>502.33000000000004</ele>
   </trkpt>
   <trkpt lat="-37.87442" lon="145.32003">
    <ele>499.41</ele>
   </trkpt>
   <trkpt lat="-37.87473" lon="145.32017000000002">
    <ele>495.41</ele>
   </trkpt>
   <trkpt lat="-37.87491" lon="145.3202">
    <ele>493.97</ele>
   </trkpt>
   <trkpt lat="-37.874985003652874" lon="145.32112999899306">
    <ele>490.83000000000004</ele>
   </trkpt>
   <trkpt lat="-37.875060000000005" lon="145.32206000000002">
    <ele>494.39000000000004</ele>
   </trkpt>
   <trkpt lat="-37.87518" lon="145.32201">
    <ele>493.7900000000001</ele>
   </trkpt>
   <trkpt lat="-37.87529" lon="145.32202">
    <ele>493.51000000000005</ele>
   </trkpt>
   <trkpt lat="-37.87568" lon="145.32217">
    <ele>494.02</ele>
   </trkpt>
   <trkpt lat="-37.876215000218856" lon="145.322354998682">
    <ele>494.99</ele>
   </trkpt>
   <trkpt lat="-37.87675" lon="145.32254">
    <ele>493.21000000000004</ele>
   </trkpt>
   <trkpt lat="-37.877" lon="145.32270000000003">
    <ele>494.76000000000005</ele>
   </trkpt>
   <trkpt lat="-37.877460000000006" lon="145.32294000000002">
    <ele>496.85</ele>
   </trkpt>
   <trkpt lat="-37.87747" lon="145.32294000000002">
    <ele>496.89000000000004</ele>
   </trkpt>
   <trkpt lat="-37.87783" lon="145.32313000000002">
    <ele>498.27000000000004</ele>
   </trkpt>
   <trkpt lat="-37.8782" lon="145.32342">
    <ele>497.71000000000004</ele>
   </trkpt>
   <trkpt lat="-37.8787" lon="145.32406">
    <ele>498.58000000000004</ele>
   </trkpt>
   <trkpt lat="-37.87892" lon="145.32431000000003">
    <ele>499.58000000000004</ele>
   </trkpt>
   <trkpt lat="-37.87932" lon="145.32488">
    <ele>498.25</ele>
   </trkpt>
   <trkpt lat="-37.87993" lon="145.32551">
    <ele>493.07000000000005</ele>
   </trkpt>
   <trkpt lat="-37.88067" lon="145.32611">
    <ele>484.98</ele>
   </trkpt>
   <trkpt lat="-37.88132" lon="145.32653000000002">
    <ele>478.82</ele>
   </trkpt>
   <trkpt lat="-37.88172" lon="145.32688000000002">
    <ele>474.05</ele>
   </trkpt>
   <trkpt lat="-37.88181" lon="145.32698000000002">
    <ele>473.26</ele>
   </trkpt>
   <trkpt lat="-37.88201" lon="145.32736">
    <ele>471.76</ele>
   </trkpt>
   <trkpt lat="-37.88223" lon="145.32806000000002">
    <ele>465.5</ele>
   </trkpt>
   <trkpt lat="-37.88241" lon="145.32832000000002">
    <ele>461.88</ele>
   </trkpt>
   <trkpt lat="-37.88264" lon="145.32853">
    <ele>455.96000000000004</ele>
   </trkpt>
   <trkpt lat="-37.88284" lon="145.32863">
    <ele>451.97</ele>
   </trkpt>
   <trkpt lat="-37.88311" lon="145.32864">
    <ele>446.70000000000005</ele>
   </trkpt>
   <trkpt lat="-37.883480000000006" lon="145.32858000000002">
    <ele>440.59000000000003</ele>
   </trkpt>
   <trkpt lat="-37.88349" lon="145.32858000000002">
    <ele>440.47</ele>
   </trkpt>
   <trkpt lat="-37.88378" lon="145.32857">
    <ele>436.38000000000005</ele>
   </trkpt>
   <trkpt lat="-37.88407" lon="145.32862">
    <ele>431.16</ele>
   </trkpt>
   <trkpt lat="-37.88447" lon="145.32879">
    <ele>424.69</ele>
   </trkpt>
   <trkpt lat="-37.88499" lon="145.32899">
    <ele>412.67</ele>
   </trkpt>
   <trkpt lat="-37.88555" lon="145.32899">
    <ele>402.01000000000005</ele>
   </trkpt>
   <trkpt lat="-37.88584" lon="145.32891">
    <ele>396.02000000000004</ele>
   </trkpt>
   <trkpt lat="-37.88604" lon="145.32873">
    <ele>390.07</ele>
   </trkpt>
   <trkpt lat="-37.88624" lon="145.32841000000002">
    <ele>382.12</ele>
   </trkpt>
   <trkpt lat="-37.886390000000006" lon="145.32833000000002">
    <ele>380.93000000000006</ele>
   </trkpt>
   <trkpt lat="-37.88638" lon="145.32786000000002">
    <ele>378.02000000000004</ele>
   </trkpt>
   <trkpt lat="-37.88624" lon="145.32771000000002">
    <ele>377.51</ele>
   </trkpt>
   <trkpt lat="-37.8862" lon="145.3274">
    <ele>376.91</ele>
   </trkpt>
   <trkpt lat="-37.886190000000006" lon="145.32696">
    <ele>377.14000000000004</ele>
   </trkpt>
   <trkpt lat="-37.88608" lon="145.32707000000002">
    <ele>375.55000000000007</ele>
   </trkpt>
   <trkpt lat="-37.8857" lon="145.3273">
    <ele>372.06000000000006</ele>
   </trkpt>
   <trkpt lat="-37.88559" lon="145.32723000000001">
    <ele>370.45000000000005</ele>
   </trkpt>
   <trkpt lat="-37.88555" lon="145.32716000000002">
    <ele>369.52</ele>
   </trkpt>
   <trkpt lat="-37.88546" lon="145.32689000000002">
    <ele>367.25</ele>
   </trkpt>
   <trkpt lat="-37.88539" lon="145.32682">
    <ele>365.66</ele>
   </trkpt>
   <trkpt lat="-37.88532" lon="145.32677">
    <ele>364.24</ele>
   </trkpt>
   <trkpt lat="-37.88517" lon="145.32679000000002">
    <ele>362.73</ele>
   </trkpt>
   <trkpt lat="-37.8851" lon="145.32674">
    <ele>362.73</ele>
   </trkpt>
   <trkpt lat="-37.88503" lon="145.32657">
    <ele>360.79</ele>
   </trkpt>
   <trkpt lat="-37.88501" lon="145.32641">
    <ele>359.66</ele>
   </trkpt>
   <trkpt lat="-37.88481" lon="145.32615">
    <ele>355.89000000000004</ele>
   </trkpt>
   <trkpt lat="-37.88472" lon="145.32611">
    <ele>354.69</ele>
   </trkpt>
   <trkpt lat="-37.8847" lon="145.32606">
    <ele>354.69</ele>
   </trkpt>
   <trkpt lat="-37.88467" lon="145.32594">
    <ele>353.61</ele>
   </trkpt>
   <trkpt lat="-37.88472" lon="145.32581000000002">
    <ele>352.79</ele>
   </trkpt>
   <trkpt lat="-37.88483" lon="145.32566">
    <ele>350.21000000000004</ele>
   </trkpt>
   <trkpt lat="-37.8849" lon="145.32534">
    <ele>347.06</ele>
   </trkpt>
   <trkpt lat="-37.88494" lon="145.32504">
    <ele>341.95000000000005</ele>
   </trkpt>
   <trkpt lat="-37.88494" lon="145.32475000000002">
    <ele>338.90000000000003</ele>
   </trkpt>
   <trkpt lat="-37.8849" lon="145.32459">
    <ele>336.33</ele>
   </trkpt>
   <trkpt lat="-37.88481" lon="145.32436">
    <ele>334.06</ele>
   </trkpt>
   <trkpt lat="-37.88481" lon="145.32417">
    <ele>331.79</ele>
   </trkpt>
   <trkpt lat="-37.88483" lon="145.32404000000002">
    <ele>329.62</ele>
   </trkpt>
   <trkpt lat="-37.88481" lon="145.32355">
    <ele>318.51</ele>
   </trkpt>
   <trkpt lat="-37.8849" lon="145.32336">
    <ele>315.73</ele>
   </trkpt>
   <trkpt lat="-37.88488" lon="145.32315">
    <ele>314.96000000000004</ele>
   </trkpt>
   <trkpt lat="-37.88479" lon="145.32282">
    <ele>309.42</ele>
   </trkpt>
   <trkpt lat="-37.88465" lon="145.32261000000003">
    <ele>305.23</ele>
   </trkpt>
   <trkpt lat="-37.884570000000004" lon="145.32260000000002">
    <ele>305.21000000000004</ele>
   </trkpt>
   <trkpt lat="-37.88447" lon="145.32227">
    <ele>303.06000000000006</ele>
   </trkpt>
   <trkpt lat="-37.88443" lon="145.32186000000002">
    <ele>297.91</ele>
   </trkpt>
   <trkpt lat="-37.88432" lon="145.32141000000001">
    <ele>294.1</ele>
   </trkpt>
   <trkpt lat="-37.88423" lon="145.32127">
    <ele>291.87</ele>
   </trkpt>
   <trkpt lat="-37.88416" lon="145.3211">
    <ele>289.54</ele>
   </trkpt>
   <trkpt lat="-37.88416" lon="145.32099000000002">
    <ele>288.32</ele>
   </trkpt>
   <trkpt lat="-37.88425" lon="145.32069">
    <ele>284.76</ele>
   </trkpt>
   <trkpt lat="-37.88429" lon="145.32048">
    <ele>283.18000000000006</ele>
   </trkpt>
   <trkpt lat="-37.88425" lon="145.3202">
    <ele>279.88</ele>
   </trkpt>
   <trkpt lat="-37.88416" lon="145.31998000000002">
    <ele>278.25</ele>
   </trkpt>
   <trkpt lat="-37.88416" lon="145.31972000000002">
    <ele>276.75</ele>
   </trkpt>
   <trkpt lat="-37.88411" lon="145.31923">
    <ele>270.59</ele>
   </trkpt>
   <trkpt lat="-37.88409" lon="145.31915">
    <ele>269.49</ele>
   </trkpt>
   <trkpt lat="-37.884" lon="145.31884000000002">
    <ele>267.09000000000003</ele>
   </trkpt>
   <trkpt lat="-37.88378" lon="145.31852">
    <ele>264.53000000000003</ele>
   </trkpt>
   <trkpt lat="-37.88373" lon="145.31835">
    <ele>262.53000000000003</ele>
   </trkpt>
   <trkpt lat="-37.88396" lon="145.31833">
    <ele>258.44</ele>
   </trkpt>
   <trkpt lat="-37.88429" lon="145.31839000000002">
    <ele>254.98999999999998</ele>
   </trkpt>
   <trkpt lat="-37.88479" lon="145.31835">
    <ele>248.28000000000003</ele>
   </trkpt>
   <trkpt lat="-37.88528" lon="145.31820000000002">
    <ele>237.59000000000003</ele>
   </trkpt>
   <trkpt lat="-37.88537" lon="145.31811000000002">
    <ele>236.08</ele>
   </trkpt>
   <trkpt lat="-37.88546" lon="145.31806">
    <ele>235.47</ele>
   </trkpt>
   <trkpt lat="-37.88553" lon="145.31806">
    <ele>235.33</ele>
   </trkpt>
   <trkpt lat="-37.885740000000006" lon="145.31805">
    <ele>232.71000000000004</ele>
   </trkpt>
   <trkpt lat="-37.885830000000006" lon="145.31797">
    <ele>231.55</ele>
   </trkpt>
   <trkpt lat="-37.88611" lon="145.31784000000002">
    <ele>229.70000000000002</ele>
   </trkpt>
   <trkpt lat="-37.88667" lon="145.31742">
    <ele>228.17000000000002</ele>
   </trkpt>
   <trkpt lat="-37.886880000000005" lon="145.31755">
    <ele>225.49</ele>
   </trkpt>
   <trkpt lat="-37.88712" lon="145.31764">
    <ele>220.79000000000002</ele>
   </trkpt>
   <trkpt lat="-37.88725" lon="145.31765000000001">
    <ele>216.88000000000002</ele>
   </trkpt>
   <trkpt lat="-37.88761" lon="145.31761">
    <ele>213.94000000000003</ele>
   </trkpt>
   <trkpt lat="-37.88772" lon="145.31759000000002">
    <ele>212.31000000000003</ele>
   </trkpt>
   <trkpt lat="-37.88781" lon="145.31755">
    <ele>210.83</ele>
   </trkpt>
   <trkpt lat="-37.88787000000001" lon="145.31756000000001">
    <ele>210.69</ele>
   </trkpt>
   <trkpt lat="-37.88796" lon="145.31747000000001">
    <ele>209.95000000000002</ele>
   </trkpt>
   <trkpt lat="-37.88808" lon="145.31744">
    <ele>208.51000000000002</ele>
   </trkpt>
   <trkpt lat="-37.888270000000006" lon="145.31747000000001">
    <ele>207.21</ele>
   </trkpt>
   <trkpt lat="-37.88828" lon="145.31748000000002">
    <ele>207.21</ele>
   </trkpt>
   <trkpt lat="-37.88839" lon="145.31750000000002">
    <ele>205.13</ele>
   </trkpt>
   <trkpt lat="-37.88846" lon="145.31753">
    <ele>205.13</ele>
   </trkpt>
   <trkpt lat="-37.88866" lon="145.31772">
    <ele>202.15000000000003</ele>
   </trkpt>
   <trkpt lat="-37.88929" lon="145.31777000000002">
    <ele>196.48000000000002</ele>
   </trkpt>
   <trkpt lat="-37.889410000000005" lon="145.31771">
    <ele>192.17000000000002</ele>
   </trkpt>
   <trkpt lat="-37.88964" lon="145.31767000000002">
    <ele>192.17000000000002</ele>
   </trkpt>
   <trkpt lat="-37.88964" lon="145.31766000000002">
    <ele>192.05</ele>
   </trkpt>
   <trkpt lat="-37.88973" lon="145.31761">
    <ele>191.01000000000002</ele>
   </trkpt>
   <trkpt lat="-37.88978" lon="145.31753">
    <ele>190.19000000000003</ele>
   </trkpt>
   <trkpt lat="-37.890280000000004" lon="145.31739000000002">
    <ele>186.05</ele>
   </trkpt>
   <trkpt lat="-37.89043" lon="145.31745">
    <ele>184.8</ele>
   </trkpt>
   <trkpt lat="-37.89049" lon="145.31752">
    <ele>184.06</ele>
   </trkpt>
   <trkpt lat="-37.89058" lon="145.31753">
    <ele>183.19000000000003</ele>
   </trkpt>
   <trkpt lat="-37.89067" lon="145.31745">
    <ele>183.19000000000003</ele>
   </trkpt>
   <trkpt lat="-37.89074" lon="145.31744">
    <ele>180.74</ele>
   </trkpt>
   <trkpt lat="-37.89081" lon="145.31740000000002">
    <ele>180.74</ele>
   </trkpt>
  </trkseg>
 </trk>
</gpx>
