<?xml version="1.0" encoding="UTF-8"?>
<gpx creator="StravaGPX" version="1.1" xmlns="http://www.topografix.com/GPX/1/1" xmlns:xsi="http://www.w3.org/2001/XMLSchema-instance" xsi:schemaLocation="http://www.topografix.com/GPX/1/1 http://www.topografix.com/GPX/1/1/gpx.xsd">
 <metadata>
  <name>DTR 23rd Nov - 8k</name>
  <author>
   <name>DTR  Runleaders</name>
   <link href="https://www.strava.com/athletes/194056408"/>
  </author>
  <copyright author="OpenStreetMap contributors">
   <year>2020</year>
   <license>https://www.openstreetmap.org/copyright</license>
  </copyright>
  <link href="https://www.strava.com/routes/3426532852779234244"/>
 </metadata>
 <trk>
  <name>DTR 23rd Nov - 8k</name>
  <link href="https://www.strava.com/routes/3426532852779234244"/>
  <type>running</type>
  <trkseg>
   <trkpt lat="-37.887890000000006" lon="145.36996000000002">
    <ele>360.94000000000005</ele>
   </trkpt>
   <trkpt lat="-37.887620000000005" lon="145.36993">
    <ele>360.51000000000005</ele>
   </trkpt>
   <trkpt lat="-37.88749" lon="145.36999">
    <ele>360.59000000000003</ele>
   </trkpt>
   <trkpt lat="-37.88738" lon="145.37008">
    <ele>362.61</ele>
   </trkpt>
   <trkpt lat="-37.88729" lon="145.37024000000002">
    <ele>363.92</ele>
   </trkpt>
   <trkpt lat="-37.886860000000006" lon="145.37055">
    <ele>367.48</ele>
   </trkpt>
   <trkpt lat="-37.88689" lon="145.37066000000002">
    <ele>370.8</ele>
   </trkpt>
   <trkpt lat="-37.88682" lon="145.37084000000002">
    <ele>370.64000000000004</ele>
   </trkpt>
   <trkpt lat="-37.886770000000006" lon="145.37092">
    <ele>370.64000000000004</ele>
   </trkpt>
   <trkpt lat="-37.8866" lon="145.37096000000003">
    <ele>370.71000000000004</ele>
   </trkpt>
   <trkpt lat="-37.88644" lon="145.37119">
    <ele>371.20000000000005</ele>
   </trkpt>
   <trkpt lat="-37.88635" lon="145.37127">
    <ele>372.27000000000004</ele>
   </trkpt>
   <trkpt lat="-37.88617" lon="145.37130000000002">
    <ele>372.93</ele>
   </trkpt>
   <trkpt lat="-37.88584" lon="145.37130000000002">
    <ele>374.3</ele>
   </trkpt>
   <trkpt lat="-37.88557" lon="145.37139000000002">
    <ele>375.23</ele>
   </trkpt>
   <trkpt lat="-37.88552" lon="145.37135">
    <ele>375.23</ele>
   </trkpt>
   <trkpt lat="-37.88543000000001" lon="145.37133">
    <ele>373.49</ele>
   </trkpt>
   <trkpt lat="-37.88537" lon="145.37118">
    <ele>372.63</ele>
   </trkpt>
   <trkpt lat="-37.8853" lon="145.37123000000003">
    <ele>374.33000000000004</ele>
   </trkpt>
   <trkpt lat="-37.88571" lon="145.37196">
    <ele>376.00000000000006</ele>
   </trkpt>
   <trkpt lat="-37.88613" lon="145.37255000000002">
    <ele>381.32000000000005</ele>
   </trkpt>
   <trkpt lat="-37.886430000000004" lon="145.37301000000002">
    <ele>383.44000000000005</ele>
   </trkpt>
   <trkpt lat="-37.88698" lon="145.37387">
    <ele>390.91</ele>
   </trkpt>
   <trkpt lat="-37.88709" lon="145.37441">
    <ele>394.03000000000003</ele>
   </trkpt>
   <trkpt lat="-37.88718" lon="145.37521">
    <ele>398.42</ele>
   </trkpt>
   <trkpt lat="-37.88714" lon="145.37576">
    <ele>401.07000000000005</ele>
   </trkpt>
   <trkpt lat="-37.88696" lon="145.37626">
    <ele>402.55</ele>
   </trkpt>
   <trkpt lat="-37.88682" lon="145.37684000000002">
    <ele>404.31000000000006</ele>
   </trkpt>
   <trkpt lat="-37.88658" lon="145.37748000000002">
    <ele>404.83000000000004</ele>
   </trkpt>
   <trkpt lat="-37.88664" lon="145.3776">
    <ele>404.52000000000004</ele>
   </trkpt>
   <trkpt lat="-37.8866" lon="145.3778">
    <ele>404.36000000000007</ele>
   </trkpt>
   <trkpt lat="-37.886720000000004" lon="145.37794000000002">
    <ele>403.67</ele>
   </trkpt>
   <trkpt lat="-37.887240000000006" lon="145.3779">
    <ele>403.66</ele>
   </trkpt>
   <trkpt lat="-37.8877" lon="145.37814">
    <ele>408.25000000000006</ele>
   </trkpt>
   <trkpt lat="-37.888235000182" lon="145.37803000077236">
    <ele>403.96000000000004</ele>
   </trkpt>
   <trkpt lat="-37.88877" lon="145.37792000000002">
    <ele>399.08000000000004</ele>
   </trkpt>
   <trkpt lat="-37.888780000000004" lon="145.37792000000002">
    <ele>398.91</ele>
   </trkpt>
   <trkpt lat="-37.88931" lon="145.37781">
    <ele>394.79</ele>
   </trkpt>
   <trkpt lat="-37.89016" lon="145.37795">
    <ele>391.16</ele>
   </trkpt>
   <trkpt lat="-37.89085" lon="145.37794000000002">
    <ele>388.68</ele>
   </trkpt>
   <trkpt lat="-37.89112" lon="145.3779">
    <ele>386.41</ele>
   </trkpt>
   <trkpt lat="-37.89123" lon="145.37791">
    <ele>385.97</ele>
   </trkpt>
   <trkpt lat="-37.89139" lon="145.37794000000002">
    <ele>385.40000000000003</ele>
   </trkpt>
   <trkpt lat="-37.89177" lon="145.37807">
    <ele>382.84000000000003</ele>
   </trkpt>
   <trkpt lat="-37.89222" lon="145.37835">
    <ele>381.03000000000003</ele>
   </trkpt>
   <trkpt lat="-37.89229" lon="145.37834">
    <ele>380.62</ele>
   </trkpt>
   <trkpt lat="-37.89235" lon="145.37830000000002">
    <ele>379.43000000000006</ele>
   </trkpt>
   <trkpt lat="-37.89249" lon="145.37814">
    <ele>375.1</ele>
   </trkpt>
   <trkpt lat="-37.89262" lon="145.37792000000002">
    <ele>371.69</ele>
   </trkpt>
   <trkpt lat="-37.89267" lon="145.37773">
    <ele>369.53000000000003</ele>
   </trkpt>
   <trkpt lat="-37.89264" lon="145.37733">
    <ele>364.69</ele>
   </trkpt>
   <trkpt lat="-37.89258" lon="145.37708">
    <ele>363.6</ele>
   </trkpt>
   <trkpt lat="-37.892350001316714" lon="145.37650499799926">
    <ele>357.87</ele>
   </trkpt>
   <trkpt lat="-37.892120000000006" lon="145.37593">
    <ele>352.0</ele>
   </trkpt>
   <trkpt lat="-37.89166" lon="145.37524000000002">
    <ele>345.06</ele>
   </trkpt>
   <trkpt lat="-37.89146" lon="145.37505000000002">
    <ele>344.07000000000005</ele>
   </trkpt>
   <trkpt lat="-37.89137" lon="145.37499000000003">
    <ele>343.80000000000007</ele>
   </trkpt>
   <trkpt lat="-37.89114" lon="145.37492">
    <ele>344.30000000000007</ele>
   </trkpt>
   <trkpt lat="-37.89079" lon="145.37492">
    <ele>344.69000000000005</ele>
   </trkpt>
   <trkpt lat="-37.89112" lon="145.37477">
    <ele>341.04</ele>
   </trkpt>
   <trkpt lat="-37.891180000000006" lon="145.37476">
    <ele>340.57000000000005</ele>
   </trkpt>
   <trkpt lat="-37.89137" lon="145.37478000000002">
    <ele>337.47</ele>
   </trkpt>
   <trkpt lat="-37.89148" lon="145.37473">
    <ele>336.98</ele>
   </trkpt>
   <trkpt lat="-37.89157" lon="145.37466">
    <ele>336.05</ele>
   </trkpt>
   <trkpt lat="-37.89159" lon="145.37459">
    <ele>336.05</ele>
   </trkpt>
   <trkpt lat="-37.89159" lon="145.37401">
    <ele>341.54</ele>
   </trkpt>
   <trkpt lat="-37.89161" lon="145.37392">
    <ele>341.54</ele>
   </trkpt>
   <trkpt lat="-37.89166" lon="145.37383">
    <ele>341.54</ele>
   </trkpt>
   <trkpt lat="-37.89175" lon="145.37377">
    <ele>343.05</ele>
   </trkpt>
   <trkpt lat="-37.89193" lon="145.37368">
    <ele>345.39000000000004</ele>
   </trkpt>
   <trkpt lat="-37.89213" lon="145.37365">
    <ele>349.90000000000003</ele>
   </trkpt>
   <trkpt lat="-37.8924" lon="145.37368">
    <ele>352.33000000000004</ele>
   </trkpt>
   <trkpt lat="-37.89284" lon="145.37382000000002">
    <ele>356.92</ele>
   </trkpt>
   <trkpt lat="-37.89331" lon="145.37409000000002">
    <ele>361.09000000000003</ele>
   </trkpt>
   <trkpt lat="-37.89349" lon="145.37424000000001">
    <ele>363.44000000000005</ele>
   </trkpt>
   <trkpt lat="-37.89361" lon="145.3744">
    <ele>365.48</ele>
   </trkpt>
   <trkpt lat="-37.89383" lon="145.37475">
    <ele>370.25</ele>
   </trkpt>
   <trkpt lat="-37.89392" lon="145.37482">
    <ele>371.58000000000004</ele>
   </trkpt>
   <trkpt lat="-37.89423" lon="145.37495">
    <ele>376.92</ele>
   </trkpt>
   <trkpt lat="-37.89437" lon="145.37505000000002">
    <ele>378.44000000000005</ele>
   </trkpt>
   <trkpt lat="-37.894560000000006" lon="145.37512">
    <ele>381.96000000000004</ele>
   </trkpt>
   <trkpt lat="-37.89479" lon="145.37516000000002">
    <ele>388.47</ele>
   </trkpt>
   <trkpt lat="-37.89513" lon="145.37514000000002">
    <ele>391.76000000000005</ele>
   </trkpt>
   <trkpt lat="-37.89549" lon="145.37521">
    <ele>396.14000000000004</ele>
   </trkpt>
   <trkpt lat="-37.8958" lon="145.37517000000003">
    <ele>397.62</ele>
   </trkpt>
   <trkpt lat="-37.896080000000005" lon="145.37524000000002">
    <ele>397.91</ele>
   </trkpt>
   <trkpt lat="-37.89636" lon="145.37518">
    <ele>398.18</ele>
   </trkpt>
   <trkpt lat="-37.89658" lon="145.37518">
    <ele>398.07000000000005</ele>
   </trkpt>
   <trkpt lat="-37.89676" lon="145.37524000000002">
    <ele>398.32</ele>
   </trkpt>
   <trkpt lat="-37.89701" lon="145.37541000000002">
    <ele>398.99</ele>
   </trkpt>
   <trkpt lat="-37.89723" lon="145.37565">
    <ele>398.99</ele>
   </trkpt>
   <trkpt lat="-37.89734" lon="145.37586000000002">
    <ele>399.69000000000005</ele>
   </trkpt>
   <trkpt lat="-37.897540000000006" lon="145.37663">
    <ele>398.83</ele>
   </trkpt>
   <trkpt lat="-37.89772" lon="145.37738000000002">
    <ele>396.94</ele>
   </trkpt>
   <trkpt lat="-37.89781" lon="145.3779">
    <ele>396.62</ele>
   </trkpt>
   <trkpt lat="-37.8979" lon="145.37899000000002">
    <ele>400.09000000000003</ele>
   </trkpt>
   <trkpt lat="-37.897920000000006" lon="145.37907">
    <ele>399.96000000000004</ele>
   </trkpt>
   <trkpt lat="-37.897980000000004" lon="145.37919000000002">
    <ele>398.72</ele>
   </trkpt>
   <trkpt lat="-37.89822" lon="145.37928000000002">
    <ele>398.92</ele>
   </trkpt>
   <trkpt lat="-37.8984" lon="145.3794">
    <ele>398.08000000000004</ele>
   </trkpt>
   <trkpt lat="-37.899115000498796" lon="145.37975999647793">
    <ele>391.53000000000003</ele>
   </trkpt>
   <trkpt lat="-37.89983" lon="145.38012">
    <ele>382.45</ele>
   </trkpt>
   <trkpt lat="-37.90003" lon="145.38018000000002">
    <ele>381.48</ele>
   </trkpt>
   <trkpt lat="-37.90003" lon="145.38019">
    <ele>381.47</ele>
   </trkpt>
   <trkpt lat="-37.90025" lon="145.38027000000002">
    <ele>379.22</ele>
   </trkpt>
   <trkpt lat="-37.90095" lon="145.38066">
    <ele>375.78000000000003</ele>
   </trkpt>
   <trkpt lat="-37.90166" lon="145.38102">
    <ele>371.49</ele>
   </trkpt>
   <trkpt lat="-37.9022" lon="145.38132000000002">
    <ele>370.62</ele>
   </trkpt>
   <trkpt lat="-37.90243" lon="145.38138">
    <ele>370.42</ele>
   </trkpt>
   <trkpt lat="-37.9026" lon="145.38141000000002">
    <ele>369.68</ele>
   </trkpt>
   <trkpt lat="-37.90278" lon="145.38134000000002">
    <ele>368.00000000000006</ele>
   </trkpt>
   <trkpt lat="-37.90285" lon="145.38128">
    <ele>366.68</ele>
   </trkpt>
   <trkpt lat="-37.90307" lon="145.38094">
    <ele>359.44000000000005</ele>
   </trkpt>
   <trkpt lat="-37.90325" lon="145.38043000000002">
    <ele>349.06</ele>
   </trkpt>
   <trkpt lat="-37.90339" lon="145.38022">
    <ele>343.7</ele>
   </trkpt>
   <trkpt lat="-37.90368" lon="145.37987">
    <ele>336.17</ele>
   </trkpt>
   <trkpt lat="-37.90404" lon="145.37937000000002">
    <ele>324.65000000000003</ele>
   </trkpt>
   <trkpt lat="-37.904320000859784" lon="145.3788850020797">
    <ele>315.83</ele>
   </trkpt>
   <trkpt lat="-37.9046" lon="145.3784">
    <ele>306.24</ele>
   </trkpt>
   <trkpt lat="-37.90475" lon="145.37804">
    <ele>297.69</ele>
   </trkpt>
   <trkpt lat="-37.904970000000006" lon="145.37744">
    <ele>284.22</ele>
   </trkpt>
   <trkpt lat="-37.90523000176999" lon="145.3768050020867">
    <ele>274.31</ele>
   </trkpt>
   <trkpt lat="-37.90549" lon="145.37617">
    <ele>271.36</ele>
   </trkpt>
   <trkpt lat="-37.90588" lon="145.37550000000002">
    <ele>268.53000000000003</ele>
   </trkpt>
   <trkpt lat="-37.90588" lon="145.37549">
    <ele>268.51000000000005</ele>
   </trkpt>
   <trkpt lat="-37.90643" lon="145.37461000000002">
    <ele>258.91</ele>
   </trkpt>
   <trkpt lat="-37.9069" lon="145.37378">
    <ele>249.49</ele>
   </trkpt>
   <trkpt lat="-37.90699" lon="145.37323">
    <ele>242.1</ele>
   </trkpt>
   <trkpt lat="-37.90713" lon="145.37263000000002">
    <ele>232.82000000000002</ele>
   </trkpt>
   <trkpt lat="-37.90713" lon="145.37253">
    <ele>232.11</ele>
   </trkpt>
   <trkpt lat="-37.90701" lon="145.37227000000001">
    <ele>227.95000000000002</ele>
   </trkpt>
   <trkpt lat="-37.90672" lon="145.37188">
    <ele>223.48000000000002</ele>
   </trkpt>
   <trkpt lat="-37.90639" lon="145.37087000000002">
    <ele>225.14000000000001</ele>
   </trkpt>
   <trkpt lat="-37.90628" lon="145.37043">
    <ele>227.36</ele>
   </trkpt>
   <trkpt lat="-37.9063" lon="145.37003">
    <ele>228.77</ele>
   </trkpt>
   <trkpt lat="-37.90634" lon="145.36982">
    <ele>228.67000000000002</ele>
   </trkpt>
   <trkpt lat="-37.9065" lon="145.36961000000002">
    <ele>228.42000000000002</ele>
   </trkpt>
   <trkpt lat="-37.9067" lon="145.36924000000002">
    <ele>228.92000000000002</ele>
   </trkpt>
   <trkpt lat="-37.90677" lon="145.36897000000002">
    <ele>229.07000000000002</ele>
   </trkpt>
   <trkpt lat="-37.90677" lon="145.36884">
    <ele>229.07000000000002</ele>
   </trkpt>
   <trkpt lat="-37.90668" lon="145.36825000000002">
    <ele>229.53</ele>
   </trkpt>
   <trkpt lat="-37.90675" lon="145.36773000000002">
    <ele>226.64000000000001</ele>
   </trkpt>
   <trkpt lat="-37.90663" lon="145.36713">
    <ele>225.0</ele>
   </trkpt>
   <trkpt lat="-37.90661" lon="145.36685">
    <ele>227.41000000000003</ele>
   </trkpt>
   <trkpt lat="-37.90657" lon="145.36668">
    <ele>229.28</ele>
   </trkpt>
   <trkpt lat="-37.90663" lon="145.36637000000002">
    <ele>238.45000000000002</ele>
   </trkpt>
   <trkpt lat="-37.90646" lon="145.36564">
    <ele>257.69</ele>
   </trkpt>
   <trkpt lat="-37.90623" lon="145.36459000000002">
    <ele>277.77000000000004</ele>
   </trkpt>
   <trkpt lat="-37.90619" lon="145.36430000000001">
    <ele>282.84000000000003</ele>
   </trkpt>
   <trkpt lat="-37.90614" lon="145.36395000000002">
    <ele>286.67</ele>
   </trkpt>
   <trkpt lat="-37.906060000000004" lon="145.36378000000002">
    <ele>291.14</ele>
   </trkpt>
   <trkpt lat="-37.905770000000004" lon="145.36347">
    <ele>294.99</ele>
   </trkpt>
   <trkpt lat="-37.90565" lon="145.3634">
    <ele>297.12000000000006</ele>
   </trkpt>
   <trkpt lat="-37.90545" lon="145.36334000000002">
    <ele>302.64</ele>
   </trkpt>
   <trkpt lat="-37.905350000000006" lon="145.36324000000002">
    <ele>302.64</ele>
   </trkpt>
   <trkpt lat="-37.90522" lon="145.36309">
    <ele>306.3</ele>
   </trkpt>
   <trkpt lat="-37.9046" lon="145.36269000000001">
    <ele>314.87</ele>
   </trkpt>
   <trkpt lat="-37.90442" lon="145.36266">
    <ele>316.64000000000004</ele>
   </trkpt>
   <trkpt lat="-37.90417" lon="145.36270000000002">
    <ele>318.09000000000003</ele>
   </trkpt>
   <trkpt lat="-37.90366" lon="145.36271000000002">
    <ele>322.29</ele>
   </trkpt>
   <trkpt lat="-37.90307" lon="145.36296000000002">
    <ele>326.57</ele>
   </trkpt>
   <trkpt lat="-37.90283" lon="145.36315000000002">
    <ele>329.63000000000005</ele>
   </trkpt>
   <trkpt lat="-37.90263" lon="145.36328">
    <ele>332.12</ele>
   </trkpt>
   <trkpt lat="-37.90216" lon="145.36339">
    <ele>339.07000000000005</ele>
   </trkpt>
   <trkpt lat="-37.90189" lon="145.36350000000002">
    <ele>342.12</ele>
   </trkpt>
   <trkpt lat="-37.901450000000004" lon="145.36383">
    <ele>346.79</ele>
   </trkpt>
   <trkpt lat="-37.90124" lon="145.36343000000002">
    <ele>345.87</ele>
   </trkpt>
   <trkpt lat="-37.90102" lon="145.36260000000001">
    <ele>339.35</ele>
   </trkpt>
   <trkpt lat="-37.90086" lon="145.36205">
    <ele>334.91</ele>
   </trkpt>
   <trkpt lat="-37.900830000000006" lon="145.36186">
    <ele>333.76</ele>
   </trkpt>
   <trkpt lat="-37.90077" lon="145.36145000000002">
    <ele>334.37</ele>
   </trkpt>
   <trkpt lat="-37.90059" lon="145.36069">
    <ele>339.17</ele>
   </trkpt>
   <trkpt lat="-37.90057" lon="145.36046000000002">
    <ele>339.07000000000005</ele>
   </trkpt>
   <trkpt lat="-37.9005" lon="145.36012000000002">
    <ele>336.1</ele>
   </trkpt>
   <trkpt lat="-37.9003" lon="145.35946">
    <ele>315.95</ele>
   </trkpt>
   <trkpt lat="-37.9001" lon="145.35860000000002">
    <ele>302.16</ele>
   </trkpt>
   <trkpt lat="-37.9001" lon="145.35835">
    <ele>298.28000000000003</ele>
   </trkpt>
   <trkpt lat="-37.900020000000005" lon="145.3579">
    <ele>288.18000000000006</ele>
   </trkpt>
   <trkpt lat="-37.900000000000006" lon="145.35778000000002">
    <ele>284.28000000000003</ele>
   </trkpt>
   <trkpt lat="-37.89992" lon="145.35763">
    <ele>276.81</ele>
   </trkpt>
   <trkpt lat="-37.89992" lon="145.35755">
    <ele>275.02000000000004</ele>
   </trkpt>
   <trkpt lat="-37.900000000000006" lon="145.35732000000002">
    <ele>268.73</ele>
   </trkpt>
   <trkpt lat="-37.900000000000006" lon="145.35713">
    <ele>264.66</ele>
   </trkpt>
   <trkpt lat="-37.89981" lon="145.35703">
    <ele>268.47</ele>
   </trkpt>
   <trkpt lat="-37.89967" lon="145.35702">
    <ele>269.7</ele>
   </trkpt>
   <trkpt lat="-37.89956" lon="145.35691">
    <ele>270.31</ele>
   </trkpt>
   <trkpt lat="-37.89916" lon="145.35669000000001">
    <ele>275.6</ele>
   </trkpt>
   <trkpt lat="-37.899010000000004" lon="145.35672000000002">
    <ele>279.2</ele>
   </trkpt>
   <trkpt lat="-37.89903" lon="145.35672000000002">
    <ele>278.87</ele>
   </trkpt>
   <trkpt lat="-37.89878" lon="145.35686">
    <ele>284.14</ele>
   </trkpt>
   <trkpt lat="-37.89851" lon="145.35715000000002">
    <ele>286.23</ele>
   </trkpt>
   <trkpt lat="-37.89837" lon="145.35737">
    <ele>286.7</ele>
   </trkpt>
   <trkpt lat="-37.89831" lon="145.35755">
    <ele>287.49</ele>
   </trkpt>
   <trkpt lat="-37.89824" lon="145.35765">
    <ele>287.85</ele>
   </trkpt>
   <trkpt lat="-37.89817" lon="145.35786000000002">
    <ele>288.83000000000004</ele>
   </trkpt>
   <trkpt lat="-37.89781" lon="145.35814000000002">
    <ele>290.96</ele>
   </trkpt>
   <trkpt lat="-37.89768" lon="145.35815000000002">
    <ele>290.49</ele>
   </trkpt>
   <trkpt lat="-37.8975" lon="145.35823000000002">
    <ele>291.21000000000004</ele>
   </trkpt>
   <trkpt lat="-37.89741" lon="145.35832000000002">
    <ele>292.25</ele>
   </trkpt>
   <trkpt lat="-37.89728" lon="145.35854">
    <ele>293.66</ele>
   </trkpt>
   <trkpt lat="-37.89717" lon="145.35867000000002">
    <ele>294.1</ele>
   </trkpt>
   <trkpt lat="-37.897090000000006" lon="145.35867000000002">
    <ele>294.6</ele>
   </trkpt>
   <trkpt lat="-37.89699" lon="145.35877000000002">
    <ele>295.65000000000003</ele>
   </trkpt>
   <trkpt lat="-37.89696" lon="145.3589">
    <ele>296.13</ele>
   </trkpt>
   <trkpt lat="-37.89683" lon="145.35912000000002">
    <ele>296.85</ele>
   </trkpt>
   <trkpt lat="-37.89672" lon="145.35945">
    <ele>297.63</ele>
   </trkpt>
   <trkpt lat="-37.89665" lon="145.35958000000002">
    <ele>298.23</ele>
   </trkpt>
   <trkpt lat="-37.89661" lon="145.35992000000002">
    <ele>300.61</ele>
   </trkpt>
   <trkpt lat="-37.89645" lon="145.36017">
    <ele>301.77000000000004</ele>
   </trkpt>
   <trkpt lat="-37.89618" lon="145.36090000000002">
    <ele>305.03000000000003</ele>
   </trkpt>
   <trkpt lat="-37.89609" lon="145.36145000000002">
    <ele>307.98</ele>
   </trkpt>
   <trkpt lat="-37.89578" lon="145.36200000000002">
    <ele>313.08000000000004</ele>
   </trkpt>
   <trkpt lat="-37.8956" lon="145.36243000000002">
    <ele>315.21000000000004</ele>
   </trkpt>
   <trkpt lat="-37.895500000000006" lon="145.36281000000002">
    <ele>317.52000000000004</ele>
   </trkpt>
   <trkpt lat="-37.89537" lon="145.36299000000002">
    <ele>318.74</ele>
   </trkpt>
   <trkpt lat="-37.89537" lon="145.36316000000002">
    <ele>320.18</ele>
   </trkpt>
   <trkpt lat="-37.89546" lon="145.36337">
    <ele>324.02000000000004</ele>
   </trkpt>
   <trkpt lat="-37.89551" lon="145.36357">
    <ele>327.20000000000005</ele>
   </trkpt>
   <trkpt lat="-37.89558" lon="145.36450000000002">
    <ele>335.3</ele>
   </trkpt>
   <trkpt lat="-37.8956" lon="145.36513000000002">
    <ele>341.51000000000005</ele>
   </trkpt>
   <trkpt lat="-37.89564" lon="145.36532000000003">
    <ele>345.93</ele>
   </trkpt>
   <trkpt lat="-37.89573" lon="145.36615">
    <ele>357.46000000000004</ele>
   </trkpt>
   <trkpt lat="-37.89587" lon="145.36672000000002">
    <ele>365.69</ele>
   </trkpt>
   <trkpt lat="-37.8959350014648" lon="145.36730999940988">
    <ele>371.56000000000006</ele>
   </trkpt>
   <trkpt lat="-37.896" lon="145.36790000000002">
    <ele>370.71000000000004</ele>
   </trkpt>
   <trkpt lat="-37.89578" lon="145.36797">
    <ele>370.36</ele>
   </trkpt>
   <trkpt lat="-37.89508" lon="145.36802">
    <ele>369.77000000000004</ele>
   </trkpt>
   <trkpt lat="-37.89464" lon="145.36809000000002">
    <ele>368.63</ele>
   </trkpt>
   <trkpt lat="-37.89439" lon="145.3681">
    <ele>367.9</ele>
   </trkpt>
   <trkpt lat="-37.89414" lon="145.36802">
    <ele>367.44000000000005</ele>
   </trkpt>
   <trkpt lat="-37.89349" lon="145.36792">
    <ele>365.46</ele>
   </trkpt>
   <trkpt lat="-37.89316" lon="145.36801">
    <ele>363.68</ele>
   </trkpt>
   <trkpt lat="-37.89269" lon="145.36831">
    <ele>362.74</ele>
   </trkpt>
   <trkpt lat="-37.89226" lon="145.36863000000002">
    <ele>363.06000000000006</ele>
   </trkpt>
   <trkpt lat="-37.89184" lon="145.36885">
    <ele>363.88000000000005</ele>
   </trkpt>
   <trkpt lat="-37.89146" lon="145.369">
    <ele>365.61</ele>
   </trkpt>
   <trkpt lat="-37.89101" lon="145.36944000000003">
    <ele>367.89000000000004</ele>
   </trkpt>
   <trkpt lat="-37.89074" lon="145.36965">
    <ele>370.01</ele>
   </trkpt>
   <trkpt lat="-37.890150000000006" lon="145.36999">
    <ele>370.14000000000004</ele>
   </trkpt>
   <trkpt lat="-37.88996" lon="145.37003">
    <ele>369.91</ele>
   </trkpt>
   <trkpt lat="-37.889770000000006" lon="145.37002">
    <ele>369.43</ele>
   </trkpt>
   <trkpt lat="-37.889540000000004" lon="145.37005000000002">
    <ele>368.4</ele>
   </trkpt>
   <trkpt lat="-37.88904499995207" lon="145.37000499969233">
    <ele>365.37</ele>
   </trkpt>
   <trkpt lat="-37.88855" lon="145.36996000000002">
    <ele>362.78000000000003</ele>
   </trkpt>
   <trkpt lat="-37.88824" lon="145.36998">
    <ele>361.73</ele>
   </trkpt>
  </trkseg>
 </trk>
</gpx>
