<?xml version="1.0" encoding="UTF-8"?>
<gpx creator="StravaGPX" version="1.1" xmlns="http://www.topografix.com/GPX/1/1" xmlns:xsi="http://www.w3.org/2001/XMLSchema-instance" xsi:schemaLocation="http://www.topografix.com/GPX/1/1 http://www.topografix.com/GPX/1/1/gpx.xsd">
 <metadata>
  <name>11.82 km Sassafras Trail Run Route DTR 8/1/2026</name>
  <author>
   <name>Luke Visser</name>
   <link href="https://www.strava.com/athletes/6647327"/>
  </author>
  <copyright author="OpenStreetMap contributors">
   <year>2020</year>
   <license>https://www.openstreetmap.org/copyright</license>
  </copyright>
  <link href="https://www.strava.com/routes/3443765597654961440"/>
 </metadata>
 <trk>
  <name>11.82 km Sassafras Trail Run Route DTR 8/1/2026</name>
  <link href="https://www.strava.com/routes/3443765597654961440"/>
  <type>trail_running</type>
  <trkseg>
   <trkpt lat="-37.862840000000006" lon="145.35371">
    <ele>480.84000000000003</ele>
   </trkpt>
   <trkpt lat="-37.86287" lon="145.3538">
    <ele>480.96000000000004</ele>
   </trkpt>
   <trkpt lat="-37.862840000000006" lon="145.35371">
    <ele>480.84000000000003</ele>
   </trkpt>
   <trkpt lat="-37.86298" lon="145.35408">
    <ele>482.08000000000004</ele>
   </trkpt>
   <trkpt lat="-37.86316" lon="145.35444">
    <ele>485.95000000000005</ele>
   </trkpt>
   <trkpt lat="-37.86334" lon="145.35477">
    <ele>476.57000000000005</ele>
   </trkpt>
   <trkpt lat="-37.86345" lon="145.35489">
    <ele>475.56</ele>
   </trkpt>
   <trkpt lat="-37.863600000000005" lon="145.35494">
    <ele>472.75000000000006</ele>
   </trkpt>
   <trkpt lat="-37.86415" lon="145.35496">
    <ele>464.71</ele>
   </trkpt>
   <trkpt lat="-37.86435" lon="145.35499000000002">
    <ele>461.0</ele>
   </trkpt>
   <trkpt lat="-37.8645" lon="145.35506">
    <ele>455.6</ele>
   </trkpt>
   <trkpt lat="-37.864850000000004" lon="145.35513">
    <ele>448.28000000000003</ele>
   </trkpt>
   <trkpt lat="-37.86493" lon="145.35513">
    <ele>448.22</ele>
   </trkpt>
   <trkpt lat="-37.865" lon="145.35512">
    <ele>447.16</ele>
   </trkpt>
   <trkpt lat="-37.86493" lon="145.35513">
    <ele>448.22</ele>
   </trkpt>
   <trkpt lat="-37.86502" lon="145.35512">
    <ele>446.27000000000004</ele>
   </trkpt>
   <trkpt lat="-37.8652" lon="145.35519000000002">
    <ele>442.48</ele>
   </trkpt>
   <trkpt lat="-37.86547" lon="145.35535000000002">
    <ele>440.11000000000007</ele>
   </trkpt>
   <trkpt lat="-37.86591000000001" lon="145.35539">
    <ele>435.07</ele>
   </trkpt>
   <trkpt lat="-37.86598" lon="145.35542">
    <ele>434.7300000000001</ele>
   </trkpt>
   <trkpt lat="-37.865990000000004" lon="145.35551">
    <ele>434.7300000000001</ele>
   </trkpt>
   <trkpt lat="-37.866" lon="145.35554000000002">
    <ele>434.7300000000001</ele>
   </trkpt>
   <trkpt lat="-37.86596" lon="145.35572000000002">
    <ele>434.42</ele>
   </trkpt>
   <trkpt lat="-37.865860000000005" lon="145.35572000000002">
    <ele>414.39000000000004</ele>
   </trkpt>
   <trkpt lat="-37.86589" lon="145.35592000000003">
    <ele>432.65000000000003</ele>
   </trkpt>
   <trkpt lat="-37.86585" lon="145.35607000000002">
    <ele>431.14</ele>
   </trkpt>
   <trkpt lat="-37.866" lon="145.35656">
    <ele>427.8</ele>
   </trkpt>
   <trkpt lat="-37.86623" lon="145.35682">
    <ele>425.63</ele>
   </trkpt>
   <trkpt lat="-37.86632" lon="145.35688000000002">
    <ele>424.86</ele>
   </trkpt>
   <trkpt lat="-37.86654" lon="145.35708000000002">
    <ele>421.90000000000003</ele>
   </trkpt>
   <trkpt lat="-37.86672" lon="145.35738">
    <ele>419.88</ele>
   </trkpt>
   <trkpt lat="-37.86675" lon="145.35739">
    <ele>419.88</ele>
   </trkpt>
   <trkpt lat="-37.86688" lon="145.35736">
    <ele>419.73</ele>
   </trkpt>
   <trkpt lat="-37.86701" lon="145.35755">
    <ele>419.97</ele>
   </trkpt>
   <trkpt lat="-37.86706" lon="145.35762000000003">
    <ele>420.18000000000006</ele>
   </trkpt>
   <trkpt lat="-37.86715" lon="145.35776">
    <ele>420.13000000000005</ele>
   </trkpt>
   <trkpt lat="-37.86728" lon="145.35787000000002">
    <ele>419.26</ele>
   </trkpt>
   <trkpt lat="-37.86737" lon="145.35797000000002">
    <ele>418.76</ele>
   </trkpt>
   <trkpt lat="-37.86748" lon="145.35804000000002">
    <ele>418.76</ele>
   </trkpt>
   <trkpt lat="-37.86755" lon="145.35812">
    <ele>418.57000000000005</ele>
   </trkpt>
   <trkpt lat="-37.86766" lon="145.35817">
    <ele>418.54</ele>
   </trkpt>
   <trkpt lat="-37.86771" lon="145.35824000000002">
    <ele>418.6</ele>
   </trkpt>
   <trkpt lat="-37.86768" lon="145.35852">
    <ele>418.15000000000003</ele>
   </trkpt>
   <trkpt lat="-37.86773" lon="145.35860000000002">
    <ele>418.23</ele>
   </trkpt>
   <trkpt lat="-37.86793" lon="145.35878000000002">
    <ele>419.37</ele>
   </trkpt>
   <trkpt lat="-37.86806" lon="145.35901">
    <ele>418.73</ele>
   </trkpt>
   <trkpt lat="-37.8682" lon="145.35908">
    <ele>418.46000000000004</ele>
   </trkpt>
   <trkpt lat="-37.86871" lon="145.35917">
    <ele>418.77000000000004</ele>
   </trkpt>
   <trkpt lat="-37.86887" lon="145.35943">
    <ele>416.73</ele>
   </trkpt>
   <trkpt lat="-37.86923" lon="145.35978">
    <ele>415.34000000000003</ele>
   </trkpt>
   <trkpt lat="-37.869400000000006" lon="145.36001000000002">
    <ele>415.54</ele>
   </trkpt>
   <trkpt lat="-37.869420000000005" lon="145.36003000000002">
    <ele>415.48</ele>
   </trkpt>
   <trkpt lat="-37.8695" lon="145.36015">
    <ele>415.06000000000006</ele>
   </trkpt>
   <trkpt lat="-37.86963" lon="145.36053">
    <ele>412.48</ele>
   </trkpt>
   <trkpt lat="-37.86972" lon="145.36065000000002">
    <ele>411.98</ele>
   </trkpt>
   <trkpt lat="-37.86999" lon="145.36083000000002">
    <ele>412.11</ele>
   </trkpt>
   <trkpt lat="-37.87071" lon="145.36105">
    <ele>410.58000000000004</ele>
   </trkpt>
   <trkpt lat="-37.87113" lon="145.36123">
    <ele>409.53000000000003</ele>
   </trkpt>
   <trkpt lat="-37.87182" lon="145.36126000000002">
    <ele>409.72</ele>
   </trkpt>
   <trkpt lat="-37.87205" lon="145.36114">
    <ele>409.72</ele>
   </trkpt>
   <trkpt lat="-37.87221" lon="145.36118000000002">
    <ele>409.47</ele>
   </trkpt>
   <trkpt lat="-37.87234" lon="145.36127000000002">
    <ele>408.57000000000005</ele>
   </trkpt>
   <trkpt lat="-37.87243" lon="145.36129000000003">
    <ele>407.56</ele>
   </trkpt>
   <trkpt lat="-37.872960000000006" lon="145.36119000000002">
    <ele>405.34000000000003</ele>
   </trkpt>
   <trkpt lat="-37.87304" lon="145.36119000000002">
    <ele>404.68</ele>
   </trkpt>
   <trkpt lat="-37.87306" lon="145.36119000000002">
    <ele>404.68</ele>
   </trkpt>
   <trkpt lat="-37.873360000000005" lon="145.36122">
    <ele>401.15</ele>
   </trkpt>
   <trkpt lat="-37.873400000000004" lon="145.36126000000002">
    <ele>400.71</ele>
   </trkpt>
   <trkpt lat="-37.873490000000004" lon="145.36143">
    <ele>399.81000000000006</ele>
   </trkpt>
   <trkpt lat="-37.873540000000006" lon="145.3614">
    <ele>399.59000000000003</ele>
   </trkpt>
   <trkpt lat="-37.873560000000005" lon="145.36141">
    <ele>399.59000000000003</ele>
   </trkpt>
   <trkpt lat="-37.87357" lon="145.36146000000002">
    <ele>399.32</ele>
   </trkpt>
   <trkpt lat="-37.87355" lon="145.36154000000002">
    <ele>399.22</ele>
   </trkpt>
   <trkpt lat="-37.87368" lon="145.36174000000003">
    <ele>396.95</ele>
   </trkpt>
   <trkpt lat="-37.87377" lon="145.36196">
    <ele>393.52000000000004</ele>
   </trkpt>
   <trkpt lat="-37.873720000000006" lon="145.36151">
    <ele>396.36</ele>
   </trkpt>
   <trkpt lat="-37.87391" lon="145.36107">
    <ele>399.70000000000005</ele>
   </trkpt>
   <trkpt lat="-37.87406" lon="145.36083000000002">
    <ele>403.55</ele>
   </trkpt>
   <trkpt lat="-37.87456" lon="145.36044">
    <ele>408.28000000000003</ele>
   </trkpt>
   <trkpt lat="-37.87494" lon="145.36006">
    <ele>416.5</ele>
   </trkpt>
   <trkpt lat="-37.87516" lon="145.35986000000003">
    <ele>420.51000000000005</ele>
   </trkpt>
   <trkpt lat="-37.87521" lon="145.35967000000002">
    <ele>421.93</ele>
   </trkpt>
   <trkpt lat="-37.875130000000006" lon="145.35951">
    <ele>422.72</ele>
   </trkpt>
   <trkpt lat="-37.87496" lon="145.35946">
    <ele>424.67</ele>
   </trkpt>
   <trkpt lat="-37.87487" lon="145.35939000000002">
    <ele>424.78000000000003</ele>
   </trkpt>
   <trkpt lat="-37.874770000000005" lon="145.35926">
    <ele>424.74000000000007</ele>
   </trkpt>
   <trkpt lat="-37.87447" lon="145.35877000000002">
    <ele>430.98</ele>
   </trkpt>
   <trkpt lat="-37.87433" lon="145.35864">
    <ele>433.57</ele>
   </trkpt>
   <trkpt lat="-37.87402" lon="145.35849000000002">
    <ele>437.77000000000004</ele>
   </trkpt>
   <trkpt lat="-37.87373" lon="145.3582">
    <ele>440.05000000000007</ele>
   </trkpt>
   <trkpt lat="-37.873630000000006" lon="145.35801">
    <ele>440.83000000000004</ele>
   </trkpt>
   <trkpt lat="-37.87357" lon="145.35787000000002">
    <ele>440.83000000000004</ele>
   </trkpt>
   <trkpt lat="-37.87346" lon="145.35765">
    <ele>445.40000000000003</ele>
   </trkpt>
   <trkpt lat="-37.87341" lon="145.3574">
    <ele>446.61000000000007</ele>
   </trkpt>
   <trkpt lat="-37.87341" lon="145.35708000000002">
    <ele>448.65000000000003</ele>
   </trkpt>
   <trkpt lat="-37.87341" lon="145.357">
    <ele>448.98</ele>
   </trkpt>
   <trkpt lat="-37.87339" lon="145.35689000000002">
    <ele>449.56</ele>
   </trkpt>
   <trkpt lat="-37.87341" lon="145.357">
    <ele>448.98</ele>
   </trkpt>
   <trkpt lat="-37.87341" lon="145.3574">
    <ele>446.61000000000007</ele>
   </trkpt>
   <trkpt lat="-37.87341" lon="145.357">
    <ele>448.98</ele>
   </trkpt>
   <trkpt lat="-37.87328" lon="145.35653000000002">
    <ele>451.64000000000004</ele>
   </trkpt>
   <trkpt lat="-37.87328" lon="145.35648">
    <ele>451.64000000000004</ele>
   </trkpt>
   <trkpt lat="-37.873310000000004" lon="145.35644000000002">
    <ele>451.64000000000004</ele>
   </trkpt>
   <trkpt lat="-37.87335" lon="145.35644000000002">
    <ele>451.98</ele>
   </trkpt>
   <trkpt lat="-37.87339" lon="145.35649">
    <ele>451.98</ele>
   </trkpt>
   <trkpt lat="-37.87353" lon="145.35718">
    <ele>454.09000000000003</ele>
   </trkpt>
   <trkpt lat="-37.87379" lon="145.35763">
    <ele>456.67</ele>
   </trkpt>
   <trkpt lat="-37.874120000000005" lon="145.35781">
    <ele>459.73</ele>
   </trkpt>
   <trkpt lat="-37.87435" lon="145.35784">
    <ele>460.65000000000003</ele>
   </trkpt>
   <trkpt lat="-37.87473" lon="145.35783">
    <ele>463.41</ele>
   </trkpt>
   <trkpt lat="-37.87482" lon="145.35784">
    <ele>463.70000000000005</ele>
   </trkpt>
   <trkpt lat="-37.87541" lon="145.35777000000002">
    <ele>469.41</ele>
   </trkpt>
   <trkpt lat="-37.87559" lon="145.35771000000003">
    <ele>470.23</ele>
   </trkpt>
   <trkpt lat="-37.87572" lon="145.35758">
    <ele>471.64000000000004</ele>
   </trkpt>
   <trkpt lat="-37.875840000000004" lon="145.3574">
    <ele>474.68000000000006</ele>
   </trkpt>
   <trkpt lat="-37.875930000000004" lon="145.35714000000002">
    <ele>475.91</ele>
   </trkpt>
   <trkpt lat="-37.876160000000006" lon="145.35686">
    <ele>476.44</ele>
   </trkpt>
   <trkpt lat="-37.8763" lon="145.35674">
    <ele>476.38</ele>
   </trkpt>
   <trkpt lat="-37.87637" lon="145.35671000000002">
    <ele>476.18000000000006</ele>
   </trkpt>
   <trkpt lat="-37.87639" lon="145.35675">
    <ele>472.04</ele>
   </trkpt>
   <trkpt lat="-37.87646" lon="145.35687000000001">
    <ele>471.99</ele>
   </trkpt>
   <trkpt lat="-37.876470000000005" lon="145.35696000000002">
    <ele>472.0</ele>
   </trkpt>
   <trkpt lat="-37.87646" lon="145.35687000000001">
    <ele>471.99</ele>
   </trkpt>
   <trkpt lat="-37.87637" lon="145.35671000000002">
    <ele>476.18000000000006</ele>
   </trkpt>
   <trkpt lat="-37.87646" lon="145.35667">
    <ele>475.99</ele>
   </trkpt>
   <trkpt lat="-37.87675" lon="145.35661000000002">
    <ele>475.79</ele>
   </trkpt>
   <trkpt lat="-37.876870000000004" lon="145.35659">
    <ele>463.51000000000005</ele>
   </trkpt>
   <trkpt lat="-37.87689" lon="145.35665">
    <ele>463.59000000000003</ele>
   </trkpt>
   <trkpt lat="-37.876870000000004" lon="145.35659">
    <ele>463.51000000000005</ele>
   </trkpt>
   <trkpt lat="-37.876900000000006" lon="145.35659">
    <ele>460.02000000000004</ele>
   </trkpt>
   <trkpt lat="-37.87708000000001" lon="145.35653000000002">
    <ele>475.49</ele>
   </trkpt>
   <trkpt lat="-37.87673" lon="145.35552">
    <ele>470.56</ele>
   </trkpt>
   <trkpt lat="-37.87666" lon="145.35527000000002">
    <ele>473.24000000000007</ele>
   </trkpt>
   <trkpt lat="-37.87666" lon="145.35511000000002">
    <ele>476.07000000000005</ele>
   </trkpt>
   <trkpt lat="-37.8767" lon="145.35494">
    <ele>477.31</ele>
   </trkpt>
   <trkpt lat="-37.87684" lon="145.35466000000002">
    <ele>479.86000000000007</ele>
   </trkpt>
   <trkpt lat="-37.87702" lon="145.35441">
    <ele>482.49</ele>
   </trkpt>
   <trkpt lat="-37.877230000000004" lon="145.35415">
    <ele>483.39000000000004</ele>
   </trkpt>
   <trkpt lat="-37.877370000000006" lon="145.35409">
    <ele>488.28000000000003</ele>
   </trkpt>
   <trkpt lat="-37.87771" lon="145.35379">
    <ele>489.1</ele>
   </trkpt>
   <trkpt lat="-37.878130000000006" lon="145.35348000000002">
    <ele>491.16</ele>
   </trkpt>
   <trkpt lat="-37.87847" lon="145.35309">
    <ele>492.78000000000003</ele>
   </trkpt>
   <trkpt lat="-37.87859" lon="145.35291">
    <ele>492.78000000000003</ele>
   </trkpt>
   <trkpt lat="-37.87894" lon="145.35199">
    <ele>496.07000000000005</ele>
   </trkpt>
   <trkpt lat="-37.87908" lon="145.35178000000002">
    <ele>496.21000000000004</ele>
   </trkpt>
   <trkpt lat="-37.87946" lon="145.35142000000002">
    <ele>498.08</ele>
   </trkpt>
   <trkpt lat="-37.87961" lon="145.3514">
    <ele>498.2900000000001</ele>
   </trkpt>
   <trkpt lat="-37.87993" lon="145.35151000000002">
    <ele>498.37</ele>
   </trkpt>
   <trkpt lat="-37.88011" lon="145.35161000000002">
    <ele>498.57</ele>
   </trkpt>
   <trkpt lat="-37.88042" lon="145.35184">
    <ele>499.6</ele>
   </trkpt>
   <trkpt lat="-37.88056" lon="145.35199">
    <ele>499.93</ele>
   </trkpt>
   <trkpt lat="-37.88103" lon="145.35239">
    <ele>499.97</ele>
   </trkpt>
   <trkpt lat="-37.88125" lon="145.35248">
    <ele>499.47</ele>
   </trkpt>
   <trkpt lat="-37.88152" lon="145.35244">
    <ele>499.44000000000005</ele>
   </trkpt>
   <trkpt lat="-37.882090000547386" lon="145.3520850027386">
    <ele>497.82000000000005</ele>
   </trkpt>
   <trkpt lat="-37.88266" lon="145.35173">
    <ele>493.1</ele>
   </trkpt>
   <trkpt lat="-37.882920000000006" lon="145.35153000000003">
    <ele>489.3</ele>
   </trkpt>
   <trkpt lat="-37.88324" lon="145.3513">
    <ele>487.11</ele>
   </trkpt>
   <trkpt lat="-37.8834" lon="145.35126000000002">
    <ele>485.13000000000005</ele>
   </trkpt>
   <trkpt lat="-37.88347" lon="145.35125000000002">
    <ele>484.31</ele>
   </trkpt>
   <trkpt lat="-37.8834" lon="145.35126000000002">
    <ele>485.13000000000005</ele>
   </trkpt>
   <trkpt lat="-37.88324" lon="145.3513">
    <ele>487.11</ele>
   </trkpt>
   <trkpt lat="-37.882920000000006" lon="145.35153000000003">
    <ele>490.88000000000005</ele>
   </trkpt>
   <trkpt lat="-37.88266" lon="145.35173">
    <ele>493.1</ele>
   </trkpt>
   <trkpt lat="-37.88205" lon="145.35211">
    <ele>498.06000000000006</ele>
   </trkpt>
   <trkpt lat="-37.88266" lon="145.35173">
    <ele>493.1</ele>
   </trkpt>
   <trkpt lat="-37.882920000000006" lon="145.35153000000003">
    <ele>490.88000000000005</ele>
   </trkpt>
   <trkpt lat="-37.88324" lon="145.3513">
    <ele>487.11</ele>
   </trkpt>
   <trkpt lat="-37.8834" lon="145.35126000000002">
    <ele>485.13000000000005</ele>
   </trkpt>
   <trkpt lat="-37.88347" lon="145.35125000000002">
    <ele>484.31</ele>
   </trkpt>
   <trkpt lat="-37.88346000000001" lon="145.35125000000002">
    <ele>484.31</ele>
   </trkpt>
   <trkpt lat="-37.883790000000005" lon="145.35131">
    <ele>475.35</ele>
   </trkpt>
   <trkpt lat="-37.88402" lon="145.3512">
    <ele>473.04</ele>
   </trkpt>
   <trkpt lat="-37.88427" lon="145.35105000000001">
    <ele>472.08000000000004</ele>
   </trkpt>
   <trkpt lat="-37.88443" lon="145.35102">
    <ele>471.04</ele>
   </trkpt>
   <trkpt lat="-37.88477" lon="145.35099000000002">
    <ele>469.72</ele>
   </trkpt>
   <trkpt lat="-37.884710000000005" lon="145.35090000000002">
    <ele>468.80000000000007</ele>
   </trkpt>
   <trkpt lat="-37.88461" lon="145.35066">
    <ele>470.4800000000001</ele>
   </trkpt>
   <trkpt lat="-37.88461" lon="145.35046">
    <ele>472.83000000000004</ele>
   </trkpt>
   <trkpt lat="-37.884640000000005" lon="145.35035000000002">
    <ele>473.78000000000003</ele>
   </trkpt>
   <trkpt lat="-37.88461" lon="145.35017000000002">
    <ele>474.57000000000005</ele>
   </trkpt>
   <trkpt lat="-37.88456" lon="145.35004">
    <ele>476.23</ele>
   </trkpt>
   <trkpt lat="-37.88436" lon="145.34969">
    <ele>478.38</ele>
   </trkpt>
   <trkpt lat="-37.88405" lon="145.34945000000002">
    <ele>478.81</ele>
   </trkpt>
   <trkpt lat="-37.8836" lon="145.34926000000002">
    <ele>479.86000000000007</ele>
   </trkpt>
   <trkpt lat="-37.88311" lon="145.34876">
    <ele>481.25000000000006</ele>
   </trkpt>
   <trkpt lat="-37.88302" lon="145.3487">
    <ele>481.26</ele>
   </trkpt>
   <trkpt lat="-37.88255" lon="145.34856000000002">
    <ele>481.49</ele>
   </trkpt>
   <trkpt lat="-37.88226" lon="145.34839000000002">
    <ele>482.21000000000004</ele>
   </trkpt>
   <trkpt lat="-37.88201" lon="145.34819000000002">
    <ele>483.55</ele>
   </trkpt>
   <trkpt lat="-37.88167" lon="145.34744">
    <ele>489.33000000000004</ele>
   </trkpt>
   <trkpt lat="-37.88154" lon="145.34723000000002">
    <ele>490.68000000000006</ele>
   </trkpt>
   <trkpt lat="-37.88105" lon="145.34695000000002">
    <ele>493.43</ele>
   </trkpt>
   <trkpt lat="-37.880860000000006" lon="145.34682">
    <ele>494.21000000000004</ele>
   </trkpt>
   <trkpt lat="-37.88067" lon="145.34663">
    <ele>494.84000000000003</ele>
   </trkpt>
   <trkpt lat="-37.88042" lon="145.34634">
    <ele>496.13</ele>
   </trkpt>
   <trkpt lat="-37.8802" lon="145.34602">
    <ele>498.15000000000003</ele>
   </trkpt>
   <trkpt lat="-37.87973" lon="145.34534000000002">
    <ele>502.5900000000001</ele>
   </trkpt>
   <trkpt lat="-37.87944" lon="145.34486">
    <ele>503.95</ele>
   </trkpt>
   <trkpt lat="-37.879310000000004" lon="145.34468">
    <ele>503.09999999999997</ele>
   </trkpt>
   <trkpt lat="-37.87919" lon="145.34452000000002">
    <ele>501.99</ele>
   </trkpt>
   <trkpt lat="-37.87914" lon="145.34452000000002">
    <ele>500.27</ele>
   </trkpt>
   <trkpt lat="-37.8789" lon="145.34474">
    <ele>494.24000000000007</ele>
   </trkpt>
   <trkpt lat="-37.87888" lon="145.34482">
    <ele>492.52</ele>
   </trkpt>
   <trkpt lat="-37.87876" lon="145.34495">
    <ele>492.21000000000004</ele>
   </trkpt>
   <trkpt lat="-37.87861" lon="145.34490000000002">
    <ele>493.61</ele>
   </trkpt>
   <trkpt lat="-37.87847" lon="145.34470000000002">
    <ele>493.41</ele>
   </trkpt>
   <trkpt lat="-37.87848" lon="145.34470000000002">
    <ele>493.41</ele>
   </trkpt>
   <trkpt lat="-37.87836" lon="145.34455">
    <ele>493.96000000000004</ele>
   </trkpt>
   <trkpt lat="-37.87827" lon="145.34451">
    <ele>494.28000000000003</ele>
   </trkpt>
   <trkpt lat="-37.87814" lon="145.34448">
    <ele>495.70000000000005</ele>
   </trkpt>
   <trkpt lat="-37.87807" lon="145.34451">
    <ele>496.11</ele>
   </trkpt>
   <trkpt lat="-37.87805" lon="145.34458">
    <ele>497.06000000000006</ele>
   </trkpt>
   <trkpt lat="-37.878040000000006" lon="145.34474">
    <ele>499.13</ele>
   </trkpt>
   <trkpt lat="-37.878" lon="145.34487000000001">
    <ele>500.12</ele>
   </trkpt>
   <trkpt lat="-37.87794" lon="145.34497000000002">
    <ele>500.56</ele>
   </trkpt>
   <trkpt lat="-37.87767" lon="145.34526000000002">
    <ele>502.17</ele>
   </trkpt>
   <trkpt lat="-37.877570000000006" lon="145.34542000000002">
    <ele>502.99000000000007</ele>
   </trkpt>
   <trkpt lat="-37.87726" lon="145.34634">
    <ele>506.45000000000005</ele>
   </trkpt>
   <trkpt lat="-37.87702" lon="145.34689">
    <ele>509.81000000000006</ele>
   </trkpt>
   <trkpt lat="-37.87688" lon="145.34705000000002">
    <ele>511.4200000000001</ele>
   </trkpt>
   <trkpt lat="-37.876760000000004" lon="145.34722000000002">
    <ele>514.41</ele>
   </trkpt>
   <trkpt lat="-37.87648" lon="145.34716">
    <ele>514.09</ele>
   </trkpt>
   <trkpt lat="-37.8763" lon="145.34708">
    <ele>514.4300000000001</ele>
   </trkpt>
   <trkpt lat="-37.87621" lon="145.34698">
    <ele>515.14</ele>
   </trkpt>
   <trkpt lat="-37.87615" lon="145.34678000000002">
    <ele>517.02</ele>
   </trkpt>
   <trkpt lat="-37.87603" lon="145.34592">
    <ele>519.05</ele>
   </trkpt>
   <trkpt lat="-37.87603" lon="145.34573">
    <ele>519.0400000000001</ele>
   </trkpt>
   <trkpt lat="-37.87599" lon="145.3454">
    <ele>518.61</ele>
   </trkpt>
   <trkpt lat="-37.87599" lon="145.34493">
    <ele>517.27</ele>
   </trkpt>
   <trkpt lat="-37.8759" lon="145.34467">
    <ele>515.6</ele>
   </trkpt>
   <trkpt lat="-37.875690000000006" lon="145.34416000000002">
    <ele>513.38</ele>
   </trkpt>
   <trkpt lat="-37.87556" lon="145.34399000000002">
    <ele>513.1300000000001</ele>
   </trkpt>
   <trkpt lat="-37.875510000000006" lon="145.34384">
    <ele>511.87000000000006</ele>
   </trkpt>
   <trkpt lat="-37.87545" lon="145.3436">
    <ele>510.93</ele>
   </trkpt>
   <trkpt lat="-37.8755" lon="145.34335000000002">
    <ele>508.65000000000003</ele>
   </trkpt>
   <trkpt lat="-37.875510000000006" lon="145.34301000000002">
    <ele>504.53999999999996</ele>
   </trkpt>
   <trkpt lat="-37.875370000000004" lon="145.34295">
    <ele>502.86000000000007</ele>
   </trkpt>
   <trkpt lat="-37.875350000000005" lon="145.3428">
    <ele>502.44</ele>
   </trkpt>
   <trkpt lat="-37.8751" lon="145.34298">
    <ele>502.07</ele>
   </trkpt>
   <trkpt lat="-37.87505" lon="145.34289">
    <ele>502.27</ele>
   </trkpt>
   <trkpt lat="-37.874860000000005" lon="145.34268">
    <ele>500.21000000000004</ele>
   </trkpt>
   <trkpt lat="-37.87485" lon="145.34267">
    <ele>500.21000000000004</ele>
   </trkpt>
   <trkpt lat="-37.8744" lon="145.34218">
    <ele>496.36</ele>
   </trkpt>
   <trkpt lat="-37.87406" lon="145.34185000000002">
    <ele>495.56000000000006</ele>
   </trkpt>
   <trkpt lat="-37.87375" lon="145.34154">
    <ele>492.2900000000001</ele>
   </trkpt>
   <trkpt lat="-37.87306" lon="145.34097">
    <ele>486.67</ele>
   </trkpt>
   <trkpt lat="-37.87263" lon="145.34077000000002">
    <ele>484.11</ele>
   </trkpt>
   <trkpt lat="-37.87241" lon="145.34055">
    <ele>481.51000000000005</ele>
   </trkpt>
   <trkpt lat="-37.87214" lon="145.34019">
    <ele>479.11</ele>
   </trkpt>
   <trkpt lat="-37.87185" lon="145.33992">
    <ele>476.71000000000004</ele>
   </trkpt>
   <trkpt lat="-37.87153" lon="145.33975">
    <ele>473.24000000000007</ele>
   </trkpt>
   <trkpt lat="-37.871280000000006" lon="145.33967">
    <ele>471.22</ele>
   </trkpt>
   <trkpt lat="-37.871140000000004" lon="145.33965">
    <ele>469.80000000000007</ele>
   </trkpt>
   <trkpt lat="-37.87109" lon="145.33964">
    <ele>469.31000000000006</ele>
   </trkpt>
   <trkpt lat="-37.87082" lon="145.33948">
    <ele>467.87000000000006</ele>
   </trkpt>
   <trkpt lat="-37.87059" lon="145.33917000000002">
    <ele>464.83</ele>
   </trkpt>
   <trkpt lat="-37.87037" lon="145.33894">
    <ele>463.78000000000003</ele>
   </trkpt>
   <trkpt lat="-37.87026" lon="145.33888000000002">
    <ele>462.61</ele>
   </trkpt>
   <trkpt lat="-37.87035" lon="145.33879000000002">
    <ele>459.75000000000006</ele>
   </trkpt>
   <trkpt lat="-37.87059" lon="145.33873">
    <ele>454.37000000000006</ele>
   </trkpt>
   <trkpt lat="-37.87075" lon="145.33874">
    <ele>451.18</ele>
   </trkpt>
   <trkpt lat="-37.87091" lon="145.33863000000002">
    <ele>446.24</ele>
   </trkpt>
   <trkpt lat="-37.871" lon="145.33853000000002">
    <ele>446.24</ele>
   </trkpt>
   <trkpt lat="-37.87113" lon="145.33831">
    <ele>439.02000000000004</ele>
   </trkpt>
   <trkpt lat="-37.87118" lon="145.33812">
    <ele>430.37</ele>
   </trkpt>
   <trkpt lat="-37.871170000000006" lon="145.33800000000002">
    <ele>430.37</ele>
   </trkpt>
   <trkpt lat="-37.871100000000006" lon="145.33779">
    <ele>425.48</ele>
   </trkpt>
   <trkpt lat="-37.87104" lon="145.33773000000002">
    <ele>424.55</ele>
   </trkpt>
   <trkpt lat="-37.871050000000004" lon="145.33774000000003">
    <ele>424.55</ele>
   </trkpt>
   <trkpt lat="-37.87091" lon="145.33758">
    <ele>422.1</ele>
   </trkpt>
   <trkpt lat="-37.87077" lon="145.33726000000001">
    <ele>417.64</ele>
   </trkpt>
   <trkpt lat="-37.87048" lon="145.33697">
    <ele>412.25000000000006</ele>
   </trkpt>
   <trkpt lat="-37.87024" lon="145.33688">
    <ele>406.68</ele>
   </trkpt>
   <trkpt lat="-37.87019" lon="145.3368">
    <ele>405.40000000000003</ele>
   </trkpt>
   <trkpt lat="-37.87019" lon="145.33630000000002">
    <ele>391.3</ele>
   </trkpt>
   <trkpt lat="-37.8701" lon="145.33595000000003">
    <ele>384.14000000000004</ele>
   </trkpt>
   <trkpt lat="-37.870070000000005" lon="145.33604000000003">
    <ele>385.79</ele>
   </trkpt>
   <trkpt lat="-37.8701" lon="145.33595000000003">
    <ele>384.14000000000004</ele>
   </trkpt>
   <trkpt lat="-37.87004" lon="145.33618">
    <ele>388.20000000000005</ele>
   </trkpt>
   <trkpt lat="-37.87001" lon="145.33628000000002">
    <ele>389.72</ele>
   </trkpt>
   <trkpt lat="-37.86983" lon="145.33668">
    <ele>396.15000000000003</ele>
   </trkpt>
   <trkpt lat="-37.86968" lon="145.33686">
    <ele>396.76000000000005</ele>
   </trkpt>
   <trkpt lat="-37.86927" lon="145.33711000000002">
    <ele>396.6</ele>
   </trkpt>
   <trkpt lat="-37.86914" lon="145.33722">
    <ele>398.75000000000006</ele>
   </trkpt>
   <trkpt lat="-37.86905" lon="145.33726000000001">
    <ele>399.46000000000004</ele>
   </trkpt>
   <trkpt lat="-37.86891" lon="145.33724">
    <ele>399.06</ele>
   </trkpt>
   <trkpt lat="-37.8686" lon="145.33698">
    <ele>395.8</ele>
   </trkpt>
   <trkpt lat="-37.86831" lon="145.3368">
    <ele>396.26000000000005</ele>
   </trkpt>
   <trkpt lat="-37.868210000000005" lon="145.3367">
    <ele>396.76000000000005</ele>
   </trkpt>
   <trkpt lat="-37.86813" lon="145.33664000000002">
    <ele>397.07000000000005</ele>
   </trkpt>
   <trkpt lat="-37.867990000000006" lon="145.33638000000002">
    <ele>397.76000000000005</ele>
   </trkpt>
   <trkpt lat="-37.867900000000006" lon="145.33622000000003">
    <ele>398.26000000000005</ele>
   </trkpt>
   <trkpt lat="-37.86762" lon="145.33587">
    <ele>399.02000000000004</ele>
   </trkpt>
   <trkpt lat="-37.86748" lon="145.33566000000002">
    <ele>400.21</ele>
   </trkpt>
   <trkpt lat="-37.86741" lon="145.33546">
    <ele>400.21</ele>
   </trkpt>
   <trkpt lat="-37.86735" lon="145.33513000000002">
    <ele>402.55</ele>
   </trkpt>
   <trkpt lat="-37.86735" lon="145.33496000000002">
    <ele>404.20000000000005</ele>
   </trkpt>
   <trkpt lat="-37.86744" lon="145.33439">
    <ele>406.18</ele>
   </trkpt>
   <trkpt lat="-37.86741" lon="145.33403">
    <ele>408.53000000000003</ele>
   </trkpt>
   <trkpt lat="-37.86737" lon="145.33386000000002">
    <ele>408.53000000000003</ele>
   </trkpt>
   <trkpt lat="-37.8673" lon="145.33371000000002">
    <ele>409.82</ele>
   </trkpt>
   <trkpt lat="-37.867200000000004" lon="145.33355">
    <ele>411.14000000000004</ele>
   </trkpt>
   <trkpt lat="-37.86697" lon="145.33335000000002">
    <ele>409.14000000000004</ele>
   </trkpt>
   <trkpt lat="-37.86634" lon="145.33317000000002">
    <ele>402.8</ele>
   </trkpt>
   <trkpt lat="-37.86568000015063" lon="145.33300499853112">
    <ele>398.06</ele>
   </trkpt>
   <trkpt lat="-37.86502" lon="145.33284">
    <ele>393.22</ele>
   </trkpt>
   <trkpt lat="-37.86482" lon="145.33287">
    <ele>391.57</ele>
   </trkpt>
   <trkpt lat="-37.86473" lon="145.33291">
    <ele>390.89</ele>
   </trkpt>
   <trkpt lat="-37.86464" lon="145.333">
    <ele>390.18</ele>
   </trkpt>
   <trkpt lat="-37.86451" lon="145.3332">
    <ele>388.28000000000003</ele>
   </trkpt>
   <trkpt lat="-37.86475" lon="145.33338">
    <ele>399.22</ele>
   </trkpt>
   <trkpt lat="-37.86493" lon="145.33347">
    <ele>402.04</ele>
   </trkpt>
   <trkpt lat="-37.86529" lon="145.33396000000002">
    <ele>415.84000000000003</ele>
   </trkpt>
   <trkpt lat="-37.8656" lon="145.33411">
    <ele>422.6</ele>
   </trkpt>
   <trkpt lat="-37.86571" lon="145.3342">
    <ele>424.76</ele>
   </trkpt>
   <trkpt lat="-37.86576" lon="145.33428">
    <ele>425.65000000000003</ele>
   </trkpt>
   <trkpt lat="-37.86581500171866" lon="145.3349149996823">
    <ele>424.50000000000006</ele>
   </trkpt>
   <trkpt lat="-37.86587" lon="145.33555">
    <ele>421.93</ele>
   </trkpt>
   <trkpt lat="-37.86585" lon="145.3356">
    <ele>421.05</ele>
   </trkpt>
   <trkpt lat="-37.86585" lon="145.33579">
    <ele>420.17</ele>
   </trkpt>
   <trkpt lat="-37.86585" lon="145.3358">
    <ele>420.17</ele>
   </trkpt>
   <trkpt lat="-37.86583" lon="145.33618">
    <ele>418.87</ele>
   </trkpt>
   <trkpt lat="-37.86562" lon="145.33726000000001">
    <ele>417.69000000000005</ele>
   </trkpt>
   <trkpt lat="-37.865465001196924" lon="145.3377950011717">
    <ele>417.53000000000003</ele>
   </trkpt>
   <trkpt lat="-37.86531" lon="145.33833">
    <ele>417.55</ele>
   </trkpt>
   <trkpt lat="-37.86506" lon="145.33889000000002">
    <ele>420.36</ele>
   </trkpt>
   <trkpt lat="-37.86495" lon="145.33935000000002">
    <ele>421.92</ele>
   </trkpt>
   <trkpt lat="-37.86486" lon="145.33964">
    <ele>422.33000000000004</ele>
   </trkpt>
   <trkpt lat="-37.86475" lon="145.33980000000003">
    <ele>424.15000000000003</ele>
   </trkpt>
   <trkpt lat="-37.86464" lon="145.33988000000002">
    <ele>426.51000000000005</ele>
   </trkpt>
   <trkpt lat="-37.8645" lon="145.33989000000003">
    <ele>428.36</ele>
   </trkpt>
   <trkpt lat="-37.8641" lon="145.33975">
    <ele>431.00000000000006</ele>
   </trkpt>
   <trkpt lat="-37.863780000000006" lon="145.33974">
    <ele>433.48</ele>
   </trkpt>
   <trkpt lat="-37.86354" lon="145.33979000000002">
    <ele>435.49</ele>
   </trkpt>
   <trkpt lat="-37.863200000000006" lon="145.33995000000002">
    <ele>437.78000000000003</ele>
   </trkpt>
   <trkpt lat="-37.86296" lon="145.34016000000003">
    <ele>439.48</ele>
   </trkpt>
   <trkpt lat="-37.862860000000005" lon="145.34025000000003">
    <ele>439.70000000000005</ele>
   </trkpt>
   <trkpt lat="-37.863310000000006" lon="145.34074">
    <ele>455.38000000000005</ele>
   </trkpt>
   <trkpt lat="-37.8639" lon="145.34133">
    <ele>473.80000000000007</ele>
   </trkpt>
   <trkpt lat="-37.86433" lon="145.34163">
    <ele>480.90000000000003</ele>
   </trkpt>
   <trkpt lat="-37.86489" lon="145.34179">
    <ele>482.94</ele>
   </trkpt>
   <trkpt lat="-37.86515" lon="145.3418">
    <ele>482.00000000000006</ele>
   </trkpt>
   <trkpt lat="-37.865610000000004" lon="145.34172">
    <ele>482.12000000000006</ele>
   </trkpt>
   <trkpt lat="-37.86565" lon="145.34188">
    <ele>481.62000000000006</ele>
   </trkpt>
   <trkpt lat="-37.86578" lon="145.34203000000002">
    <ele>480.71000000000004</ele>
   </trkpt>
   <trkpt lat="-37.865790000000004" lon="145.34204000000003">
    <ele>480.71000000000004</ele>
   </trkpt>
   <trkpt lat="-37.86587" lon="145.34215">
    <ele>480.27000000000004</ele>
   </trkpt>
   <trkpt lat="-37.86634" lon="145.34241">
    <ele>479.14000000000004</ele>
   </trkpt>
   <trkpt lat="-37.86663" lon="145.34261">
    <ele>477.78000000000003</ele>
   </trkpt>
   <trkpt lat="-37.86717" lon="145.34283000000002">
    <ele>479.23</ele>
   </trkpt>
   <trkpt lat="-37.86741" lon="145.34287">
    <ele>481.94</ele>
   </trkpt>
   <trkpt lat="-37.86766" lon="145.34284000000002">
    <ele>485.76</ele>
   </trkpt>
   <trkpt lat="-37.86838" lon="145.34305">
    <ele>490.23</ele>
   </trkpt>
   <trkpt lat="-37.86891" lon="145.34316">
    <ele>493.45000000000005</ele>
   </trkpt>
   <trkpt lat="-37.86914" lon="145.34323">
    <ele>494.75</ele>
   </trkpt>
   <trkpt lat="-37.86979" lon="145.34337000000002">
    <ele>497.71000000000004</ele>
   </trkpt>
   <trkpt lat="-37.86985" lon="145.34342">
    <ele>497.87</ele>
   </trkpt>
   <trkpt lat="-37.87001" lon="145.34359">
    <ele>496.91</ele>
   </trkpt>
   <trkpt lat="-37.87026" lon="145.34375">
    <ele>493.71000000000004</ele>
   </trkpt>
   <trkpt lat="-37.87037" lon="145.34387">
    <ele>494.58</ele>
   </trkpt>
   <trkpt lat="-37.87066" lon="145.34400000000002">
    <ele>500.9100000000001</ele>
   </trkpt>
   <trkpt lat="-37.87088" lon="145.34415">
    <ele>505.61</ele>
   </trkpt>
   <trkpt lat="-37.87109" lon="145.34422">
    <ele>508.61</ele>
   </trkpt>
   <trkpt lat="-37.87071" lon="145.34472000000002">
    <ele>507.94000000000005</ele>
   </trkpt>
   <trkpt lat="-37.87039" lon="145.34502">
    <ele>509.41</ele>
   </trkpt>
   <trkpt lat="-37.87024" lon="145.34525000000002">
    <ele>511.88</ele>
   </trkpt>
   <trkpt lat="-37.87006" lon="145.34553000000002">
    <ele>514.63</ele>
   </trkpt>
   <trkpt lat="-37.86961000007383" lon="145.345344998841">
    <ele>510.34000000000003</ele>
   </trkpt>
   <trkpt lat="-37.86916" lon="145.34516000000002">
    <ele>506.4700000000001</ele>
   </trkpt>
   <trkpt lat="-37.86905" lon="145.34516000000002">
    <ele>505.90000000000003</ele>
   </trkpt>
   <trkpt lat="-37.86841000087139" lon="145.34562000401232">
    <ele>506.7900000000001</ele>
   </trkpt>
   <trkpt lat="-37.86777" lon="145.34608">
    <ele>507.95</ele>
   </trkpt>
   <trkpt lat="-37.86741" lon="145.34623000000002">
    <ele>506.84000000000003</ele>
   </trkpt>
   <trkpt lat="-37.86703" lon="145.34629">
    <ele>504.82000000000005</ele>
   </trkpt>
   <trkpt lat="-37.86646500001913" lon="145.34643000108923">
    <ele>501.61</ele>
   </trkpt>
   <trkpt lat="-37.8659" lon="145.34657">
    <ele>501.99</ele>
   </trkpt>
   <trkpt lat="-37.865700000000004" lon="145.34663">
    <ele>503.6400000000001</ele>
   </trkpt>
   <trkpt lat="-37.86569" lon="145.34663">
    <ele>503.6400000000001</ele>
   </trkpt>
   <trkpt lat="-37.865370000000006" lon="145.34673">
    <ele>506.55000000000007</ele>
   </trkpt>
   <trkpt lat="-37.86502" lon="145.34686000000002">
    <ele>509.38000000000005</ele>
   </trkpt>
   <trkpt lat="-37.86482" lon="145.34718">
    <ele>511.4000000000001</ele>
   </trkpt>
   <trkpt lat="-37.864810000000006" lon="145.34757000000002">
    <ele>518.44</ele>
   </trkpt>
   <trkpt lat="-37.864850000000004" lon="145.34798">
    <ele>521.88</ele>
   </trkpt>
   <trkpt lat="-37.86493" lon="145.34815">
    <ele>524.5600000000001</ele>
   </trkpt>
   <trkpt lat="-37.86493" lon="145.34816">
    <ele>524.5600000000001</ele>
   </trkpt>
   <trkpt lat="-37.86497" lon="145.34822">
    <ele>525.5600000000001</ele>
   </trkpt>
   <trkpt lat="-37.86491" lon="145.34857000000002">
    <ele>523.88</ele>
   </trkpt>
   <trkpt lat="-37.864720001142366" lon="145.34910500157082">
    <ele>519.5500000000001</ele>
   </trkpt>
   <trkpt lat="-37.86453" lon="145.34964000000002">
    <ele>514.24</ele>
   </trkpt>
   <trkpt lat="-37.86444" lon="145.34988">
    <ele>511.94000000000005</ele>
   </trkpt>
   <trkpt lat="-37.864450000000005" lon="145.34987">
    <ele>511.94000000000005</ele>
   </trkpt>
   <trkpt lat="-37.86417" lon="145.35060000000001">
    <ele>500.77000000000004</ele>
   </trkpt>
   <trkpt lat="-37.8641" lon="145.35074">
    <ele>498.77000000000004</ele>
   </trkpt>
   <trkpt lat="-37.8641" lon="145.35089000000002">
    <ele>498.21000000000004</ele>
   </trkpt>
   <trkpt lat="-37.864050000000006" lon="145.35102">
    <ele>496.6</ele>
   </trkpt>
   <trkpt lat="-37.86379" lon="145.35118">
    <ele>488.16</ele>
   </trkpt>
   <trkpt lat="-37.8637" lon="145.35125000000002">
    <ele>486.01000000000005</ele>
   </trkpt>
   <trkpt lat="-37.86359" lon="145.35126000000002">
    <ele>483.21000000000004</ele>
   </trkpt>
   <trkpt lat="-37.8635" lon="145.35133000000002">
    <ele>481.71000000000004</ele>
   </trkpt>
   <trkpt lat="-37.863490000000006" lon="145.3514">
    <ele>481.11</ele>
   </trkpt>
   <trkpt lat="-37.863420000000005" lon="145.35147">
    <ele>480.11</ele>
   </trkpt>
   <trkpt lat="-37.8633" lon="145.35153000000003">
    <ele>479.34000000000003</ele>
   </trkpt>
   <trkpt lat="-37.863110000000006" lon="145.35169000000002">
    <ele>478.89000000000004</ele>
   </trkpt>
   <trkpt lat="-37.86309" lon="145.35176">
    <ele>479.24000000000007</ele>
   </trkpt>
   <trkpt lat="-37.86312" lon="145.35186000000002">
    <ele>479.75000000000006</ele>
   </trkpt>
   <trkpt lat="-37.863385001367774" lon="145.35243999779462">
    <ele>482.94</ele>
   </trkpt>
   <trkpt lat="-37.86365" lon="145.35302000000001">
    <ele>479.72</ele>
   </trkpt>
   <trkpt lat="-37.86323500027689" lon="145.35331000168807">
    <ele>479.37</ele>
   </trkpt>
   <trkpt lat="-37.862820000000006" lon="145.3536">
    <ele>480.62000000000006</ele>
   </trkpt>
   <trkpt lat="-37.862860000000005" lon="145.35369">
    <ele>480.84000000000003</ele>
   </trkpt>
   <trkpt lat="-37.862840000000006" lon="145.35371">
    <ele>480.84000000000003</ele>
   </trkpt>
  </trkseg>
 </trk>
</gpx>
