<?xml version="1.0" encoding="UTF-8"?>
<gpx creator="StravaGPX" version="1.1" xmlns="http://www.topografix.com/GPX/1/1" xmlns:xsi="http://www.w3.org/2001/XMLSchema-instance" xsi:schemaLocation="http://www.topografix.com/GPX/1/1 http://www.topografix.com/GPX/1/1/gpx.xsd">
 <metadata>
  <name>RCR 17k </name>
  <author>
   <name>john csorgo</name>
   <link href="https://www.strava.com/athletes/61185584"/>
  </author>
  <copyright author="OpenStreetMap contributors">
   <year>2020</year>
   <license>https://www.openstreetmap.org/copyright</license>
  </copyright>
  <link href="https://www.strava.com/routes/3406555965383139550"/>
 </metadata>
 <trk>
  <name>RCR 17k </name>
  <link href="https://www.strava.com/routes/3406555965383139550"/>
  <type>trail_running</type>
  <trkseg>
   <trkpt lat="-37.81618" lon="145.37920000000003">
    <ele>434.07</ele>
   </trkpt>
   <trkpt lat="-37.81613" lon="145.37898">
    <ele>434.02</ele>
   </trkpt>
   <trkpt lat="-37.816" lon="145.37896">
    <ele>432.92</ele>
   </trkpt>
   <trkpt lat="-37.81579" lon="145.3788">
    <ele>431.76000000000005</ele>
   </trkpt>
   <trkpt lat="-37.81546" lon="145.37838000000002">
    <ele>430.75</ele>
   </trkpt>
   <trkpt lat="-37.815000000000005" lon="145.37811000000002">
    <ele>429.90000000000003</ele>
   </trkpt>
   <trkpt lat="-37.81450000127363" lon="145.3775549962098">
    <ele>434.97</ele>
   </trkpt>
   <trkpt lat="-37.814" lon="145.377">
    <ele>439.89000000000004</ele>
   </trkpt>
   <trkpt lat="-37.81394" lon="145.37682">
    <ele>443.76000000000005</ele>
   </trkpt>
   <trkpt lat="-37.8138" lon="145.37578000000002">
    <ele>450.5</ele>
   </trkpt>
   <trkpt lat="-37.813705001405076" lon="145.37520499930613">
    <ele>458.32000000000005</ele>
   </trkpt>
   <trkpt lat="-37.813610000000004" lon="145.37463000000002">
    <ele>461.25000000000006</ele>
   </trkpt>
   <trkpt lat="-37.8134" lon="145.37372000000002">
    <ele>465.63000000000005</ele>
   </trkpt>
   <trkpt lat="-37.813340000000004" lon="145.37318000000002">
    <ele>466.0</ele>
   </trkpt>
   <trkpt lat="-37.81338" lon="145.37299000000002">
    <ele>465.53000000000003</ele>
   </trkpt>
   <trkpt lat="-37.813390000000005" lon="145.37298">
    <ele>465.53000000000003</ele>
   </trkpt>
   <trkpt lat="-37.813480000000006" lon="145.3728">
    <ele>465.67</ele>
   </trkpt>
   <trkpt lat="-37.8136" lon="145.37265000000002">
    <ele>466.61</ele>
   </trkpt>
   <trkpt lat="-37.81396" lon="145.37239000000002">
    <ele>469.77000000000004</ele>
   </trkpt>
   <trkpt lat="-37.81427" lon="145.37235">
    <ele>470.65</ele>
   </trkpt>
   <trkpt lat="-37.81445" lon="145.37228000000002">
    <ele>470.97</ele>
   </trkpt>
   <trkpt lat="-37.81461" lon="145.37204">
    <ele>473.18</ele>
   </trkpt>
   <trkpt lat="-37.81474" lon="145.37179">
    <ele>474.4200000000001</ele>
   </trkpt>
   <trkpt lat="-37.81481" lon="145.37086000000002">
    <ele>480.95000000000005</ele>
   </trkpt>
   <trkpt lat="-37.81476" lon="145.37027">
    <ele>479.17</ele>
   </trkpt>
   <trkpt lat="-37.81467" lon="145.36967">
    <ele>474.19000000000005</ele>
   </trkpt>
   <trkpt lat="-37.814620000000005" lon="145.36915000000002">
    <ele>468.71</ele>
   </trkpt>
   <trkpt lat="-37.81461" lon="145.36878000000002">
    <ele>464.73</ele>
   </trkpt>
   <trkpt lat="-37.81461" lon="145.36827000000002">
    <ele>461.55</ele>
   </trkpt>
   <trkpt lat="-37.81481" lon="145.36755000000002">
    <ele>455.07</ele>
   </trkpt>
   <trkpt lat="-37.81488" lon="145.36741">
    <ele>452.90000000000003</ele>
   </trkpt>
   <trkpt lat="-37.81508" lon="145.36724">
    <ele>450.96000000000004</ele>
   </trkpt>
   <trkpt lat="-37.81537" lon="145.36716">
    <ele>450.5</ele>
   </trkpt>
   <trkpt lat="-37.81573" lon="145.36681000000002">
    <ele>452.58000000000004</ele>
   </trkpt>
   <trkpt lat="-37.81615" lon="145.36669">
    <ele>457.33</ele>
   </trkpt>
   <trkpt lat="-37.81678999995962" lon="145.36669999991267">
    <ele>464.29</ele>
   </trkpt>
   <trkpt lat="-37.81743" lon="145.36671">
    <ele>470.41</ele>
   </trkpt>
   <trkpt lat="-37.81745" lon="145.36571">
    <ele>459.64000000000004</ele>
   </trkpt>
   <trkpt lat="-37.81736" lon="145.36494000000002">
    <ele>448.02000000000004</ele>
   </trkpt>
   <trkpt lat="-37.81723" lon="145.36425">
    <ele>440.54</ele>
   </trkpt>
   <trkpt lat="-37.81721" lon="145.36376">
    <ele>435.2300000000001</ele>
   </trkpt>
   <trkpt lat="-37.81727" lon="145.36336">
    <ele>430.18000000000006</ele>
   </trkpt>
   <trkpt lat="-37.81732" lon="145.36321">
    <ele>427.8</ele>
   </trkpt>
   <trkpt lat="-37.81747" lon="145.36280000000002">
    <ele>423.22</ele>
   </trkpt>
   <trkpt lat="-37.81761" lon="145.36260000000001">
    <ele>420.21000000000004</ele>
   </trkpt>
   <trkpt lat="-37.8177" lon="145.36251000000001">
    <ele>418.78000000000003</ele>
   </trkpt>
   <trkpt lat="-37.8181" lon="145.36234000000002">
    <ele>410.72</ele>
   </trkpt>
   <trkpt lat="-37.81828" lon="145.36215">
    <ele>410.05</ele>
   </trkpt>
   <trkpt lat="-37.81861" lon="145.36159">
    <ele>398.18</ele>
   </trkpt>
   <trkpt lat="-37.81868" lon="145.36143">
    <ele>398.18</ele>
   </trkpt>
   <trkpt lat="-37.8187" lon="145.36124">
    <ele>394.94</ele>
   </trkpt>
   <trkpt lat="-37.8187" lon="145.36094">
    <ele>392.88</ele>
   </trkpt>
   <trkpt lat="-37.818540000000006" lon="145.35998">
    <ele>378.79</ele>
   </trkpt>
   <trkpt lat="-37.81884" lon="145.35967000000002">
    <ele>384.63</ele>
   </trkpt>
   <trkpt lat="-37.81895" lon="145.35959000000003">
    <ele>387.18</ele>
   </trkpt>
   <trkpt lat="-37.81929" lon="145.35952">
    <ele>392.73</ele>
   </trkpt>
   <trkpt lat="-37.81951" lon="145.35937">
    <ele>392.61</ele>
   </trkpt>
   <trkpt lat="-37.81987" lon="145.35896000000002">
    <ele>391.79</ele>
   </trkpt>
   <trkpt lat="-37.820330000000006" lon="145.35863">
    <ele>395.83</ele>
   </trkpt>
   <trkpt lat="-37.82043" lon="145.35848000000001">
    <ele>395.89</ele>
   </trkpt>
   <trkpt lat="-37.8205" lon="145.35833000000002">
    <ele>395.8</ele>
   </trkpt>
   <trkpt lat="-37.820420000000006" lon="145.35778000000002">
    <ele>395.45</ele>
   </trkpt>
   <trkpt lat="-37.82043" lon="145.35744000000003">
    <ele>395.36</ele>
   </trkpt>
   <trkpt lat="-37.82045" lon="145.3573">
    <ele>395.39</ele>
   </trkpt>
   <trkpt lat="-37.82085" lon="145.35671000000002">
    <ele>395.05</ele>
   </trkpt>
   <trkpt lat="-37.82099" lon="145.35655">
    <ele>395.49</ele>
   </trkpt>
   <trkpt lat="-37.82112" lon="145.35653000000002">
    <ele>396.29</ele>
   </trkpt>
   <trkpt lat="-37.82126" lon="145.35643000000002">
    <ele>398.6</ele>
   </trkpt>
   <trkpt lat="-37.821450000000006" lon="145.35625000000002">
    <ele>398.66</ele>
   </trkpt>
   <trkpt lat="-37.82164" lon="145.35581000000002">
    <ele>400.27</ele>
   </trkpt>
   <trkpt lat="-37.82202" lon="145.35513">
    <ele>399.16</ele>
   </trkpt>
   <trkpt lat="-37.82204" lon="145.35498">
    <ele>397.86</ele>
   </trkpt>
   <trkpt lat="-37.82204" lon="145.35479">
    <ele>397.0400000000001</ele>
   </trkpt>
   <trkpt lat="-37.82193" lon="145.3544">
    <ele>400.81000000000006</ele>
   </trkpt>
   <trkpt lat="-37.82164" lon="145.35381">
    <ele>407.16</ele>
   </trkpt>
   <trkpt lat="-37.82159" lon="145.35368000000003">
    <ele>411.23</ele>
   </trkpt>
   <trkpt lat="-37.82155" lon="145.35288">
    <ele>419.14</ele>
   </trkpt>
   <trkpt lat="-37.82159" lon="145.35263">
    <ele>421.35</ele>
   </trkpt>
   <trkpt lat="-37.82209" lon="145.35202">
    <ele>438.04</ele>
   </trkpt>
   <trkpt lat="-37.82234000081451" lon="145.3515450018735">
    <ele>445.37000000000006</ele>
   </trkpt>
   <trkpt lat="-37.822590000000005" lon="145.35107000000002">
    <ele>450.20000000000005</ele>
   </trkpt>
   <trkpt lat="-37.82276" lon="145.35129">
    <ele>457.58000000000004</ele>
   </trkpt>
   <trkpt lat="-37.822860000000006" lon="145.35153000000003">
    <ele>465.16</ele>
   </trkpt>
   <trkpt lat="-37.822950000000006" lon="145.35162000000003">
    <ele>470.20000000000005</ele>
   </trkpt>
   <trkpt lat="-37.82305" lon="145.35166">
    <ele>470.20000000000005</ele>
   </trkpt>
   <trkpt lat="-37.82323" lon="145.35186000000002">
    <ele>482.64</ele>
   </trkpt>
   <trkpt lat="-37.82336" lon="145.3521">
    <ele>492.69</ele>
   </trkpt>
   <trkpt lat="-37.82352" lon="145.35215000000002">
    <ele>495.92</ele>
   </trkpt>
   <trkpt lat="-37.82363" lon="145.35215000000002">
    <ele>500.61</ele>
   </trkpt>
   <trkpt lat="-37.82372" lon="145.35218">
    <ele>505.58000000000004</ele>
   </trkpt>
   <trkpt lat="-37.82383" lon="145.35227">
    <ele>510.9600000000001</ele>
   </trkpt>
   <trkpt lat="-37.82399" lon="145.35247">
    <ele>518.6500000000001</ele>
   </trkpt>
   <trkpt lat="-37.82439" lon="145.35239">
    <ele>536.6</ele>
   </trkpt>
   <trkpt lat="-37.82455" lon="145.35246">
    <ele>542.46</ele>
   </trkpt>
   <trkpt lat="-37.82475" lon="145.35263">
    <ele>552.5300000000001</ele>
   </trkpt>
   <trkpt lat="-37.82547" lon="145.35287000000002">
    <ele>586.0000000000001</ele>
   </trkpt>
   <trkpt lat="-37.82551" lon="145.35260000000002">
    <ele>585.59</ele>
   </trkpt>
   <trkpt lat="-37.82558" lon="145.35231000000002">
    <ele>584.7800000000001</ele>
   </trkpt>
   <trkpt lat="-37.82596" lon="145.35162000000003">
    <ele>582.07</ele>
   </trkpt>
   <trkpt lat="-37.82625" lon="145.35123000000002">
    <ele>579.1800000000001</ele>
   </trkpt>
   <trkpt lat="-37.82658" lon="145.35101">
    <ele>577.21</ele>
   </trkpt>
   <trkpt lat="-37.82701" lon="145.35084">
    <ele>578.2900000000001</ele>
   </trkpt>
   <trkpt lat="-37.82758000007891" lon="145.35072500088367">
    <ele>576.3100000000001</ele>
   </trkpt>
   <trkpt lat="-37.82815" lon="145.35061000000002">
    <ele>575.3000000000001</ele>
   </trkpt>
   <trkpt lat="-37.8286300000965" lon="145.35060500003155">
    <ele>578.38</ele>
   </trkpt>
   <trkpt lat="-37.82911" lon="145.35060000000001">
    <ele>576.7500000000001</ele>
   </trkpt>
   <trkpt lat="-37.82943" lon="145.35047">
    <ele>569.91</ele>
   </trkpt>
   <trkpt lat="-37.82963" lon="145.35047">
    <ele>567.96</ele>
   </trkpt>
   <trkpt lat="-37.82999" lon="145.35055">
    <ele>565.2600000000001</ele>
   </trkpt>
   <trkpt lat="-37.83032" lon="145.35069000000001">
    <ele>561.85</ele>
   </trkpt>
   <trkpt lat="-37.83066" lon="145.35092">
    <ele>559.8100000000001</ele>
   </trkpt>
   <trkpt lat="-37.83093" lon="145.35097000000002">
    <ele>557.6800000000001</ele>
   </trkpt>
   <trkpt lat="-37.83124" lon="145.35090000000002">
    <ele>557.4</ele>
   </trkpt>
   <trkpt lat="-37.831230000000005" lon="145.35090000000002">
    <ele>557.4</ele>
   </trkpt>
   <trkpt lat="-37.83162" lon="145.35071000000002">
    <ele>564.59</ele>
   </trkpt>
   <trkpt lat="-37.83196" lon="145.35046">
    <ele>571.23</ele>
   </trkpt>
   <trkpt lat="-37.83231" lon="145.35010000000003">
    <ele>579.1500000000001</ele>
   </trkpt>
   <trkpt lat="-37.83267" lon="145.34969">
    <ele>586.73</ele>
   </trkpt>
   <trkpt lat="-37.83274" lon="145.34954000000002">
    <ele>587.4200000000001</ele>
   </trkpt>
   <trkpt lat="-37.83316000000001" lon="145.34919000000002">
    <ele>592.9300000000001</ele>
   </trkpt>
   <trkpt lat="-37.83321" lon="145.34907">
    <ele>592.9300000000001</ele>
   </trkpt>
   <trkpt lat="-37.83328" lon="145.3487">
    <ele>595.49</ele>
   </trkpt>
   <trkpt lat="-37.83339" lon="145.34822">
    <ele>595.1200000000001</ele>
   </trkpt>
   <trkpt lat="-37.83346" lon="145.34808">
    <ele>595.02</ele>
   </trkpt>
   <trkpt lat="-37.83379500052499" lon="145.34767500204265">
    <ele>597.2400000000001</ele>
   </trkpt>
   <trkpt lat="-37.83413" lon="145.34727">
    <ele>596.7600000000001</ele>
   </trkpt>
   <trkpt lat="-37.8344" lon="145.34703000000002">
    <ele>596.5600000000001</ele>
   </trkpt>
   <trkpt lat="-37.83491" lon="145.3468">
    <ele>596.71</ele>
   </trkpt>
   <trkpt lat="-37.835150000000006" lon="145.34676000000002">
    <ele>597.34</ele>
   </trkpt>
   <trkpt lat="-37.83574" lon="145.34658000000002">
    <ele>600.9300000000001</ele>
   </trkpt>
   <trkpt lat="-37.83601" lon="145.34655">
    <ele>603.32</ele>
   </trkpt>
   <trkpt lat="-37.8363" lon="145.34654">
    <ele>607.1</ele>
   </trkpt>
   <trkpt lat="-37.836560000000006" lon="145.34659000000002">
    <ele>610.1800000000001</ele>
   </trkpt>
   <trkpt lat="-37.83668" lon="145.34660000000002">
    <ele>610.9</ele>
   </trkpt>
   <trkpt lat="-37.83681" lon="145.34659000000002">
    <ele>611.08</ele>
   </trkpt>
   <trkpt lat="-37.83693" lon="145.34661">
    <ele>610.13</ele>
   </trkpt>
   <trkpt lat="-37.83726" lon="145.34629">
    <ele>600.07</ele>
   </trkpt>
   <trkpt lat="-37.83733" lon="145.34626">
    <ele>599.08</ele>
   </trkpt>
   <trkpt lat="-37.83766" lon="145.34623000000002">
    <ele>592.01</ele>
   </trkpt>
   <trkpt lat="-37.83791" lon="145.34608">
    <ele>584.61</ele>
   </trkpt>
   <trkpt lat="-37.83813" lon="145.34605000000002">
    <ele>579.5400000000001</ele>
   </trkpt>
   <trkpt lat="-37.83834" lon="145.34596000000002">
    <ele>571.0</ele>
   </trkpt>
   <trkpt lat="-37.83843" lon="145.34587000000002">
    <ele>569.62</ele>
   </trkpt>
   <trkpt lat="-37.83856" lon="145.34584">
    <ele>566.47</ele>
   </trkpt>
   <trkpt lat="-37.83872" lon="145.34589000000003">
    <ele>565.28</ele>
   </trkpt>
   <trkpt lat="-37.83896" lon="145.34608">
    <ele>566.35</ele>
   </trkpt>
   <trkpt lat="-37.83912" lon="145.34615000000002">
    <ele>564.08</ele>
   </trkpt>
   <trkpt lat="-37.83961" lon="145.34607000000003">
    <ele>554.46</ele>
   </trkpt>
   <trkpt lat="-37.83979" lon="145.34606000000002">
    <ele>548.9300000000001</ele>
   </trkpt>
   <trkpt lat="-37.84004" lon="145.34607000000003">
    <ele>544.91</ele>
   </trkpt>
   <trkpt lat="-37.84013" lon="145.34609">
    <ele>543.44</ele>
   </trkpt>
   <trkpt lat="-37.84024" lon="145.34614000000002">
    <ele>542.7700000000001</ele>
   </trkpt>
   <trkpt lat="-37.84035" lon="145.34613000000002">
    <ele>539.76</ele>
   </trkpt>
   <trkpt lat="-37.84035" lon="145.34608">
    <ele>539.76</ele>
   </trkpt>
   <trkpt lat="-37.84004" lon="145.34539">
    <ele>526.7700000000001</ele>
   </trkpt>
   <trkpt lat="-37.83977" lon="145.34502">
    <ele>520.0</ele>
   </trkpt>
   <trkpt lat="-37.83977" lon="145.34496000000001">
    <ele>520.0</ele>
   </trkpt>
   <trkpt lat="-37.83979" lon="145.34494">
    <ele>518.14</ele>
   </trkpt>
   <trkpt lat="-37.839850000000006" lon="145.34493">
    <ele>517.3100000000001</ele>
   </trkpt>
   <trkpt lat="-37.84055" lon="145.34504">
    <ele>508.39</ele>
   </trkpt>
   <trkpt lat="-37.84082" lon="145.34512">
    <ele>504.61</ele>
   </trkpt>
   <trkpt lat="-37.84122" lon="145.34528">
    <ele>495.81</ele>
   </trkpt>
   <trkpt lat="-37.84127" lon="145.34528">
    <ele>495.81</ele>
   </trkpt>
   <trkpt lat="-37.84127" lon="145.34522">
    <ele>495.81</ele>
   </trkpt>
   <trkpt lat="-37.8412" lon="145.34501">
    <ele>492.34000000000003</ele>
   </trkpt>
   <trkpt lat="-37.84109" lon="145.34479000000002">
    <ele>490.05</ele>
   </trkpt>
   <trkpt lat="-37.84091" lon="145.34454000000002">
    <ele>483.78000000000003</ele>
   </trkpt>
   <trkpt lat="-37.84051" lon="145.34409000000002">
    <ele>473.28000000000003</ele>
   </trkpt>
   <trkpt lat="-37.84028" lon="145.34392000000003">
    <ele>470.15</ele>
   </trkpt>
   <trkpt lat="-37.84024" lon="145.34384">
    <ele>468.71</ele>
   </trkpt>
   <trkpt lat="-37.84057" lon="145.34386">
    <ele>466.32</ele>
   </trkpt>
   <trkpt lat="-37.84091" lon="145.34394">
    <ele>463.79</ele>
   </trkpt>
   <trkpt lat="-37.84125" lon="145.34408000000002">
    <ele>460.13000000000005</ele>
   </trkpt>
   <trkpt lat="-37.84163" lon="145.34426000000002">
    <ele>458.97</ele>
   </trkpt>
   <trkpt lat="-37.84183" lon="145.34441">
    <ele>457.90000000000003</ele>
   </trkpt>
   <trkpt lat="-37.842040000000004" lon="145.34463000000002">
    <ele>457.35</ele>
   </trkpt>
   <trkpt lat="-37.84221" lon="145.34493">
    <ele>456.89</ele>
   </trkpt>
   <trkpt lat="-37.8423" lon="145.34518">
    <ele>456.29</ele>
   </trkpt>
   <trkpt lat="-37.84239" lon="145.34554">
    <ele>455.3</ele>
   </trkpt>
   <trkpt lat="-37.84241" lon="145.34594">
    <ele>453.88000000000005</ele>
   </trkpt>
   <trkpt lat="-37.84239" lon="145.34612">
    <ele>452.83</ele>
   </trkpt>
   <trkpt lat="-37.8423" lon="145.34661">
    <ele>451.36</ele>
   </trkpt>
   <trkpt lat="-37.84228" lon="145.3468">
    <ele>450.21000000000004</ele>
   </trkpt>
   <trkpt lat="-37.8423" lon="145.34775000000002">
    <ele>445.34000000000003</ele>
   </trkpt>
   <trkpt lat="-37.84225" lon="145.34794000000002">
    <ele>444.82000000000005</ele>
   </trkpt>
   <trkpt lat="-37.84219" lon="145.34804000000003">
    <ele>444.38000000000005</ele>
   </trkpt>
   <trkpt lat="-37.84201" lon="145.34824">
    <ele>443.48</ele>
   </trkpt>
   <trkpt lat="-37.84194" lon="145.34835">
    <ele>443.48</ele>
   </trkpt>
   <trkpt lat="-37.84183" lon="145.34872000000001">
    <ele>442.51</ele>
   </trkpt>
   <trkpt lat="-37.84185" lon="145.34889">
    <ele>442.02000000000004</ele>
   </trkpt>
   <trkpt lat="-37.84192" lon="145.34903">
    <ele>439.97</ele>
   </trkpt>
   <trkpt lat="-37.84201" lon="145.34905">
    <ele>438.15000000000003</ele>
   </trkpt>
   <trkpt lat="-37.84203" lon="145.34905">
    <ele>437.95000000000005</ele>
   </trkpt>
   <trkpt lat="-37.8421" lon="145.34902000000002">
    <ele>437.95000000000005</ele>
   </trkpt>
   <trkpt lat="-37.84219" lon="145.34892000000002">
    <ele>434.34000000000003</ele>
   </trkpt>
   <trkpt lat="-37.84237" lon="145.3488">
    <ele>429.61</ele>
   </trkpt>
   <trkpt lat="-37.84263" lon="145.34873000000002">
    <ele>424.63</ele>
   </trkpt>
   <trkpt lat="-37.842760000000006" lon="145.34866000000002">
    <ele>420.28000000000003</ele>
   </trkpt>
   <trkpt lat="-37.84286" lon="145.34865000000002">
    <ele>420.28000000000003</ele>
   </trkpt>
   <trkpt lat="-37.84306" lon="145.34874000000002">
    <ele>416.22</ele>
   </trkpt>
   <trkpt lat="-37.84315" lon="145.34874000000002">
    <ele>414.81</ele>
   </trkpt>
   <trkpt lat="-37.843320000000006" lon="145.34844">
    <ele>412.25000000000006</ele>
   </trkpt>
   <trkpt lat="-37.84337" lon="145.34801000000002">
    <ele>409.98</ele>
   </trkpt>
   <trkpt lat="-37.84382" lon="145.34711000000001">
    <ele>397.28000000000003</ele>
   </trkpt>
   <trkpt lat="-37.84384" lon="145.3469">
    <ele>393.45</ele>
   </trkpt>
   <trkpt lat="-37.84378" lon="145.34646">
    <ele>387.41</ele>
   </trkpt>
   <trkpt lat="-37.8438" lon="145.34609">
    <ele>380.61</ele>
   </trkpt>
   <trkpt lat="-37.84389" lon="145.34585">
    <ele>374.99000000000007</ele>
   </trkpt>
   <trkpt lat="-37.84393" lon="145.34585">
    <ele>373.94000000000005</ele>
   </trkpt>
   <trkpt lat="-37.844" lon="145.34587000000002">
    <ele>372.07</ele>
   </trkpt>
   <trkpt lat="-37.84418" lon="145.34607000000003">
    <ele>369.38000000000005</ele>
   </trkpt>
   <trkpt lat="-37.84445" lon="145.34615000000002">
    <ele>365.41</ele>
   </trkpt>
   <trkpt lat="-37.845060000000004" lon="145.34613000000002">
    <ele>349.21000000000004</ele>
   </trkpt>
   <trkpt lat="-37.84519" lon="145.34607000000003">
    <ele>349.21000000000004</ele>
   </trkpt>
   <trkpt lat="-37.84543" lon="145.3459">
    <ele>342.55</ele>
   </trkpt>
   <trkpt lat="-37.84548" lon="145.34592">
    <ele>340.75000000000006</ele>
   </trkpt>
   <trkpt lat="-37.84559" lon="145.34591">
    <ele>337.74</ele>
   </trkpt>
   <trkpt lat="-37.84564" lon="145.34588000000002">
    <ele>337.74</ele>
   </trkpt>
   <trkpt lat="-37.84592" lon="145.34556">
    <ele>331.73</ele>
   </trkpt>
   <trkpt lat="-37.84597" lon="145.34545">
    <ele>331.15</ele>
   </trkpt>
   <trkpt lat="-37.84597" lon="145.34536">
    <ele>330.77</ele>
   </trkpt>
   <trkpt lat="-37.84586" lon="145.34502">
    <ele>330.26000000000005</ele>
   </trkpt>
   <trkpt lat="-37.8457" lon="145.34482">
    <ele>329.11</ele>
   </trkpt>
   <trkpt lat="-37.84559" lon="145.34452000000002">
    <ele>325.14000000000004</ele>
   </trkpt>
   <trkpt lat="-37.84554" lon="145.34428">
    <ele>324.09999999999997</ele>
   </trkpt>
   <trkpt lat="-37.84557" lon="145.34413">
    <ele>321.76000000000005</ele>
   </trkpt>
   <trkpt lat="-37.84559" lon="145.34410000000003">
    <ele>321.76000000000005</ele>
   </trkpt>
   <trkpt lat="-37.845690000000005" lon="145.34410000000003">
    <ele>320.28000000000003</ele>
   </trkpt>
   <trkpt lat="-37.84599" lon="145.34422">
    <ele>316.82000000000005</ele>
   </trkpt>
   <trkpt lat="-37.84642" lon="145.34432">
    <ele>306.37</ele>
   </trkpt>
   <trkpt lat="-37.84657" lon="145.34428">
    <ele>306.37</ele>
   </trkpt>
   <trkpt lat="-37.84666" lon="145.3442">
    <ele>304.35</ele>
   </trkpt>
   <trkpt lat="-37.84691" lon="145.34377">
    <ele>299.43</ele>
   </trkpt>
   <trkpt lat="-37.84702" lon="145.34371000000002">
    <ele>298.38000000000005</ele>
   </trkpt>
   <trkpt lat="-37.84709" lon="145.34374000000003">
    <ele>298.14</ele>
   </trkpt>
   <trkpt lat="-37.847170000000006" lon="145.34381000000002">
    <ele>297.32000000000005</ele>
   </trkpt>
   <trkpt lat="-37.84718" lon="145.34387">
    <ele>297.32000000000005</ele>
   </trkpt>
   <trkpt lat="-37.8472" lon="145.34408000000002">
    <ele>296.31</ele>
   </trkpt>
   <trkpt lat="-37.84707" lon="145.34472000000002">
    <ele>293.36</ele>
   </trkpt>
   <trkpt lat="-37.84707" lon="145.34496000000001">
    <ele>293.40000000000003</ele>
   </trkpt>
   <trkpt lat="-37.847170000000006" lon="145.34528">
    <ele>294.00000000000006</ele>
   </trkpt>
   <trkpt lat="-37.84722" lon="145.34541000000002">
    <ele>294.14</ele>
   </trkpt>
   <trkpt lat="-37.84731" lon="145.34550000000002">
    <ele>294.22</ele>
   </trkpt>
   <trkpt lat="-37.84745" lon="145.34555">
    <ele>294.12000000000006</ele>
   </trkpt>
   <trkpt lat="-37.84756" lon="145.34556">
    <ele>293.90000000000003</ele>
   </trkpt>
   <trkpt lat="-37.84781" lon="145.34555">
    <ele>292.13</ele>
   </trkpt>
   <trkpt lat="-37.84789" lon="145.34557">
    <ele>292.13</ele>
   </trkpt>
   <trkpt lat="-37.84798" lon="145.34563">
    <ele>291.14</ele>
   </trkpt>
   <trkpt lat="-37.848200000000006" lon="145.3459">
    <ele>287.86</ele>
   </trkpt>
   <trkpt lat="-37.84848" lon="145.34639">
    <ele>284.72</ele>
   </trkpt>
   <trkpt lat="-37.84854" lon="145.34643">
    <ele>284.72</ele>
   </trkpt>
   <trkpt lat="-37.84857" lon="145.34639">
    <ele>283.24000000000007</ele>
   </trkpt>
   <trkpt lat="-37.84859" lon="145.34626">
    <ele>282.32</ele>
   </trkpt>
   <trkpt lat="-37.84861" lon="145.3453">
    <ele>277.26</ele>
   </trkpt>
   <trkpt lat="-37.84861" lon="145.34521">
    <ele>277.05</ele>
   </trkpt>
   <trkpt lat="-37.84861" lon="145.34492">
    <ele>276.01000000000005</ele>
   </trkpt>
   <trkpt lat="-37.84868" lon="145.34415">
    <ele>274.49</ele>
   </trkpt>
   <trkpt lat="-37.84877000188744" lon="145.3434800008963">
    <ele>273.8</ele>
   </trkpt>
   <trkpt lat="-37.84886" lon="145.34281000000001">
    <ele>271.99</ele>
   </trkpt>
   <trkpt lat="-37.84888" lon="145.34233">
    <ele>269.86</ele>
   </trkpt>
   <trkpt lat="-37.84888" lon="145.34231000000003">
    <ele>269.82</ele>
   </trkpt>
   <trkpt lat="-37.84886" lon="145.34191">
    <ele>267.70000000000005</ele>
   </trkpt>
   <trkpt lat="-37.84869000163196" lon="145.341289998595">
    <ele>265.13000000000005</ele>
   </trkpt>
   <trkpt lat="-37.84852" lon="145.34067000000002">
    <ele>260.35</ele>
   </trkpt>
   <trkpt lat="-37.84845" lon="145.34047">
    <ele>258.56</ele>
   </trkpt>
   <trkpt lat="-37.84816" lon="145.33994">
    <ele>253.21000000000004</ele>
   </trkpt>
   <trkpt lat="-37.84807" lon="145.33973">
    <ele>251.84</ele>
   </trkpt>
   <trkpt lat="-37.84776" lon="145.33938">
    <ele>247.9</ele>
   </trkpt>
   <trkpt lat="-37.84765" lon="145.33934000000002">
    <ele>247.9</ele>
   </trkpt>
   <trkpt lat="-37.84756" lon="145.33924000000002">
    <ele>246.04</ele>
   </trkpt>
   <trkpt lat="-37.84758" lon="145.33926000000002">
    <ele>246.18</ele>
   </trkpt>
   <trkpt lat="-37.84729" lon="145.33877">
    <ele>241.47</ele>
   </trkpt>
   <trkpt lat="-37.84698" lon="145.33795">
    <ele>235.36</ele>
   </trkpt>
   <trkpt lat="-37.84684" lon="145.33762000000002">
    <ele>231.67000000000002</ele>
   </trkpt>
   <trkpt lat="-37.8466" lon="145.33685">
    <ele>229.09</ele>
   </trkpt>
   <trkpt lat="-37.84633" lon="145.33636">
    <ele>226.13000000000002</ele>
   </trkpt>
   <trkpt lat="-37.846340000000005" lon="145.33638000000002">
    <ele>226.22000000000003</ele>
   </trkpt>
   <trkpt lat="-37.84626" lon="145.33624">
    <ele>225.20000000000002</ele>
   </trkpt>
   <trkpt lat="-37.84613" lon="145.33619000000002">
    <ele>223.01000000000002</ele>
   </trkpt>
   <trkpt lat="-37.84601" lon="145.33611000000002">
    <ele>221.99</ele>
   </trkpt>
   <trkpt lat="-37.84595" lon="145.33595000000003">
    <ele>221.10000000000002</ele>
   </trkpt>
   <trkpt lat="-37.84581" lon="145.33519">
    <ele>216.16000000000003</ele>
   </trkpt>
   <trkpt lat="-37.84581" lon="145.33486000000002">
    <ele>215.41000000000003</ele>
   </trkpt>
   <trkpt lat="-37.84593" lon="145.33428">
    <ele>214.26</ele>
   </trkpt>
   <trkpt lat="-37.84586" lon="145.33431000000002">
    <ele>213.05</ele>
   </trkpt>
   <trkpt lat="-37.84566" lon="145.33428">
    <ele>210.46</ele>
   </trkpt>
   <trkpt lat="-37.84545" lon="145.33419">
    <ele>207.47</ele>
   </trkpt>
   <trkpt lat="-37.84485" lon="145.33372">
    <ele>201.56</ele>
   </trkpt>
   <trkpt lat="-37.84463" lon="145.33361000000002">
    <ele>202.25</ele>
   </trkpt>
   <trkpt lat="-37.84451" lon="145.33359000000002">
    <ele>202.91</ele>
   </trkpt>
   <trkpt lat="-37.84431" lon="145.33359000000002">
    <ele>203.99</ele>
   </trkpt>
   <trkpt lat="-37.84409" lon="145.33361000000002">
    <ele>206.42000000000002</ele>
   </trkpt>
   <trkpt lat="-37.84416" lon="145.33384">
    <ele>206.86</ele>
   </trkpt>
   <trkpt lat="-37.84422" lon="145.33398000000003">
    <ele>206.66</ele>
   </trkpt>
   <trkpt lat="-37.84431" lon="145.33408">
    <ele>206.57</ele>
   </trkpt>
   <trkpt lat="-37.84458" lon="145.33425000000003">
    <ele>207.36</ele>
   </trkpt>
   <trkpt lat="-37.84465" lon="145.33432000000002">
    <ele>208.02</ele>
   </trkpt>
   <trkpt lat="-37.84469" lon="145.33442000000002">
    <ele>208.81000000000003</ele>
   </trkpt>
   <trkpt lat="-37.84469" lon="145.33455">
    <ele>209.70000000000002</ele>
   </trkpt>
   <trkpt lat="-37.84458" lon="145.3348">
    <ele>212.26</ele>
   </trkpt>
   <trkpt lat="-37.84451" lon="145.33489">
    <ele>214.15</ele>
   </trkpt>
   <trkpt lat="-37.84438" lon="145.33501">
    <ele>216.17000000000002</ele>
   </trkpt>
   <trkpt lat="-37.84411" lon="145.33519">
    <ele>223.34</ele>
   </trkpt>
   <trkpt lat="-37.84387" lon="145.33540000000002">
    <ele>225.45000000000002</ele>
   </trkpt>
   <trkpt lat="-37.84391" lon="145.33537">
    <ele>225.03</ele>
   </trkpt>
   <trkpt lat="-37.84344" lon="145.33578">
    <ele>233.94</ele>
   </trkpt>
   <trkpt lat="-37.84322" lon="145.33603000000002">
    <ele>237.36</ele>
   </trkpt>
   <trkpt lat="-37.84297" lon="145.33640000000003">
    <ele>245.33</ele>
   </trkpt>
   <trkpt lat="-37.84288" lon="145.33671">
    <ele>251.96</ele>
   </trkpt>
   <trkpt lat="-37.84272" lon="145.33701000000002">
    <ele>251.96</ele>
   </trkpt>
   <trkpt lat="-37.84264" lon="145.3374">
    <ele>260.42</ele>
   </trkpt>
   <trkpt lat="-37.8427" lon="145.33763000000002">
    <ele>265.06</ele>
   </trkpt>
   <trkpt lat="-37.842870000000005" lon="145.33771000000002">
    <ele>262.95</ele>
   </trkpt>
   <trkpt lat="-37.842940000000006" lon="145.33772000000002">
    <ele>261.73</ele>
   </trkpt>
   <trkpt lat="-37.842850000000006" lon="145.33771000000002">
    <ele>263.23</ele>
   </trkpt>
   <trkpt lat="-37.8427" lon="145.33763000000002">
    <ele>265.03000000000003</ele>
   </trkpt>
   <trkpt lat="-37.84266" lon="145.33792000000003">
    <ele>269.24</ele>
   </trkpt>
   <trkpt lat="-37.84242500179924" lon="145.33857000203523">
    <ele>282.12</ele>
   </trkpt>
   <trkpt lat="-37.84219" lon="145.33922">
    <ele>296.81</ele>
   </trkpt>
   <trkpt lat="-37.841950000000004" lon="145.33969000000002">
    <ele>310.6</ele>
   </trkpt>
   <trkpt lat="-37.84178" lon="145.33959000000002">
    <ele>310.47</ele>
   </trkpt>
   <trkpt lat="-37.8416" lon="145.33959000000002">
    <ele>311.45</ele>
   </trkpt>
   <trkpt lat="-37.84143" lon="145.33965">
    <ele>312.47</ele>
   </trkpt>
   <trkpt lat="-37.84098" lon="145.33985">
    <ele>318.73</ele>
   </trkpt>
   <trkpt lat="-37.84069" lon="145.33977000000002">
    <ele>320.13</ele>
   </trkpt>
   <trkpt lat="-37.84042" lon="145.33958">
    <ele>322.63</ele>
   </trkpt>
   <trkpt lat="-37.84015" lon="145.33934000000002">
    <ele>326.89</ele>
   </trkpt>
   <trkpt lat="-37.83977" lon="145.33871000000002">
    <ele>336.16</ele>
   </trkpt>
   <trkpt lat="-37.83961" lon="145.33852000000002">
    <ele>337.39000000000004</ele>
   </trkpt>
   <trkpt lat="-37.83928" lon="145.33822">
    <ele>336.81000000000006</ele>
   </trkpt>
   <trkpt lat="-37.83885" lon="145.33808000000002">
    <ele>333.26</ele>
   </trkpt>
   <trkpt lat="-37.83847" lon="145.33802">
    <ele>333.44</ele>
   </trkpt>
   <trkpt lat="-37.83809" lon="145.33800000000002">
    <ele>337.71</ele>
   </trkpt>
   <trkpt lat="-37.83766" lon="145.33823">
    <ele>345.74000000000007</ele>
   </trkpt>
   <trkpt lat="-37.83721500047108" lon="145.33861500245715">
    <ele>354.3</ele>
   </trkpt>
   <trkpt lat="-37.83677" lon="145.339">
    <ele>359.45000000000005</ele>
   </trkpt>
   <trkpt lat="-37.83641" lon="145.3392">
    <ele>360.41</ele>
   </trkpt>
   <trkpt lat="-37.83625" lon="145.33926000000002">
    <ele>360.2</ele>
   </trkpt>
   <trkpt lat="-37.83576" lon="145.33959000000002">
    <ele>356.58</ele>
   </trkpt>
   <trkpt lat="-37.83543" lon="145.33977000000002">
    <ele>349.44</ele>
   </trkpt>
   <trkpt lat="-37.835150000000006" lon="145.33989000000003">
    <ele>348.07000000000005</ele>
   </trkpt>
   <trkpt lat="-37.83475" lon="145.34023000000002">
    <ele>339.63000000000005</ele>
   </trkpt>
   <trkpt lat="-37.83442" lon="145.34049000000002">
    <ele>344.86000000000007</ele>
   </trkpt>
   <trkpt lat="-37.83415" lon="145.34074">
    <ele>347.80000000000007</ele>
   </trkpt>
   <trkpt lat="-37.83397" lon="145.34079">
    <ele>345.07000000000005</ele>
   </trkpt>
   <trkpt lat="-37.83357" lon="145.34077000000002">
    <ele>332.88</ele>
   </trkpt>
   <trkpt lat="-37.83337" lon="145.34082">
    <ele>330.54</ele>
   </trkpt>
   <trkpt lat="-37.83323" lon="145.34098">
    <ele>329.37000000000006</ele>
   </trkpt>
   <trkpt lat="-37.83301" lon="145.34152">
    <ele>329.48</ele>
   </trkpt>
   <trkpt lat="-37.8327" lon="145.34184000000002">
    <ele>326.45</ele>
   </trkpt>
   <trkpt lat="-37.832330000000006" lon="145.34193000000002">
    <ele>329.21</ele>
   </trkpt>
   <trkpt lat="-37.83178" lon="145.34217">
    <ele>331.13000000000005</ele>
   </trkpt>
   <trkpt lat="-37.83164" lon="145.34225">
    <ele>330.95</ele>
   </trkpt>
   <trkpt lat="-37.83153" lon="145.3424">
    <ele>330.94</ele>
   </trkpt>
   <trkpt lat="-37.83144" lon="145.34259">
    <ele>331.62</ele>
   </trkpt>
   <trkpt lat="-37.83124" lon="145.34334">
    <ele>332.39</ele>
   </trkpt>
   <trkpt lat="-37.83113" lon="145.34359">
    <ele>333.57000000000005</ele>
   </trkpt>
   <trkpt lat="-37.83095" lon="145.34385">
    <ele>333.55</ele>
   </trkpt>
   <trkpt lat="-37.83034" lon="145.34411">
    <ele>335.99</ele>
   </trkpt>
   <trkpt lat="-37.829930000000004" lon="145.34408000000002">
    <ele>329.78000000000003</ele>
   </trkpt>
   <trkpt lat="-37.82963" lon="145.34352">
    <ele>315.21999999999997</ele>
   </trkpt>
   <trkpt lat="-37.82952" lon="145.34314">
    <ele>307.49</ele>
   </trkpt>
   <trkpt lat="-37.82943" lon="145.34233">
    <ele>290.66</ele>
   </trkpt>
   <trkpt lat="-37.829240000000006" lon="145.34232">
    <ele>289.92</ele>
   </trkpt>
   <trkpt lat="-37.828950000000006" lon="145.34237000000002">
    <ele>290.08</ele>
   </trkpt>
   <trkpt lat="-37.82878" lon="145.34246000000002">
    <ele>290.02</ele>
   </trkpt>
   <trkpt lat="-37.82831" lon="145.34295">
    <ele>288.96000000000004</ele>
   </trkpt>
   <trkpt lat="-37.82782" lon="145.34341">
    <ele>290.45000000000005</ele>
   </trkpt>
   <trkpt lat="-37.82755" lon="145.34356000000002">
    <ele>292.16</ele>
   </trkpt>
   <trkpt lat="-37.8273" lon="145.34364000000002">
    <ele>294.75</ele>
   </trkpt>
   <trkpt lat="-37.82705" lon="145.34382000000002">
    <ele>296.26</ele>
   </trkpt>
   <trkpt lat="-37.82692" lon="145.34395">
    <ele>298.19</ele>
   </trkpt>
   <trkpt lat="-37.82681" lon="145.34403">
    <ele>299.45000000000005</ele>
   </trkpt>
   <trkpt lat="-37.82638" lon="145.34404">
    <ele>301.01</ele>
   </trkpt>
   <trkpt lat="-37.826150000000005" lon="145.34410000000003">
    <ele>301.87</ele>
   </trkpt>
   <trkpt lat="-37.82573" lon="145.34427000000002">
    <ele>303.09000000000003</ele>
   </trkpt>
   <trkpt lat="-37.82558" lon="145.34437">
    <ele>303.84</ele>
   </trkpt>
   <trkpt lat="-37.82555" lon="145.34439">
    <ele>303.9</ele>
   </trkpt>
   <trkpt lat="-37.82538" lon="145.34456">
    <ele>304.70000000000005</ele>
   </trkpt>
   <trkpt lat="-37.82488" lon="145.34525000000002">
    <ele>303.47</ele>
   </trkpt>
   <trkpt lat="-37.82446" lon="145.34535000000002">
    <ele>306.46</ele>
   </trkpt>
   <trkpt lat="-37.82428" lon="145.34546">
    <ele>308.38000000000005</ele>
   </trkpt>
   <trkpt lat="-37.82408" lon="145.34560000000002">
    <ele>311.76000000000005</ele>
   </trkpt>
   <trkpt lat="-37.82381" lon="145.34588000000002">
    <ele>315.17</ele>
   </trkpt>
   <trkpt lat="-37.823380000385534" lon="145.34611500128605">
    <ele>316.57</ele>
   </trkpt>
   <trkpt lat="-37.822950000000006" lon="145.34635">
    <ele>316.25</ele>
   </trkpt>
   <trkpt lat="-37.822770000000006" lon="145.34649000000002">
    <ele>317.43000000000006</ele>
   </trkpt>
   <trkpt lat="-37.82267" lon="145.34663">
    <ele>319.21000000000004</ele>
   </trkpt>
   <trkpt lat="-37.8226" lon="145.34677000000002">
    <ele>321.94</ele>
   </trkpt>
   <trkpt lat="-37.82253" lon="145.34703000000002">
    <ele>325.15000000000003</ele>
   </trkpt>
   <trkpt lat="-37.82253" lon="145.34733">
    <ele>327.90000000000003</ele>
   </trkpt>
   <trkpt lat="-37.82255" lon="145.34759000000003">
    <ele>332.46000000000004</ele>
   </trkpt>
   <trkpt lat="-37.82253" lon="145.34774000000002">
    <ele>333.82</ele>
   </trkpt>
   <trkpt lat="-37.82244" lon="145.3478">
    <ele>334.83</ele>
   </trkpt>
   <trkpt lat="-37.82204" lon="145.3479">
    <ele>338.36000000000007</ele>
   </trkpt>
   <trkpt lat="-37.82166" lon="145.34824">
    <ele>343.69000000000005</ele>
   </trkpt>
   <trkpt lat="-37.82126" lon="145.34882000000002">
    <ele>352.14</ele>
   </trkpt>
   <trkpt lat="-37.821270000000005" lon="145.34881000000001">
    <ele>352.14</ele>
   </trkpt>
   <trkpt lat="-37.82108" lon="145.3493">
    <ele>359.14</ele>
   </trkpt>
   <trkpt lat="-37.82103" lon="145.34965000000003">
    <ele>364.50000000000006</ele>
   </trkpt>
   <trkpt lat="-37.82101" lon="145.35052000000002">
    <ele>374.03000000000003</ele>
   </trkpt>
   <trkpt lat="-37.82103" lon="145.35089000000002">
    <ele>377.51</ele>
   </trkpt>
   <trkpt lat="-37.820980000000006" lon="145.35155">
    <ele>378.63</ele>
   </trkpt>
   <trkpt lat="-37.82088" lon="145.35202">
    <ele>378.52000000000004</ele>
   </trkpt>
   <trkpt lat="-37.82052" lon="145.35284000000001">
    <ele>379.12</ele>
   </trkpt>
   <trkpt lat="-37.82047" lon="145.35311000000002">
    <ele>379.29</ele>
   </trkpt>
   <trkpt lat="-37.82047" lon="145.35327">
    <ele>379.29</ele>
   </trkpt>
   <trkpt lat="-37.82052" lon="145.35340000000002">
    <ele>379.59000000000003</ele>
   </trkpt>
   <trkpt lat="-37.82063" lon="145.35363">
    <ele>379.57</ele>
   </trkpt>
   <trkpt lat="-37.82094" lon="145.35403000000002">
    <ele>379.11000000000007</ele>
   </trkpt>
   <trkpt lat="-37.82117" lon="145.35424">
    <ele>379.31</ele>
   </trkpt>
   <trkpt lat="-37.82128" lon="145.35433">
    <ele>379.31</ele>
   </trkpt>
   <trkpt lat="-37.821450000000006" lon="145.35441">
    <ele>379.40000000000003</ele>
   </trkpt>
   <trkpt lat="-37.8215" lon="145.3545">
    <ele>379.53000000000003</ele>
   </trkpt>
   <trkpt lat="-37.82155" lon="145.35462">
    <ele>379.53000000000003</ele>
   </trkpt>
   <trkpt lat="-37.82159" lon="145.3548">
    <ele>379.40000000000003</ele>
   </trkpt>
   <trkpt lat="-37.82152" lon="145.35504">
    <ele>379.35</ele>
   </trkpt>
   <trkpt lat="-37.82123" lon="145.35564000000002">
    <ele>379.65000000000003</ele>
   </trkpt>
   <trkpt lat="-37.82101" lon="145.35605">
    <ele>379.70000000000005</ele>
   </trkpt>
   <trkpt lat="-37.82081" lon="145.35627000000002">
    <ele>379.91</ele>
   </trkpt>
   <trkpt lat="-37.82034" lon="145.35669000000001">
    <ele>381.07</ele>
   </trkpt>
   <trkpt lat="-37.82021" lon="145.35685">
    <ele>381.08000000000004</ele>
   </trkpt>
   <trkpt lat="-37.82009" lon="145.35707000000002">
    <ele>380.8</ele>
   </trkpt>
   <trkpt lat="-37.82005" lon="145.35729">
    <ele>380.81</ele>
   </trkpt>
   <trkpt lat="-37.82011" lon="145.35806000000002">
    <ele>380.52000000000004</ele>
   </trkpt>
   <trkpt lat="-37.82005" lon="145.35833000000002">
    <ele>380.41</ele>
   </trkpt>
   <trkpt lat="-37.81978" lon="145.35862">
    <ele>380.70000000000005</ele>
   </trkpt>
   <trkpt lat="-37.81933000079162" lon="145.35901500229215">
    <ele>380.12</ele>
   </trkpt>
   <trkpt lat="-37.81888" lon="145.35941000000003">
    <ele>380.24</ele>
   </trkpt>
   <trkpt lat="-37.818630000000006" lon="145.35989">
    <ele>379.14000000000004</ele>
   </trkpt>
   <trkpt lat="-37.818540000000006" lon="145.35998">
    <ele>379.28</ele>
   </trkpt>
   <trkpt lat="-37.8187" lon="145.36094">
    <ele>392.88</ele>
   </trkpt>
   <trkpt lat="-37.8187" lon="145.36124">
    <ele>394.94</ele>
   </trkpt>
   <trkpt lat="-37.81868" lon="145.36143">
    <ele>398.18</ele>
   </trkpt>
   <trkpt lat="-37.81861" lon="145.36159">
    <ele>398.18</ele>
   </trkpt>
   <trkpt lat="-37.81828" lon="145.36215">
    <ele>410.05</ele>
   </trkpt>
   <trkpt lat="-37.8181" lon="145.36234000000002">
    <ele>410.72</ele>
   </trkpt>
   <trkpt lat="-37.8177" lon="145.36251000000001">
    <ele>418.78000000000003</ele>
   </trkpt>
   <trkpt lat="-37.81761" lon="145.36260000000001">
    <ele>420.21000000000004</ele>
   </trkpt>
   <trkpt lat="-37.81747" lon="145.36280000000002">
    <ele>423.22</ele>
   </trkpt>
   <trkpt lat="-37.81732" lon="145.36321">
    <ele>427.8</ele>
   </trkpt>
   <trkpt lat="-37.81727" lon="145.36336">
    <ele>430.18000000000006</ele>
   </trkpt>
   <trkpt lat="-37.81721" lon="145.36376">
    <ele>435.2300000000001</ele>
   </trkpt>
   <trkpt lat="-37.81723" lon="145.36425">
    <ele>440.54</ele>
   </trkpt>
   <trkpt lat="-37.81736" lon="145.36494000000002">
    <ele>448.02000000000004</ele>
   </trkpt>
   <trkpt lat="-37.81745" lon="145.36571">
    <ele>459.64000000000004</ele>
   </trkpt>
   <trkpt lat="-37.81743" lon="145.36671">
    <ele>470.41</ele>
   </trkpt>
   <trkpt lat="-37.81679000004122" lon="145.36669999991395">
    <ele>464.29</ele>
   </trkpt>
   <trkpt lat="-37.81615" lon="145.36669">
    <ele>457.33</ele>
   </trkpt>
   <trkpt lat="-37.81573" lon="145.36681000000002">
    <ele>452.58000000000004</ele>
   </trkpt>
   <trkpt lat="-37.81537" lon="145.36716">
    <ele>450.37000000000006</ele>
   </trkpt>
   <trkpt lat="-37.81508" lon="145.36724">
    <ele>450.96000000000004</ele>
   </trkpt>
   <trkpt lat="-37.81488" lon="145.36741">
    <ele>453.42</ele>
   </trkpt>
   <trkpt lat="-37.81481" lon="145.36755000000002">
    <ele>455.07</ele>
   </trkpt>
   <trkpt lat="-37.814620000000005" lon="145.36825000000002">
    <ele>461.12</ele>
   </trkpt>
   <trkpt lat="-37.814620000000005" lon="145.36826000000002">
    <ele>461.12</ele>
   </trkpt>
   <trkpt lat="-37.81461" lon="145.36878000000002">
    <ele>464.73</ele>
   </trkpt>
   <trkpt lat="-37.814620000000005" lon="145.36915000000002">
    <ele>468.71</ele>
   </trkpt>
   <trkpt lat="-37.81467" lon="145.36967">
    <ele>474.19000000000005</ele>
   </trkpt>
   <trkpt lat="-37.81476" lon="145.37027">
    <ele>479.17</ele>
   </trkpt>
   <trkpt lat="-37.81481" lon="145.37086000000002">
    <ele>480.95000000000005</ele>
   </trkpt>
   <trkpt lat="-37.81474" lon="145.37179">
    <ele>474.4200000000001</ele>
   </trkpt>
   <trkpt lat="-37.81461" lon="145.37204">
    <ele>473.18</ele>
   </trkpt>
   <trkpt lat="-37.81445" lon="145.37228000000002">
    <ele>471.19000000000005</ele>
   </trkpt>
   <trkpt lat="-37.81427" lon="145.37235">
    <ele>470.65</ele>
   </trkpt>
   <trkpt lat="-37.81396" lon="145.37239000000002">
    <ele>469.77000000000004</ele>
   </trkpt>
   <trkpt lat="-37.8136" lon="145.37265000000002">
    <ele>466.61</ele>
   </trkpt>
   <trkpt lat="-37.813480000000006" lon="145.3728">
    <ele>465.84000000000003</ele>
   </trkpt>
   <trkpt lat="-37.81338" lon="145.37299000000002">
    <ele>465.5</ele>
   </trkpt>
   <trkpt lat="-37.813340000000004" lon="145.37318000000002">
    <ele>466.0</ele>
   </trkpt>
   <trkpt lat="-37.8134" lon="145.37372000000002">
    <ele>465.63000000000005</ele>
   </trkpt>
   <trkpt lat="-37.813610000000004" lon="145.37463000000002">
    <ele>461.25000000000006</ele>
   </trkpt>
   <trkpt lat="-37.813705001389884" lon="145.37520499921416">
    <ele>458.32000000000005</ele>
   </trkpt>
   <trkpt lat="-37.8138" lon="145.37578000000002">
    <ele>450.5</ele>
   </trkpt>
   <trkpt lat="-37.81394" lon="145.37682">
    <ele>443.76000000000005</ele>
   </trkpt>
   <trkpt lat="-37.814" lon="145.377">
    <ele>439.89000000000004</ele>
   </trkpt>
   <trkpt lat="-37.81450000133028" lon="145.37755499627264">
    <ele>434.97</ele>
   </trkpt>
   <trkpt lat="-37.815000000000005" lon="145.37811000000002">
    <ele>429.90000000000003</ele>
   </trkpt>
   <trkpt lat="-37.81546" lon="145.37838000000002">
    <ele>430.75</ele>
   </trkpt>
   <trkpt lat="-37.81579" lon="145.3788">
    <ele>431.76000000000005</ele>
   </trkpt>
   <trkpt lat="-37.816" lon="145.37896">
    <ele>432.92</ele>
   </trkpt>
   <trkpt lat="-37.81613" lon="145.37898">
    <ele>434.02</ele>
   </trkpt>
   <trkpt lat="-37.81618" lon="145.37919000000002">
    <ele>434.07</ele>
   </trkpt>
  </trkseg>
 </trk>
</gpx>
