<?xml version="1.0" encoding="UTF-8"?>
<gpx creator="StravaGPX" version="1.1" xmlns="http://www.topografix.com/GPX/1/1" xmlns:xsi="http://www.w3.org/2001/XMLSchema-instance" xsi:schemaLocation="http://www.topografix.com/GPX/1/1 http://www.topografix.com/GPX/1/1/gpx.xsd">
 <metadata>
  <name>Saunday 9 Nov 2025 - 14k</name>
  <author>
   <name>Majid Nazem 🇦🇺</name>
   <link href="https://www.strava.com/athletes/5612969"/>
  </author>
  <copyright author="OpenStreetMap contributors">
   <year>2020</year>
   <license>https://www.openstreetmap.org/copyright</license>
  </copyright>
  <link href="https://www.strava.com/routes/3421335147074143592"/>
 </metadata>
 <trk>
  <name>Saunday 9 Nov 2025 - 14k</name>
  <link href="https://www.strava.com/routes/3421335147074143592"/>
  <type>running</type>
  <trkseg>
   <trkpt lat="-37.862820000000006" lon="145.3536">
    <ele>480.53000000000003</ele>
   </trkpt>
   <trkpt lat="-37.862410000513556" lon="145.35391000164356">
    <ele>482.33000000000004</ele>
   </trkpt>
   <trkpt lat="-37.862" lon="145.35422">
    <ele>484.91</ele>
   </trkpt>
   <trkpt lat="-37.86171" lon="145.35449">
    <ele>486.61</ele>
   </trkpt>
   <trkpt lat="-37.86126000119503" lon="145.355000003006">
    <ele>490.6</ele>
   </trkpt>
   <trkpt lat="-37.86081" lon="145.35551">
    <ele>493.61</ele>
   </trkpt>
   <trkpt lat="-37.86072" lon="145.35566">
    <ele>494.21000000000004</ele>
   </trkpt>
   <trkpt lat="-37.860640000000004" lon="145.35598000000002">
    <ele>495.06000000000006</ele>
   </trkpt>
   <trkpt lat="-37.86059" lon="145.35592000000003">
    <ele>498.78000000000003</ele>
   </trkpt>
   <trkpt lat="-37.86059" lon="145.35571000000002">
    <ele>505.26000000000005</ele>
   </trkpt>
   <trkpt lat="-37.86061" lon="145.35558">
    <ele>505.26000000000005</ele>
   </trkpt>
   <trkpt lat="-37.860600000000005" lon="145.35546000000002">
    <ele>507.77000000000004</ele>
   </trkpt>
   <trkpt lat="-37.86016" lon="145.35452">
    <ele>513.39</ele>
   </trkpt>
   <trkpt lat="-37.859930000000006" lon="145.35424">
    <ele>513.23</ele>
   </trkpt>
   <trkpt lat="-37.85969" lon="145.35413">
    <ele>515.5500000000001</ele>
   </trkpt>
   <trkpt lat="-37.85956" lon="145.35410000000002">
    <ele>518.09</ele>
   </trkpt>
   <trkpt lat="-37.85938" lon="145.35420000000002">
    <ele>520.32</ele>
   </trkpt>
   <trkpt lat="-37.85891" lon="145.35462">
    <ele>539.6700000000001</ele>
   </trkpt>
   <trkpt lat="-37.85877" lon="145.35487">
    <ele>547.13</ele>
   </trkpt>
   <trkpt lat="-37.85866" lon="145.35498">
    <ele>547.13</ele>
   </trkpt>
   <trkpt lat="-37.85846" lon="145.35508000000002">
    <ele>555.5</ele>
   </trkpt>
   <trkpt lat="-37.85826" lon="145.35524">
    <ele>561.13</ele>
   </trkpt>
   <trkpt lat="-37.85792" lon="145.35547000000003">
    <ele>570.91</ele>
   </trkpt>
   <trkpt lat="-37.85774" lon="145.3557">
    <ele>574.2900000000001</ele>
   </trkpt>
   <trkpt lat="-37.85745" lon="145.35580000000002">
    <ele>575.4100000000001</ele>
   </trkpt>
   <trkpt lat="-37.85743" lon="145.35574000000003">
    <ele>575.4100000000001</ele>
   </trkpt>
   <trkpt lat="-37.85736" lon="145.35574000000003">
    <ele>574.86</ele>
   </trkpt>
   <trkpt lat="-37.8573" lon="145.35565000000003">
    <ele>574.5600000000001</ele>
   </trkpt>
   <trkpt lat="-37.85725" lon="145.35582000000002">
    <ele>574.77</ele>
   </trkpt>
   <trkpt lat="-37.8573" lon="145.35599000000002">
    <ele>574.6300000000001</ele>
   </trkpt>
   <trkpt lat="-37.85727" lon="145.35607000000002">
    <ele>574.3100000000001</ele>
   </trkpt>
   <trkpt lat="-37.85727" lon="145.35627000000002">
    <ele>573.3900000000001</ele>
   </trkpt>
   <trkpt lat="-37.85718" lon="145.35671000000002">
    <ele>570.08</ele>
   </trkpt>
   <trkpt lat="-37.85705" lon="145.35702">
    <ele>568.08</ele>
   </trkpt>
   <trkpt lat="-37.85703" lon="145.35715000000002">
    <ele>567.85</ele>
   </trkpt>
   <trkpt lat="-37.85698" lon="145.35725000000002">
    <ele>567.21</ele>
   </trkpt>
   <trkpt lat="-37.85671" lon="145.35748">
    <ele>561.2900000000001</ele>
   </trkpt>
   <trkpt lat="-37.8566" lon="145.35786000000002">
    <ele>560.88</ele>
   </trkpt>
   <trkpt lat="-37.85633" lon="145.35812">
    <ele>561.61</ele>
   </trkpt>
   <trkpt lat="-37.85618" lon="145.35822000000002">
    <ele>560.98</ele>
   </trkpt>
   <trkpt lat="-37.85571" lon="145.35829">
    <ele>556.39</ele>
   </trkpt>
   <trkpt lat="-37.85553" lon="145.35828">
    <ele>553.33</ele>
   </trkpt>
   <trkpt lat="-37.8553" lon="145.35817">
    <ele>547.5699999999999</ele>
   </trkpt>
   <trkpt lat="-37.85513" lon="145.358">
    <ele>539.25</ele>
   </trkpt>
   <trkpt lat="-37.85492" lon="145.35791">
    <ele>533.13</ele>
   </trkpt>
   <trkpt lat="-37.85461" lon="145.35797000000002">
    <ele>527.1</ele>
   </trkpt>
   <trkpt lat="-37.8545" lon="145.35797000000002">
    <ele>523.7900000000001</ele>
   </trkpt>
   <trkpt lat="-37.85432" lon="145.3581">
    <ele>522.17</ele>
   </trkpt>
   <trkpt lat="-37.85423" lon="145.35841000000002">
    <ele>527.3100000000001</ele>
   </trkpt>
   <trkpt lat="-37.85421" lon="145.35869000000002">
    <ele>531.51</ele>
   </trkpt>
   <trkpt lat="-37.85405" lon="145.35908">
    <ele>538.3</ele>
   </trkpt>
   <trkpt lat="-37.85403" lon="145.35922000000002">
    <ele>540.32</ele>
   </trkpt>
   <trkpt lat="-37.854020000000006" lon="145.35943">
    <ele>542.5699999999999</ele>
   </trkpt>
   <trkpt lat="-37.85394" lon="145.35982">
    <ele>545.5300000000001</ele>
   </trkpt>
   <trkpt lat="-37.85389" lon="145.35997">
    <ele>546.39</ele>
   </trkpt>
   <trkpt lat="-37.85369" lon="145.3598">
    <ele>541.4300000000001</ele>
   </trkpt>
   <trkpt lat="-37.85316" lon="145.35923000000003">
    <ele>522.9200000000001</ele>
   </trkpt>
   <trkpt lat="-37.85309" lon="145.35899">
    <ele>516.44</ele>
   </trkpt>
   <trkpt lat="-37.85309" lon="145.35891">
    <ele>513.97</ele>
   </trkpt>
   <trkpt lat="-37.85311" lon="145.35873">
    <ele>511.62000000000006</ele>
   </trkpt>
   <trkpt lat="-37.85316" lon="145.35866000000001">
    <ele>508.21000000000004</ele>
   </trkpt>
   <trkpt lat="-37.85313" lon="145.35853">
    <ele>506.19</ele>
   </trkpt>
   <trkpt lat="-37.85322" lon="145.35838">
    <ele>504.41</ele>
   </trkpt>
   <trkpt lat="-37.85336" lon="145.3583">
    <ele>504.92</ele>
   </trkpt>
   <trkpt lat="-37.85345" lon="145.35829">
    <ele>506.33000000000004</ele>
   </trkpt>
   <trkpt lat="-37.85356" lon="145.35836">
    <ele>509.37</ele>
   </trkpt>
   <trkpt lat="-37.85367" lon="145.35837">
    <ele>511.21000000000004</ele>
   </trkpt>
   <trkpt lat="-37.85389" lon="145.35817">
    <ele>512.69</ele>
   </trkpt>
   <trkpt lat="-37.85407" lon="145.35779000000002">
    <ele>506.84000000000003</ele>
   </trkpt>
   <trkpt lat="-37.854200000000006" lon="145.35747">
    <ele>500.8</ele>
   </trkpt>
   <trkpt lat="-37.8543" lon="145.35694">
    <ele>491.46000000000004</ele>
   </trkpt>
   <trkpt lat="-37.85434" lon="145.35638">
    <ele>484.40000000000003</ele>
   </trkpt>
   <trkpt lat="-37.854310000000005" lon="145.3562">
    <ele>483.73</ele>
   </trkpt>
   <trkpt lat="-37.85421" lon="145.35626000000002">
    <ele>473.14000000000004</ele>
   </trkpt>
   <trkpt lat="-37.85423" lon="145.35635000000002">
    <ele>473.79</ele>
   </trkpt>
   <trkpt lat="-37.85421" lon="145.35660000000001">
    <ele>474.49</ele>
   </trkpt>
   <trkpt lat="-37.85412" lon="145.35674">
    <ele>475.22</ele>
   </trkpt>
   <trkpt lat="-37.8538" lon="145.35702">
    <ele>477.46000000000004</ele>
   </trkpt>
   <trkpt lat="-37.85374" lon="145.35714000000002">
    <ele>477.52000000000004</ele>
   </trkpt>
   <trkpt lat="-37.85338" lon="145.35768000000002">
    <ele>480.45000000000005</ele>
   </trkpt>
   <trkpt lat="-37.85271" lon="145.35832000000002">
    <ele>485.19000000000005</ele>
   </trkpt>
   <trkpt lat="-37.85253" lon="145.35851000000002">
    <ele>487.44000000000005</ele>
   </trkpt>
   <trkpt lat="-37.85251" lon="145.35853">
    <ele>487.48</ele>
   </trkpt>
   <trkpt lat="-37.85246" lon="145.35859000000002">
    <ele>487.48</ele>
   </trkpt>
   <trkpt lat="-37.85224" lon="145.35893000000002">
    <ele>490.13000000000005</ele>
   </trkpt>
   <trkpt lat="-37.85213" lon="145.35915">
    <ele>492.01000000000005</ele>
   </trkpt>
   <trkpt lat="-37.85204" lon="145.35945">
    <ele>492.53000000000003</ele>
   </trkpt>
   <trkpt lat="-37.85201" lon="145.35962">
    <ele>492.53000000000003</ele>
   </trkpt>
   <trkpt lat="-37.85206" lon="145.3599">
    <ele>494.64</ele>
   </trkpt>
   <trkpt lat="-37.85219" lon="145.36025">
    <ele>496.2300000000001</ele>
   </trkpt>
   <trkpt lat="-37.85217" lon="145.36042">
    <ele>497.20000000000005</ele>
   </trkpt>
   <trkpt lat="-37.8521" lon="145.36052">
    <ele>497.20000000000005</ele>
   </trkpt>
   <trkpt lat="-37.85188" lon="145.36064000000002">
    <ele>497.8</ele>
   </trkpt>
   <trkpt lat="-37.85159" lon="145.36077">
    <ele>498.77000000000004</ele>
   </trkpt>
   <trkpt lat="-37.85092" lon="145.36096">
    <ele>501.06000000000006</ele>
   </trkpt>
   <trkpt lat="-37.8504" lon="145.36100000000002">
    <ele>504.5900000000001</ele>
   </trkpt>
   <trkpt lat="-37.85004" lon="145.36096">
    <ele>506.31</ele>
   </trkpt>
   <trkpt lat="-37.849320000000006" lon="145.36083000000002">
    <ele>509.14000000000004</ele>
   </trkpt>
   <trkpt lat="-37.849090000000004" lon="145.36085">
    <ele>510.65000000000003</ele>
   </trkpt>
   <trkpt lat="-37.84895" lon="145.36091000000002">
    <ele>511.50000000000006</ele>
   </trkpt>
   <trkpt lat="-37.848780000000005" lon="145.36108000000002">
    <ele>512.47</ele>
   </trkpt>
   <trkpt lat="-37.84857" lon="145.36141">
    <ele>513.6500000000001</ele>
   </trkpt>
   <trkpt lat="-37.84861" lon="145.36146000000002">
    <ele>513.72</ele>
   </trkpt>
   <trkpt lat="-37.84857" lon="145.36141">
    <ele>513.6500000000001</ele>
   </trkpt>
   <trkpt lat="-37.848490000000005" lon="145.36161">
    <ele>511.70000000000005</ele>
   </trkpt>
   <trkpt lat="-37.848050000535466" lon="145.36125999792546">
    <ele>509.69000000000005</ele>
   </trkpt>
   <trkpt lat="-37.84761" lon="145.36091000000002">
    <ele>510.13000000000005</ele>
   </trkpt>
   <trkpt lat="-37.8474" lon="145.36077">
    <ele>510.38000000000005</ele>
   </trkpt>
   <trkpt lat="-37.84727" lon="145.36066000000002">
    <ele>510.53999999999996</ele>
   </trkpt>
   <trkpt lat="-37.84698" lon="145.36054000000001">
    <ele>511.09999999999997</ele>
   </trkpt>
   <trkpt lat="-37.84682" lon="145.36052">
    <ele>511.31000000000006</ele>
   </trkpt>
   <trkpt lat="-37.84655" lon="145.36054000000001">
    <ele>511.50000000000006</ele>
   </trkpt>
   <trkpt lat="-37.84619" lon="145.36064000000002">
    <ele>511.74000000000007</ele>
   </trkpt>
   <trkpt lat="-37.8462" lon="145.36071">
    <ele>512.41</ele>
   </trkpt>
   <trkpt lat="-37.84560500016017" lon="145.36085000111143">
    <ele>513.7900000000001</ele>
   </trkpt>
   <trkpt lat="-37.84501" lon="145.36099000000002">
    <ele>512.72</ele>
   </trkpt>
   <trkpt lat="-37.844950000000004" lon="145.36097">
    <ele>512.72</ele>
   </trkpt>
   <trkpt lat="-37.84420000028111" lon="145.3611733374876">
    <ele>505.84000000000003</ele>
   </trkpt>
   <trkpt lat="-37.8434500002126" lon="145.36137667083946">
    <ele>494.34000000000003</ele>
   </trkpt>
   <trkpt lat="-37.8427" lon="145.36158">
    <ele>481.88</ele>
   </trkpt>
   <trkpt lat="-37.842760000000006" lon="145.36157">
    <ele>482.39000000000004</ele>
   </trkpt>
   <trkpt lat="-37.842130000000004" lon="145.36174000000003">
    <ele>477.02000000000004</ele>
   </trkpt>
   <trkpt lat="-37.8421" lon="145.36245000000002">
    <ele>471.53000000000003</ele>
   </trkpt>
   <trkpt lat="-37.84223" lon="145.36280000000002">
    <ele>468.95000000000005</ele>
   </trkpt>
   <trkpt lat="-37.84281" lon="145.36349">
    <ele>457.81000000000006</ele>
   </trkpt>
   <trkpt lat="-37.84288" lon="145.36368000000002">
    <ele>457.88000000000005</ele>
   </trkpt>
   <trkpt lat="-37.84286" lon="145.36383">
    <ele>458.71000000000004</ele>
   </trkpt>
   <trkpt lat="-37.84281" lon="145.36392">
    <ele>459.6000000000001</ele>
   </trkpt>
   <trkpt lat="-37.842455000747556" lon="145.36434000201953">
    <ele>466.59000000000003</ele>
   </trkpt>
   <trkpt lat="-37.8421" lon="145.36476000000002">
    <ele>472.52000000000004</ele>
   </trkpt>
   <trkpt lat="-37.84199" lon="145.36499">
    <ele>474.30000000000007</ele>
   </trkpt>
   <trkpt lat="-37.841910000000006" lon="145.36531000000002">
    <ele>476.97</ele>
   </trkpt>
   <trkpt lat="-37.84192" lon="145.36546">
    <ele>476.97</ele>
   </trkpt>
   <trkpt lat="-37.84234" lon="145.36639000000002">
    <ele>477.73</ele>
   </trkpt>
   <trkpt lat="-37.8425" lon="145.36689">
    <ele>474.73</ele>
   </trkpt>
   <trkpt lat="-37.8425" lon="145.36701000000002">
    <ele>474.65000000000003</ele>
   </trkpt>
   <trkpt lat="-37.842470000000006" lon="145.36715">
    <ele>475.22</ele>
   </trkpt>
   <trkpt lat="-37.842290000000006" lon="145.36720000000003">
    <ele>477.26</ele>
   </trkpt>
   <trkpt lat="-37.84219" lon="145.36729000000003">
    <ele>477.26</ele>
   </trkpt>
   <trkpt lat="-37.84181" lon="145.36819">
    <ele>486.05</ele>
   </trkpt>
   <trkpt lat="-37.84169" lon="145.36817000000002">
    <ele>484.43</ele>
   </trkpt>
   <trkpt lat="-37.84096" lon="145.36811">
    <ele>476.02000000000004</ele>
   </trkpt>
   <trkpt lat="-37.840970000000006" lon="145.36842000000001">
    <ele>474.70000000000005</ele>
   </trkpt>
   <trkpt lat="-37.84087" lon="145.36892">
    <ele>472.16</ele>
   </trkpt>
   <trkpt lat="-37.84057" lon="145.36894">
    <ele>467.67</ele>
   </trkpt>
   <trkpt lat="-37.84022" lon="145.36902">
    <ele>463.3</ele>
   </trkpt>
   <trkpt lat="-37.83999" lon="145.36903">
    <ele>461.03000000000003</ele>
   </trkpt>
   <trkpt lat="-37.839940000000006" lon="145.36906000000002">
    <ele>459.85</ele>
   </trkpt>
   <trkpt lat="-37.83975" lon="145.36926000000003">
    <ele>455.98</ele>
   </trkpt>
   <trkpt lat="-37.839560000000006" lon="145.36941000000002">
    <ele>450.47</ele>
   </trkpt>
   <trkpt lat="-37.8391" lon="145.36968000000002">
    <ele>445.38000000000005</ele>
   </trkpt>
   <trkpt lat="-37.83883" lon="145.36981">
    <ele>442.47</ele>
   </trkpt>
   <trkpt lat="-37.83869" lon="145.36991">
    <ele>440.3</ele>
   </trkpt>
   <trkpt lat="-37.83849" lon="145.36997000000002">
    <ele>436.43</ele>
   </trkpt>
   <trkpt lat="-37.83798" lon="145.37023000000002">
    <ele>430.52</ele>
   </trkpt>
   <trkpt lat="-37.83769" lon="145.37040000000002">
    <ele>430.38000000000005</ele>
   </trkpt>
   <trkpt lat="-37.83737" lon="145.37053">
    <ele>433.83000000000004</ele>
   </trkpt>
   <trkpt lat="-37.83701000000001" lon="145.37063">
    <ele>434.2300000000001</ele>
   </trkpt>
   <trkpt lat="-37.83706" lon="145.3701">
    <ele>437.84000000000003</ele>
   </trkpt>
   <trkpt lat="-37.83719" lon="145.36971">
    <ele>442.47</ele>
   </trkpt>
   <trkpt lat="-37.83719" lon="145.36952000000002">
    <ele>443.97</ele>
   </trkpt>
   <trkpt lat="-37.83708" lon="145.36950000000002">
    <ele>443.36</ele>
   </trkpt>
   <trkpt lat="-37.8369" lon="145.36938">
    <ele>442.15000000000003</ele>
   </trkpt>
   <trkpt lat="-37.8367" lon="145.36918">
    <ele>441.00000000000006</ele>
   </trkpt>
   <trkpt lat="-37.83628" lon="145.36864">
    <ele>436.20000000000005</ele>
   </trkpt>
   <trkpt lat="-37.83583" lon="145.36804">
    <ele>430.22</ele>
   </trkpt>
   <trkpt lat="-37.83554" lon="145.36737000000002">
    <ele>426.04</ele>
   </trkpt>
   <trkpt lat="-37.83545" lon="145.36728000000002">
    <ele>425.49</ele>
   </trkpt>
   <trkpt lat="-37.83536" lon="145.36729000000003">
    <ele>425.41</ele>
   </trkpt>
   <trkpt lat="-37.83527" lon="145.36734">
    <ele>425.58</ele>
   </trkpt>
   <trkpt lat="-37.835190000000004" lon="145.36743">
    <ele>425.93</ele>
   </trkpt>
   <trkpt lat="-37.83509" lon="145.3673">
    <ele>427.02</ele>
   </trkpt>
   <trkpt lat="-37.83482" lon="145.36722">
    <ele>431.68</ele>
   </trkpt>
   <trkpt lat="-37.83469" lon="145.36711000000003">
    <ele>432.78000000000003</ele>
   </trkpt>
   <trkpt lat="-37.8344" lon="145.36679">
    <ele>438.89000000000004</ele>
   </trkpt>
   <trkpt lat="-37.83431" lon="145.36658">
    <ele>441.71000000000004</ele>
   </trkpt>
   <trkpt lat="-37.83419" lon="145.36644">
    <ele>443.97</ele>
   </trkpt>
   <trkpt lat="-37.8337" lon="145.36607">
    <ele>450.28000000000003</ele>
   </trkpt>
   <trkpt lat="-37.83341" lon="145.3658">
    <ele>453.46000000000004</ele>
   </trkpt>
   <trkpt lat="-37.833090000000006" lon="145.36562">
    <ele>458.27</ele>
   </trkpt>
   <trkpt lat="-37.83276" lon="145.3656">
    <ele>463.97</ele>
   </trkpt>
   <trkpt lat="-37.832710000000006" lon="145.36564">
    <ele>464.49</ele>
   </trkpt>
   <trkpt lat="-37.83252" lon="145.36566000000002">
    <ele>465.9200000000001</ele>
   </trkpt>
   <trkpt lat="-37.8324" lon="145.36562">
    <ele>467.99</ele>
   </trkpt>
   <trkpt lat="-37.83207" lon="145.36518">
    <ele>477.22</ele>
   </trkpt>
   <trkpt lat="-37.83196" lon="145.36511000000002">
    <ele>478.56000000000006</ele>
   </trkpt>
   <trkpt lat="-37.83164" lon="145.365">
    <ele>481.71000000000004</ele>
   </trkpt>
   <trkpt lat="-37.83151" lon="145.36502000000002">
    <ele>482.48</ele>
   </trkpt>
   <trkpt lat="-37.83144" lon="145.36499">
    <ele>483.42</ele>
   </trkpt>
   <trkpt lat="-37.83124" lon="145.36485000000002">
    <ele>485.99</ele>
   </trkpt>
   <trkpt lat="-37.83113" lon="145.36483">
    <ele>486.67</ele>
   </trkpt>
   <trkpt lat="-37.83059" lon="145.36461">
    <ele>486.96000000000004</ele>
   </trkpt>
   <trkpt lat="-37.8305" lon="145.36453">
    <ele>487.04</ele>
   </trkpt>
   <trkpt lat="-37.83034" lon="145.36452">
    <ele>487.06000000000006</ele>
   </trkpt>
   <trkpt lat="-37.830180000000006" lon="145.36430000000001">
    <ele>488.08</ele>
   </trkpt>
   <trkpt lat="-37.82967" lon="145.3639">
    <ele>490.17</ele>
   </trkpt>
   <trkpt lat="-37.82956" lon="145.36374">
    <ele>490.86</ele>
   </trkpt>
   <trkpt lat="-37.82945" lon="145.36360000000002">
    <ele>492.01000000000005</ele>
   </trkpt>
   <trkpt lat="-37.828860000000006" lon="145.36302">
    <ele>493.34000000000003</ele>
   </trkpt>
   <trkpt lat="-37.8286" lon="145.36275">
    <ele>493.99</ele>
   </trkpt>
   <trkpt lat="-37.82842" lon="145.36245000000002">
    <ele>494.11</ele>
   </trkpt>
   <trkpt lat="-37.8284" lon="145.36231">
    <ele>495.08</ele>
   </trkpt>
   <trkpt lat="-37.82842" lon="145.3622">
    <ele>495.21000000000004</ele>
   </trkpt>
   <trkpt lat="-37.8284" lon="145.36201">
    <ele>494.47</ele>
   </trkpt>
   <trkpt lat="-37.82831" lon="145.36178">
    <ele>494.38000000000005</ele>
   </trkpt>
   <trkpt lat="-37.82824" lon="145.36177">
    <ele>494.43</ele>
   </trkpt>
   <trkpt lat="-37.828210000000006" lon="145.3615">
    <ele>495.18000000000006</ele>
   </trkpt>
   <trkpt lat="-37.82826" lon="145.36134">
    <ele>496.45000000000005</ele>
   </trkpt>
   <trkpt lat="-37.82824" lon="145.36102000000002">
    <ele>500.45000000000005</ele>
   </trkpt>
   <trkpt lat="-37.82831" lon="145.36064000000002">
    <ele>505.87</ele>
   </trkpt>
   <trkpt lat="-37.82831" lon="145.36051">
    <ele>506.76</ele>
   </trkpt>
   <trkpt lat="-37.828300000000006" lon="145.36042">
    <ele>507.72</ele>
   </trkpt>
   <trkpt lat="-37.82817" lon="145.36027">
    <ele>512.61</ele>
   </trkpt>
   <trkpt lat="-37.82817" lon="145.36028000000002">
    <ele>512.63</ele>
   </trkpt>
   <trkpt lat="-37.82804" lon="145.36018">
    <ele>515.5500000000001</ele>
   </trkpt>
   <trkpt lat="-37.82788" lon="145.35998">
    <ele>510.18000000000006</ele>
   </trkpt>
   <trkpt lat="-37.828030000000005" lon="145.35981">
    <ele>510.11000000000007</ele>
   </trkpt>
   <trkpt lat="-37.82802" lon="145.35974000000002">
    <ele>511.68</ele>
   </trkpt>
   <trkpt lat="-37.82797" lon="145.35967000000002">
    <ele>515.19</ele>
   </trkpt>
   <trkpt lat="-37.82786" lon="145.3596">
    <ele>523.1</ele>
   </trkpt>
   <trkpt lat="-37.82772000000001" lon="145.35955">
    <ele>526.85</ele>
   </trkpt>
   <trkpt lat="-37.82728" lon="145.35929000000002">
    <ele>532.78</ele>
   </trkpt>
   <trkpt lat="-37.827180000000006" lon="145.35917">
    <ele>534.61</ele>
   </trkpt>
   <trkpt lat="-37.82705" lon="145.35911000000002">
    <ele>535.75</ele>
   </trkpt>
   <trkpt lat="-37.82694" lon="145.35909">
    <ele>537.27</ele>
   </trkpt>
   <trkpt lat="-37.82687" lon="145.35904000000002">
    <ele>537.9300000000001</ele>
   </trkpt>
   <trkpt lat="-37.82681" lon="145.35894000000002">
    <ele>541.09</ele>
   </trkpt>
   <trkpt lat="-37.82678000000001" lon="145.35874">
    <ele>542.63</ele>
   </trkpt>
   <trkpt lat="-37.82667" lon="145.35872">
    <ele>543.62</ele>
   </trkpt>
   <trkpt lat="-37.82645" lon="145.35860000000002">
    <ele>545.6800000000001</ele>
   </trkpt>
   <trkpt lat="-37.82614" lon="145.35836">
    <ele>549.1700000000001</ele>
   </trkpt>
   <trkpt lat="-37.82587" lon="145.35828">
    <ele>551.18</ele>
   </trkpt>
   <trkpt lat="-37.82567" lon="145.35817">
    <ele>553.06</ele>
   </trkpt>
   <trkpt lat="-37.82555" lon="145.35802">
    <ele>555.1</ele>
   </trkpt>
   <trkpt lat="-37.82549" lon="145.35781">
    <ele>558.9900000000001</ele>
   </trkpt>
   <trkpt lat="-37.82531" lon="145.35758">
    <ele>552.79</ele>
   </trkpt>
   <trkpt lat="-37.825250000000004" lon="145.35765">
    <ele>555.91</ele>
   </trkpt>
   <trkpt lat="-37.82524" lon="145.35717000000002">
    <ele>562.82</ele>
   </trkpt>
   <trkpt lat="-37.82526" lon="145.35688000000002">
    <ele>564.55</ele>
   </trkpt>
   <trkpt lat="-37.82536" lon="145.35629">
    <ele>568.86</ele>
   </trkpt>
   <trkpt lat="-37.825320000000005" lon="145.35603">
    <ele>570.37</ele>
   </trkpt>
   <trkpt lat="-37.82529" lon="145.35569">
    <ele>572.07</ele>
   </trkpt>
   <trkpt lat="-37.82529" lon="145.35529000000002">
    <ele>572.8000000000001</ele>
   </trkpt>
   <trkpt lat="-37.82531" lon="145.35505">
    <ele>573.4100000000001</ele>
   </trkpt>
   <trkpt lat="-37.82535" lon="145.35486">
    <ele>574.1800000000001</ele>
   </trkpt>
   <trkpt lat="-37.82544" lon="145.35431">
    <ele>577.77</ele>
   </trkpt>
   <trkpt lat="-37.82555" lon="145.35337">
    <ele>585.53</ele>
   </trkpt>
   <trkpt lat="-37.82547" lon="145.35287000000002">
    <ele>585.6600000000001</ele>
   </trkpt>
   <trkpt lat="-37.82551" lon="145.35260000000002">
    <ele>585.37</ele>
   </trkpt>
   <trkpt lat="-37.82558" lon="145.35231000000002">
    <ele>584.61</ele>
   </trkpt>
   <trkpt lat="-37.82596" lon="145.35162000000003">
    <ele>581.74</ele>
   </trkpt>
   <trkpt lat="-37.82625" lon="145.35123000000002">
    <ele>578.76</ele>
   </trkpt>
   <trkpt lat="-37.82658" lon="145.35101">
    <ele>576.8000000000001</ele>
   </trkpt>
   <trkpt lat="-37.82701" lon="145.35084">
    <ele>577.59</ele>
   </trkpt>
   <trkpt lat="-37.82758000007891" lon="145.35072500088367">
    <ele>575.61</ele>
   </trkpt>
   <trkpt lat="-37.82815" lon="145.35061000000002">
    <ele>574.4800000000001</ele>
   </trkpt>
   <trkpt lat="-37.8286300000965" lon="145.35060500003155">
    <ele>577.04</ele>
   </trkpt>
   <trkpt lat="-37.82911" lon="145.35060000000001">
    <ele>574.37</ele>
   </trkpt>
   <trkpt lat="-37.82943" lon="145.35047">
    <ele>568.32</ele>
   </trkpt>
   <trkpt lat="-37.82963" lon="145.35047">
    <ele>566.13</ele>
   </trkpt>
   <trkpt lat="-37.82999" lon="145.35055">
    <ele>563.4200000000001</ele>
   </trkpt>
   <trkpt lat="-37.83032" lon="145.35069000000001">
    <ele>560.5600000000001</ele>
   </trkpt>
   <trkpt lat="-37.83066" lon="145.35092">
    <ele>558.7</ele>
   </trkpt>
   <trkpt lat="-37.83093" lon="145.35097000000002">
    <ele>556.6600000000001</ele>
   </trkpt>
   <trkpt lat="-37.83097" lon="145.35096000000001">
    <ele>556.5100000000001</ele>
   </trkpt>
   <trkpt lat="-37.830980000000004" lon="145.35095">
    <ele>556.44</ele>
   </trkpt>
   <trkpt lat="-37.83122" lon="145.35091">
    <ele>556.5400000000001</ele>
   </trkpt>
   <trkpt lat="-37.83162" lon="145.35071000000002">
    <ele>563.03</ele>
   </trkpt>
   <trkpt lat="-37.83196" lon="145.35046">
    <ele>570.59</ele>
   </trkpt>
   <trkpt lat="-37.83231" lon="145.35010000000003">
    <ele>578.38</ele>
   </trkpt>
   <trkpt lat="-37.83267" lon="145.34969">
    <ele>585.95</ele>
   </trkpt>
   <trkpt lat="-37.83274" lon="145.34954000000002">
    <ele>586.67</ele>
   </trkpt>
   <trkpt lat="-37.83316000000001" lon="145.34919000000002">
    <ele>591.82</ele>
   </trkpt>
   <trkpt lat="-37.83321" lon="145.34907">
    <ele>591.82</ele>
   </trkpt>
   <trkpt lat="-37.83328" lon="145.3487">
    <ele>594.4200000000001</ele>
   </trkpt>
   <trkpt lat="-37.83339" lon="145.34822">
    <ele>594.3900000000001</ele>
   </trkpt>
   <trkpt lat="-37.83346" lon="145.34808">
    <ele>594.32</ele>
   </trkpt>
   <trkpt lat="-37.83379500052499" lon="145.34767500204265">
    <ele>596.33</ele>
   </trkpt>
   <trkpt lat="-37.83413" lon="145.34727">
    <ele>595.87</ele>
   </trkpt>
   <trkpt lat="-37.8344" lon="145.34703000000002">
    <ele>595.89</ele>
   </trkpt>
   <trkpt lat="-37.83476" lon="145.34686000000002">
    <ele>595.7900000000001</ele>
   </trkpt>
   <trkpt lat="-37.83491" lon="145.3468">
    <ele>595.92</ele>
   </trkpt>
   <trkpt lat="-37.835150000000006" lon="145.34676000000002">
    <ele>596.59</ele>
   </trkpt>
   <trkpt lat="-37.83574" lon="145.34658000000002">
    <ele>600.04</ele>
   </trkpt>
   <trkpt lat="-37.83601" lon="145.34655">
    <ele>603.0300000000001</ele>
   </trkpt>
   <trkpt lat="-37.8363" lon="145.34654">
    <ele>605.9</ele>
   </trkpt>
   <trkpt lat="-37.836560000000006" lon="145.34659000000002">
    <ele>609.63</ele>
   </trkpt>
   <trkpt lat="-37.83668" lon="145.34660000000002">
    <ele>610.3400000000001</ele>
   </trkpt>
   <trkpt lat="-37.83681" lon="145.34659000000002">
    <ele>610.5500000000001</ele>
   </trkpt>
   <trkpt lat="-37.83693" lon="145.34661">
    <ele>609.7900000000001</ele>
   </trkpt>
   <trkpt lat="-37.83726" lon="145.34629">
    <ele>601.0000000000001</ele>
   </trkpt>
   <trkpt lat="-37.83733" lon="145.34626">
    <ele>598.94</ele>
   </trkpt>
   <trkpt lat="-37.83766" lon="145.34623000000002">
    <ele>592.7800000000001</ele>
   </trkpt>
   <trkpt lat="-37.83791" lon="145.34608">
    <ele>584.37</ele>
   </trkpt>
   <trkpt lat="-37.83816" lon="145.34604000000002">
    <ele>578.8199999999999</ele>
   </trkpt>
   <trkpt lat="-37.83816" lon="145.34603">
    <ele>578.55</ele>
   </trkpt>
   <trkpt lat="-37.83834" lon="145.34596000000002">
    <ele>572.08</ele>
   </trkpt>
   <trkpt lat="-37.83843" lon="145.34587000000002">
    <ele>569.35</ele>
   </trkpt>
   <trkpt lat="-37.83856" lon="145.34584">
    <ele>566.1</ele>
   </trkpt>
   <trkpt lat="-37.83872" lon="145.34589000000003">
    <ele>564.7</ele>
   </trkpt>
   <trkpt lat="-37.83896" lon="145.34608">
    <ele>565.5</ele>
   </trkpt>
   <trkpt lat="-37.83912" lon="145.34615000000002">
    <ele>563.3600000000001</ele>
   </trkpt>
   <trkpt lat="-37.83961" lon="145.34607000000003">
    <ele>554.0200000000001</ele>
   </trkpt>
   <trkpt lat="-37.83979" lon="145.34606000000002">
    <ele>549.4300000000001</ele>
   </trkpt>
   <trkpt lat="-37.84004" lon="145.34607000000003">
    <ele>545.2900000000001</ele>
   </trkpt>
   <trkpt lat="-37.84013" lon="145.34609">
    <ele>543.8000000000001</ele>
   </trkpt>
   <trkpt lat="-37.84024" lon="145.34614000000002">
    <ele>541.8000000000001</ele>
   </trkpt>
   <trkpt lat="-37.84035" lon="145.34613000000002">
    <ele>539.42</ele>
   </trkpt>
   <trkpt lat="-37.84035" lon="145.34608">
    <ele>539.42</ele>
   </trkpt>
   <trkpt lat="-37.84004" lon="145.34539">
    <ele>530.7</ele>
   </trkpt>
   <trkpt lat="-37.83977" lon="145.34502">
    <ele>518.08</ele>
   </trkpt>
   <trkpt lat="-37.83977" lon="145.34496000000001">
    <ele>518.08</ele>
   </trkpt>
   <trkpt lat="-37.83979" lon="145.34494">
    <ele>518.08</ele>
   </trkpt>
   <trkpt lat="-37.839850000000006" lon="145.34493">
    <ele>518.08</ele>
   </trkpt>
   <trkpt lat="-37.84055" lon="145.34504">
    <ele>505.33000000000004</ele>
   </trkpt>
   <trkpt lat="-37.84082" lon="145.34512">
    <ele>504.04</ele>
   </trkpt>
   <trkpt lat="-37.84122" lon="145.34528">
    <ele>499.1700000000001</ele>
   </trkpt>
   <trkpt lat="-37.84127" lon="145.34528">
    <ele>494.6</ele>
   </trkpt>
   <trkpt lat="-37.84127" lon="145.34522">
    <ele>494.6</ele>
   </trkpt>
   <trkpt lat="-37.8412" lon="145.34501">
    <ele>491.83000000000004</ele>
   </trkpt>
   <trkpt lat="-37.84109" lon="145.34479000000002">
    <ele>488.73</ele>
   </trkpt>
   <trkpt lat="-37.84091" lon="145.34454000000002">
    <ele>483.38</ele>
   </trkpt>
   <trkpt lat="-37.84051" lon="145.34409000000002">
    <ele>473.61</ele>
   </trkpt>
   <trkpt lat="-37.84028" lon="145.34392000000003">
    <ele>469.83000000000004</ele>
   </trkpt>
   <trkpt lat="-37.84024" lon="145.34384">
    <ele>468.31000000000006</ele>
   </trkpt>
   <trkpt lat="-37.84057" lon="145.34386">
    <ele>465.95000000000005</ele>
   </trkpt>
   <trkpt lat="-37.84091" lon="145.34394">
    <ele>463.14000000000004</ele>
   </trkpt>
   <trkpt lat="-37.84125" lon="145.34408000000002">
    <ele>460.82000000000005</ele>
   </trkpt>
   <trkpt lat="-37.84163" lon="145.34426000000002">
    <ele>458.3</ele>
   </trkpt>
   <trkpt lat="-37.84183" lon="145.34441">
    <ele>457.75000000000006</ele>
   </trkpt>
   <trkpt lat="-37.842040000000004" lon="145.34463000000002">
    <ele>456.63000000000005</ele>
   </trkpt>
   <trkpt lat="-37.84221" lon="145.34493">
    <ele>456.21000000000004</ele>
   </trkpt>
   <trkpt lat="-37.8423" lon="145.34518">
    <ele>455.67</ele>
   </trkpt>
   <trkpt lat="-37.84239" lon="145.34554">
    <ele>454.76000000000005</ele>
   </trkpt>
   <trkpt lat="-37.84241" lon="145.34594">
    <ele>453.16</ele>
   </trkpt>
   <trkpt lat="-37.84239" lon="145.34612">
    <ele>452.12</ele>
   </trkpt>
   <trkpt lat="-37.8423" lon="145.34661">
    <ele>450.90000000000003</ele>
   </trkpt>
   <trkpt lat="-37.84228" lon="145.34687000000002">
    <ele>449.56</ele>
   </trkpt>
   <trkpt lat="-37.8423" lon="145.34731000000002">
    <ele>447.77000000000004</ele>
   </trkpt>
   <trkpt lat="-37.8423" lon="145.34775000000002">
    <ele>444.66</ele>
   </trkpt>
   <trkpt lat="-37.84225" lon="145.34794000000002">
    <ele>444.11000000000007</ele>
   </trkpt>
   <trkpt lat="-37.84219" lon="145.34804000000003">
    <ele>443.86</ele>
   </trkpt>
   <trkpt lat="-37.84201" lon="145.34824">
    <ele>442.96000000000004</ele>
   </trkpt>
   <trkpt lat="-37.84194" lon="145.34835">
    <ele>442.74</ele>
   </trkpt>
   <trkpt lat="-37.84183" lon="145.34872000000001">
    <ele>441.73</ele>
   </trkpt>
   <trkpt lat="-37.84185" lon="145.34889">
    <ele>441.37</ele>
   </trkpt>
   <trkpt lat="-37.84176" lon="145.34928000000002">
    <ele>446.64000000000004</ele>
   </trkpt>
   <trkpt lat="-37.84179" lon="145.34944000000002">
    <ele>452.3</ele>
   </trkpt>
   <trkpt lat="-37.84185" lon="145.3495">
    <ele>452.03000000000003</ele>
   </trkpt>
   <trkpt lat="-37.84196" lon="145.34958">
    <ele>451.49000000000007</ele>
   </trkpt>
   <trkpt lat="-37.84219" lon="145.34969">
    <ele>449.79</ele>
   </trkpt>
   <trkpt lat="-37.84262500025573" lon="145.34986999898746">
    <ele>445.34000000000003</ele>
   </trkpt>
   <trkpt lat="-37.84306" lon="145.35005">
    <ele>442.16</ele>
   </trkpt>
   <trkpt lat="-37.84355" lon="145.35018000000002">
    <ele>439.98</ele>
   </trkpt>
   <trkpt lat="-37.84409" lon="145.35022">
    <ele>436.56000000000006</ele>
   </trkpt>
   <trkpt lat="-37.844440000000006" lon="145.35021">
    <ele>434.33000000000004</ele>
   </trkpt>
   <trkpt lat="-37.84493500020032" lon="145.35014000044447">
    <ele>429.56000000000006</ele>
   </trkpt>
   <trkpt lat="-37.84543" lon="145.35007000000002">
    <ele>425.25</ele>
   </trkpt>
   <trkpt lat="-37.846090000000004" lon="145.35004">
    <ele>423.41</ele>
   </trkpt>
   <trkpt lat="-37.8461" lon="145.35004">
    <ele>423.34000000000003</ele>
   </trkpt>
   <trkpt lat="-37.84653" lon="145.35004">
    <ele>419.83000000000004</ele>
   </trkpt>
   <trkpt lat="-37.84678" lon="145.35007000000002">
    <ele>417.22</ele>
   </trkpt>
   <trkpt lat="-37.84695" lon="145.35014">
    <ele>417.35</ele>
   </trkpt>
   <trkpt lat="-37.8472" lon="145.35029">
    <ele>418.83000000000004</ele>
   </trkpt>
   <trkpt lat="-37.84767" lon="145.35063000000002">
    <ele>422.95000000000005</ele>
   </trkpt>
   <trkpt lat="-37.84792" lon="145.35087000000001">
    <ele>423.38000000000005</ele>
   </trkpt>
   <trkpt lat="-37.84819" lon="145.35123000000002">
    <ele>426.63</ele>
   </trkpt>
   <trkpt lat="-37.8485" lon="145.35187000000002">
    <ele>431.82000000000005</ele>
   </trkpt>
   <trkpt lat="-37.848670000000006" lon="145.35243">
    <ele>437.91</ele>
   </trkpt>
   <trkpt lat="-37.84877" lon="145.35304000000002">
    <ele>442.57</ele>
   </trkpt>
   <trkpt lat="-37.84884" lon="145.35374000000002">
    <ele>446.45</ele>
   </trkpt>
   <trkpt lat="-37.84881" lon="145.35385000000002">
    <ele>447.46000000000004</ele>
   </trkpt>
   <trkpt lat="-37.84863" lon="145.35433">
    <ele>451.84000000000003</ele>
   </trkpt>
   <trkpt lat="-37.84852" lon="145.35456000000002">
    <ele>452.09000000000003</ele>
   </trkpt>
   <trkpt lat="-37.84839" lon="145.35525">
    <ele>446.38000000000005</ele>
   </trkpt>
   <trkpt lat="-37.84814" lon="145.3557">
    <ele>444.59000000000003</ele>
   </trkpt>
   <trkpt lat="-37.84812" lon="145.35582000000002">
    <ele>445.21000000000004</ele>
   </trkpt>
   <trkpt lat="-37.84814" lon="145.35590000000002">
    <ele>446.08000000000004</ele>
   </trkpt>
   <trkpt lat="-37.84821" lon="145.35601">
    <ele>446.71000000000004</ele>
   </trkpt>
   <trkpt lat="-37.84859" lon="145.35638">
    <ele>443.34</ele>
   </trkpt>
   <trkpt lat="-37.84866" lon="145.35649">
    <ele>443.34</ele>
   </trkpt>
   <trkpt lat="-37.8487" lon="145.35663000000002">
    <ele>442.39000000000004</ele>
   </trkpt>
   <trkpt lat="-37.84872" lon="145.35680000000002">
    <ele>441.66</ele>
   </trkpt>
   <trkpt lat="-37.84877" lon="145.35692">
    <ele>440.72</ele>
   </trkpt>
   <trkpt lat="-37.84883000000001" lon="145.35696000000002">
    <ele>439.63</ele>
   </trkpt>
   <trkpt lat="-37.84895" lon="145.35702">
    <ele>438.33000000000004</ele>
   </trkpt>
   <trkpt lat="-37.84951" lon="145.35711">
    <ele>427.24</ele>
   </trkpt>
   <trkpt lat="-37.849700000000006" lon="145.35709">
    <ele>422.93</ele>
   </trkpt>
   <trkpt lat="-37.84998" lon="145.35682">
    <ele>416.29</ele>
   </trkpt>
   <trkpt lat="-37.85009" lon="145.35676">
    <ele>415.63000000000005</ele>
   </trkpt>
   <trkpt lat="-37.85054" lon="145.35639">
    <ele>419.68000000000006</ele>
   </trkpt>
   <trkpt lat="-37.85083" lon="145.35617000000002">
    <ele>419.48</ele>
   </trkpt>
   <trkpt lat="-37.85101" lon="145.35612">
    <ele>419.48</ele>
   </trkpt>
   <trkpt lat="-37.851480000049214" lon="145.35608500021982">
    <ele>418.88</ele>
   </trkpt>
   <trkpt lat="-37.85195" lon="145.35605">
    <ele>424.8</ele>
   </trkpt>
   <trkpt lat="-37.8526" lon="145.35617000000002">
    <ele>442.6</ele>
   </trkpt>
   <trkpt lat="-37.85284" lon="145.3561">
    <ele>446.01</ele>
   </trkpt>
   <trkpt lat="-37.85289" lon="145.35602">
    <ele>446.08000000000004</ele>
   </trkpt>
   <trkpt lat="-37.85298" lon="145.3556">
    <ele>445.17</ele>
   </trkpt>
   <trkpt lat="-37.853" lon="145.35505">
    <ele>442.58000000000004</ele>
   </trkpt>
   <trkpt lat="-37.85331" lon="145.35443">
    <ele>443.38000000000005</ele>
   </trkpt>
   <trkpt lat="-37.85342" lon="145.35415">
    <ele>447.11000000000007</ele>
   </trkpt>
   <trkpt lat="-37.85396" lon="145.35339000000002">
    <ele>453.17</ele>
   </trkpt>
   <trkpt lat="-37.854110000000006" lon="145.35328">
    <ele>455.56</ele>
   </trkpt>
   <trkpt lat="-37.854350000000004" lon="145.35299">
    <ele>460.01000000000005</ele>
   </trkpt>
   <trkpt lat="-37.85439" lon="145.35299">
    <ele>460.01000000000005</ele>
   </trkpt>
   <trkpt lat="-37.85452" lon="145.35320000000002">
    <ele>463.79</ele>
   </trkpt>
   <trkpt lat="-37.854580000000006" lon="145.35319">
    <ele>464.36</ele>
   </trkpt>
   <trkpt lat="-37.85461" lon="145.35309">
    <ele>465.96000000000004</ele>
   </trkpt>
   <trkpt lat="-37.85461" lon="145.35294000000002">
    <ele>467.15000000000003</ele>
   </trkpt>
   <trkpt lat="-37.85466" lon="145.35276000000002">
    <ele>468.55</ele>
   </trkpt>
   <trkpt lat="-37.85472" lon="145.3527">
    <ele>471.67</ele>
   </trkpt>
   <trkpt lat="-37.85486" lon="145.3523">
    <ele>475.79</ele>
   </trkpt>
   <trkpt lat="-37.855140000000006" lon="145.35198000000003">
    <ele>484.41</ele>
   </trkpt>
   <trkpt lat="-37.85521" lon="145.35193">
    <ele>486.04</ele>
   </trkpt>
   <trkpt lat="-37.85526" lon="145.35179000000002">
    <ele>487.19000000000005</ele>
   </trkpt>
   <trkpt lat="-37.85528" lon="145.35168000000002">
    <ele>488.30000000000007</ele>
   </trkpt>
   <trkpt lat="-37.855470000000004" lon="145.35148">
    <ele>490.67</ele>
   </trkpt>
   <trkpt lat="-37.85580500087528" lon="145.35193999788288">
    <ele>497.21000000000004</ele>
   </trkpt>
   <trkpt lat="-37.85614" lon="145.35240000000002">
    <ele>507.21000000000004</ele>
   </trkpt>
   <trkpt lat="-37.85622" lon="145.35247">
    <ele>508.34000000000003</ele>
   </trkpt>
   <trkpt lat="-37.85636" lon="145.35252">
    <ele>509.72</ele>
   </trkpt>
   <trkpt lat="-37.85683" lon="145.35260000000002">
    <ele>507.8</ele>
   </trkpt>
   <trkpt lat="-37.85701" lon="145.35266000000001">
    <ele>506.97</ele>
   </trkpt>
   <trkpt lat="-37.85712" lon="145.35268000000002">
    <ele>505.65000000000003</ele>
   </trkpt>
   <trkpt lat="-37.857620000000004" lon="145.3527">
    <ele>499.99</ele>
   </trkpt>
   <trkpt lat="-37.85815" lon="145.35273">
    <ele>495.52</ele>
   </trkpt>
   <trkpt lat="-37.85851" lon="145.35268000000002">
    <ele>488.28000000000003</ele>
   </trkpt>
   <trkpt lat="-37.8592" lon="145.35248">
    <ele>478.29</ele>
   </trkpt>
   <trkpt lat="-37.85945" lon="145.35244">
    <ele>475.40000000000003</ele>
   </trkpt>
   <trkpt lat="-37.8596" lon="145.35241000000002">
    <ele>473.54</ele>
   </trkpt>
   <trkpt lat="-37.85994" lon="145.35221">
    <ele>468.77000000000004</ele>
   </trkpt>
   <trkpt lat="-37.86023" lon="145.35196000000002">
    <ele>463.76000000000005</ele>
   </trkpt>
   <trkpt lat="-37.860490000000006" lon="145.35181">
    <ele>458.78000000000003</ele>
   </trkpt>
   <trkpt lat="-37.860960000000006" lon="145.35145">
    <ele>450.59000000000003</ele>
   </trkpt>
   <trkpt lat="-37.86158500135338" lon="145.3508950046613">
    <ele>455.85</ele>
   </trkpt>
   <trkpt lat="-37.862210000000005" lon="145.35034000000002">
    <ele>453.52000000000004</ele>
   </trkpt>
   <trkpt lat="-37.862660000000005" lon="145.35069000000001">
    <ele>463.64000000000004</ele>
   </trkpt>
   <trkpt lat="-37.86271" lon="145.35073">
    <ele>457.59000000000003</ele>
   </trkpt>
   <trkpt lat="-37.86222" lon="145.3514">
    <ele>465.58000000000004</ele>
   </trkpt>
   <trkpt lat="-37.86215" lon="145.35175">
    <ele>469.31000000000006</ele>
   </trkpt>
   <trkpt lat="-37.86216" lon="145.35208">
    <ele>470.45000000000005</ele>
   </trkpt>
   <trkpt lat="-37.86222" lon="145.35236">
    <ele>473.1</ele>
   </trkpt>
   <trkpt lat="-37.86242" lon="145.35278000000002">
    <ele>478.17</ele>
   </trkpt>
   <trkpt lat="-37.86253" lon="145.35285000000002">
    <ele>477.19000000000005</ele>
   </trkpt>
   <trkpt lat="-37.86253" lon="145.35292">
    <ele>477.2</ele>
   </trkpt>
   <trkpt lat="-37.86256" lon="145.353">
    <ele>477.2</ele>
   </trkpt>
   <trkpt lat="-37.862820000000006" lon="145.3536">
    <ele>480.53000000000003</ele>
   </trkpt>
   <trkpt lat="-37.86292" lon="145.35353">
    <ele>480.15000000000003</ele>
   </trkpt>
  </trkseg>
 </trk>
</gpx>
