<?xml version="1.0" encoding="UTF-8"?>
<gpx creator="StravaGPX" version="1.1" xmlns="http://www.topografix.com/GPX/1/1" xmlns:xsi="http://www.w3.org/2001/XMLSchema-instance" xsi:schemaLocation="http://www.topografix.com/GPX/1/1 http://www.topografix.com/GPX/1/1/gpx.xsd">
 <metadata>
  <name>Saunday 9 Nov 2025 - 20k</name>
  <author>
   <name>Majid Nazem 🇦🇺</name>
   <link href="https://www.strava.com/athletes/5612969"/>
  </author>
  <copyright author="OpenStreetMap contributors">
   <year>2020</year>
   <license>https://www.openstreetmap.org/copyright</license>
  </copyright>
  <link href="https://www.strava.com/routes/3421338110748050354"/>
 </metadata>
 <trk>
  <name>Saunday 9 Nov 2025 - 20k</name>
  <link href="https://www.strava.com/routes/3421338110748050354"/>
  <type>running</type>
  <trkseg>
   <trkpt lat="-37.862820000000006" lon="145.3536">
    <ele>480.53000000000003</ele>
   </trkpt>
   <trkpt lat="-37.862410000513556" lon="145.35391000164356">
    <ele>482.33000000000004</ele>
   </trkpt>
   <trkpt lat="-37.862" lon="145.35422">
    <ele>484.91</ele>
   </trkpt>
   <trkpt lat="-37.86171" lon="145.35449">
    <ele>486.61</ele>
   </trkpt>
   <trkpt lat="-37.86126000119503" lon="145.355000003006">
    <ele>490.6</ele>
   </trkpt>
   <trkpt lat="-37.86081" lon="145.35551">
    <ele>493.61</ele>
   </trkpt>
   <trkpt lat="-37.86072" lon="145.35566">
    <ele>494.21000000000004</ele>
   </trkpt>
   <trkpt lat="-37.860640000000004" lon="145.35598000000002">
    <ele>495.06000000000006</ele>
   </trkpt>
   <trkpt lat="-37.86059" lon="145.35592000000003">
    <ele>498.78000000000003</ele>
   </trkpt>
   <trkpt lat="-37.86059" lon="145.35571000000002">
    <ele>505.26000000000005</ele>
   </trkpt>
   <trkpt lat="-37.86061" lon="145.35558">
    <ele>505.26000000000005</ele>
   </trkpt>
   <trkpt lat="-37.860600000000005" lon="145.35546000000002">
    <ele>507.77000000000004</ele>
   </trkpt>
   <trkpt lat="-37.86016" lon="145.35452">
    <ele>513.39</ele>
   </trkpt>
   <trkpt lat="-37.859930000000006" lon="145.35424">
    <ele>513.23</ele>
   </trkpt>
   <trkpt lat="-37.85969" lon="145.35413">
    <ele>515.5500000000001</ele>
   </trkpt>
   <trkpt lat="-37.85956" lon="145.35410000000002">
    <ele>518.09</ele>
   </trkpt>
   <trkpt lat="-37.85938" lon="145.35420000000002">
    <ele>520.32</ele>
   </trkpt>
   <trkpt lat="-37.85891" lon="145.35462">
    <ele>539.6700000000001</ele>
   </trkpt>
   <trkpt lat="-37.85877" lon="145.35487">
    <ele>547.13</ele>
   </trkpt>
   <trkpt lat="-37.85866" lon="145.35498">
    <ele>547.13</ele>
   </trkpt>
   <trkpt lat="-37.85846" lon="145.35508000000002">
    <ele>555.5</ele>
   </trkpt>
   <trkpt lat="-37.85826" lon="145.35524">
    <ele>561.13</ele>
   </trkpt>
   <trkpt lat="-37.85792" lon="145.35547000000003">
    <ele>570.91</ele>
   </trkpt>
   <trkpt lat="-37.85774" lon="145.3557">
    <ele>574.2900000000001</ele>
   </trkpt>
   <trkpt lat="-37.85745" lon="145.35580000000002">
    <ele>575.4100000000001</ele>
   </trkpt>
   <trkpt lat="-37.85743" lon="145.35574000000003">
    <ele>575.4100000000001</ele>
   </trkpt>
   <trkpt lat="-37.85736" lon="145.35574000000003">
    <ele>574.86</ele>
   </trkpt>
   <trkpt lat="-37.8573" lon="145.35565000000003">
    <ele>574.5600000000001</ele>
   </trkpt>
   <trkpt lat="-37.85725" lon="145.35582000000002">
    <ele>574.77</ele>
   </trkpt>
   <trkpt lat="-37.8573" lon="145.35599000000002">
    <ele>574.6300000000001</ele>
   </trkpt>
   <trkpt lat="-37.85727" lon="145.35607000000002">
    <ele>574.3100000000001</ele>
   </trkpt>
   <trkpt lat="-37.85727" lon="145.35627000000002">
    <ele>573.3900000000001</ele>
   </trkpt>
   <trkpt lat="-37.85718" lon="145.35671000000002">
    <ele>570.08</ele>
   </trkpt>
   <trkpt lat="-37.85705" lon="145.35702">
    <ele>568.08</ele>
   </trkpt>
   <trkpt lat="-37.85703" lon="145.35715000000002">
    <ele>567.85</ele>
   </trkpt>
   <trkpt lat="-37.85698" lon="145.35725000000002">
    <ele>567.21</ele>
   </trkpt>
   <trkpt lat="-37.85671" lon="145.35748">
    <ele>561.2900000000001</ele>
   </trkpt>
   <trkpt lat="-37.8566" lon="145.35786000000002">
    <ele>560.88</ele>
   </trkpt>
   <trkpt lat="-37.85633" lon="145.35812">
    <ele>561.61</ele>
   </trkpt>
   <trkpt lat="-37.85618" lon="145.35822000000002">
    <ele>560.98</ele>
   </trkpt>
   <trkpt lat="-37.85571" lon="145.35829">
    <ele>556.39</ele>
   </trkpt>
   <trkpt lat="-37.85553" lon="145.35828">
    <ele>553.33</ele>
   </trkpt>
   <trkpt lat="-37.8553" lon="145.35817">
    <ele>547.5699999999999</ele>
   </trkpt>
   <trkpt lat="-37.85513" lon="145.358">
    <ele>539.25</ele>
   </trkpt>
   <trkpt lat="-37.85492" lon="145.35791">
    <ele>533.13</ele>
   </trkpt>
   <trkpt lat="-37.85461" lon="145.35797000000002">
    <ele>527.1</ele>
   </trkpt>
   <trkpt lat="-37.8545" lon="145.35797000000002">
    <ele>523.7900000000001</ele>
   </trkpt>
   <trkpt lat="-37.85432" lon="145.3581">
    <ele>522.17</ele>
   </trkpt>
   <trkpt lat="-37.85423" lon="145.35841000000002">
    <ele>527.3100000000001</ele>
   </trkpt>
   <trkpt lat="-37.85421" lon="145.35869000000002">
    <ele>531.51</ele>
   </trkpt>
   <trkpt lat="-37.85405" lon="145.35908">
    <ele>538.3</ele>
   </trkpt>
   <trkpt lat="-37.85403" lon="145.35922000000002">
    <ele>540.32</ele>
   </trkpt>
   <trkpt lat="-37.854020000000006" lon="145.35943">
    <ele>542.5699999999999</ele>
   </trkpt>
   <trkpt lat="-37.85394" lon="145.35982">
    <ele>545.5300000000001</ele>
   </trkpt>
   <trkpt lat="-37.85389" lon="145.35997">
    <ele>546.39</ele>
   </trkpt>
   <trkpt lat="-37.85369" lon="145.3598">
    <ele>541.4300000000001</ele>
   </trkpt>
   <trkpt lat="-37.85316" lon="145.35923000000003">
    <ele>522.9200000000001</ele>
   </trkpt>
   <trkpt lat="-37.85309" lon="145.35899">
    <ele>516.44</ele>
   </trkpt>
   <trkpt lat="-37.85309" lon="145.35891">
    <ele>513.97</ele>
   </trkpt>
   <trkpt lat="-37.85311" lon="145.35873">
    <ele>511.62000000000006</ele>
   </trkpt>
   <trkpt lat="-37.85316" lon="145.35866000000001">
    <ele>508.21000000000004</ele>
   </trkpt>
   <trkpt lat="-37.85313" lon="145.35853">
    <ele>506.19</ele>
   </trkpt>
   <trkpt lat="-37.85322" lon="145.35838">
    <ele>504.41</ele>
   </trkpt>
   <trkpt lat="-37.85336" lon="145.3583">
    <ele>504.92</ele>
   </trkpt>
   <trkpt lat="-37.85345" lon="145.35829">
    <ele>506.33000000000004</ele>
   </trkpt>
   <trkpt lat="-37.85356" lon="145.35836">
    <ele>509.37</ele>
   </trkpt>
   <trkpt lat="-37.85367" lon="145.35837">
    <ele>511.21000000000004</ele>
   </trkpt>
   <trkpt lat="-37.85389" lon="145.35817">
    <ele>512.69</ele>
   </trkpt>
   <trkpt lat="-37.85407" lon="145.35779000000002">
    <ele>506.84000000000003</ele>
   </trkpt>
   <trkpt lat="-37.854200000000006" lon="145.35747">
    <ele>500.8</ele>
   </trkpt>
   <trkpt lat="-37.8543" lon="145.35694">
    <ele>491.46000000000004</ele>
   </trkpt>
   <trkpt lat="-37.85434" lon="145.35638">
    <ele>484.40000000000003</ele>
   </trkpt>
   <trkpt lat="-37.854310000000005" lon="145.3562">
    <ele>483.73</ele>
   </trkpt>
   <trkpt lat="-37.85421" lon="145.35626000000002">
    <ele>473.14000000000004</ele>
   </trkpt>
   <trkpt lat="-37.85423" lon="145.35635000000002">
    <ele>473.79</ele>
   </trkpt>
   <trkpt lat="-37.85421" lon="145.35660000000001">
    <ele>474.49</ele>
   </trkpt>
   <trkpt lat="-37.85412" lon="145.35674">
    <ele>475.22</ele>
   </trkpt>
   <trkpt lat="-37.8538" lon="145.35702">
    <ele>477.46000000000004</ele>
   </trkpt>
   <trkpt lat="-37.85374" lon="145.35714000000002">
    <ele>477.52000000000004</ele>
   </trkpt>
   <trkpt lat="-37.85338" lon="145.35768000000002">
    <ele>480.45000000000005</ele>
   </trkpt>
   <trkpt lat="-37.85271" lon="145.35832000000002">
    <ele>485.19000000000005</ele>
   </trkpt>
   <trkpt lat="-37.85253" lon="145.35851000000002">
    <ele>487.44000000000005</ele>
   </trkpt>
   <trkpt lat="-37.85251" lon="145.35853">
    <ele>487.48</ele>
   </trkpt>
   <trkpt lat="-37.85246" lon="145.35859000000002">
    <ele>487.48</ele>
   </trkpt>
   <trkpt lat="-37.85224" lon="145.35893000000002">
    <ele>490.13000000000005</ele>
   </trkpt>
   <trkpt lat="-37.85213" lon="145.35915">
    <ele>492.01000000000005</ele>
   </trkpt>
   <trkpt lat="-37.85204" lon="145.35945">
    <ele>492.53000000000003</ele>
   </trkpt>
   <trkpt lat="-37.85201" lon="145.35962">
    <ele>492.53000000000003</ele>
   </trkpt>
   <trkpt lat="-37.85206" lon="145.3599">
    <ele>494.64</ele>
   </trkpt>
   <trkpt lat="-37.85219" lon="145.36025">
    <ele>496.2300000000001</ele>
   </trkpt>
   <trkpt lat="-37.85217" lon="145.36042">
    <ele>497.20000000000005</ele>
   </trkpt>
   <trkpt lat="-37.8521" lon="145.36052">
    <ele>497.20000000000005</ele>
   </trkpt>
   <trkpt lat="-37.85188" lon="145.36064000000002">
    <ele>497.8</ele>
   </trkpt>
   <trkpt lat="-37.85159" lon="145.36077">
    <ele>498.77000000000004</ele>
   </trkpt>
   <trkpt lat="-37.85092" lon="145.36096">
    <ele>501.06000000000006</ele>
   </trkpt>
   <trkpt lat="-37.8504" lon="145.36100000000002">
    <ele>504.5900000000001</ele>
   </trkpt>
   <trkpt lat="-37.85004" lon="145.36096">
    <ele>506.31</ele>
   </trkpt>
   <trkpt lat="-37.849320000000006" lon="145.36083000000002">
    <ele>509.14000000000004</ele>
   </trkpt>
   <trkpt lat="-37.849090000000004" lon="145.36085">
    <ele>510.65000000000003</ele>
   </trkpt>
   <trkpt lat="-37.84895" lon="145.36091000000002">
    <ele>511.50000000000006</ele>
   </trkpt>
   <trkpt lat="-37.848780000000005" lon="145.36108000000002">
    <ele>512.47</ele>
   </trkpt>
   <trkpt lat="-37.84857" lon="145.36141">
    <ele>513.6500000000001</ele>
   </trkpt>
   <trkpt lat="-37.84861" lon="145.36146000000002">
    <ele>513.72</ele>
   </trkpt>
   <trkpt lat="-37.84857" lon="145.36141">
    <ele>513.6500000000001</ele>
   </trkpt>
   <trkpt lat="-37.848490000000005" lon="145.36161">
    <ele>511.70000000000005</ele>
   </trkpt>
   <trkpt lat="-37.848050000535466" lon="145.36125999792546">
    <ele>509.69000000000005</ele>
   </trkpt>
   <trkpt lat="-37.84761" lon="145.36091000000002">
    <ele>510.13000000000005</ele>
   </trkpt>
   <trkpt lat="-37.8474" lon="145.36077">
    <ele>510.38000000000005</ele>
   </trkpt>
   <trkpt lat="-37.84727" lon="145.36066000000002">
    <ele>510.53999999999996</ele>
   </trkpt>
   <trkpt lat="-37.84698" lon="145.36054000000001">
    <ele>511.09999999999997</ele>
   </trkpt>
   <trkpt lat="-37.84682" lon="145.36052">
    <ele>511.31000000000006</ele>
   </trkpt>
   <trkpt lat="-37.84655" lon="145.36054000000001">
    <ele>511.50000000000006</ele>
   </trkpt>
   <trkpt lat="-37.84619" lon="145.36064000000002">
    <ele>511.74000000000007</ele>
   </trkpt>
   <trkpt lat="-37.8462" lon="145.36071">
    <ele>512.41</ele>
   </trkpt>
   <trkpt lat="-37.84560500016017" lon="145.36085000111143">
    <ele>513.7900000000001</ele>
   </trkpt>
   <trkpt lat="-37.84501" lon="145.36099000000002">
    <ele>512.72</ele>
   </trkpt>
   <trkpt lat="-37.844950000000004" lon="145.36097">
    <ele>512.72</ele>
   </trkpt>
   <trkpt lat="-37.84420000028111" lon="145.3611733374876">
    <ele>505.84000000000003</ele>
   </trkpt>
   <trkpt lat="-37.8434500002126" lon="145.36137667083946">
    <ele>494.34000000000003</ele>
   </trkpt>
   <trkpt lat="-37.8427" lon="145.36158">
    <ele>481.88</ele>
   </trkpt>
   <trkpt lat="-37.84273" lon="145.36157">
    <ele>482.11</ele>
   </trkpt>
   <trkpt lat="-37.842130000000004" lon="145.36174000000003">
    <ele>477.02000000000004</ele>
   </trkpt>
   <trkpt lat="-37.8421" lon="145.36245000000002">
    <ele>471.53000000000003</ele>
   </trkpt>
   <trkpt lat="-37.84223" lon="145.36280000000002">
    <ele>468.95000000000005</ele>
   </trkpt>
   <trkpt lat="-37.84281" lon="145.36349">
    <ele>457.81000000000006</ele>
   </trkpt>
   <trkpt lat="-37.84288" lon="145.36368000000002">
    <ele>457.88000000000005</ele>
   </trkpt>
   <trkpt lat="-37.84286" lon="145.36383">
    <ele>458.71000000000004</ele>
   </trkpt>
   <trkpt lat="-37.84281" lon="145.36392">
    <ele>459.6000000000001</ele>
   </trkpt>
   <trkpt lat="-37.842455000747556" lon="145.36434000201953">
    <ele>466.59000000000003</ele>
   </trkpt>
   <trkpt lat="-37.8421" lon="145.36476000000002">
    <ele>472.52000000000004</ele>
   </trkpt>
   <trkpt lat="-37.84199" lon="145.36499">
    <ele>474.30000000000007</ele>
   </trkpt>
   <trkpt lat="-37.841910000000006" lon="145.36531000000002">
    <ele>476.97</ele>
   </trkpt>
   <trkpt lat="-37.84192" lon="145.36546">
    <ele>476.97</ele>
   </trkpt>
   <trkpt lat="-37.84234" lon="145.36639000000002">
    <ele>476.61</ele>
   </trkpt>
   <trkpt lat="-37.8425" lon="145.36689">
    <ele>474.73</ele>
   </trkpt>
   <trkpt lat="-37.8425" lon="145.36701000000002">
    <ele>474.65000000000003</ele>
   </trkpt>
   <trkpt lat="-37.842470000000006" lon="145.36715">
    <ele>475.22</ele>
   </trkpt>
   <trkpt lat="-37.842290000000006" lon="145.36720000000003">
    <ele>477.26</ele>
   </trkpt>
   <trkpt lat="-37.84219" lon="145.36729000000003">
    <ele>477.26</ele>
   </trkpt>
   <trkpt lat="-37.84181" lon="145.36819">
    <ele>486.05</ele>
   </trkpt>
   <trkpt lat="-37.84169" lon="145.36817000000002">
    <ele>484.43</ele>
   </trkpt>
   <trkpt lat="-37.84096" lon="145.36811">
    <ele>476.02000000000004</ele>
   </trkpt>
   <trkpt lat="-37.840970000000006" lon="145.36842000000001">
    <ele>474.70000000000005</ele>
   </trkpt>
   <trkpt lat="-37.84087" lon="145.36892">
    <ele>472.16</ele>
   </trkpt>
   <trkpt lat="-37.84057" lon="145.36894">
    <ele>467.67</ele>
   </trkpt>
   <trkpt lat="-37.84022" lon="145.36902">
    <ele>463.3</ele>
   </trkpt>
   <trkpt lat="-37.83999" lon="145.36903">
    <ele>461.03000000000003</ele>
   </trkpt>
   <trkpt lat="-37.839940000000006" lon="145.36906000000002">
    <ele>459.85</ele>
   </trkpt>
   <trkpt lat="-37.83975" lon="145.36926000000003">
    <ele>455.98</ele>
   </trkpt>
   <trkpt lat="-37.839560000000006" lon="145.36941000000002">
    <ele>450.47</ele>
   </trkpt>
   <trkpt lat="-37.8391" lon="145.36968000000002">
    <ele>445.38000000000005</ele>
   </trkpt>
   <trkpt lat="-37.83885" lon="145.3698">
    <ele>442.27000000000004</ele>
   </trkpt>
   <trkpt lat="-37.83869" lon="145.36991">
    <ele>440.3</ele>
   </trkpt>
   <trkpt lat="-37.83849" lon="145.36997000000002">
    <ele>436.43</ele>
   </trkpt>
   <trkpt lat="-37.83798" lon="145.37023000000002">
    <ele>430.52</ele>
   </trkpt>
   <trkpt lat="-37.83769" lon="145.37040000000002">
    <ele>430.69</ele>
   </trkpt>
   <trkpt lat="-37.83737" lon="145.37053">
    <ele>433.83000000000004</ele>
   </trkpt>
   <trkpt lat="-37.83701000000001" lon="145.37063">
    <ele>434.2300000000001</ele>
   </trkpt>
   <trkpt lat="-37.837030000000006" lon="145.37094000000002">
    <ele>432.49</ele>
   </trkpt>
   <trkpt lat="-37.83699" lon="145.37133">
    <ele>429.45000000000005</ele>
   </trkpt>
   <trkpt lat="-37.837030000000006" lon="145.3719">
    <ele>427.08</ele>
   </trkpt>
   <trkpt lat="-37.83699" lon="145.37235">
    <ele>423.21000000000004</ele>
   </trkpt>
   <trkpt lat="-37.83708" lon="145.37331">
    <ele>413.23</ele>
   </trkpt>
   <trkpt lat="-37.83719" lon="145.37388">
    <ele>409.26</ele>
   </trkpt>
   <trkpt lat="-37.83719" lon="145.37407000000002">
    <ele>408.84000000000003</ele>
   </trkpt>
   <trkpt lat="-37.83738" lon="145.37475">
    <ele>407.28000000000003</ele>
   </trkpt>
   <trkpt lat="-37.83731" lon="145.37496000000002">
    <ele>406.72</ele>
   </trkpt>
   <trkpt lat="-37.83728" lon="145.37513">
    <ele>406.66</ele>
   </trkpt>
   <trkpt lat="-37.83724" lon="145.37557">
    <ele>408.28000000000003</ele>
   </trkpt>
   <trkpt lat="-37.83724" lon="145.3762">
    <ele>412.85</ele>
   </trkpt>
   <trkpt lat="-37.83722" lon="145.37645">
    <ele>415.51000000000005</ele>
   </trkpt>
   <trkpt lat="-37.83731" lon="145.37681">
    <ele>417.94</ele>
   </trkpt>
   <trkpt lat="-37.83731" lon="145.37695000000002">
    <ele>418.96000000000004</ele>
   </trkpt>
   <trkpt lat="-37.83722" lon="145.37716">
    <ele>422.1</ele>
   </trkpt>
   <trkpt lat="-37.83713" lon="145.37725">
    <ele>423.84000000000003</ele>
   </trkpt>
   <trkpt lat="-37.836720000409166" lon="145.3775850019153">
    <ele>428.57000000000005</ele>
   </trkpt>
   <trkpt lat="-37.836310000000005" lon="145.37792000000002">
    <ele>433.27000000000004</ele>
   </trkpt>
   <trkpt lat="-37.83617" lon="145.37811000000002">
    <ele>434.42</ele>
   </trkpt>
   <trkpt lat="-37.83617" lon="145.37810000000002">
    <ele>434.37</ele>
   </trkpt>
   <trkpt lat="-37.836310000000005" lon="145.37792000000002">
    <ele>433.27000000000004</ele>
   </trkpt>
   <trkpt lat="-37.83619" lon="145.37801000000002">
    <ele>432.09000000000003</ele>
   </trkpt>
   <trkpt lat="-37.8361" lon="145.37802000000002">
    <ele>430.83000000000004</ele>
   </trkpt>
   <trkpt lat="-37.83592" lon="145.37798">
    <ele>428.07000000000005</ele>
   </trkpt>
   <trkpt lat="-37.83565" lon="145.37799">
    <ele>424.74000000000007</ele>
   </trkpt>
   <trkpt lat="-37.83556" lon="145.37798">
    <ele>423.59000000000003</ele>
   </trkpt>
   <trkpt lat="-37.83545" lon="145.37794000000002">
    <ele>422.93</ele>
   </trkpt>
   <trkpt lat="-37.83518" lon="145.37775000000002">
    <ele>416.44</ele>
   </trkpt>
   <trkpt lat="-37.83498" lon="145.3775">
    <ele>412.39000000000004</ele>
   </trkpt>
   <trkpt lat="-37.83475" lon="145.37727">
    <ele>408.62</ele>
   </trkpt>
   <trkpt lat="-37.83446" lon="145.37709">
    <ele>403.4200000000001</ele>
   </trkpt>
   <trkpt lat="-37.83408" lon="145.37692">
    <ele>395.81000000000006</ele>
   </trkpt>
   <trkpt lat="-37.83388" lon="145.37678000000002">
    <ele>392.17</ele>
   </trkpt>
   <trkpt lat="-37.83343" lon="145.37654">
    <ele>389.6</ele>
   </trkpt>
   <trkpt lat="-37.83314" lon="145.37650000000002">
    <ele>386.89</ele>
   </trkpt>
   <trkpt lat="-37.8329" lon="145.37657000000002">
    <ele>385.98</ele>
   </trkpt>
   <trkpt lat="-37.83274" lon="145.37673">
    <ele>384.85</ele>
   </trkpt>
   <trkpt lat="-37.8324" lon="145.37684000000002">
    <ele>380.22</ele>
   </trkpt>
   <trkpt lat="-37.83211" lon="145.37687000000003">
    <ele>375.67</ele>
   </trkpt>
   <trkpt lat="-37.83202" lon="145.37691">
    <ele>374.58000000000004</ele>
   </trkpt>
   <trkpt lat="-37.83187" lon="145.37702000000002">
    <ele>372.47</ele>
   </trkpt>
   <trkpt lat="-37.83164" lon="145.37725">
    <ele>370.91</ele>
   </trkpt>
   <trkpt lat="-37.83131" lon="145.37743">
    <ele>364.39000000000004</ele>
   </trkpt>
   <trkpt lat="-37.83106" lon="145.37746">
    <ele>359.14</ele>
   </trkpt>
   <trkpt lat="-37.83088" lon="145.37755">
    <ele>351.83000000000004</ele>
   </trkpt>
   <trkpt lat="-37.83032" lon="145.37802000000002">
    <ele>332.69000000000005</ele>
   </trkpt>
   <trkpt lat="-37.8301" lon="145.37836000000001">
    <ele>328.19000000000005</ele>
   </trkpt>
   <trkpt lat="-37.8299" lon="145.37852">
    <ele>308.48</ele>
   </trkpt>
   <trkpt lat="-37.82981" lon="145.37858">
    <ele>308.48</ele>
   </trkpt>
   <trkpt lat="-37.82954" lon="145.37861">
    <ele>308.48</ele>
   </trkpt>
   <trkpt lat="-37.82907" lon="145.3786">
    <ele>296.34000000000003</ele>
   </trkpt>
   <trkpt lat="-37.82882" lon="145.37863000000002">
    <ele>294.35</ele>
   </trkpt>
   <trkpt lat="-37.82833" lon="145.37879">
    <ele>284.29</ele>
   </trkpt>
   <trkpt lat="-37.8282" lon="145.37878">
    <ele>282.3</ele>
   </trkpt>
   <trkpt lat="-37.828120000000006" lon="145.37881000000002">
    <ele>280.93</ele>
   </trkpt>
   <trkpt lat="-37.82797" lon="145.37874000000002">
    <ele>278.75</ele>
   </trkpt>
   <trkpt lat="-37.8279" lon="145.3785">
    <ele>275.1</ele>
   </trkpt>
   <trkpt lat="-37.82793" lon="145.37837000000002">
    <ele>273.61</ele>
   </trkpt>
   <trkpt lat="-37.82799" lon="145.37820000000002">
    <ele>272.74</ele>
   </trkpt>
   <trkpt lat="-37.82799" lon="145.37812000000002">
    <ele>272.55</ele>
   </trkpt>
   <trkpt lat="-37.827920000000006" lon="145.37805">
    <ele>272.25000000000006</ele>
   </trkpt>
   <trkpt lat="-37.82824" lon="145.37775000000002">
    <ele>276.18</ele>
   </trkpt>
   <trkpt lat="-37.8286" lon="145.37732000000003">
    <ele>281.43</ele>
   </trkpt>
   <trkpt lat="-37.82873" lon="145.37708">
    <ele>282.33000000000004</ele>
   </trkpt>
   <trkpt lat="-37.82887" lon="145.37672">
    <ele>283.6</ele>
   </trkpt>
   <trkpt lat="-37.82893" lon="145.37641000000002">
    <ele>284.38</ele>
   </trkpt>
   <trkpt lat="-37.828920000000004" lon="145.37623000000002">
    <ele>284.69</ele>
   </trkpt>
   <trkpt lat="-37.828880000000005" lon="145.37612000000001">
    <ele>284.8</ele>
   </trkpt>
   <trkpt lat="-37.82876" lon="145.37608">
    <ele>284.96000000000004</ele>
   </trkpt>
   <trkpt lat="-37.82884" lon="145.37587000000002">
    <ele>288.09000000000003</ele>
   </trkpt>
   <trkpt lat="-37.82898" lon="145.37562">
    <ele>290.46000000000004</ele>
   </trkpt>
   <trkpt lat="-37.82909" lon="145.37557">
    <ele>291.93</ele>
   </trkpt>
   <trkpt lat="-37.82934" lon="145.37553">
    <ele>294.03000000000003</ele>
   </trkpt>
   <trkpt lat="-37.829440000000005" lon="145.37549">
    <ele>294.37</ele>
   </trkpt>
   <trkpt lat="-37.82947" lon="145.37548">
    <ele>294.78000000000003</ele>
   </trkpt>
   <trkpt lat="-37.8297" lon="145.37526000000003">
    <ele>297.94000000000005</ele>
   </trkpt>
   <trkpt lat="-37.8299" lon="145.37518">
    <ele>301.12</ele>
   </trkpt>
   <trkpt lat="-37.83019" lon="145.37534000000002">
    <ele>303.55</ele>
   </trkpt>
   <trkpt lat="-37.8305" lon="145.3753">
    <ele>307.33000000000004</ele>
   </trkpt>
   <trkpt lat="-37.83099" lon="145.37507000000002">
    <ele>314.55000000000007</ele>
   </trkpt>
   <trkpt lat="-37.83142" lon="145.37479000000002">
    <ele>321.07</ele>
   </trkpt>
   <trkpt lat="-37.8316" lon="145.37477">
    <ele>322.18</ele>
   </trkpt>
   <trkpt lat="-37.83209" lon="145.37465">
    <ele>323.37000000000006</ele>
   </trkpt>
   <trkpt lat="-37.83238" lon="145.37460000000002">
    <ele>325.97</ele>
   </trkpt>
   <trkpt lat="-37.83261" lon="145.37459">
    <ele>328.8</ele>
   </trkpt>
   <trkpt lat="-37.83283" lon="145.37455">
    <ele>334.14000000000004</ele>
   </trkpt>
   <trkpt lat="-37.83328" lon="145.37453000000002">
    <ele>340.25000000000006</ele>
   </trkpt>
   <trkpt lat="-37.83357" lon="145.37456">
    <ele>344.89000000000004</ele>
   </trkpt>
   <trkpt lat="-37.8337" lon="145.37454000000002">
    <ele>347.56</ele>
   </trkpt>
   <trkpt lat="-37.83379" lon="145.3745">
    <ele>349.94</ele>
   </trkpt>
   <trkpt lat="-37.83413" lon="145.37428">
    <ele>361.26</ele>
   </trkpt>
   <trkpt lat="-37.83442" lon="145.37417000000002">
    <ele>373.52000000000004</ele>
   </trkpt>
   <trkpt lat="-37.83478" lon="145.37412">
    <ele>382.21999999999997</ele>
   </trkpt>
   <trkpt lat="-37.835060000000006" lon="145.37404">
    <ele>386.35</ele>
   </trkpt>
   <trkpt lat="-37.83516" lon="145.37397">
    <ele>387.63</ele>
   </trkpt>
   <trkpt lat="-37.8352" lon="145.37391000000002">
    <ele>388.43000000000006</ele>
   </trkpt>
   <trkpt lat="-37.83534" lon="145.37347000000003">
    <ele>397.99</ele>
   </trkpt>
   <trkpt lat="-37.83534" lon="145.37307">
    <ele>402.66</ele>
   </trkpt>
   <trkpt lat="-37.83529" lon="145.37287">
    <ele>403.11</ele>
   </trkpt>
   <trkpt lat="-37.83525" lon="145.37281000000002">
    <ele>403.65</ele>
   </trkpt>
   <trkpt lat="-37.835" lon="145.37262">
    <ele>407.58000000000004</ele>
   </trkpt>
   <trkpt lat="-37.83491" lon="145.37251">
    <ele>407.85</ele>
   </trkpt>
   <trkpt lat="-37.83491" lon="145.37243">
    <ele>407.48</ele>
   </trkpt>
   <trkpt lat="-37.835" lon="145.37205">
    <ele>405.88</ele>
   </trkpt>
   <trkpt lat="-37.83537000155393" lon="145.3714100035173">
    <ele>405.53000000000003</ele>
   </trkpt>
   <trkpt lat="-37.83574" lon="145.37077000000002">
    <ele>409.0</ele>
   </trkpt>
   <trkpt lat="-37.83576" lon="145.37064">
    <ele>410.39000000000004</ele>
   </trkpt>
   <trkpt lat="-37.83578" lon="145.37018">
    <ele>416.74000000000007</ele>
   </trkpt>
   <trkpt lat="-37.83583" lon="145.36973">
    <ele>418.6</ele>
   </trkpt>
   <trkpt lat="-37.83583" lon="145.36949">
    <ele>419.52000000000004</ele>
   </trkpt>
   <trkpt lat="-37.83572" lon="145.36931">
    <ele>423.00000000000006</ele>
   </trkpt>
   <trkpt lat="-37.83558" lon="145.36916000000002">
    <ele>424.61</ele>
   </trkpt>
   <trkpt lat="-37.83547" lon="145.36883">
    <ele>425.49</ele>
   </trkpt>
   <trkpt lat="-37.83536" lon="145.3684">
    <ele>426.23</ele>
   </trkpt>
   <trkpt lat="-37.83527" lon="145.36759">
    <ele>425.11</ele>
   </trkpt>
   <trkpt lat="-37.83509" lon="145.3673">
    <ele>427.02</ele>
   </trkpt>
   <trkpt lat="-37.83482" lon="145.36722">
    <ele>431.68</ele>
   </trkpt>
   <trkpt lat="-37.83469" lon="145.36711000000003">
    <ele>432.78000000000003</ele>
   </trkpt>
   <trkpt lat="-37.8344" lon="145.36679">
    <ele>438.89000000000004</ele>
   </trkpt>
   <trkpt lat="-37.83431" lon="145.36658">
    <ele>441.71000000000004</ele>
   </trkpt>
   <trkpt lat="-37.83419" lon="145.36644">
    <ele>443.97</ele>
   </trkpt>
   <trkpt lat="-37.8337" lon="145.36607">
    <ele>450.28000000000003</ele>
   </trkpt>
   <trkpt lat="-37.83341" lon="145.3658">
    <ele>453.46000000000004</ele>
   </trkpt>
   <trkpt lat="-37.833090000000006" lon="145.36562">
    <ele>458.27</ele>
   </trkpt>
   <trkpt lat="-37.83276" lon="145.3656">
    <ele>463.97</ele>
   </trkpt>
   <trkpt lat="-37.832710000000006" lon="145.36564">
    <ele>464.49</ele>
   </trkpt>
   <trkpt lat="-37.83252" lon="145.36566000000002">
    <ele>465.9200000000001</ele>
   </trkpt>
   <trkpt lat="-37.8324" lon="145.36562">
    <ele>467.99</ele>
   </trkpt>
   <trkpt lat="-37.83207" lon="145.36518">
    <ele>477.22</ele>
   </trkpt>
   <trkpt lat="-37.83196" lon="145.36511000000002">
    <ele>478.56000000000006</ele>
   </trkpt>
   <trkpt lat="-37.83164" lon="145.365">
    <ele>481.71000000000004</ele>
   </trkpt>
   <trkpt lat="-37.83151" lon="145.36502000000002">
    <ele>482.48</ele>
   </trkpt>
   <trkpt lat="-37.83144" lon="145.36499">
    <ele>483.42</ele>
   </trkpt>
   <trkpt lat="-37.83124" lon="145.36485000000002">
    <ele>485.99</ele>
   </trkpt>
   <trkpt lat="-37.83113" lon="145.36483">
    <ele>486.67</ele>
   </trkpt>
   <trkpt lat="-37.83059" lon="145.36461">
    <ele>486.96000000000004</ele>
   </trkpt>
   <trkpt lat="-37.8305" lon="145.36453">
    <ele>487.04</ele>
   </trkpt>
   <trkpt lat="-37.83034" lon="145.36452">
    <ele>487.06000000000006</ele>
   </trkpt>
   <trkpt lat="-37.830180000000006" lon="145.36430000000001">
    <ele>488.08</ele>
   </trkpt>
   <trkpt lat="-37.82967" lon="145.3639">
    <ele>490.17</ele>
   </trkpt>
   <trkpt lat="-37.82956" lon="145.36374">
    <ele>490.86</ele>
   </trkpt>
   <trkpt lat="-37.82945" lon="145.36360000000002">
    <ele>492.01000000000005</ele>
   </trkpt>
   <trkpt lat="-37.828860000000006" lon="145.36302">
    <ele>493.34000000000003</ele>
   </trkpt>
   <trkpt lat="-37.8286" lon="145.36275">
    <ele>493.99</ele>
   </trkpt>
   <trkpt lat="-37.82842" lon="145.36245000000002">
    <ele>494.11</ele>
   </trkpt>
   <trkpt lat="-37.8284" lon="145.36231">
    <ele>495.08</ele>
   </trkpt>
   <trkpt lat="-37.82842" lon="145.3622">
    <ele>495.21000000000004</ele>
   </trkpt>
   <trkpt lat="-37.8284" lon="145.36201">
    <ele>494.47</ele>
   </trkpt>
   <trkpt lat="-37.82831" lon="145.36178">
    <ele>494.38000000000005</ele>
   </trkpt>
   <trkpt lat="-37.82824" lon="145.36177">
    <ele>494.43</ele>
   </trkpt>
   <trkpt lat="-37.828210000000006" lon="145.3615">
    <ele>495.18000000000006</ele>
   </trkpt>
   <trkpt lat="-37.82826" lon="145.36134">
    <ele>496.45000000000005</ele>
   </trkpt>
   <trkpt lat="-37.82824" lon="145.36102000000002">
    <ele>500.45000000000005</ele>
   </trkpt>
   <trkpt lat="-37.82831" lon="145.36064000000002">
    <ele>505.87</ele>
   </trkpt>
   <trkpt lat="-37.82831" lon="145.36051">
    <ele>506.76</ele>
   </trkpt>
   <trkpt lat="-37.828300000000006" lon="145.36042">
    <ele>507.72</ele>
   </trkpt>
   <trkpt lat="-37.82817" lon="145.36027">
    <ele>512.61</ele>
   </trkpt>
   <trkpt lat="-37.82817" lon="145.36028000000002">
    <ele>512.63</ele>
   </trkpt>
   <trkpt lat="-37.82804" lon="145.36018">
    <ele>515.5500000000001</ele>
   </trkpt>
   <trkpt lat="-37.82788" lon="145.35998">
    <ele>510.18000000000006</ele>
   </trkpt>
   <trkpt lat="-37.828030000000005" lon="145.35981">
    <ele>510.11000000000007</ele>
   </trkpt>
   <trkpt lat="-37.82802" lon="145.35974000000002">
    <ele>511.68</ele>
   </trkpt>
   <trkpt lat="-37.82797" lon="145.35967000000002">
    <ele>515.19</ele>
   </trkpt>
   <trkpt lat="-37.82786" lon="145.3596">
    <ele>523.1</ele>
   </trkpt>
   <trkpt lat="-37.82772000000001" lon="145.35955">
    <ele>526.85</ele>
   </trkpt>
   <trkpt lat="-37.82728" lon="145.35929000000002">
    <ele>532.78</ele>
   </trkpt>
   <trkpt lat="-37.827180000000006" lon="145.35917">
    <ele>534.61</ele>
   </trkpt>
   <trkpt lat="-37.82705" lon="145.35911000000002">
    <ele>535.75</ele>
   </trkpt>
   <trkpt lat="-37.82694" lon="145.35909">
    <ele>537.27</ele>
   </trkpt>
   <trkpt lat="-37.82687" lon="145.35904000000002">
    <ele>537.9300000000001</ele>
   </trkpt>
   <trkpt lat="-37.82681" lon="145.35894000000002">
    <ele>541.09</ele>
   </trkpt>
   <trkpt lat="-37.82678000000001" lon="145.35874">
    <ele>542.63</ele>
   </trkpt>
   <trkpt lat="-37.82667" lon="145.35872">
    <ele>543.62</ele>
   </trkpt>
   <trkpt lat="-37.82645" lon="145.35860000000002">
    <ele>545.6800000000001</ele>
   </trkpt>
   <trkpt lat="-37.82614" lon="145.35836">
    <ele>549.1700000000001</ele>
   </trkpt>
   <trkpt lat="-37.82587" lon="145.35828">
    <ele>551.18</ele>
   </trkpt>
   <trkpt lat="-37.82567" lon="145.35817">
    <ele>553.06</ele>
   </trkpt>
   <trkpt lat="-37.82555" lon="145.35802">
    <ele>555.1</ele>
   </trkpt>
   <trkpt lat="-37.82549" lon="145.35781">
    <ele>558.9900000000001</ele>
   </trkpt>
   <trkpt lat="-37.82531" lon="145.35758">
    <ele>552.79</ele>
   </trkpt>
   <trkpt lat="-37.825250000000004" lon="145.35765">
    <ele>555.91</ele>
   </trkpt>
   <trkpt lat="-37.82524" lon="145.35717000000002">
    <ele>562.82</ele>
   </trkpt>
   <trkpt lat="-37.82526" lon="145.35688000000002">
    <ele>564.55</ele>
   </trkpt>
   <trkpt lat="-37.82536" lon="145.35629">
    <ele>568.86</ele>
   </trkpt>
   <trkpt lat="-37.825320000000005" lon="145.35603">
    <ele>570.37</ele>
   </trkpt>
   <trkpt lat="-37.82529" lon="145.35569">
    <ele>572.07</ele>
   </trkpt>
   <trkpt lat="-37.82529" lon="145.35529000000002">
    <ele>572.8000000000001</ele>
   </trkpt>
   <trkpt lat="-37.82531" lon="145.35505">
    <ele>573.4100000000001</ele>
   </trkpt>
   <trkpt lat="-37.82535" lon="145.35486">
    <ele>574.1800000000001</ele>
   </trkpt>
   <trkpt lat="-37.82544" lon="145.35431">
    <ele>577.77</ele>
   </trkpt>
   <trkpt lat="-37.82555" lon="145.35337">
    <ele>585.53</ele>
   </trkpt>
   <trkpt lat="-37.82547" lon="145.35287000000002">
    <ele>585.6600000000001</ele>
   </trkpt>
   <trkpt lat="-37.82551" lon="145.35260000000002">
    <ele>585.37</ele>
   </trkpt>
   <trkpt lat="-37.82558" lon="145.35231000000002">
    <ele>584.61</ele>
   </trkpt>
   <trkpt lat="-37.82596" lon="145.35162000000003">
    <ele>581.74</ele>
   </trkpt>
   <trkpt lat="-37.82625" lon="145.35123000000002">
    <ele>578.76</ele>
   </trkpt>
   <trkpt lat="-37.82658" lon="145.35101">
    <ele>576.8000000000001</ele>
   </trkpt>
   <trkpt lat="-37.82701" lon="145.35084">
    <ele>577.59</ele>
   </trkpt>
   <trkpt lat="-37.82758000007891" lon="145.35072500088367">
    <ele>575.61</ele>
   </trkpt>
   <trkpt lat="-37.82815" lon="145.35061000000002">
    <ele>574.4800000000001</ele>
   </trkpt>
   <trkpt lat="-37.8286300000965" lon="145.35060500003155">
    <ele>577.04</ele>
   </trkpt>
   <trkpt lat="-37.82911" lon="145.35060000000001">
    <ele>574.37</ele>
   </trkpt>
   <trkpt lat="-37.82943" lon="145.35047">
    <ele>568.32</ele>
   </trkpt>
   <trkpt lat="-37.82963" lon="145.35047">
    <ele>566.13</ele>
   </trkpt>
   <trkpt lat="-37.82999" lon="145.35055">
    <ele>563.4200000000001</ele>
   </trkpt>
   <trkpt lat="-37.83032" lon="145.35069000000001">
    <ele>560.5600000000001</ele>
   </trkpt>
   <trkpt lat="-37.83066" lon="145.35092">
    <ele>558.7</ele>
   </trkpt>
   <trkpt lat="-37.83093" lon="145.35097000000002">
    <ele>556.6600000000001</ele>
   </trkpt>
   <trkpt lat="-37.83097" lon="145.35096000000001">
    <ele>556.5100000000001</ele>
   </trkpt>
   <trkpt lat="-37.830980000000004" lon="145.35095">
    <ele>556.44</ele>
   </trkpt>
   <trkpt lat="-37.83122" lon="145.35091">
    <ele>556.5400000000001</ele>
   </trkpt>
   <trkpt lat="-37.83162" lon="145.35071000000002">
    <ele>563.03</ele>
   </trkpt>
   <trkpt lat="-37.83196" lon="145.35046">
    <ele>570.59</ele>
   </trkpt>
   <trkpt lat="-37.83231" lon="145.35010000000003">
    <ele>578.38</ele>
   </trkpt>
   <trkpt lat="-37.83267" lon="145.34969">
    <ele>585.95</ele>
   </trkpt>
   <trkpt lat="-37.83274" lon="145.34954000000002">
    <ele>586.67</ele>
   </trkpt>
   <trkpt lat="-37.83316000000001" lon="145.34919000000002">
    <ele>591.82</ele>
   </trkpt>
   <trkpt lat="-37.83321" lon="145.34907">
    <ele>591.82</ele>
   </trkpt>
   <trkpt lat="-37.83328" lon="145.3487">
    <ele>594.4200000000001</ele>
   </trkpt>
   <trkpt lat="-37.83339" lon="145.34822">
    <ele>594.3900000000001</ele>
   </trkpt>
   <trkpt lat="-37.83346" lon="145.34808">
    <ele>594.32</ele>
   </trkpt>
   <trkpt lat="-37.83379500052499" lon="145.34767500204265">
    <ele>596.33</ele>
   </trkpt>
   <trkpt lat="-37.83413" lon="145.34727">
    <ele>595.87</ele>
   </trkpt>
   <trkpt lat="-37.8344" lon="145.34703000000002">
    <ele>595.89</ele>
   </trkpt>
   <trkpt lat="-37.83476" lon="145.34686000000002">
    <ele>595.7900000000001</ele>
   </trkpt>
   <trkpt lat="-37.83491" lon="145.3468">
    <ele>595.92</ele>
   </trkpt>
   <trkpt lat="-37.835150000000006" lon="145.34676000000002">
    <ele>596.59</ele>
   </trkpt>
   <trkpt lat="-37.83574" lon="145.34658000000002">
    <ele>600.04</ele>
   </trkpt>
   <trkpt lat="-37.83601" lon="145.34655">
    <ele>603.0300000000001</ele>
   </trkpt>
   <trkpt lat="-37.8363" lon="145.34654">
    <ele>605.9</ele>
   </trkpt>
   <trkpt lat="-37.836560000000006" lon="145.34659000000002">
    <ele>609.63</ele>
   </trkpt>
   <trkpt lat="-37.83668" lon="145.34660000000002">
    <ele>610.3400000000001</ele>
   </trkpt>
   <trkpt lat="-37.83681" lon="145.34659000000002">
    <ele>610.5500000000001</ele>
   </trkpt>
   <trkpt lat="-37.83693" lon="145.34661">
    <ele>609.7900000000001</ele>
   </trkpt>
   <trkpt lat="-37.83726" lon="145.34629">
    <ele>601.0000000000001</ele>
   </trkpt>
   <trkpt lat="-37.83733" lon="145.34626">
    <ele>598.94</ele>
   </trkpt>
   <trkpt lat="-37.83766" lon="145.34623000000002">
    <ele>592.7800000000001</ele>
   </trkpt>
   <trkpt lat="-37.83791" lon="145.34608">
    <ele>584.37</ele>
   </trkpt>
   <trkpt lat="-37.83816" lon="145.34604000000002">
    <ele>578.8199999999999</ele>
   </trkpt>
   <trkpt lat="-37.838150000000006" lon="145.34604000000002">
    <ele>578.99</ele>
   </trkpt>
   <trkpt lat="-37.83834" lon="145.34596000000002">
    <ele>572.08</ele>
   </trkpt>
   <trkpt lat="-37.83843" lon="145.34587000000002">
    <ele>569.35</ele>
   </trkpt>
   <trkpt lat="-37.83856" lon="145.34584">
    <ele>566.1</ele>
   </trkpt>
   <trkpt lat="-37.83872" lon="145.34589000000003">
    <ele>564.7</ele>
   </trkpt>
   <trkpt lat="-37.83896" lon="145.34608">
    <ele>565.5</ele>
   </trkpt>
   <trkpt lat="-37.83894" lon="145.3462">
    <ele>566.8100000000001</ele>
   </trkpt>
   <trkpt lat="-37.8391" lon="145.34637">
    <ele>570.23</ele>
   </trkpt>
   <trkpt lat="-37.83914" lon="145.34647">
    <ele>571.64</ele>
   </trkpt>
   <trkpt lat="-37.83914" lon="145.34669000000002">
    <ele>575.7</ele>
   </trkpt>
   <trkpt lat="-37.8391" lon="145.34675000000001">
    <ele>575.7</ele>
   </trkpt>
   <trkpt lat="-37.83885" lon="145.34699">
    <ele>581.65</ele>
   </trkpt>
   <trkpt lat="-37.83858" lon="145.34734">
    <ele>584.71</ele>
   </trkpt>
   <trkpt lat="-37.8382" lon="145.34754">
    <ele>589.59</ele>
   </trkpt>
   <trkpt lat="-37.83822" lon="145.34768000000003">
    <ele>586.9100000000001</ele>
   </trkpt>
   <trkpt lat="-37.83831" lon="145.34782">
    <ele>583.31</ele>
   </trkpt>
   <trkpt lat="-37.83825" lon="145.34805">
    <ele>579.6</ele>
   </trkpt>
   <trkpt lat="-37.83811" lon="145.34829000000002">
    <ele>577.1</ele>
   </trkpt>
   <trkpt lat="-37.83793" lon="145.34877">
    <ele>573.64</ele>
   </trkpt>
   <trkpt lat="-37.83789" lon="145.34899000000001">
    <ele>572.0200000000001</ele>
   </trkpt>
   <trkpt lat="-37.837860000000006" lon="145.34905">
    <ele>571.3900000000001</ele>
   </trkpt>
   <trkpt lat="-37.837860000000006" lon="145.34906">
    <ele>571.3000000000001</ele>
   </trkpt>
   <trkpt lat="-37.83782" lon="145.34913">
    <ele>570.67</ele>
   </trkpt>
   <trkpt lat="-37.8378" lon="145.34934">
    <ele>569.86</ele>
   </trkpt>
   <trkpt lat="-37.83773" lon="145.34956000000003">
    <ele>569.33</ele>
   </trkpt>
   <trkpt lat="-37.837740000000004" lon="145.34965000000003">
    <ele>569.01</ele>
   </trkpt>
   <trkpt lat="-37.83811" lon="145.35049">
    <ele>564.18</ele>
   </trkpt>
   <trkpt lat="-37.8383900010634" lon="145.35101499781615">
    <ele>561.6600000000001</ele>
   </trkpt>
   <trkpt lat="-37.83867" lon="145.35154">
    <ele>558.4300000000001</ele>
   </trkpt>
   <trkpt lat="-37.83878" lon="145.35166">
    <ele>557.3299999999999</ele>
   </trkpt>
   <trkpt lat="-37.83894" lon="145.35178000000002">
    <ele>555.3299999999999</ele>
   </trkpt>
   <trkpt lat="-37.83972500062196" lon="145.35218499565283">
    <ele>551.5500000000001</ele>
   </trkpt>
   <trkpt lat="-37.84051" lon="145.35259000000002">
    <ele>548.42</ele>
   </trkpt>
   <trkpt lat="-37.840540000000004" lon="145.35263">
    <ele>548.42</ele>
   </trkpt>
   <trkpt lat="-37.84055" lon="145.35266000000001">
    <ele>548.4</ele>
   </trkpt>
   <trkpt lat="-37.84062" lon="145.35322000000002">
    <ele>547.88</ele>
   </trkpt>
   <trkpt lat="-37.84116" lon="145.35311000000002">
    <ele>546.0</ele>
   </trkpt>
   <trkpt lat="-37.841440000000006" lon="145.35304000000002">
    <ele>545.1400000000001</ele>
   </trkpt>
   <trkpt lat="-37.84185" lon="145.35291">
    <ele>544.2800000000001</ele>
   </trkpt>
   <trkpt lat="-37.84199" lon="145.35289">
    <ele>543.63</ele>
   </trkpt>
   <trkpt lat="-37.84259" lon="145.35292">
    <ele>538.8900000000001</ele>
   </trkpt>
   <trkpt lat="-37.843074999825255" lon="145.35308499881634">
    <ele>536.15</ele>
   </trkpt>
   <trkpt lat="-37.843560000000004" lon="145.35325">
    <ele>532.57</ele>
   </trkpt>
   <trkpt lat="-37.84366" lon="145.35302000000001">
    <ele>532.0100000000001</ele>
   </trkpt>
   <trkpt lat="-37.84364" lon="145.35284000000001">
    <ele>529.98</ele>
   </trkpt>
   <trkpt lat="-37.84335" lon="145.35238">
    <ele>526.15</ele>
   </trkpt>
   <trkpt lat="-37.84306" lon="145.35212">
    <ele>524.2600000000001</ele>
   </trkpt>
   <trkpt lat="-37.84275" lon="145.35187000000002">
    <ele>518.95</ele>
   </trkpt>
   <trkpt lat="-37.842470000000006" lon="145.35169000000002">
    <ele>516.26</ele>
   </trkpt>
   <trkpt lat="-37.84223" lon="145.35143000000002">
    <ele>510.37</ele>
   </trkpt>
   <trkpt lat="-37.84207" lon="145.35114000000002">
    <ele>501.36</ele>
   </trkpt>
   <trkpt lat="-37.84201" lon="145.35107000000002">
    <ele>499.59000000000003</ele>
   </trkpt>
   <trkpt lat="-37.84183" lon="145.35098000000002">
    <ele>496.64000000000004</ele>
   </trkpt>
   <trkpt lat="-37.84127" lon="145.35051">
    <ele>488.00000000000006</ele>
   </trkpt>
   <trkpt lat="-37.84111" lon="145.35032">
    <ele>486.85</ele>
   </trkpt>
   <trkpt lat="-37.84098" lon="145.35017000000002">
    <ele>485.49</ele>
   </trkpt>
   <trkpt lat="-37.84098" lon="145.35009000000002">
    <ele>483.63000000000005</ele>
   </trkpt>
   <trkpt lat="-37.84102" lon="145.35001000000003">
    <ele>482.37</ele>
   </trkpt>
   <trkpt lat="-37.84113" lon="145.34991000000002">
    <ele>478.16</ele>
   </trkpt>
   <trkpt lat="-37.84152" lon="145.34975">
    <ele>466.95000000000005</ele>
   </trkpt>
   <trkpt lat="-37.84172" lon="145.3495">
    <ele>454.87000000000006</ele>
   </trkpt>
   <trkpt lat="-37.84179" lon="145.34944000000002">
    <ele>452.3</ele>
   </trkpt>
   <trkpt lat="-37.84176" lon="145.34928000000002">
    <ele>446.64000000000004</ele>
   </trkpt>
   <trkpt lat="-37.84185" lon="145.34889">
    <ele>441.37</ele>
   </trkpt>
   <trkpt lat="-37.84192" lon="145.34903">
    <ele>439.37</ele>
   </trkpt>
   <trkpt lat="-37.84201" lon="145.34906">
    <ele>437.66</ele>
   </trkpt>
   <trkpt lat="-37.8421" lon="145.34902000000002">
    <ele>436.72</ele>
   </trkpt>
   <trkpt lat="-37.84219" lon="145.34892000000002">
    <ele>430.89000000000004</ele>
   </trkpt>
   <trkpt lat="-37.84237" lon="145.3488">
    <ele>429.04</ele>
   </trkpt>
   <trkpt lat="-37.84263" lon="145.34873000000002">
    <ele>424.07000000000005</ele>
   </trkpt>
   <trkpt lat="-37.842760000000006" lon="145.34866000000002">
    <ele>422.38000000000005</ele>
   </trkpt>
   <trkpt lat="-37.84286" lon="145.34865000000002">
    <ele>418.81</ele>
   </trkpt>
   <trkpt lat="-37.84306" lon="145.34874000000002">
    <ele>415.54</ele>
   </trkpt>
   <trkpt lat="-37.84315" lon="145.34874000000002">
    <ele>414.14</ele>
   </trkpt>
   <trkpt lat="-37.843320000000006" lon="145.34844">
    <ele>411.24000000000007</ele>
   </trkpt>
   <trkpt lat="-37.84337" lon="145.34801000000002">
    <ele>409.53000000000003</ele>
   </trkpt>
   <trkpt lat="-37.84382" lon="145.34711000000001">
    <ele>395.96000000000004</ele>
   </trkpt>
   <trkpt lat="-37.84384" lon="145.3469">
    <ele>391.19000000000005</ele>
   </trkpt>
   <trkpt lat="-37.84378" lon="145.34646">
    <ele>386.11</ele>
   </trkpt>
   <trkpt lat="-37.8438" lon="145.34609">
    <ele>380.21000000000004</ele>
   </trkpt>
   <trkpt lat="-37.84389" lon="145.34585">
    <ele>374.55000000000007</ele>
   </trkpt>
   <trkpt lat="-37.84393" lon="145.34585">
    <ele>373.49</ele>
   </trkpt>
   <trkpt lat="-37.844" lon="145.34587000000002">
    <ele>372.48</ele>
   </trkpt>
   <trkpt lat="-37.84418" lon="145.34607000000003">
    <ele>368.71000000000004</ele>
   </trkpt>
   <trkpt lat="-37.84445" lon="145.34615000000002">
    <ele>364.71000000000004</ele>
   </trkpt>
   <trkpt lat="-37.845060000000004" lon="145.34613000000002">
    <ele>351.46999999999997</ele>
   </trkpt>
   <trkpt lat="-37.84519" lon="145.34607000000003">
    <ele>347.77000000000004</ele>
   </trkpt>
   <trkpt lat="-37.84543" lon="145.3459">
    <ele>341.79</ele>
   </trkpt>
   <trkpt lat="-37.84548" lon="145.34592">
    <ele>339.98</ele>
   </trkpt>
   <trkpt lat="-37.84559" lon="145.34591">
    <ele>336.97</ele>
   </trkpt>
   <trkpt lat="-37.84564" lon="145.34588000000002">
    <ele>336.97</ele>
   </trkpt>
   <trkpt lat="-37.84592" lon="145.34556">
    <ele>330.99</ele>
   </trkpt>
   <trkpt lat="-37.84597" lon="145.34545">
    <ele>330.37000000000006</ele>
   </trkpt>
   <trkpt lat="-37.84597" lon="145.34536">
    <ele>329.93</ele>
   </trkpt>
   <trkpt lat="-37.84586" lon="145.34502">
    <ele>329.32</ele>
   </trkpt>
   <trkpt lat="-37.8457" lon="145.34482">
    <ele>328.29</ele>
   </trkpt>
   <trkpt lat="-37.84559" lon="145.34452000000002">
    <ele>325.89</ele>
   </trkpt>
   <trkpt lat="-37.84554" lon="145.34428">
    <ele>323.41</ele>
   </trkpt>
   <trkpt lat="-37.84557" lon="145.34413">
    <ele>321.70000000000005</ele>
   </trkpt>
   <trkpt lat="-37.84559" lon="145.34410000000003">
    <ele>321.70000000000005</ele>
   </trkpt>
   <trkpt lat="-37.845690000000005" lon="145.34410000000003">
    <ele>319.86</ele>
   </trkpt>
   <trkpt lat="-37.84599" lon="145.34422">
    <ele>314.20000000000005</ele>
   </trkpt>
   <trkpt lat="-37.84622" lon="145.34427000000002">
    <ele>311.5</ele>
   </trkpt>
   <trkpt lat="-37.84642" lon="145.34432">
    <ele>307.13</ele>
   </trkpt>
   <trkpt lat="-37.84657" lon="145.34428">
    <ele>305.74</ele>
   </trkpt>
   <trkpt lat="-37.84666" lon="145.3442">
    <ele>303.85</ele>
   </trkpt>
   <trkpt lat="-37.84691" lon="145.34377">
    <ele>298.99</ele>
   </trkpt>
   <trkpt lat="-37.84702" lon="145.34371000000002">
    <ele>297.93</ele>
   </trkpt>
   <trkpt lat="-37.84709" lon="145.34374000000003">
    <ele>297.44000000000005</ele>
   </trkpt>
   <trkpt lat="-37.847170000000006" lon="145.34381000000002">
    <ele>296.8</ele>
   </trkpt>
   <trkpt lat="-37.84718" lon="145.34387">
    <ele>296.8</ele>
   </trkpt>
   <trkpt lat="-37.8472" lon="145.34408000000002">
    <ele>295.75</ele>
   </trkpt>
   <trkpt lat="-37.84707" lon="145.34472000000002">
    <ele>292.83000000000004</ele>
   </trkpt>
   <trkpt lat="-37.84707" lon="145.34496000000001">
    <ele>292.97</ele>
   </trkpt>
   <trkpt lat="-37.847170000000006" lon="145.34528">
    <ele>293.54</ele>
   </trkpt>
   <trkpt lat="-37.84722" lon="145.34541000000002">
    <ele>293.6</ele>
   </trkpt>
   <trkpt lat="-37.84731" lon="145.34550000000002">
    <ele>293.62000000000006</ele>
   </trkpt>
   <trkpt lat="-37.84745" lon="145.34555">
    <ele>293.53000000000003</ele>
   </trkpt>
   <trkpt lat="-37.84756" lon="145.34556">
    <ele>293.3</ele>
   </trkpt>
   <trkpt lat="-37.84781" lon="145.34555">
    <ele>291.8</ele>
   </trkpt>
   <trkpt lat="-37.84789" lon="145.34557">
    <ele>291.15000000000003</ele>
   </trkpt>
   <trkpt lat="-37.84798" lon="145.34563">
    <ele>290.13</ele>
   </trkpt>
   <trkpt lat="-37.848200000000006" lon="145.3459">
    <ele>287.51000000000005</ele>
   </trkpt>
   <trkpt lat="-37.84848" lon="145.34639">
    <ele>284.32</ele>
   </trkpt>
   <trkpt lat="-37.84854" lon="145.34643">
    <ele>282.35</ele>
   </trkpt>
   <trkpt lat="-37.84857" lon="145.34639">
    <ele>282.35</ele>
   </trkpt>
   <trkpt lat="-37.84859" lon="145.34626">
    <ele>281.46000000000004</ele>
   </trkpt>
   <trkpt lat="-37.84860000173454" lon="145.34561999991234">
    <ele>278.18</ele>
   </trkpt>
   <trkpt lat="-37.84861" lon="145.34498000000002">
    <ele>275.42</ele>
   </trkpt>
   <trkpt lat="-37.84861" lon="145.34497000000002">
    <ele>275.55</ele>
   </trkpt>
   <trkpt lat="-37.84868" lon="145.34415">
    <ele>274.0</ele>
   </trkpt>
   <trkpt lat="-37.84877000188744" lon="145.3434800008963">
    <ele>273.0</ele>
   </trkpt>
   <trkpt lat="-37.84886" lon="145.34281000000001">
    <ele>271.16</ele>
   </trkpt>
   <trkpt lat="-37.84888" lon="145.34232">
    <ele>269.14000000000004</ele>
   </trkpt>
   <trkpt lat="-37.84886" lon="145.34191">
    <ele>266.91</ele>
   </trkpt>
   <trkpt lat="-37.84870000387963" lon="145.3409549980681">
    <ele>263.76</ele>
   </trkpt>
   <trkpt lat="-37.84854" lon="145.34">
    <ele>262.32</ele>
   </trkpt>
   <trkpt lat="-37.84848" lon="145.33938">
    <ele>261.46000000000004</ele>
   </trkpt>
   <trkpt lat="-37.84832" lon="145.33889000000002">
    <ele>260.96000000000004</ele>
   </trkpt>
   <trkpt lat="-37.8483" lon="145.33871000000002">
    <ele>260.61</ele>
   </trkpt>
   <trkpt lat="-37.8483" lon="145.33857">
    <ele>260.51</ele>
   </trkpt>
   <trkpt lat="-37.84839" lon="145.33828000000003">
    <ele>259.83</ele>
   </trkpt>
   <trkpt lat="-37.84843" lon="145.33804">
    <ele>259.48</ele>
   </trkpt>
   <trkpt lat="-37.84839" lon="145.33696">
    <ele>257.95</ele>
   </trkpt>
   <trkpt lat="-37.84841" lon="145.33623">
    <ele>256.77</ele>
   </trkpt>
   <trkpt lat="-37.84836" lon="145.33582">
    <ele>256.46000000000004</ele>
   </trkpt>
   <trkpt lat="-37.84839" lon="145.33564">
    <ele>255.62</ele>
   </trkpt>
   <trkpt lat="-37.8485" lon="145.33511000000001">
    <ele>254.46</ele>
   </trkpt>
   <trkpt lat="-37.84852" lon="145.33491">
    <ele>253.73000000000002</ele>
   </trkpt>
   <trkpt lat="-37.84852" lon="145.33427">
    <ele>251.41000000000003</ele>
   </trkpt>
   <trkpt lat="-37.84857" lon="145.3339">
    <ele>250.25000000000003</ele>
   </trkpt>
   <trkpt lat="-37.84863" lon="145.33362000000002">
    <ele>248.58</ele>
   </trkpt>
   <trkpt lat="-37.84872" lon="145.33342000000002">
    <ele>247.65</ele>
   </trkpt>
   <trkpt lat="-37.848800000000004" lon="145.33329">
    <ele>246.62000000000003</ele>
   </trkpt>
   <trkpt lat="-37.8489" lon="145.3332">
    <ele>246.62000000000003</ele>
   </trkpt>
   <trkpt lat="-37.84899" lon="145.33313">
    <ele>246.62000000000003</ele>
   </trkpt>
   <trkpt lat="-37.849140000000006" lon="145.33307000000002">
    <ele>243.44000000000003</ele>
   </trkpt>
   <trkpt lat="-37.84926" lon="145.33305000000001">
    <ele>243.44000000000003</ele>
   </trkpt>
   <trkpt lat="-37.84976" lon="145.33315000000002">
    <ele>240.86</ele>
   </trkpt>
   <trkpt lat="-37.84977000000001" lon="145.33315000000002">
    <ele>240.78000000000003</ele>
   </trkpt>
   <trkpt lat="-37.84989" lon="145.33313">
    <ele>240.18000000000004</ele>
   </trkpt>
   <trkpt lat="-37.85004" lon="145.333">
    <ele>238.91</ele>
   </trkpt>
   <trkpt lat="-37.8502" lon="145.33283">
    <ele>237.76000000000002</ele>
   </trkpt>
   <trkpt lat="-37.85036" lon="145.33271000000002">
    <ele>236.17000000000002</ele>
   </trkpt>
   <trkpt lat="-37.850860000000004" lon="145.33241">
    <ele>232.73000000000002</ele>
   </trkpt>
   <trkpt lat="-37.85085" lon="145.33266">
    <ele>242.40000000000003</ele>
   </trkpt>
   <trkpt lat="-37.85076" lon="145.33294">
    <ele>249.07000000000002</ele>
   </trkpt>
   <trkpt lat="-37.8508" lon="145.33325000000002">
    <ele>255.46</ele>
   </trkpt>
   <trkpt lat="-37.85078" lon="145.33346">
    <ele>255.46</ele>
   </trkpt>
   <trkpt lat="-37.85064500158185" lon="145.33407000107826">
    <ele>269.51000000000005</ele>
   </trkpt>
   <trkpt lat="-37.85051" lon="145.33468000000002">
    <ele>278.7</ele>
   </trkpt>
   <trkpt lat="-37.85051" lon="145.33530000000002">
    <ele>295.77000000000004</ele>
   </trkpt>
   <trkpt lat="-37.85063" lon="145.33599">
    <ele>308.64000000000004</ele>
   </trkpt>
   <trkpt lat="-37.85074" lon="145.33634">
    <ele>312.83000000000004</ele>
   </trkpt>
   <trkpt lat="-37.85085" lon="145.33637000000002">
    <ele>312.68</ele>
   </trkpt>
   <trkpt lat="-37.85096" lon="145.33634">
    <ele>312.26000000000005</ele>
   </trkpt>
   <trkpt lat="-37.85107" lon="145.33635">
    <ele>312.22</ele>
   </trkpt>
   <trkpt lat="-37.85139" lon="145.33696">
    <ele>316.87000000000006</ele>
   </trkpt>
   <trkpt lat="-37.85168" lon="145.33735000000001">
    <ele>318.65999999999997</ele>
   </trkpt>
   <trkpt lat="-37.851690000000005" lon="145.33737000000002">
    <ele>318.65999999999997</ele>
   </trkpt>
   <trkpt lat="-37.85172" lon="145.33751">
    <ele>319.5</ele>
   </trkpt>
   <trkpt lat="-37.85177" lon="145.33761">
    <ele>319.76000000000005</ele>
   </trkpt>
   <trkpt lat="-37.8519" lon="145.33773000000002">
    <ele>319.43000000000006</ele>
   </trkpt>
   <trkpt lat="-37.85206" lon="145.33798000000002">
    <ele>319.35</ele>
   </trkpt>
   <trkpt lat="-37.85215" lon="145.33823">
    <ele>319.58000000000004</ele>
   </trkpt>
   <trkpt lat="-37.85233" lon="145.33851">
    <ele>317.33</ele>
   </trkpt>
   <trkpt lat="-37.85242" lon="145.33856">
    <ele>315.45</ele>
   </trkpt>
   <trkpt lat="-37.85293" lon="145.33818000000002">
    <ele>296.44000000000005</ele>
   </trkpt>
   <trkpt lat="-37.85304" lon="145.33812">
    <ele>293.86</ele>
   </trkpt>
   <trkpt lat="-37.85313" lon="145.33813">
    <ele>292.01000000000005</ele>
   </trkpt>
   <trkpt lat="-37.85327" lon="145.33823">
    <ele>291.18000000000006</ele>
   </trkpt>
   <trkpt lat="-37.85333" lon="145.33833">
    <ele>292.49</ele>
   </trkpt>
   <trkpt lat="-37.85333" lon="145.33871000000002">
    <ele>296.54</ele>
   </trkpt>
   <trkpt lat="-37.8534" lon="145.33894">
    <ele>298.31</ele>
   </trkpt>
   <trkpt lat="-37.853460000000005" lon="145.33943000000002">
    <ele>301.54</ele>
   </trkpt>
   <trkpt lat="-37.85358" lon="145.33991">
    <ele>302.71000000000004</ele>
   </trkpt>
   <trkpt lat="-37.85365" lon="145.34067000000002">
    <ele>312.74</ele>
   </trkpt>
   <trkpt lat="-37.85374" lon="145.34099">
    <ele>316.21999999999997</ele>
   </trkpt>
   <trkpt lat="-37.85387" lon="145.34123000000002">
    <ele>314.88000000000005</ele>
   </trkpt>
   <trkpt lat="-37.85419" lon="145.34158000000002">
    <ele>313.45</ele>
   </trkpt>
   <trkpt lat="-37.85448" lon="145.34206">
    <ele>324.87000000000006</ele>
   </trkpt>
   <trkpt lat="-37.85468" lon="145.34225">
    <ele>334.25000000000006</ele>
   </trkpt>
   <trkpt lat="-37.85472" lon="145.34233">
    <ele>335.52000000000004</ele>
   </trkpt>
   <trkpt lat="-37.85474" lon="145.3426">
    <ele>341.25000000000006</ele>
   </trkpt>
   <trkpt lat="-37.85492" lon="145.34293000000002">
    <ele>344.49</ele>
   </trkpt>
   <trkpt lat="-37.85488" lon="145.34337000000002">
    <ele>351.6</ele>
   </trkpt>
   <trkpt lat="-37.8549" lon="145.34348">
    <ele>352.26</ele>
   </trkpt>
   <trkpt lat="-37.85492" lon="145.34354000000002">
    <ele>355.21000000000004</ele>
   </trkpt>
   <trkpt lat="-37.855050000000006" lon="145.34368">
    <ele>356.57000000000005</ele>
   </trkpt>
   <trkpt lat="-37.8551" lon="145.34404">
    <ele>359.49</ele>
   </trkpt>
   <trkpt lat="-37.85515" lon="145.34415">
    <ele>360.7</ele>
   </trkpt>
   <trkpt lat="-37.85528" lon="145.34457">
    <ele>360.62000000000006</ele>
   </trkpt>
   <trkpt lat="-37.85535" lon="145.34470000000002">
    <ele>359.62000000000006</ele>
   </trkpt>
   <trkpt lat="-37.85553" lon="145.34492">
    <ele>358.79</ele>
   </trkpt>
   <trkpt lat="-37.85562" lon="145.34508000000002">
    <ele>358.52</ele>
   </trkpt>
   <trkpt lat="-37.85586" lon="145.34536">
    <ele>356.67</ele>
   </trkpt>
   <trkpt lat="-37.85607" lon="145.34561000000002">
    <ele>353.51000000000005</ele>
   </trkpt>
   <trkpt lat="-37.85616" lon="145.34582">
    <ele>349.96999999999997</ele>
   </trkpt>
   <trkpt lat="-37.85629" lon="145.34596000000002">
    <ele>345.93</ele>
   </trkpt>
   <trkpt lat="-37.85638" lon="145.34613000000002">
    <ele>344.5</ele>
   </trkpt>
   <trkpt lat="-37.8566" lon="145.34635">
    <ele>338.67</ele>
   </trkpt>
   <trkpt lat="-37.85687" lon="145.34644">
    <ele>336.31000000000006</ele>
   </trkpt>
   <trkpt lat="-37.85696" lon="145.34644">
    <ele>336.47</ele>
   </trkpt>
   <trkpt lat="-37.85703" lon="145.34650000000002">
    <ele>336.63000000000005</ele>
   </trkpt>
   <trkpt lat="-37.85727" lon="145.34652">
    <ele>337.96000000000004</ele>
   </trkpt>
   <trkpt lat="-37.85743" lon="145.34651000000002">
    <ele>339.11</ele>
   </trkpt>
   <trkpt lat="-37.857580000000006" lon="145.34655">
    <ele>341.09</ele>
   </trkpt>
   <trkpt lat="-37.85765" lon="145.34672">
    <ele>344.39000000000004</ele>
   </trkpt>
   <trkpt lat="-37.857960000000006" lon="145.34694000000002">
    <ele>347.42</ele>
   </trkpt>
   <trkpt lat="-37.85819" lon="145.34719">
    <ele>350.34000000000003</ele>
   </trkpt>
   <trkpt lat="-37.85833" lon="145.34725">
    <ele>352.16</ele>
   </trkpt>
   <trkpt lat="-37.85853" lon="145.34743">
    <ele>356.2</ele>
   </trkpt>
   <trkpt lat="-37.8586" lon="145.34761">
    <ele>357.64</ele>
   </trkpt>
   <trkpt lat="-37.85918" lon="145.3476">
    <ele>353.51000000000005</ele>
   </trkpt>
   <trkpt lat="-37.85931" lon="145.34758000000002">
    <ele>352.02000000000004</ele>
   </trkpt>
   <trkpt lat="-37.859370000000006" lon="145.34754">
    <ele>351.34000000000003</ele>
   </trkpt>
   <trkpt lat="-37.85942" lon="145.34772">
    <ele>355.95000000000005</ele>
   </trkpt>
   <trkpt lat="-37.859500000000004" lon="145.34782">
    <ele>365.54</ele>
   </trkpt>
   <trkpt lat="-37.86027" lon="145.34776000000002">
    <ele>373.22</ele>
   </trkpt>
   <trkpt lat="-37.86032" lon="145.34775000000002">
    <ele>374.93</ele>
   </trkpt>
   <trkpt lat="-37.86068" lon="145.34759000000003">
    <ele>379.56</ele>
   </trkpt>
   <trkpt lat="-37.86097" lon="145.34757000000002">
    <ele>385.81000000000006</ele>
   </trkpt>
   <trkpt lat="-37.86101" lon="145.34763">
    <ele>386.42</ele>
   </trkpt>
   <trkpt lat="-37.86101" lon="145.34771">
    <ele>387.42</ele>
   </trkpt>
   <trkpt lat="-37.86097" lon="145.34788">
    <ele>387.84000000000003</ele>
   </trkpt>
   <trkpt lat="-37.86097" lon="145.34804000000003">
    <ele>389.79</ele>
   </trkpt>
   <trkpt lat="-37.86104" lon="145.34814">
    <ele>390.91</ele>
   </trkpt>
   <trkpt lat="-37.86112" lon="145.34822">
    <ele>392.32000000000005</ele>
   </trkpt>
   <trkpt lat="-37.86121" lon="145.34824">
    <ele>394.77</ele>
   </trkpt>
   <trkpt lat="-37.86128" lon="145.34822">
    <ele>395.55</ele>
   </trkpt>
   <trkpt lat="-37.86159" lon="145.34802000000002">
    <ele>399.08000000000004</ele>
   </trkpt>
   <trkpt lat="-37.86164" lon="145.34794000000002">
    <ele>399.29</ele>
   </trkpt>
   <trkpt lat="-37.86168" lon="145.34779">
    <ele>400.20000000000005</ele>
   </trkpt>
   <trkpt lat="-37.86162" lon="145.34753">
    <ele>401.95000000000005</ele>
   </trkpt>
   <trkpt lat="-37.86162" lon="145.34737">
    <ele>403.53000000000003</ele>
   </trkpt>
   <trkpt lat="-37.861790000000006" lon="145.34698">
    <ele>407.58000000000004</ele>
   </trkpt>
   <trkpt lat="-37.86186" lon="145.34658000000002">
    <ele>406.6</ele>
   </trkpt>
   <trkpt lat="-37.86193" lon="145.34642000000002">
    <ele>406.41</ele>
   </trkpt>
   <trkpt lat="-37.86202" lon="145.34712000000002">
    <ele>414.87</ele>
   </trkpt>
   <trkpt lat="-37.86206" lon="145.34726">
    <ele>416.75</ele>
   </trkpt>
   <trkpt lat="-37.8622" lon="145.34749000000002">
    <ele>417.97</ele>
   </trkpt>
   <trkpt lat="-37.86245" lon="145.34777000000003">
    <ele>423.00000000000006</ele>
   </trkpt>
   <trkpt lat="-37.86256" lon="145.34787">
    <ele>424.49</ele>
   </trkpt>
   <trkpt lat="-37.86296" lon="145.34810000000002">
    <ele>429.31</ele>
   </trkpt>
   <trkpt lat="-37.86312" lon="145.34826">
    <ele>431.19</ele>
   </trkpt>
   <trkpt lat="-37.86316" lon="145.34836">
    <ele>431.19</ele>
   </trkpt>
   <trkpt lat="-37.86318" lon="145.34895">
    <ele>438.33000000000004</ele>
   </trkpt>
   <trkpt lat="-37.86323" lon="145.3494">
    <ele>442.66</ele>
   </trkpt>
   <trkpt lat="-37.86323" lon="145.34946000000002">
    <ele>442.66</ele>
   </trkpt>
   <trkpt lat="-37.86323" lon="145.34944000000002">
    <ele>442.50000000000006</ele>
   </trkpt>
   <trkpt lat="-37.86321" lon="145.3496">
    <ele>444.08000000000004</ele>
   </trkpt>
   <trkpt lat="-37.863130000000005" lon="145.34997">
    <ele>448.26000000000005</ele>
   </trkpt>
   <trkpt lat="-37.86285" lon="145.35058">
    <ele>455.01</ele>
   </trkpt>
   <trkpt lat="-37.86274" lon="145.35069000000001">
    <ele>457.8</ele>
   </trkpt>
   <trkpt lat="-37.86222" lon="145.3514">
    <ele>465.58000000000004</ele>
   </trkpt>
   <trkpt lat="-37.86215" lon="145.35175">
    <ele>469.31000000000006</ele>
   </trkpt>
   <trkpt lat="-37.86216" lon="145.35208">
    <ele>470.45000000000005</ele>
   </trkpt>
   <trkpt lat="-37.86222" lon="145.35236">
    <ele>473.1</ele>
   </trkpt>
   <trkpt lat="-37.86242" lon="145.35278000000002">
    <ele>478.17</ele>
   </trkpt>
   <trkpt lat="-37.86253" lon="145.35285000000002">
    <ele>477.19000000000005</ele>
   </trkpt>
   <trkpt lat="-37.86253" lon="145.35292">
    <ele>477.2</ele>
   </trkpt>
   <trkpt lat="-37.86256" lon="145.353">
    <ele>477.2</ele>
   </trkpt>
   <trkpt lat="-37.862820000000006" lon="145.3536">
    <ele>480.53000000000003</ele>
   </trkpt>
  </trkseg>
 </trk>
</gpx>
