<?xml version="1.0" encoding="UTF-8"?>
<gpx creator="StravaGPX" version="1.1" xmlns="http://www.topografix.com/GPX/1/1" xmlns:xsi="http://www.w3.org/2001/XMLSchema-instance" xsi:schemaLocation="http://www.topografix.com/GPX/1/1 http://www.topografix.com/GPX/1/1/gpx.xsd">
 <metadata>
  <name>9.40 km Tremont Trail Run Route</name>
  <author>
   <name>Natalie Gow</name>
   <link href="https://www.strava.com/athletes/100389898"/>
  </author>
  <copyright author="OpenStreetMap contributors">
   <year>2020</year>
   <license>https://www.openstreetmap.org/copyright</license>
  </copyright>
  <link href="https://www.strava.com/routes/3428304049589904770"/>
 </metadata>
 <trk>
  <name>9.40 km Tremont Trail Run Route</name>
  <link href="https://www.strava.com/routes/3428304049589904770"/>
  <type>trail_running</type>
  <trkseg>
   <trkpt lat="-37.88859" lon="145.31744">
    <ele>204.26000000000002</ele>
   </trkpt>
   <trkpt lat="-37.88899" lon="145.31718">
    <ele>202.64000000000001</ele>
   </trkpt>
   <trkpt lat="-37.889250000000004" lon="145.31707">
    <ele>201.5</ele>
   </trkpt>
   <trkpt lat="-37.88899" lon="145.31718">
    <ele>202.64000000000001</ele>
   </trkpt>
   <trkpt lat="-37.888540000000006" lon="145.31747000000001">
    <ele>204.58</ele>
   </trkpt>
   <trkpt lat="-37.88859" lon="145.31744">
    <ele>204.24</ele>
   </trkpt>
   <trkpt lat="-37.88846" lon="145.31753">
    <ele>205.13</ele>
   </trkpt>
   <trkpt lat="-37.88839" lon="145.31764">
    <ele>205.94</ele>
   </trkpt>
   <trkpt lat="-37.88817" lon="145.31758000000002">
    <ele>206.87000000000003</ele>
   </trkpt>
   <trkpt lat="-37.88799" lon="145.31761">
    <ele>210.16</ele>
   </trkpt>
   <trkpt lat="-37.88781" lon="145.31755">
    <ele>210.83</ele>
   </trkpt>
   <trkpt lat="-37.88772" lon="145.31759000000002">
    <ele>212.31000000000003</ele>
   </trkpt>
   <trkpt lat="-37.88761" lon="145.31761">
    <ele>213.94000000000003</ele>
   </trkpt>
   <trkpt lat="-37.88725" lon="145.31765000000001">
    <ele>216.88000000000002</ele>
   </trkpt>
   <trkpt lat="-37.88712" lon="145.31764">
    <ele>220.79000000000002</ele>
   </trkpt>
   <trkpt lat="-37.88684000000001" lon="145.31752">
    <ele>226.02</ele>
   </trkpt>
   <trkpt lat="-37.886880000000005" lon="145.31755">
    <ele>225.49</ele>
   </trkpt>
   <trkpt lat="-37.88667" lon="145.31742">
    <ele>228.17000000000002</ele>
   </trkpt>
   <trkpt lat="-37.88635" lon="145.31741000000002">
    <ele>231.15</ele>
   </trkpt>
   <trkpt lat="-37.88617" lon="145.31742">
    <ele>235.61</ele>
   </trkpt>
   <trkpt lat="-37.88635" lon="145.31741000000002">
    <ele>231.15</ele>
   </trkpt>
   <trkpt lat="-37.88667" lon="145.31742">
    <ele>228.17000000000002</ele>
   </trkpt>
   <trkpt lat="-37.88655" lon="145.31725">
    <ele>230.47</ele>
   </trkpt>
   <trkpt lat="-37.88642" lon="145.31715">
    <ele>237.69</ele>
   </trkpt>
   <trkpt lat="-37.88608" lon="145.31701">
    <ele>247.85000000000002</ele>
   </trkpt>
   <trkpt lat="-37.88532" lon="145.3168">
    <ele>265.22</ele>
   </trkpt>
   <trkpt lat="-37.884980000000006" lon="145.31674">
    <ele>270.34000000000003</ele>
   </trkpt>
   <trkpt lat="-37.88454" lon="145.31663">
    <ele>282.86</ele>
   </trkpt>
   <trkpt lat="-37.88405" lon="145.31654">
    <ele>296.18</ele>
   </trkpt>
   <trkpt lat="-37.88338" lon="145.31629">
    <ele>309.83000000000004</ele>
   </trkpt>
   <trkpt lat="-37.883010000000006" lon="145.31627">
    <ele>319.87000000000006</ele>
   </trkpt>
   <trkpt lat="-37.88268" lon="145.31621">
    <ele>325.45</ele>
   </trkpt>
   <trkpt lat="-37.88203" lon="145.31637">
    <ele>343.28000000000003</ele>
   </trkpt>
   <trkpt lat="-37.88163" lon="145.31638">
    <ele>350.82</ele>
   </trkpt>
   <trkpt lat="-37.88111" lon="145.31625000000003">
    <ele>361.07</ele>
   </trkpt>
   <trkpt lat="-37.88085" lon="145.31625000000003">
    <ele>365.86</ele>
   </trkpt>
   <trkpt lat="-37.88067" lon="145.31623000000002">
    <ele>369.4</ele>
   </trkpt>
   <trkpt lat="-37.880230000085334" lon="145.3160849991326">
    <ele>377.33000000000004</ele>
   </trkpt>
   <trkpt lat="-37.87979" lon="145.31594">
    <ele>388.63</ele>
   </trkpt>
   <trkpt lat="-37.87964" lon="145.31593">
    <ele>393.76000000000005</ele>
   </trkpt>
   <trkpt lat="-37.87955" lon="145.31595000000002">
    <ele>393.76000000000005</ele>
   </trkpt>
   <trkpt lat="-37.87932" lon="145.31608">
    <ele>399.32</ele>
   </trkpt>
   <trkpt lat="-37.87888" lon="145.31655">
    <ele>407.11</ele>
   </trkpt>
   <trkpt lat="-37.87827" lon="145.31706">
    <ele>417.81</ele>
   </trkpt>
   <trkpt lat="-37.878330000000005" lon="145.31693">
    <ele>418.25</ele>
   </trkpt>
   <trkpt lat="-37.878330000000005" lon="145.31692">
    <ele>418.25</ele>
   </trkpt>
   <trkpt lat="-37.87836" lon="145.31685000000002">
    <ele>418.25</ele>
   </trkpt>
   <trkpt lat="-37.87875333713269" lon="145.3161766739189">
    <ele>418.57000000000005</ele>
   </trkpt>
   <trkpt lat="-37.87914667043056" lon="145.31550334064636">
    <ele>418.79</ele>
   </trkpt>
   <trkpt lat="-37.879540000000006" lon="145.31483">
    <ele>426.2900000000001</ele>
   </trkpt>
   <trkpt lat="-37.87955" lon="145.31474">
    <ele>426.2900000000001</ele>
   </trkpt>
   <trkpt lat="-37.87948" lon="145.31471000000002">
    <ele>426.8</ele>
   </trkpt>
   <trkpt lat="-37.87932" lon="145.31458">
    <ele>427.53000000000003</ele>
   </trkpt>
   <trkpt lat="-37.87924" lon="145.31446000000003">
    <ele>427.74</ele>
   </trkpt>
   <trkpt lat="-37.87915" lon="145.31446000000003">
    <ele>427.75</ele>
   </trkpt>
   <trkpt lat="-37.87885" lon="145.31461000000002">
    <ele>429.92</ele>
   </trkpt>
   <trkpt lat="-37.878600000000006" lon="145.31485">
    <ele>432.6</ele>
   </trkpt>
   <trkpt lat="-37.87829" lon="145.31506000000002">
    <ele>437.34000000000003</ele>
   </trkpt>
   <trkpt lat="-37.87791" lon="145.31546">
    <ele>442.31</ele>
   </trkpt>
   <trkpt lat="-37.87778" lon="145.31557">
    <ele>445.18</ele>
   </trkpt>
   <trkpt lat="-37.87753" lon="145.31569000000002">
    <ele>447.86</ele>
   </trkpt>
   <trkpt lat="-37.87735" lon="145.31589000000002">
    <ele>447.86</ele>
   </trkpt>
   <trkpt lat="-37.87693" lon="145.31661000000003">
    <ele>457.17</ele>
   </trkpt>
   <trkpt lat="-37.87682" lon="145.31683">
    <ele>460.70000000000005</ele>
   </trkpt>
   <trkpt lat="-37.87677" lon="145.31702">
    <ele>462.68</ele>
   </trkpt>
   <trkpt lat="-37.87677" lon="145.31701">
    <ele>462.61</ele>
   </trkpt>
   <trkpt lat="-37.87682" lon="145.31683">
    <ele>460.70000000000005</ele>
   </trkpt>
   <trkpt lat="-37.8767" lon="145.31663">
    <ele>459.38</ele>
   </trkpt>
   <trkpt lat="-37.8765" lon="145.31646">
    <ele>456.98</ele>
   </trkpt>
   <trkpt lat="-37.87635" lon="145.31637">
    <ele>455.6</ele>
   </trkpt>
   <trkpt lat="-37.87583" lon="145.31617">
    <ele>450.05000000000007</ele>
   </trkpt>
   <trkpt lat="-37.87559" lon="145.31611">
    <ele>448.92</ele>
   </trkpt>
   <trkpt lat="-37.87503" lon="145.31621">
    <ele>443.25</ele>
   </trkpt>
   <trkpt lat="-37.87478" lon="145.3162">
    <ele>439.16</ele>
   </trkpt>
   <trkpt lat="-37.87465" lon="145.31616000000002">
    <ele>439.16</ele>
   </trkpt>
   <trkpt lat="-37.87435" lon="145.31603">
    <ele>435.12000000000006</ele>
   </trkpt>
   <trkpt lat="-37.87391" lon="145.31571000000002">
    <ele>431.07</ele>
   </trkpt>
   <trkpt lat="-37.873540000000006" lon="145.31558">
    <ele>427.00000000000006</ele>
   </trkpt>
   <trkpt lat="-37.87292" lon="145.31548">
    <ele>419.92</ele>
   </trkpt>
   <trkpt lat="-37.87209" lon="145.31541">
    <ele>413.98</ele>
   </trkpt>
   <trkpt lat="-37.87164000003769" lon="145.31544000018098">
    <ele>410.21000000000004</ele>
   </trkpt>
   <trkpt lat="-37.871190000000006" lon="145.31547">
    <ele>404.29</ele>
   </trkpt>
   <trkpt lat="-37.87116" lon="145.31549">
    <ele>404.30000000000007</ele>
   </trkpt>
   <trkpt lat="-37.87127" lon="145.31574">
    <ele>409.45000000000005</ele>
   </trkpt>
   <trkpt lat="-37.87116" lon="145.31549">
    <ele>404.30000000000007</ele>
   </trkpt>
   <trkpt lat="-37.871190000000006" lon="145.31547">
    <ele>404.29</ele>
   </trkpt>
   <trkpt lat="-37.871140000000004" lon="145.31534000000002">
    <ele>402.89000000000004</ele>
   </trkpt>
   <trkpt lat="-37.871140000000004" lon="145.31535000000002">
    <ele>403.01000000000005</ele>
   </trkpt>
   <trkpt lat="-37.871190000000006" lon="145.31547">
    <ele>404.29</ele>
   </trkpt>
   <trkpt lat="-37.871" lon="145.31480000000002">
    <ele>396.26000000000005</ele>
   </trkpt>
   <trkpt lat="-37.87064" lon="145.31427000000002">
    <ele>389.1</ele>
   </trkpt>
   <trkpt lat="-37.87055" lon="145.31419000000002">
    <ele>388.40000000000003</ele>
   </trkpt>
   <trkpt lat="-37.87091000188113" lon="145.31352500322902">
    <ele>393.39</ele>
   </trkpt>
   <trkpt lat="-37.87127" lon="145.31286">
    <ele>389.27</ele>
   </trkpt>
   <trkpt lat="-37.87106" lon="145.31255000000002">
    <ele>390.41</ele>
   </trkpt>
   <trkpt lat="-37.87046" lon="145.31199">
    <ele>393.45</ele>
   </trkpt>
   <trkpt lat="-37.87021" lon="145.31183000000001">
    <ele>395.26000000000005</ele>
   </trkpt>
   <trkpt lat="-37.86994" lon="145.31179">
    <ele>397.85</ele>
   </trkpt>
   <trkpt lat="-37.86981" lon="145.31181">
    <ele>399.06</ele>
   </trkpt>
   <trkpt lat="-37.86963" lon="145.31187">
    <ele>400.68</ele>
   </trkpt>
   <trkpt lat="-37.8695" lon="145.31185000000002">
    <ele>401.36</ele>
   </trkpt>
   <trkpt lat="-37.86921" lon="145.31163">
    <ele>404.98</ele>
   </trkpt>
   <trkpt lat="-37.868840000000006" lon="145.31129">
    <ele>413.69000000000005</ele>
   </trkpt>
   <trkpt lat="-37.86871" lon="145.31121000000002">
    <ele>415.64</ele>
   </trkpt>
   <trkpt lat="-37.86847" lon="145.31113000000002">
    <ele>417.39000000000004</ele>
   </trkpt>
   <trkpt lat="-37.86836" lon="145.31107">
    <ele>417.52000000000004</ele>
   </trkpt>
   <trkpt lat="-37.86834" lon="145.31105000000002">
    <ele>417.47</ele>
   </trkpt>
   <trkpt lat="-37.86822" lon="145.31095000000002">
    <ele>416.89000000000004</ele>
   </trkpt>
   <trkpt lat="-37.86818" lon="145.31087000000002">
    <ele>416.08000000000004</ele>
   </trkpt>
   <trkpt lat="-37.86795" lon="145.3111">
    <ele>416.73</ele>
   </trkpt>
   <trkpt lat="-37.867700000000006" lon="145.3111">
    <ele>409.41</ele>
   </trkpt>
   <trkpt lat="-37.86759" lon="145.31114000000002">
    <ele>405.85</ele>
   </trkpt>
   <trkpt lat="-37.86746" lon="145.31137">
    <ele>401.76</ele>
   </trkpt>
   <trkpt lat="-37.867230000000006" lon="145.31164">
    <ele>392.78000000000003</ele>
   </trkpt>
   <trkpt lat="-37.86659" lon="145.312">
    <ele>361.2</ele>
   </trkpt>
   <trkpt lat="-37.86603" lon="145.31202000000002">
    <ele>329.8</ele>
   </trkpt>
   <trkpt lat="-37.86585" lon="145.31210000000002">
    <ele>327.16</ele>
   </trkpt>
   <trkpt lat="-37.86576" lon="145.31216">
    <ele>322.86</ele>
   </trkpt>
   <trkpt lat="-37.86569" lon="145.31225">
    <ele>319.55</ele>
   </trkpt>
   <trkpt lat="-37.86553" lon="145.31234">
    <ele>311.32000000000005</ele>
   </trkpt>
   <trkpt lat="-37.865410000000004" lon="145.31237000000002">
    <ele>306.87</ele>
   </trkpt>
   <trkpt lat="-37.86545" lon="145.3126">
    <ele>309.29</ele>
   </trkpt>
   <trkpt lat="-37.86547" lon="145.31276000000003">
    <ele>311.22</ele>
   </trkpt>
   <trkpt lat="-37.86571" lon="145.31355000000002">
    <ele>323.28000000000003</ele>
   </trkpt>
   <trkpt lat="-37.866" lon="145.31425000000002">
    <ele>327.38</ele>
   </trkpt>
   <trkpt lat="-37.86603" lon="145.31443000000002">
    <ele>329.07000000000005</ele>
   </trkpt>
   <trkpt lat="-37.86603" lon="145.31349">
    <ele>334.98</ele>
   </trkpt>
   <trkpt lat="-37.86609" lon="145.31339">
    <ele>337.98</ele>
   </trkpt>
   <trkpt lat="-37.86616" lon="145.31338000000002">
    <ele>339.35</ele>
   </trkpt>
   <trkpt lat="-37.86623" lon="145.31341">
    <ele>340.54</ele>
   </trkpt>
   <trkpt lat="-37.86634" lon="145.31354000000002">
    <ele>342.2</ele>
   </trkpt>
   <trkpt lat="-37.86654" lon="145.31367">
    <ele>344.54</ele>
   </trkpt>
   <trkpt lat="-37.8667" lon="145.31372000000002">
    <ele>345.71000000000004</ele>
   </trkpt>
   <trkpt lat="-37.86723500004538" lon="145.31378999949501">
    <ele>348.26</ele>
   </trkpt>
   <trkpt lat="-37.86777" lon="145.31386">
    <ele>354.39000000000004</ele>
   </trkpt>
   <trkpt lat="-37.86833" lon="145.31385">
    <ele>354.79</ele>
   </trkpt>
   <trkpt lat="-37.86856" lon="145.31388">
    <ele>356.23</ele>
   </trkpt>
   <trkpt lat="-37.86878" lon="145.31396">
    <ele>358.95000000000005</ele>
   </trkpt>
   <trkpt lat="-37.869020000000006" lon="145.31414">
    <ele>361.31</ele>
   </trkpt>
   <trkpt lat="-37.86972" lon="145.31458">
    <ele>374.02000000000004</ele>
   </trkpt>
   <trkpt lat="-37.86988" lon="145.31455000000003">
    <ele>376.76000000000005</ele>
   </trkpt>
   <trkpt lat="-37.86997" lon="145.31447">
    <ele>378.15000000000003</ele>
   </trkpt>
   <trkpt lat="-37.87017" lon="145.31414">
    <ele>384.1</ele>
   </trkpt>
   <trkpt lat="-37.87026" lon="145.31409000000002">
    <ele>384.77000000000004</ele>
   </trkpt>
   <trkpt lat="-37.870340000000006" lon="145.31408000000002">
    <ele>385.98</ele>
   </trkpt>
   <trkpt lat="-37.87041" lon="145.31411">
    <ele>387.51</ele>
   </trkpt>
   <trkpt lat="-37.870580000000004" lon="145.31422">
    <ele>388.65000000000003</ele>
   </trkpt>
   <trkpt lat="-37.87055" lon="145.31419000000002">
    <ele>388.40000000000003</ele>
   </trkpt>
   <trkpt lat="-37.87088500167205" lon="145.3135600028766">
    <ele>393.27</ele>
   </trkpt>
   <trkpt lat="-37.87122" lon="145.31293000000002">
    <ele>390.33</ele>
   </trkpt>
   <trkpt lat="-37.87133" lon="145.3128">
    <ele>387.35</ele>
   </trkpt>
   <trkpt lat="-37.87165" lon="145.31262">
    <ele>376.9</ele>
   </trkpt>
   <trkpt lat="-37.87174" lon="145.31253">
    <ele>376.9</ele>
   </trkpt>
   <trkpt lat="-37.87182" lon="145.31231000000002">
    <ele>369.23</ele>
   </trkpt>
   <trkpt lat="-37.87201" lon="145.31204000000002">
    <ele>360.75</ele>
   </trkpt>
   <trkpt lat="-37.871930000000006" lon="145.31158000000002">
    <ele>349.09000000000003</ele>
   </trkpt>
   <trkpt lat="-37.872" lon="145.31129">
    <ele>340.52000000000004</ele>
   </trkpt>
   <trkpt lat="-37.87205" lon="145.31123000000002">
    <ele>337.27</ele>
   </trkpt>
   <trkpt lat="-37.872130000000006" lon="145.31118">
    <ele>334.46000000000004</ele>
   </trkpt>
   <trkpt lat="-37.87236" lon="145.31108">
    <ele>326.98</ele>
   </trkpt>
   <trkpt lat="-37.8727" lon="145.31074">
    <ele>314.05000000000007</ele>
   </trkpt>
   <trkpt lat="-37.87299" lon="145.31035">
    <ele>296.06000000000006</ele>
   </trkpt>
   <trkpt lat="-37.87306" lon="145.31023000000002">
    <ele>294.68</ele>
   </trkpt>
   <trkpt lat="-37.87317" lon="145.30980000000002">
    <ele>281.69</ele>
   </trkpt>
   <trkpt lat="-37.87326" lon="145.30966">
    <ele>277.84000000000003</ele>
   </trkpt>
   <trkpt lat="-37.87353" lon="145.30943000000002">
    <ele>269.48</ele>
   </trkpt>
   <trkpt lat="-37.87357" lon="145.30935000000002">
    <ele>269.48</ele>
   </trkpt>
   <trkpt lat="-37.87369" lon="145.30894">
    <ele>257.47</ele>
   </trkpt>
   <trkpt lat="-37.87373" lon="145.30893">
    <ele>257.47</ele>
   </trkpt>
   <trkpt lat="-37.87369" lon="145.30894">
    <ele>257.88</ele>
   </trkpt>
   <trkpt lat="-37.874010000000006" lon="145.30884">
    <ele>253.63000000000002</ele>
   </trkpt>
   <trkpt lat="-37.874" lon="145.30885">
    <ele>253.63000000000002</ele>
   </trkpt>
   <trkpt lat="-37.87411" lon="145.30882000000003">
    <ele>251.88000000000005</ele>
   </trkpt>
   <trkpt lat="-37.87424" lon="145.30875">
    <ele>249.43</ele>
   </trkpt>
   <trkpt lat="-37.87458" lon="145.30846000000003">
    <ele>240.57</ele>
   </trkpt>
   <trkpt lat="-37.87473" lon="145.30829">
    <ele>234.96000000000004</ele>
   </trkpt>
   <trkpt lat="-37.87478" lon="145.3082">
    <ele>234.96000000000004</ele>
   </trkpt>
   <trkpt lat="-37.87483" lon="145.30766">
    <ele>228.15</ele>
   </trkpt>
   <trkpt lat="-37.87498" lon="145.30769">
    <ele>228.12</ele>
   </trkpt>
   <trkpt lat="-37.87525" lon="145.30781000000002">
    <ele>230.24</ele>
   </trkpt>
   <trkpt lat="-37.87541" lon="145.30777">
    <ele>232.62</ele>
   </trkpt>
   <trkpt lat="-37.87561" lon="145.30773000000002">
    <ele>235.46000000000004</ele>
   </trkpt>
   <trkpt lat="-37.87572" lon="145.30773000000002">
    <ele>237.22</ele>
   </trkpt>
   <trkpt lat="-37.87597" lon="145.30773000000002">
    <ele>239.70000000000002</ele>
   </trkpt>
   <trkpt lat="-37.876200000000004" lon="145.30781000000002">
    <ele>242.16</ele>
   </trkpt>
   <trkpt lat="-37.876855000142896" lon="145.30753500251964">
    <ele>241.62000000000003</ele>
   </trkpt>
   <trkpt lat="-37.87751" lon="145.30726">
    <ele>238.06000000000003</ele>
   </trkpt>
   <trkpt lat="-37.8778" lon="145.30725">
    <ele>237.37000000000003</ele>
   </trkpt>
   <trkpt lat="-37.87805" lon="145.30732">
    <ele>238.28</ele>
   </trkpt>
   <trkpt lat="-37.8785" lon="145.30751">
    <ele>242.41</ele>
   </trkpt>
   <trkpt lat="-37.87897" lon="145.30756000000002">
    <ele>250.32999999999998</ele>
   </trkpt>
   <trkpt lat="-37.8791" lon="145.3076">
    <ele>251.8</ele>
   </trkpt>
   <trkpt lat="-37.87955" lon="145.30796">
    <ele>255.73000000000002</ele>
   </trkpt>
   <trkpt lat="-37.87968" lon="145.30800000000002">
    <ele>254.37000000000003</ele>
   </trkpt>
   <trkpt lat="-37.87975" lon="145.30798000000001">
    <ele>253.56</ele>
   </trkpt>
   <trkpt lat="-37.87982" lon="145.30782000000002">
    <ele>253.29000000000002</ele>
   </trkpt>
   <trkpt lat="-37.87982" lon="145.30764000000002">
    <ele>253.88</ele>
   </trkpt>
   <trkpt lat="-37.8798" lon="145.3074">
    <ele>255.42000000000004</ele>
   </trkpt>
   <trkpt lat="-37.879810000000006" lon="145.30742">
    <ele>255.42000000000004</ele>
   </trkpt>
   <trkpt lat="-37.87964" lon="145.30682000000002">
    <ele>256.63</ele>
   </trkpt>
   <trkpt lat="-37.879360000000005" lon="145.30606">
    <ele>254.5</ele>
   </trkpt>
   <trkpt lat="-37.87933" lon="145.30599">
    <ele>254.32999999999998</ele>
   </trkpt>
   <trkpt lat="-37.879340000000006" lon="145.30601000000001">
    <ele>254.32999999999998</ele>
   </trkpt>
   <trkpt lat="-37.87914" lon="145.30596">
    <ele>252.37000000000003</ele>
   </trkpt>
   <trkpt lat="-37.879340000000006" lon="145.3058">
    <ele>257.5</ele>
   </trkpt>
   <trkpt lat="-37.87952000000001" lon="145.30568000000002">
    <ele>261.5</ele>
   </trkpt>
   <trkpt lat="-37.87961" lon="145.30566000000002">
    <ele>261.5</ele>
   </trkpt>
   <trkpt lat="-37.8797" lon="145.30568000000002">
    <ele>268.59</ele>
   </trkpt>
   <trkpt lat="-37.87979" lon="145.30575000000002">
    <ele>272.38</ele>
   </trkpt>
   <trkpt lat="-37.87984" lon="145.30584000000002">
    <ele>272.38</ele>
   </trkpt>
   <trkpt lat="-37.87997" lon="145.30609">
    <ele>277.45000000000005</ele>
   </trkpt>
   <trkpt lat="-37.88026" lon="145.30645">
    <ele>290.11</ele>
   </trkpt>
   <trkpt lat="-37.88084000017861" lon="145.30644999999998">
    <ele>299.23</ele>
   </trkpt>
   <trkpt lat="-37.881420000000006" lon="145.30645">
    <ele>299.77000000000004</ele>
   </trkpt>
   <trkpt lat="-37.881510000000006" lon="145.30644">
    <ele>299.05</ele>
   </trkpt>
   <trkpt lat="-37.8817" lon="145.30632">
    <ele>294.11</ele>
   </trkpt>
   <trkpt lat="-37.8819" lon="145.30623">
    <ele>289.25</ele>
   </trkpt>
   <trkpt lat="-37.88208" lon="145.30619000000002">
    <ele>287.25</ele>
   </trkpt>
   <trkpt lat="-37.88257" lon="145.30604000000002">
    <ele>280.92</ele>
   </trkpt>
   <trkpt lat="-37.88277" lon="145.30601000000001">
    <ele>282.07000000000005</ele>
   </trkpt>
   <trkpt lat="-37.88286" lon="145.30596">
    <ele>281.42</ele>
   </trkpt>
   <trkpt lat="-37.883" lon="145.30594000000002">
    <ele>281.5</ele>
   </trkpt>
   <trkpt lat="-37.883030000000005" lon="145.30606">
    <ele>279.46000000000004</ele>
   </trkpt>
   <trkpt lat="-37.88331" lon="145.30595000000002">
    <ele>274.97</ele>
   </trkpt>
   <trkpt lat="-37.88353" lon="145.30589">
    <ele>273.8</ele>
   </trkpt>
   <trkpt lat="-37.88364" lon="145.30588">
    <ele>269.3</ele>
   </trkpt>
   <trkpt lat="-37.884" lon="145.3059">
    <ele>266.20000000000005</ele>
   </trkpt>
   <trkpt lat="-37.88438" lon="145.30587">
    <ele>261.14000000000004</ele>
   </trkpt>
   <trkpt lat="-37.884640000000005" lon="145.30592000000001">
    <ele>261.81000000000006</ele>
   </trkpt>
   <trkpt lat="-37.88465" lon="145.30583000000001">
    <ele>257.95</ele>
   </trkpt>
   <trkpt lat="-37.88485" lon="145.30582">
    <ele>253.57000000000002</ele>
   </trkpt>
   <trkpt lat="-37.8853" lon="145.30574000000001">
    <ele>246.1</ele>
   </trkpt>
   <trkpt lat="-37.88582" lon="145.30547">
    <ele>238.62000000000003</ele>
   </trkpt>
   <trkpt lat="-37.885920000000006" lon="145.30540000000002">
    <ele>237.66</ele>
   </trkpt>
   <trkpt lat="-37.88624" lon="145.30501">
    <ele>223.83</ele>
   </trkpt>
   <trkpt lat="-37.88631" lon="145.30489">
    <ele>221.41000000000003</ele>
   </trkpt>
   <trkpt lat="-37.88637000000001" lon="145.30478000000002">
    <ele>218.14000000000001</ele>
   </trkpt>
   <trkpt lat="-37.88642" lon="145.30464">
    <ele>215.47000000000003</ele>
   </trkpt>
   <trkpt lat="-37.88649" lon="145.30436">
    <ele>205.13</ele>
   </trkpt>
   <trkpt lat="-37.88649" lon="145.30411">
    <ele>197.97</ele>
   </trkpt>
   <trkpt lat="-37.88662" lon="145.30408">
    <ele>197.27000000000004</ele>
   </trkpt>
   <trkpt lat="-37.88669" lon="145.30408">
    <ele>196.57000000000002</ele>
   </trkpt>
   <trkpt lat="-37.88673" lon="145.30389000000002">
    <ele>187.68</ele>
   </trkpt>
   <trkpt lat="-37.88692" lon="145.30397000000002">
    <ele>190.20000000000002</ele>
   </trkpt>
   <trkpt lat="-37.88692" lon="145.30396000000002">
    <ele>190.20000000000002</ele>
   </trkpt>
   <trkpt lat="-37.88758" lon="145.30437">
    <ele>199.59</ele>
   </trkpt>
   <trkpt lat="-37.88796" lon="145.30457">
    <ele>204.96</ele>
   </trkpt>
   <trkpt lat="-37.88801" lon="145.30462">
    <ele>207.49</ele>
   </trkpt>
   <trkpt lat="-37.88803" lon="145.30467000000002">
    <ele>207.49</ele>
   </trkpt>
   <trkpt lat="-37.8881" lon="145.30462">
    <ele>207.87000000000003</ele>
   </trkpt>
   <trkpt lat="-37.88823" lon="145.30448">
    <ele>209.01000000000002</ele>
   </trkpt>
   <trkpt lat="-37.88832" lon="145.30445">
    <ele>210.46</ele>
   </trkpt>
   <trkpt lat="-37.88837" lon="145.30448">
    <ele>210.8</ele>
   </trkpt>
   <trkpt lat="-37.8885" lon="145.30459000000002">
    <ele>211.4</ele>
   </trkpt>
   <trkpt lat="-37.8887" lon="145.30462">
    <ele>213.04</ele>
   </trkpt>
   <trkpt lat="-37.88897" lon="145.30455">
    <ele>212.68</ele>
   </trkpt>
   <trkpt lat="-37.88915" lon="145.30452000000002">
    <ele>208.69</ele>
   </trkpt>
   <trkpt lat="-37.88949" lon="145.30435">
    <ele>200.89000000000001</ele>
   </trkpt>
   <trkpt lat="-37.889540000000004" lon="145.30429">
    <ele>200.89000000000001</ele>
   </trkpt>
   <trkpt lat="-37.88955" lon="145.30424000000002">
    <ele>199.56</ele>
   </trkpt>
   <trkpt lat="-37.889480000000006" lon="145.30418">
    <ele>198.4</ele>
   </trkpt>
   <trkpt lat="-37.889500000000005" lon="145.30419">
    <ele>198.4</ele>
   </trkpt>
   <trkpt lat="-37.88922" lon="145.30404000000001">
    <ele>193.14000000000001</ele>
   </trkpt>
   <trkpt lat="-37.889070000000004" lon="145.30392">
    <ele>191.34</ele>
   </trkpt>
   <trkpt lat="-37.88922" lon="145.30396000000002">
    <ele>189.51000000000002</ele>
   </trkpt>
   <trkpt lat="-37.889860000000006" lon="145.30395000000001">
    <ele>185.84</ele>
   </trkpt>
   <trkpt lat="-37.88993" lon="145.304">
    <ele>184.41000000000003</ele>
   </trkpt>
   <trkpt lat="-37.890100000000004" lon="145.30419">
    <ele>180.38</ele>
   </trkpt>
   <trkpt lat="-37.89025" lon="145.30442000000002">
    <ele>175.95000000000002</ele>
   </trkpt>
   <trkpt lat="-37.89038" lon="145.30477000000002">
    <ele>172.32</ele>
   </trkpt>
   <trkpt lat="-37.890480000000004" lon="145.30501">
    <ele>169.59</ele>
   </trkpt>
   <trkpt lat="-37.89047" lon="145.305">
    <ele>169.59</ele>
   </trkpt>
   <trkpt lat="-37.89049" lon="145.30506000000003">
    <ele>169.59</ele>
   </trkpt>
   <trkpt lat="-37.890480000000004" lon="145.30519">
    <ele>168.02</ele>
   </trkpt>
   <trkpt lat="-37.89058" lon="145.30529">
    <ele>163.59</ele>
   </trkpt>
   <trkpt lat="-37.89079" lon="145.3058">
    <ele>157.14</ele>
   </trkpt>
   <trkpt lat="-37.890930000000004" lon="145.3069">
    <ele>151.68</ele>
   </trkpt>
   <trkpt lat="-37.890930000000004" lon="145.30689">
    <ele>151.68</ele>
   </trkpt>
   <trkpt lat="-37.89092" lon="145.30693000000002">
    <ele>151.78000000000003</ele>
   </trkpt>
   <trkpt lat="-37.89097" lon="145.30696">
    <ele>151.52</ele>
   </trkpt>
   <trkpt lat="-37.89150499980159" lon="145.30686500073236">
    <ele>144.95000000000002</ele>
   </trkpt>
   <trkpt lat="-37.89204" lon="145.30677">
    <ele>139.03</ele>
   </trkpt>
   <trkpt lat="-37.89215" lon="145.30661">
    <ele>138.31</ele>
   </trkpt>
   <trkpt lat="-37.89218" lon="145.30668">
    <ele>138.31</ele>
   </trkpt>
   <trkpt lat="-37.89222" lon="145.30681">
    <ele>138.28</ele>
   </trkpt>
   <trkpt lat="-37.89224" lon="145.30697">
    <ele>138.11</ele>
   </trkpt>
   <trkpt lat="-37.89224" lon="145.30696">
    <ele>138.11</ele>
   </trkpt>
   <trkpt lat="-37.89233" lon="145.30793">
    <ele>135.98000000000002</ele>
   </trkpt>
   <trkpt lat="-37.89249" lon="145.30880000000002">
    <ele>137.21</ele>
   </trkpt>
   <trkpt lat="-37.89256500213134" lon="145.3095099992685">
    <ele>141.13</ele>
   </trkpt>
   <trkpt lat="-37.89264" lon="145.31022000000002">
    <ele>143.77</ele>
   </trkpt>
   <trkpt lat="-37.89273" lon="145.31086000000002">
    <ele>144.14000000000001</ele>
   </trkpt>
   <trkpt lat="-37.89289" lon="145.31119">
    <ele>143.24</ele>
   </trkpt>
   <trkpt lat="-37.89289" lon="145.31148000000002">
    <ele>144.07</ele>
   </trkpt>
   <trkpt lat="-37.89285" lon="145.31178">
    <ele>146.24</ele>
   </trkpt>
   <trkpt lat="-37.8928" lon="145.31192000000001">
    <ele>147.38</ele>
   </trkpt>
   <trkpt lat="-37.89280000165223" lon="145.31254500040464">
    <ele>149.89000000000001</ele>
   </trkpt>
   <trkpt lat="-37.8928" lon="145.31317">
    <ele>150.88000000000002</ele>
   </trkpt>
   <trkpt lat="-37.892680000000006" lon="145.31344">
    <ele>154.17</ele>
   </trkpt>
   <trkpt lat="-37.892360000000004" lon="145.31427000000002">
    <ele>162.70000000000002</ele>
   </trkpt>
   <trkpt lat="-37.89202" lon="145.31486">
    <ele>167.13</ele>
   </trkpt>
   <trkpt lat="-37.89164" lon="145.31531">
    <ele>174.41</ele>
   </trkpt>
   <trkpt lat="-37.89159" lon="145.3153">
    <ele>174.41</ele>
   </trkpt>
   <trkpt lat="-37.89148" lon="145.31548">
    <ele>175.44</ele>
   </trkpt>
   <trkpt lat="-37.89108" lon="145.31604000000002">
    <ele>180.32</ele>
   </trkpt>
   <trkpt lat="-37.89072" lon="145.31638">
    <ele>188.84</ele>
   </trkpt>
   <trkpt lat="-37.8902" lon="145.31674">
    <ele>193.57000000000002</ele>
   </trkpt>
   <trkpt lat="-37.889680000000006" lon="145.31692">
    <ele>198.55</ele>
   </trkpt>
   <trkpt lat="-37.88899" lon="145.31718">
    <ele>202.64000000000001</ele>
   </trkpt>
   <trkpt lat="-37.888670000000005" lon="145.31738">
    <ele>203.85</ele>
   </trkpt>
  </trkseg>
 </trk>
</gpx>
